{"type": "FeatureCollection", "features": [{"type": "Feature", "geometry": {"type": "Polygon", "coordinates": [[[120.568, 16.388], [120.583, 16.388], [120.583, 16.403000000000002], [120.568, 16.403000000000002], [120.568, 16.388]]]}, "properties": {"gap": 0.0, "sss": 0.0, "rwi": 1.271, "pop_density": 4619.0, "sss_t": 0, "rwi_t": 1, "cls": 1, "color": "#ace4e4", "crowd_t": 1, "color_crowd": "#ace4e4"}}, {"type": "Feature", "geometry": {"type": "Polygon", "coordinates": [[[120.568, 16.373], [120.583, 16.373], [120.583, 16.388], [120.568, 16.388], [120.568, 16.373]]]}, "properties": {"gap": 0.3, "sss": 0.5, "rwi": 1.271, "pop_density": 2502.0, "sss_t": 2, "rwi_t": 1, "cls": 7, "color": "#8c62aa", "crowd_t": 6, "color_crowd": "#be64ac"}}, {"type": "Feature", "geometry": {"type": "Polygon", "coordinates": [[[120.568, 16.403000000000002], [120.583, 16.403000000000002], [120.583, 16.418000000000003], [120.568, 16.418000000000003], [120.568, 16.403000000000002]]]}, "properties": {"gap": 0.0, "sss": 0.0, "rwi": 1.736, "pop_density": 6919.0, "sss_t": 0, "rwi_t": 2, "cls": 2, "color": "#5ac8c8", "crowd_t": 1, "color_crowd": "#ace4e4"}}, {"type": "Feature", "geometry": {"type": "Polygon", "coordinates": [[[120.583, 16.388], [120.598, 16.388], [120.598, 16.403000000000002], [120.583, 16.403000000000002], [120.583, 16.388]]]}, "properties": {"gap": 0.0, "sss": 0.0, "rwi": 1.316, "pop_density": 8803.0, "sss_t": 0, "rwi_t": 1, "cls": 1, "color": "#ace4e4", "crowd_t": 1, "color_crowd": "#ace4e4"}}, {"type": "Feature", "geometry": {"type": "Polygon", "coordinates": [[[120.553, 16.388], [120.568, 16.388], [120.568, 16.403000000000002], [120.553, 16.403000000000002], [120.553, 16.388]]]}, "properties": {"gap": 1.8, "sss": 2.3, "rwi": 1.271, "pop_density": 1863.0, "sss_t": 2, "rwi_t": 1, "cls": 7, "color": "#8c62aa", "crowd_t": 6, "color_crowd": "#be64ac"}}, {"type": "Feature", "geometry": {"type": "Polygon", "coordinates": [[[120.553, 16.403000000000002], [120.568, 16.403000000000002], [120.568, 16.418000000000003], [120.553, 16.418000000000003], [120.553, 16.403000000000002]]]}, "properties": {"gap": 0.0, "sss": 0.0, "rwi": 1.736, "pop_density": 6591.0, "sss_t": 0, "rwi_t": 2, "cls": 2, "color": "#5ac8c8", "crowd_t": 1, "color_crowd": "#ace4e4"}}, {"type": "Feature", "geometry": {"type": "Polygon", "coordinates": [[[120.553, 16.373], [120.568, 16.373], [120.568, 16.388], [120.553, 16.388], [120.553, 16.373]]]}, "properties": {"gap": 0.5, "sss": 0.6, "rwi": 1.271, "pop_density": 1651.0, "sss_t": 2, "rwi_t": 1, "cls": 7, "color": "#8c62aa", "crowd_t": 6, "color_crowd": "#be64ac"}}, {"type": "Feature", "geometry": {"type": "Polygon", "coordinates": [[[120.583, 16.403000000000002], [120.598, 16.403000000000002], [120.598, 16.418000000000003], [120.583, 16.418000000000003], [120.583, 16.403000000000002]]]}, "properties": {"gap": 0.0, "sss": 0.0, "rwi": 1.727, "pop_density": 13253.0, "sss_t": 0, "rwi_t": 2, "cls": 2, "color": "#5ac8c8", "crowd_t": 2, "color_crowd": "#5ac8c8"}}, {"type": "Feature", "geometry": {"type": "Polygon", "coordinates": [[[120.598, 16.373], [120.613, 16.373], [120.613, 16.388], [120.598, 16.388], [120.598, 16.373]]]}, "properties": {"gap": 0.0, "sss": 0.0, "rwi": 1.316, "pop_density": 4395.0, "sss_t": 0, "rwi_t": 1, "cls": 1, "color": "#ace4e4", "crowd_t": 1, "color_crowd": "#ace4e4"}}, {"type": "Feature", "geometry": {"type": "Polygon", "coordinates": [[[120.598, 16.388], [120.613, 16.388], [120.613, 16.403000000000002], [120.598, 16.403000000000002], [120.598, 16.388]]]}, "properties": {"gap": 0.0, "sss": 0.0, "rwi": 1.316, "pop_density": 7319.0, "sss_t": 0, "rwi_t": 1, "cls": 1, "color": "#ace4e4", "crowd_t": 1, "color_crowd": "#ace4e4"}}, {"type": "Feature", "geometry": {"type": "Polygon", "coordinates": [[[120.583, 16.373], [120.598, 16.373], [120.598, 16.388], [120.583, 16.388], [120.583, 16.373]]]}, "properties": {"gap": 0.1, "sss": 0.1, "rwi": 1.316, "pop_density": 2001.0, "sss_t": 2, "rwi_t": 1, "cls": 7, "color": "#8c62aa", "crowd_t": 6, "color_crowd": "#be64ac"}}, {"type": "Feature", "geometry": {"type": "Polygon", "coordinates": [[[120.613, 16.373], [120.628, 16.373], [120.628, 16.388], [120.613, 16.388], [120.613, 16.373]]]}, "properties": {"gap": 0.0, "sss": 0.0, "rwi": 0.966, "pop_density": 6813.0, "sss_t": 0, "rwi_t": 0, "cls": 0, "color": "#e8e8e8", "crowd_t": 1, "color_crowd": "#ace4e4"}}, {"type": "Feature", "geometry": {"type": "Polygon", "coordinates": [[[120.598, 16.403000000000002], [120.613, 16.403000000000002], [120.613, 16.418000000000003], [120.598, 16.418000000000003], [120.598, 16.403000000000002]]]}, "properties": {"gap": 0.0, "sss": 0.0, "rwi": 1.727, "pop_density": 9090.0, "sss_t": 0, "rwi_t": 2, "cls": 2, "color": "#5ac8c8", "crowd_t": 1, "color_crowd": "#ace4e4"}}, {"type": "Feature", "geometry": {"type": "Polygon", "coordinates": [[[120.613, 16.388], [120.628, 16.388], [120.628, 16.403000000000002], [120.613, 16.403000000000002], [120.613, 16.388]]]}, "properties": {"gap": 0.0, "sss": 0.0, "rwi": 0.966, "pop_density": 477.0, "sss_t": 0, "rwi_t": 0, "cls": 0, "color": "#e8e8e8", "crowd_t": 0, "color_crowd": "#e8e8e8"}}, {"type": "Feature", "geometry": {"type": "Polygon", "coordinates": [[[120.613, 16.403000000000002], [120.628, 16.403000000000002], [120.628, 16.418000000000003], [120.613, 16.418000000000003], [120.613, 16.403000000000002]]]}, "properties": {"gap": 0.0, "sss": 0.0, "rwi": 1.144, "pop_density": 3155.0, "sss_t": 0, "rwi_t": 1, "cls": 1, "color": "#ace4e4", "crowd_t": 0, "color_crowd": "#e8e8e8"}}, {"type": "Feature", "geometry": {"type": "Polygon", "coordinates": [[[120.628, 16.373], [120.643, 16.373], [120.643, 16.388], [120.628, 16.388], [120.628, 16.373]]]}, "properties": {"gap": 0.0, "sss": 0.0, "rwi": 0.288, "pop_density": 5906.0, "sss_t": 0, "rwi_t": 0, "cls": 0, "color": "#e8e8e8", "crowd_t": 1, "color_crowd": "#ace4e4"}}, {"type": "Feature", "geometry": {"type": "Polygon", "coordinates": [[[120.628, 16.403000000000002], [120.643, 16.403000000000002], [120.643, 16.418000000000003], [120.628, 16.418000000000003], [120.628, 16.403000000000002]]]}, "properties": {"gap": 0.2, "sss": 0.4, "rwi": 0.572, "pop_density": 6405.0, "sss_t": 2, "rwi_t": 0, "cls": 6, "color": "#be64ac", "crowd_t": 7, "color_crowd": "#8c62aa"}}, {"type": "Feature", "geometry": {"type": "Polygon", "coordinates": [[[120.628, 16.388], [120.643, 16.388], [120.643, 16.403000000000002], [120.628, 16.403000000000002], [120.628, 16.388]]]}, "properties": {"gap": 0.0, "sss": 0.0, "rwi": 0.288, "pop_density": 0.0, "sss_t": 0, "rwi_t": 0, "cls": 0, "color": "#e8e8e8", "crowd_t": 0, "color_crowd": "#e8e8e8"}}, {"type": "Feature", "geometry": {"type": "Polygon", "coordinates": [[[120.568, 16.418000000000003], [120.583, 16.418000000000003], [120.583, 16.433000000000003], [120.568, 16.433000000000003], [120.568, 16.418000000000003]]]}, "properties": {"gap": 0.0, "sss": 0.0, "rwi": 1.736, "pop_density": 16164.0, "sss_t": 0, "rwi_t": 2, "cls": 2, "color": "#5ac8c8", "crowd_t": 2, "color_crowd": "#5ac8c8"}}, {"type": "Feature", "geometry": {"type": "Polygon", "coordinates": [[[120.583, 16.418000000000003], [120.598, 16.418000000000003], [120.598, 16.433000000000003], [120.583, 16.433000000000003], [120.583, 16.418000000000003]]]}, "properties": {"gap": 0.0, "sss": 0.0, "rwi": 1.727, "pop_density": 16729.0, "sss_t": 2, "rwi_t": 2, "cls": 8, "color": "#3b4994", "crowd_t": 8, "color_crowd": "#3b4994"}}, {"type": "Feature", "geometry": {"type": "Polygon", "coordinates": [[[120.553, 16.418000000000003], [120.568, 16.418000000000003], [120.568, 16.433000000000003], [120.553, 16.433000000000003], [120.553, 16.418000000000003]]]}, "properties": {"gap": 0.0, "sss": 0.0, "rwi": 1.736, "pop_density": 5452.0, "sss_t": 0, "rwi_t": 2, "cls": 2, "color": "#5ac8c8", "crowd_t": 1, "color_crowd": "#ace4e4"}}, {"type": "Feature", "geometry": {"type": "Polygon", "coordinates": [[[120.553, 16.433], [120.568, 16.433], [120.568, 16.448], [120.553, 16.448], [120.553, 16.433]]]}, "properties": {"gap": 0.0, "sss": 0.0, "rwi": 1.009, "pop_density": 1310.0, "sss_t": 0, "rwi_t": 0, "cls": 0, "color": "#e8e8e8", "crowd_t": 0, "color_crowd": "#e8e8e8"}}, {"type": "Feature", "geometry": {"type": "Polygon", "coordinates": [[[120.568, 16.433], [120.583, 16.433], [120.583, 16.448], [120.568, 16.448], [120.568, 16.433]]]}, "properties": {"gap": 0.3, "sss": 0.6, "rwi": 1.009, "pop_density": 14169.0, "sss_t": 2, "rwi_t": 0, "cls": 6, "color": "#be64ac", "crowd_t": 8, "color_crowd": "#3b4994"}}, {"type": "Feature", "geometry": {"type": "Polygon", "coordinates": [[[120.598, 16.418000000000003], [120.613, 16.418000000000003], [120.613, 16.433000000000003], [120.598, 16.433000000000003], [120.598, 16.418000000000003]]]}, "properties": {"gap": 0.0, "sss": 0.0, "rwi": 1.727, "pop_density": 17362.0, "sss_t": 0, "rwi_t": 2, "cls": 2, "color": "#5ac8c8", "crowd_t": 2, "color_crowd": "#5ac8c8"}}, {"type": "Feature", "geometry": {"type": "Polygon", "coordinates": [[[120.613, 16.418000000000003], [120.628, 16.418000000000003], [120.628, 16.433000000000003], [120.613, 16.433000000000003], [120.613, 16.418000000000003]]]}, "properties": {"gap": 0.0, "sss": 0.0, "rwi": 1.144, "pop_density": 10229.0, "sss_t": 0, "rwi_t": 1, "cls": 1, "color": "#ace4e4", "crowd_t": 2, "color_crowd": "#5ac8c8"}}, {"type": "Feature", "geometry": {"type": "Polygon", "coordinates": [[[120.598, 16.433], [120.613, 16.433], [120.613, 16.448], [120.598, 16.448], [120.598, 16.433]]]}, "properties": {"gap": 0.0, "sss": 0.0, "rwi": 1.5, "pop_density": 14616.0, "sss_t": 0, "rwi_t": 2, "cls": 2, "color": "#5ac8c8", "crowd_t": 2, "color_crowd": "#5ac8c8"}}, {"type": "Feature", "geometry": {"type": "Polygon", "coordinates": [[[120.688, 16.403000000000002], [120.703, 16.403000000000002], [120.703, 16.418000000000003], [120.688, 16.418000000000003], [120.688, 16.403000000000002]]]}, "properties": {"gap": 0.0, "sss": 0.0, "rwi": 0.572, "pop_density": 0.0, "sss_t": 0, "rwi_t": 0, "cls": 0, "color": "#e8e8e8", "crowd_t": 0, "color_crowd": "#e8e8e8"}}, {"type": "Feature", "geometry": {"type": "Polygon", "coordinates": [[[120.613, 16.433], [120.628, 16.433], [120.628, 16.448], [120.613, 16.448], [120.613, 16.433]]]}, "properties": {"gap": 0.0, "sss": 0.0, "rwi": 0.889, "pop_density": 350.0, "sss_t": 0, "rwi_t": 0, "cls": 0, "color": "#e8e8e8", "crowd_t": 0, "color_crowd": "#e8e8e8"}}, {"type": "Feature", "geometry": {"type": "Polygon", "coordinates": [[[120.628, 16.418000000000003], [120.643, 16.418000000000003], [120.643, 16.433000000000003], [120.628, 16.433000000000003], [120.628, 16.418000000000003]]]}, "properties": {"gap": 0.0, "sss": 0.0, "rwi": 0.572, "pop_density": 1331.0, "sss_t": 0, "rwi_t": 0, "cls": 0, "color": "#e8e8e8", "crowd_t": 0, "color_crowd": "#e8e8e8"}}, {"type": "Feature", "geometry": {"type": "Polygon", "coordinates": [[[120.628, 16.433], [120.643, 16.433], [120.643, 16.448], [120.628, 16.448], [120.628, 16.433]]]}, "properties": {"gap": 0.0, "sss": 0.0, "rwi": 0.681, "pop_density": 12764.0, "sss_t": 0, "rwi_t": 0, "cls": 0, "color": "#e8e8e8", "crowd_t": 2, "color_crowd": "#5ac8c8"}}, {"type": "Feature", "geometry": {"type": "Polygon", "coordinates": [[[120.568, 16.448], [120.583, 16.448], [120.583, 16.463], [120.568, 16.463], [120.568, 16.448]]]}, "properties": {"gap": 0.0, "sss": 0.0, "rwi": 1.426, "pop_density": 10668.0, "sss_t": 0, "rwi_t": 2, "cls": 2, "color": "#5ac8c8", "crowd_t": 2, "color_crowd": "#5ac8c8"}}, {"type": "Feature", "geometry": {"type": "Polygon", "coordinates": [[[120.583, 16.448], [120.598, 16.448], [120.598, 16.463], [120.583, 16.463], [120.583, 16.448]]]}, "properties": {"gap": 1.1, "sss": 2.4, "rwi": 1.243, "pop_density": 19582.0, "sss_t": 2, "rwi_t": 1, "cls": 7, "color": "#8c62aa", "crowd_t": 8, "color_crowd": "#3b4994"}}, {"type": "Feature", "geometry": {"type": "Polygon", "coordinates": [[[120.553, 16.448], [120.568, 16.448], [120.568, 16.463], [120.553, 16.463], [120.553, 16.448]]]}, "properties": {"gap": 0.0, "sss": 0.0, "rwi": 1.426, "pop_density": 3372.0, "sss_t": 0, "rwi_t": 2, "cls": 2, "color": "#5ac8c8", "crowd_t": 1, "color_crowd": "#ace4e4"}}, {"type": "Feature", "geometry": {"type": "Polygon", "coordinates": [[[120.583, 16.433], [120.598, 16.433], [120.598, 16.448], [120.583, 16.448], [120.583, 16.433]]]}, "properties": {"gap": 2.4, "sss": 5.2, "rwi": 1.5, "pop_density": 18824.0, "sss_t": 2, "rwi_t": 2, "cls": 8, "color": "#3b4994", "crowd_t": 8, "color_crowd": "#3b4994"}}, {"type": "Feature", "geometry": {"type": "Polygon", "coordinates": [[[120.598, 16.448], [120.613, 16.448], [120.613, 16.463], [120.598, 16.463], [120.598, 16.448]]]}, "properties": {"gap": 0.0, "sss": 0.0, "rwi": 1.243, "pop_density": 9206.0, "sss_t": 0, "rwi_t": 1, "cls": 1, "color": "#ace4e4", "crowd_t": 2, "color_crowd": "#5ac8c8"}}, {"type": "Feature", "geometry": {"type": "Polygon", "coordinates": [[[120.583, 16.463], [120.598, 16.463], [120.598, 16.478], [120.583, 16.478], [120.583, 16.463]]]}, "properties": {"gap": 0.0, "sss": 0.0, "rwi": 1.243, "pop_density": 11615.0, "sss_t": 0, "rwi_t": 1, "cls": 1, "color": "#ace4e4", "crowd_t": 2, "color_crowd": "#5ac8c8"}}, {"type": "Feature", "geometry": {"type": "Polygon", "coordinates": [[[120.613, 16.448], [120.628, 16.448], [120.628, 16.463], [120.613, 16.463], [120.613, 16.448]]]}, "properties": {"gap": 0.0, "sss": 0.0, "rwi": 0.746, "pop_density": 1753.0, "sss_t": 0, "rwi_t": 0, "cls": 0, "color": "#e8e8e8", "crowd_t": 0, "color_crowd": "#e8e8e8"}}, {"type": "Feature", "geometry": {"type": "Polygon", "coordinates": [[[120.613, 16.463], [120.628, 16.463], [120.628, 16.478], [120.613, 16.478], [120.613, 16.463]]]}, "properties": {"gap": 0.0, "sss": 0.0, "rwi": 0.746, "pop_density": 815.0, "sss_t": 0, "rwi_t": 0, "cls": 0, "color": "#e8e8e8", "crowd_t": 0, "color_crowd": "#e8e8e8"}}]}