{"type": "FeatureCollection", "features": [{"type": "Feature", "geometry": {"type": "Polygon", "coordinates": [[[125.7745, 7.3921], [125.7895, 7.3921], [125.7895, 7.4071], [125.7745, 7.4071], [125.7745, 7.3921]]]}, "properties": {"gap": 30.0, "sss": 48.0, "rwi": 0.696, "pop_density": 9022.0, "sss_t": 1, "rwi_t": 1, "cls": 4, "color": "#a5add3", "crowd_t": 5, "color_crowd": "#5698b9"}}, {"type": "Feature", "geometry": {"type": "Polygon", "coordinates": [[[125.7595, 7.3921], [125.7745, 7.3921], [125.7745, 7.4071], [125.7595, 7.4071], [125.7595, 7.3921]]]}, "properties": {"gap": 28.6, "sss": 33.8, "rwi": -0.039, "pop_density": 586.0, "sss_t": 1, "rwi_t": 0, "cls": 3, "color": "#dfb0d6", "crowd_t": 4, "color_crowd": "#a5add3"}}, {"type": "Feature", "geometry": {"type": "Polygon", "coordinates": [[[125.7595, 7.4071], [125.7745, 7.4071], [125.7745, 7.4220999999999995], [125.7595, 7.4220999999999995], [125.7595, 7.4071]]]}, "properties": {"gap": 13.1, "sss": 18.0, "rwi": 0.264, "pop_density": 1427.0, "sss_t": 1, "rwi_t": 0, "cls": 3, "color": "#dfb0d6", "crowd_t": 4, "color_crowd": "#a5add3"}}, {"type": "Feature", "geometry": {"type": "Polygon", "coordinates": [[[125.7745, 7.4071], [125.7895, 7.4071], [125.7895, 7.4220999999999995], [125.7745, 7.4220999999999995], [125.7745, 7.4071]]]}, "properties": {"gap": 6.1, "sss": 8.8, "rwi": 0.727, "pop_density": 3786.0, "sss_t": 1, "rwi_t": 1, "cls": 4, "color": "#a5add3", "crowd_t": 4, "color_crowd": "#a5add3"}}, {"type": "Feature", "geometry": {"type": "Polygon", "coordinates": [[[125.7745, 7.4221], [125.7895, 7.4221], [125.7895, 7.4371], [125.7745, 7.4371], [125.7745, 7.4221]]]}, "properties": {"gap": 4.1, "sss": 5.1, "rwi": 0.924, "pop_density": 330.0, "sss_t": 0, "rwi_t": 1, "cls": 1, "color": "#ace4e4", "crowd_t": 0, "color_crowd": "#e8e8e8"}}, {"type": "Feature", "geometry": {"type": "Polygon", "coordinates": [[[125.7595, 7.4221], [125.7745, 7.4221], [125.7745, 7.4371], [125.7595, 7.4371], [125.7595, 7.4221]]]}, "properties": {"gap": 17.9, "sss": 22.5, "rwi": 0.25, "pop_density": 237.0, "sss_t": 1, "rwi_t": 0, "cls": 3, "color": "#dfb0d6", "crowd_t": 3, "color_crowd": "#dfb0d6"}}, {"type": "Feature", "geometry": {"type": "Polygon", "coordinates": [[[125.7895, 7.4071], [125.8045, 7.4071], [125.8045, 7.4220999999999995], [125.7895, 7.4220999999999995], [125.7895, 7.4071]]]}, "properties": {"gap": 0.0, "sss": 0.0, "rwi": 1.419, "pop_density": 3514.0, "sss_t": 0, "rwi_t": 2, "cls": 2, "color": "#5ac8c8", "crowd_t": 1, "color_crowd": "#ace4e4"}}, {"type": "Feature", "geometry": {"type": "Polygon", "coordinates": [[[125.7895, 7.4221], [125.8045, 7.4221], [125.8045, 7.4371], [125.7895, 7.4371], [125.7895, 7.4221]]]}, "properties": {"gap": 1.9, "sss": 3.0, "rwi": 1.462, "pop_density": 12478.0, "sss_t": 0, "rwi_t": 2, "cls": 2, "color": "#5ac8c8", "crowd_t": 2, "color_crowd": "#5ac8c8"}}, {"type": "Feature", "geometry": {"type": "Polygon", "coordinates": [[[125.8045, 7.4221], [125.8195, 7.4221], [125.8195, 7.4371], [125.8045, 7.4371], [125.8045, 7.4221]]]}, "properties": {"gap": 0.6, "sss": 0.7, "rwi": 1.462, "pop_density": 5410.0, "sss_t": 0, "rwi_t": 2, "cls": 2, "color": "#5ac8c8", "crowd_t": 2, "color_crowd": "#5ac8c8"}}, {"type": "Feature", "geometry": {"type": "Polygon", "coordinates": [[[125.8045, 7.4071], [125.8195, 7.4071], [125.8195, 7.4220999999999995], [125.8045, 7.4220999999999995], [125.8045, 7.4071]]]}, "properties": {"gap": 0.0, "sss": 0.0, "rwi": 1.419, "pop_density": 161.0, "sss_t": 0, "rwi_t": 2, "cls": 2, "color": "#5ac8c8", "crowd_t": 0, "color_crowd": "#e8e8e8"}}, {"type": "Feature", "geometry": {"type": "Polygon", "coordinates": [[[125.8195, 7.4221], [125.8345, 7.4221], [125.8345, 7.4371], [125.8195, 7.4371], [125.8195, 7.4221]]]}, "properties": {"gap": 0.0, "sss": 0.0, "rwi": 1.258, "pop_density": 11661.0, "sss_t": 0, "rwi_t": 2, "cls": 2, "color": "#5ac8c8", "crowd_t": 2, "color_crowd": "#5ac8c8"}}, {"type": "Feature", "geometry": {"type": "Polygon", "coordinates": [[[125.8345, 7.3921], [125.8495, 7.3921], [125.8495, 7.4071], [125.8345, 7.4071], [125.8345, 7.3921]]]}, "properties": {"gap": 24.0, "sss": 30.0, "rwi": 0.869, "pop_density": 0.0, "sss_t": 1, "rwi_t": 1, "cls": 4, "color": "#a5add3", "crowd_t": 3, "color_crowd": "#dfb0d6"}}, {"type": "Feature", "geometry": {"type": "Polygon", "coordinates": [[[125.8495, 7.4071], [125.8645, 7.4071], [125.8645, 7.4220999999999995], [125.8495, 7.4220999999999995], [125.8495, 7.4071]]]}, "properties": {"gap": 17.9, "sss": 23.0, "rwi": -0.107, "pop_density": 651.0, "sss_t": 1, "rwi_t": 0, "cls": 3, "color": "#dfb0d6", "crowd_t": 4, "color_crowd": "#a5add3"}}, {"type": "Feature", "geometry": {"type": "Polygon", "coordinates": [[[125.8495, 7.3921], [125.8645, 7.3921], [125.8645, 7.4071], [125.8495, 7.4071], [125.8495, 7.3921]]]}, "properties": {"gap": 30.0, "sss": 40.2, "rwi": 0.869, "pop_density": 2308.0, "sss_t": 1, "rwi_t": 1, "cls": 4, "color": "#a5add3", "crowd_t": 4, "color_crowd": "#a5add3"}}, {"type": "Feature", "geometry": {"type": "Polygon", "coordinates": [[[125.8195, 7.3921], [125.8345, 7.3921], [125.8345, 7.4071], [125.8195, 7.4071], [125.8195, 7.3921]]]}, "properties": {"gap": 30.0, "sss": 39.3, "rwi": 0.039, "pop_density": 1549.0, "sss_t": 1, "rwi_t": 0, "cls": 3, "color": "#dfb0d6", "crowd_t": 4, "color_crowd": "#a5add3"}}, {"type": "Feature", "geometry": {"type": "Polygon", "coordinates": [[[125.8495, 7.4221], [125.8645, 7.4221], [125.8645, 7.4371], [125.8495, 7.4371], [125.8495, 7.4221]]]}, "properties": {"gap": 30.0, "sss": 47.0, "rwi": -0.228, "pop_density": 5070.0, "sss_t": 1, "rwi_t": 0, "cls": 3, "color": "#dfb0d6", "crowd_t": 4, "color_crowd": "#a5add3"}}, {"type": "Feature", "geometry": {"type": "Polygon", "coordinates": [[[125.8195, 7.4071], [125.8345, 7.4071], [125.8345, 7.4220999999999995], [125.8195, 7.4220999999999995], [125.8195, 7.4071]]]}, "properties": {"gap": 0.0, "sss": 0.0, "rwi": 1.579, "pop_density": 6271.0, "sss_t": 0, "rwi_t": 2, "cls": 2, "color": "#5ac8c8", "crowd_t": 2, "color_crowd": "#5ac8c8"}}, {"type": "Feature", "geometry": {"type": "Polygon", "coordinates": [[[125.8345, 7.4071], [125.8495, 7.4071], [125.8495, 7.4220999999999995], [125.8345, 7.4220999999999995], [125.8345, 7.4071]]]}, "properties": {"gap": 8.8, "sss": 12.6, "rwi": -0.107, "pop_density": 4833.0, "sss_t": 1, "rwi_t": 0, "cls": 3, "color": "#dfb0d6", "crowd_t": 4, "color_crowd": "#a5add3"}}, {"type": "Feature", "geometry": {"type": "Polygon", "coordinates": [[[125.7595, 7.4371], [125.7745, 7.4371], [125.7745, 7.4521], [125.7595, 7.4521], [125.7595, 7.4371]]]}, "properties": {"gap": 15.0, "sss": 18.7, "rwi": 0.25, "pop_density": 1294.0, "sss_t": 1, "rwi_t": 0, "cls": 3, "color": "#dfb0d6", "crowd_t": 4, "color_crowd": "#a5add3"}}, {"type": "Feature", "geometry": {"type": "Polygon", "coordinates": [[[125.7895, 7.4371], [125.8045, 7.4371], [125.8045, 7.4521], [125.7895, 7.4521], [125.7895, 7.4371]]]}, "properties": {"gap": 0.0, "sss": 0.0, "rwi": 1.462, "pop_density": 9775.0, "sss_t": 0, "rwi_t": 2, "cls": 2, "color": "#5ac8c8", "crowd_t": 2, "color_crowd": "#5ac8c8"}}, {"type": "Feature", "geometry": {"type": "Polygon", "coordinates": [[[125.7595, 7.4521], [125.7745, 7.4521], [125.7745, 7.467099999999999], [125.7595, 7.467099999999999], [125.7595, 7.4521]]]}, "properties": {"gap": 30.0, "sss": 37.9, "rwi": 0.147, "pop_density": 337.0, "sss_t": 1, "rwi_t": 0, "cls": 3, "color": "#dfb0d6", "crowd_t": 3, "color_crowd": "#dfb0d6"}}, {"type": "Feature", "geometry": {"type": "Polygon", "coordinates": [[[125.7745, 7.4371], [125.7895, 7.4371], [125.7895, 7.4521], [125.7745, 7.4521], [125.7745, 7.4371]]]}, "properties": {"gap": 0.0, "sss": 0.0, "rwi": 0.924, "pop_density": 10351.0, "sss_t": 0, "rwi_t": 1, "cls": 1, "color": "#ace4e4", "crowd_t": 2, "color_crowd": "#5ac8c8"}}, {"type": "Feature", "geometry": {"type": "Polygon", "coordinates": [[[125.7895, 7.4521], [125.8045, 7.4521], [125.8045, 7.467099999999999], [125.7895, 7.467099999999999], [125.7895, 7.4521]]]}, "properties": {"gap": 5.2, "sss": 10.3, "rwi": 1.321, "pop_density": 14502.0, "sss_t": 1, "rwi_t": 2, "cls": 5, "color": "#5698b9", "crowd_t": 5, "color_crowd": "#5698b9"}}, {"type": "Feature", "geometry": {"type": "Polygon", "coordinates": [[[125.7745, 7.4521], [125.7895, 7.4521], [125.7895, 7.467099999999999], [125.7745, 7.467099999999999], [125.7745, 7.4521]]]}, "properties": {"gap": 0.0, "sss": 0.0, "rwi": 1.15, "pop_density": 13381.0, "sss_t": 0, "rwi_t": 2, "cls": 2, "color": "#5ac8c8", "crowd_t": 2, "color_crowd": "#5ac8c8"}}, {"type": "Feature", "geometry": {"type": "Polygon", "coordinates": [[[125.8045, 7.4521], [125.8195, 7.4521], [125.8195, 7.467099999999999], [125.8045, 7.467099999999999], [125.8045, 7.4521]]]}, "properties": {"gap": 2.2, "sss": 4.0, "rwi": 1.321, "pop_density": 10185.0, "sss_t": 0, "rwi_t": 2, "cls": 2, "color": "#5ac8c8", "crowd_t": 2, "color_crowd": "#5ac8c8"}}, {"type": "Feature", "geometry": {"type": "Polygon", "coordinates": [[[125.8195, 7.4521], [125.8345, 7.4521], [125.8345, 7.467099999999999], [125.8195, 7.467099999999999], [125.8195, 7.4521]]]}, "properties": {"gap": 0.0, "sss": 0.0, "rwi": 0.981, "pop_density": 14243.0, "sss_t": 0, "rwi_t": 1, "cls": 1, "color": "#ace4e4", "crowd_t": 2, "color_crowd": "#5ac8c8"}}, {"type": "Feature", "geometry": {"type": "Polygon", "coordinates": [[[125.8195, 7.4371], [125.8345, 7.4371], [125.8345, 7.4521], [125.8195, 7.4521], [125.8195, 7.4371]]]}, "properties": {"gap": 0.0, "sss": 0.0, "rwi": 1.258, "pop_density": 6869.0, "sss_t": 0, "rwi_t": 2, "cls": 2, "color": "#5ac8c8", "crowd_t": 2, "color_crowd": "#5ac8c8"}}, {"type": "Feature", "geometry": {"type": "Polygon", "coordinates": [[[125.8045, 7.4371], [125.8195, 7.4371], [125.8195, 7.4521], [125.8045, 7.4521], [125.8045, 7.4371]]]}, "properties": {"gap": 0.8, "sss": 1.5, "rwi": 1.462, "pop_density": 10304.0, "sss_t": 0, "rwi_t": 2, "cls": 2, "color": "#5ac8c8", "crowd_t": 2, "color_crowd": "#5ac8c8"}}, {"type": "Feature", "geometry": {"type": "Polygon", "coordinates": [[[125.7895, 7.4671], [125.8045, 7.4671], [125.8045, 7.4821], [125.7895, 7.4821], [125.7895, 7.4671]]]}, "properties": {"gap": 17.6, "sss": 23.1, "rwi": 0.775, "pop_density": 4836.0, "sss_t": 1, "rwi_t": 1, "cls": 4, "color": "#a5add3", "crowd_t": 4, "color_crowd": "#a5add3"}}, {"type": "Feature", "geometry": {"type": "Polygon", "coordinates": [[[125.8495, 7.4521], [125.8645, 7.4521], [125.8645, 7.467099999999999], [125.8495, 7.467099999999999], [125.8495, 7.4521]]]}, "properties": {"gap": 30.0, "sss": 40.3, "rwi": 0.048, "pop_density": 2412.0, "sss_t": 2, "rwi_t": 0, "cls": 6, "color": "#be64ac", "crowd_t": 7, "color_crowd": "#8c62aa"}}, {"type": "Feature", "geometry": {"type": "Polygon", "coordinates": [[[125.89450000000001, 7.4671], [125.90950000000001, 7.4671], [125.90950000000001, 7.4821], [125.89450000000001, 7.4821], [125.89450000000001, 7.4671]]]}, "properties": {"gap": 30.0, "sss": 37.5, "rwi": 1.01, "pop_density": 0.0, "sss_t": 1, "rwi_t": 1, "cls": 4, "color": "#a5add3", "crowd_t": 3, "color_crowd": "#dfb0d6"}}, {"type": "Feature", "geometry": {"type": "Polygon", "coordinates": [[[125.8495, 7.4371], [125.8645, 7.4371], [125.8645, 7.4521], [125.8495, 7.4521], [125.8495, 7.4371]]]}, "properties": {"gap": 30.0, "sss": 37.5, "rwi": -0.228, "pop_density": 0.0, "sss_t": 1, "rwi_t": 0, "cls": 3, "color": "#dfb0d6", "crowd_t": 3, "color_crowd": "#dfb0d6"}}, {"type": "Feature", "geometry": {"type": "Polygon", "coordinates": [[[125.8345, 7.4521], [125.8495, 7.4521], [125.8495, 7.467099999999999], [125.8345, 7.467099999999999], [125.8345, 7.4521]]]}, "properties": {"gap": 30.0, "sss": 37.5, "rwi": 0.048, "pop_density": 0.0, "sss_t": 1, "rwi_t": 0, "cls": 3, "color": "#dfb0d6", "crowd_t": 3, "color_crowd": "#dfb0d6"}}, {"type": "Feature", "geometry": {"type": "Polygon", "coordinates": [[[125.8345, 7.4371], [125.8495, 7.4371], [125.8495, 7.4521], [125.8345, 7.4521], [125.8345, 7.4371]]]}, "properties": {"gap": 30.0, "sss": 37.5, "rwi": -0.228, "pop_density": 18.0, "sss_t": 2, "rwi_t": 0, "cls": 6, "color": "#be64ac", "crowd_t": 6, "color_crowd": "#be64ac"}}, {"type": "Feature", "geometry": {"type": "Polygon", "coordinates": [[[125.7595, 7.4821], [125.7745, 7.4821], [125.7745, 7.4971], [125.7595, 7.4971], [125.7595, 7.4821]]]}, "properties": {"gap": 30.0, "sss": 37.7, "rwi": -0.01, "pop_density": 175.0, "sss_t": 1, "rwi_t": 0, "cls": 3, "color": "#dfb0d6", "crowd_t": 3, "color_crowd": "#dfb0d6"}}, {"type": "Feature", "geometry": {"type": "Polygon", "coordinates": [[[125.8195, 7.4821], [125.8345, 7.4821], [125.8345, 7.4971], [125.8195, 7.4971], [125.8195, 7.4821]]]}, "properties": {"gap": 30.0, "sss": 45.4, "rwi": -0.029, "pop_density": 464.0, "sss_t": 1, "rwi_t": 0, "cls": 3, "color": "#dfb0d6", "crowd_t": 3, "color_crowd": "#dfb0d6"}}, {"type": "Feature", "geometry": {"type": "Polygon", "coordinates": [[[125.7895, 7.4971000000000005], [125.8045, 7.4971000000000005], [125.8045, 7.5121], [125.7895, 7.5121], [125.7895, 7.4971000000000005]]]}, "properties": {"gap": 30.0, "sss": 44.7, "rwi": 0.775, "pop_density": 6210.0, "sss_t": 1, "rwi_t": 1, "cls": 4, "color": "#a5add3", "crowd_t": 5, "color_crowd": "#5698b9"}}, {"type": "Feature", "geometry": {"type": "Polygon", "coordinates": [[[125.8045, 7.4671], [125.8195, 7.4671], [125.8195, 7.4821], [125.8045, 7.4821], [125.8045, 7.4671]]]}, "properties": {"gap": 0.0, "sss": 0.0, "rwi": 0.775, "pop_density": 14176.0, "sss_t": 0, "rwi_t": 1, "cls": 1, "color": "#ace4e4", "crowd_t": 2, "color_crowd": "#5ac8c8"}}, {"type": "Feature", "geometry": {"type": "Polygon", "coordinates": [[[125.8045, 7.4821], [125.8195, 7.4821], [125.8195, 7.4971], [125.8045, 7.4971], [125.8045, 7.4821]]]}, "properties": {"gap": 16.6, "sss": 22.8, "rwi": 0.775, "pop_density": 4200.0, "sss_t": 1, "rwi_t": 1, "cls": 4, "color": "#a5add3", "crowd_t": 4, "color_crowd": "#a5add3"}}, {"type": "Feature", "geometry": {"type": "Polygon", "coordinates": [[[125.7895, 7.4821], [125.8045, 7.4821], [125.8045, 7.4971], [125.7895, 7.4971], [125.7895, 7.4821]]]}, "properties": {"gap": 30.0, "sss": 43.5, "rwi": 0.775, "pop_density": 5208.0, "sss_t": 1, "rwi_t": 1, "cls": 4, "color": "#a5add3", "crowd_t": 4, "color_crowd": "#a5add3"}}, {"type": "Feature", "geometry": {"type": "Polygon", "coordinates": [[[125.8645, 7.4671], [125.87950000000001, 7.4671], [125.87950000000001, 7.4821], [125.8645, 7.4821], [125.8645, 7.4671]]]}, "properties": {"gap": 30.0, "sss": 37.5, "rwi": 1.01, "pop_density": 0.0, "sss_t": 1, "rwi_t": 1, "cls": 4, "color": "#a5add3", "crowd_t": 3, "color_crowd": "#dfb0d6"}}, {"type": "Feature", "geometry": {"type": "Polygon", "coordinates": [[[125.8345, 7.4971000000000005], [125.8495, 7.4971000000000005], [125.8495, 7.5121], [125.8345, 7.5121], [125.8345, 7.4971000000000005]]]}, "properties": {"gap": 30.0, "sss": 37.5, "rwi": 1.01, "pop_density": 0.0, "sss_t": 1, "rwi_t": 1, "cls": 4, "color": "#a5add3", "crowd_t": 3, "color_crowd": "#dfb0d6"}}, {"type": "Feature", "geometry": {"type": "Polygon", "coordinates": [[[125.8345, 7.4821], [125.8495, 7.4821], [125.8495, 7.4971], [125.8345, 7.4971], [125.8345, 7.4821]]]}, "properties": {"gap": 30.0, "sss": 37.5, "rwi": 1.01, "pop_density": 0.0, "sss_t": 1, "rwi_t": 1, "cls": 4, "color": "#a5add3", "crowd_t": 3, "color_crowd": "#dfb0d6"}}, {"type": "Feature", "geometry": {"type": "Polygon", "coordinates": [[[125.8495, 7.4821], [125.8645, 7.4821], [125.8645, 7.4971], [125.8495, 7.4971], [125.8495, 7.4821]]]}, "properties": {"gap": 30.0, "sss": 45.0, "rwi": 1.01, "pop_density": 0.0, "sss_t": 1, "rwi_t": 1, "cls": 4, "color": "#a5add3", "crowd_t": 3, "color_crowd": "#dfb0d6"}}]}