{"type": "FeatureCollection", "features": [{"type": "Feature", "geometry": {"type": "Polygon", "coordinates": [[[121.1335, 13.9021], [121.1485, 13.9021], [121.1485, 13.917100000000001], [121.1335, 13.917100000000001], [121.1335, 13.9021]]]}, "properties": {"gap": 0.0, "sss": 0.0, "rwi": 0.837, "pop_density": 795.0, "sss_t": 0, "rwi_t": 1, "cls": 1, "color": "#ace4e4", "crowd_t": 0, "color_crowd": "#e8e8e8"}}, {"type": "Feature", "geometry": {"type": "Polygon", "coordinates": [[[121.1185, 13.9021], [121.1335, 13.9021], [121.1335, 13.917100000000001], [121.1185, 13.917100000000001], [121.1185, 13.9021]]]}, "properties": {"gap": 0.0, "sss": 0.0, "rwi": 0.708, "pop_density": 1796.0, "sss_t": 0, "rwi_t": 0, "cls": 0, "color": "#e8e8e8", "crowd_t": 1, "color_crowd": "#ace4e4"}}, {"type": "Feature", "geometry": {"type": "Polygon", "coordinates": [[[121.1185, 13.8871], [121.1335, 13.8871], [121.1335, 13.9021], [121.1185, 13.9021], [121.1185, 13.8871]]]}, "properties": {"gap": 0.0, "sss": 0.0, "rwi": 0.846, "pop_density": 1464.0, "sss_t": 0, "rwi_t": 1, "cls": 1, "color": "#ace4e4", "crowd_t": 0, "color_crowd": "#e8e8e8"}}, {"type": "Feature", "geometry": {"type": "Polygon", "coordinates": [[[121.1035, 13.9471], [121.1185, 13.9471], [121.1185, 13.962100000000001], [121.1035, 13.962100000000001], [121.1035, 13.9471]]]}, "properties": {"gap": 0.1, "sss": 0.1, "rwi": 0.932, "pop_density": 16692.0, "sss_t": 2, "rwi_t": 1, "cls": 7, "color": "#8c62aa", "crowd_t": 8, "color_crowd": "#3b4994"}}, {"type": "Feature", "geometry": {"type": "Polygon", "coordinates": [[[121.1185, 13.9321], [121.1335, 13.9321], [121.1335, 13.9471], [121.1185, 13.9471], [121.1185, 13.9321]]]}, "properties": {"gap": 0.0, "sss": 0.0, "rwi": 1.158, "pop_density": 5287.0, "sss_t": 0, "rwi_t": 2, "cls": 2, "color": "#5ac8c8", "crowd_t": 1, "color_crowd": "#ace4e4"}}, {"type": "Feature", "geometry": {"type": "Polygon", "coordinates": [[[121.1035, 13.9321], [121.1185, 13.9321], [121.1185, 13.9471], [121.1035, 13.9471], [121.1035, 13.9321]]]}, "properties": {"gap": 0.0, "sss": 0.0, "rwi": 1.059, "pop_density": 2870.0, "sss_t": 0, "rwi_t": 1, "cls": 1, "color": "#ace4e4", "crowd_t": 1, "color_crowd": "#ace4e4"}}, {"type": "Feature", "geometry": {"type": "Polygon", "coordinates": [[[121.1335, 13.9321], [121.1485, 13.9321], [121.1485, 13.9471], [121.1335, 13.9471], [121.1335, 13.9321]]]}, "properties": {"gap": 0.0, "sss": 0.0, "rwi": 1.085, "pop_density": 6346.0, "sss_t": 0, "rwi_t": 1, "cls": 1, "color": "#ace4e4", "crowd_t": 2, "color_crowd": "#5ac8c8"}}, {"type": "Feature", "geometry": {"type": "Polygon", "coordinates": [[[121.1485, 13.9321], [121.1635, 13.9321], [121.1635, 13.9471], [121.1485, 13.9471], [121.1485, 13.9321]]]}, "properties": {"gap": 1.0, "sss": 2.2, "rwi": 1.085, "pop_density": 12886.0, "sss_t": 2, "rwi_t": 1, "cls": 7, "color": "#8c62aa", "crowd_t": 8, "color_crowd": "#3b4994"}}, {"type": "Feature", "geometry": {"type": "Polygon", "coordinates": [[[121.1335, 13.9471], [121.1485, 13.9471], [121.1485, 13.962100000000001], [121.1335, 13.962100000000001], [121.1335, 13.9471]]]}, "properties": {"gap": 0.0, "sss": 0.0, "rwi": 0.464, "pop_density": 3863.0, "sss_t": 0, "rwi_t": 0, "cls": 0, "color": "#e8e8e8", "crowd_t": 1, "color_crowd": "#ace4e4"}}, {"type": "Feature", "geometry": {"type": "Polygon", "coordinates": [[[121.1185, 13.9471], [121.1335, 13.9471], [121.1335, 13.962100000000001], [121.1185, 13.962100000000001], [121.1185, 13.9471]]]}, "properties": {"gap": 0.0, "sss": 0.0, "rwi": 1.111, "pop_density": 1441.0, "sss_t": 0, "rwi_t": 2, "cls": 2, "color": "#5ac8c8", "crowd_t": 0, "color_crowd": "#e8e8e8"}}, {"type": "Feature", "geometry": {"type": "Polygon", "coordinates": [[[121.1485, 13.9471], [121.1635, 13.9471], [121.1635, 13.962100000000001], [121.1485, 13.962100000000001], [121.1485, 13.9471]]]}, "properties": {"gap": 2.9, "sss": 4.1, "rwi": 0.464, "pop_density": 5409.0, "sss_t": 2, "rwi_t": 0, "cls": 6, "color": "#be64ac", "crowd_t": 7, "color_crowd": "#8c62aa"}}, {"type": "Feature", "geometry": {"type": "Polygon", "coordinates": [[[121.1485, 13.9171], [121.1635, 13.9171], [121.1635, 13.9321], [121.1485, 13.9321], [121.1485, 13.9171]]]}, "properties": {"gap": 0.0, "sss": 0.0, "rwi": 1.085, "pop_density": 7628.0, "sss_t": 0, "rwi_t": 1, "cls": 1, "color": "#ace4e4", "crowd_t": 2, "color_crowd": "#5ac8c8"}}, {"type": "Feature", "geometry": {"type": "Polygon", "coordinates": [[[121.1635, 13.9471], [121.1785, 13.9471], [121.1785, 13.962100000000001], [121.1635, 13.962100000000001], [121.1635, 13.9471]]]}, "properties": {"gap": 0.2, "sss": 0.3, "rwi": 1.389, "pop_density": 13904.0, "sss_t": 2, "rwi_t": 2, "cls": 8, "color": "#3b4994", "crowd_t": 8, "color_crowd": "#3b4994"}}, {"type": "Feature", "geometry": {"type": "Polygon", "coordinates": [[[121.1635, 13.9321], [121.1785, 13.9321], [121.1785, 13.9471], [121.1635, 13.9471], [121.1635, 13.9321]]]}, "properties": {"gap": 0.2, "sss": 0.4, "rwi": 1.272, "pop_density": 13912.0, "sss_t": 2, "rwi_t": 2, "cls": 8, "color": "#3b4994", "crowd_t": 8, "color_crowd": "#3b4994"}}, {"type": "Feature", "geometry": {"type": "Polygon", "coordinates": [[[121.1785, 13.9321], [121.1935, 13.9321], [121.1935, 13.9471], [121.1785, 13.9471], [121.1785, 13.9321]]]}, "properties": {"gap": 0.7, "sss": 1.0, "rwi": 1.272, "pop_density": 3715.0, "sss_t": 2, "rwi_t": 2, "cls": 8, "color": "#3b4994", "crowd_t": 7, "color_crowd": "#8c62aa"}}, {"type": "Feature", "geometry": {"type": "Polygon", "coordinates": [[[121.1485, 13.9621], [121.1635, 13.9621], [121.1635, 13.9771], [121.1485, 13.9771], [121.1485, 13.9621]]]}, "properties": {"gap": 5.8, "sss": 8.4, "rwi": 0.792, "pop_density": 6096.0, "sss_t": 2, "rwi_t": 0, "cls": 6, "color": "#be64ac", "crowd_t": 8, "color_crowd": "#3b4994"}}, {"type": "Feature", "geometry": {"type": "Polygon", "coordinates": [[[121.1035, 13.9921], [121.1185, 13.9921], [121.1185, 14.007100000000001], [121.1035, 14.007100000000001], [121.1035, 13.9921]]]}, "properties": {"gap": 0.0, "sss": 0.0, "rwi": 0.98, "pop_density": 0.0, "sss_t": 0, "rwi_t": 1, "cls": 1, "color": "#ace4e4", "crowd_t": 0, "color_crowd": "#e8e8e8"}}, {"type": "Feature", "geometry": {"type": "Polygon", "coordinates": [[[121.0885, 13.9771], [121.1035, 13.9771], [121.1035, 13.9921], [121.0885, 13.9921], [121.0885, 13.9771]]]}, "properties": {"gap": 10.0, "sss": 15.7, "rwi": 0.98, "pop_density": 8407.0, "sss_t": 2, "rwi_t": 1, "cls": 7, "color": "#8c62aa", "crowd_t": 8, "color_crowd": "#3b4994"}}, {"type": "Feature", "geometry": {"type": "Polygon", "coordinates": [[[121.1185, 13.9771], [121.1335, 13.9771], [121.1335, 13.9921], [121.1185, 13.9921], [121.1185, 13.9771]]]}, "properties": {"gap": 0.0, "sss": 0.0, "rwi": 0.81, "pop_density": 1989.0, "sss_t": 0, "rwi_t": 0, "cls": 0, "color": "#e8e8e8", "crowd_t": 1, "color_crowd": "#ace4e4"}}, {"type": "Feature", "geometry": {"type": "Polygon", "coordinates": [[[121.1035, 13.9771], [121.1185, 13.9771], [121.1185, 13.9921], [121.1035, 13.9921], [121.1035, 13.9771]]]}, "properties": {"gap": 0.0, "sss": 0.0, "rwi": 0.98, "pop_density": 1042.0, "sss_t": 0, "rwi_t": 1, "cls": 1, "color": "#ace4e4", "crowd_t": 0, "color_crowd": "#e8e8e8"}}, {"type": "Feature", "geometry": {"type": "Polygon", "coordinates": [[[121.1335, 13.9621], [121.1485, 13.9621], [121.1485, 13.9771], [121.1335, 13.9771], [121.1335, 13.9621]]]}, "properties": {"gap": 0.0, "sss": 0.0, "rwi": 0.792, "pop_density": 1017.0, "sss_t": 0, "rwi_t": 0, "cls": 0, "color": "#e8e8e8", "crowd_t": 0, "color_crowd": "#e8e8e8"}}, {"type": "Feature", "geometry": {"type": "Polygon", "coordinates": [[[121.1485, 13.9771], [121.1635, 13.9771], [121.1635, 13.9921], [121.1485, 13.9921], [121.1485, 13.9771]]]}, "properties": {"gap": 0.0, "sss": 0.0, "rwi": 0.792, "pop_density": 2763.0, "sss_t": 0, "rwi_t": 0, "cls": 0, "color": "#e8e8e8", "crowd_t": 1, "color_crowd": "#ace4e4"}}, {"type": "Feature", "geometry": {"type": "Polygon", "coordinates": [[[121.1485, 13.9921], [121.1635, 13.9921], [121.1635, 14.007100000000001], [121.1485, 14.007100000000001], [121.1485, 13.9921]]]}, "properties": {"gap": 0.0, "sss": 0.0, "rwi": 0.792, "pop_density": 7812.0, "sss_t": 0, "rwi_t": 0, "cls": 0, "color": "#e8e8e8", "crowd_t": 2, "color_crowd": "#5ac8c8"}}, {"type": "Feature", "geometry": {"type": "Polygon", "coordinates": [[[121.1185, 13.9621], [121.1335, 13.9621], [121.1335, 13.9771], [121.1185, 13.9771], [121.1185, 13.9621]]]}, "properties": {"gap": 0.0, "sss": 0.0, "rwi": 0.81, "pop_density": 11.0, "sss_t": 0, "rwi_t": 0, "cls": 0, "color": "#e8e8e8", "crowd_t": 0, "color_crowd": "#e8e8e8"}}, {"type": "Feature", "geometry": {"type": "Polygon", "coordinates": [[[121.1335, 13.9921], [121.1485, 13.9921], [121.1485, 14.007100000000001], [121.1335, 14.007100000000001], [121.1335, 13.9921]]]}, "properties": {"gap": 10.0, "sss": 13.4, "rwi": 0.792, "pop_density": 2416.0, "sss_t": 2, "rwi_t": 0, "cls": 6, "color": "#be64ac", "crowd_t": 7, "color_crowd": "#8c62aa"}}, {"type": "Feature", "geometry": {"type": "Polygon", "coordinates": [[[121.1635, 14.0071], [121.1785, 14.0071], [121.1785, 14.0221], [121.1635, 14.0221], [121.1635, 14.0071]]]}, "properties": {"gap": 0.0, "sss": 0.0, "rwi": 1.187, "pop_density": 576.0, "sss_t": 0, "rwi_t": 2, "cls": 2, "color": "#5ac8c8", "crowd_t": 0, "color_crowd": "#e8e8e8"}}, {"type": "Feature", "geometry": {"type": "Polygon", "coordinates": [[[121.1635, 13.9921], [121.1785, 13.9921], [121.1785, 14.007100000000001], [121.1635, 14.007100000000001], [121.1635, 13.9921]]]}, "properties": {"gap": 0.0, "sss": 0.0, "rwi": 1.187, "pop_density": 1100.0, "sss_t": 0, "rwi_t": 2, "cls": 2, "color": "#5ac8c8", "crowd_t": 0, "color_crowd": "#e8e8e8"}}]}