{"type": "FeatureCollection", "features": [{"type": "Feature", "geometry": {"type": "Polygon", "coordinates": [[[120.6438, 14.9883], [120.6588, 14.9883], [120.6588, 15.003300000000001], [120.6438, 15.003300000000001], [120.6438, 14.9883]]]}, "properties": {"gap": 3.9, "sss": 6.0, "rwi": 0.944, "pop_density": 1272.0, "sss_t": 1, "rwi_t": 1, "cls": 4, "color": "#a5add3", "crowd_t": 3, "color_crowd": "#dfb0d6"}}, {"type": "Feature", "geometry": {"type": "Polygon", "coordinates": [[[120.6438, 15.0033], [120.6588, 15.0033], [120.6588, 15.0183], [120.6438, 15.0183], [120.6438, 15.0033]]]}, "properties": {"gap": 10.0, "sss": 13.2, "rwi": 0.726, "pop_density": 1676.0, "sss_t": 2, "rwi_t": 0, "cls": 6, "color": "#be64ac", "crowd_t": 6, "color_crowd": "#be64ac"}}, {"type": "Feature", "geometry": {"type": "Polygon", "coordinates": [[[120.6438, 14.9733], [120.6588, 14.9733], [120.6588, 14.9883], [120.6438, 14.9883], [120.6438, 14.9733]]]}, "properties": {"gap": 0.0, "sss": 0.0, "rwi": 0.578, "pop_density": 1043.0, "sss_t": 0, "rwi_t": 0, "cls": 0, "color": "#e8e8e8", "crowd_t": 0, "color_crowd": "#e8e8e8"}}, {"type": "Feature", "geometry": {"type": "Polygon", "coordinates": [[[120.7038, 14.9733], [120.7188, 14.9733], [120.7188, 14.9883], [120.7038, 14.9883], [120.7038, 14.9733]]]}, "properties": {"gap": 0.0, "sss": 0.0, "rwi": 0.653, "pop_density": 512.0, "sss_t": 0, "rwi_t": 0, "cls": 0, "color": "#e8e8e8", "crowd_t": 0, "color_crowd": "#e8e8e8"}}, {"type": "Feature", "geometry": {"type": "Polygon", "coordinates": [[[120.6738, 14.9733], [120.6888, 14.9733], [120.6888, 14.9883], [120.6738, 14.9883], [120.6738, 14.9733]]]}, "properties": {"gap": 15.8, "sss": 21.1, "rwi": 0.919, "pop_density": 2586.0, "sss_t": 2, "rwi_t": 1, "cls": 7, "color": "#8c62aa", "crowd_t": 7, "color_crowd": "#8c62aa"}}, {"type": "Feature", "geometry": {"type": "Polygon", "coordinates": [[[120.6888, 14.9733], [120.7038, 14.9733], [120.7038, 14.9883], [120.6888, 14.9883], [120.6888, 14.9733]]]}, "properties": {"gap": 0.0, "sss": 0.0, "rwi": 0.653, "pop_density": 835.0, "sss_t": 0, "rwi_t": 0, "cls": 0, "color": "#e8e8e8", "crowd_t": 0, "color_crowd": "#e8e8e8"}}, {"type": "Feature", "geometry": {"type": "Polygon", "coordinates": [[[120.6588, 14.9733], [120.6738, 14.9733], [120.6738, 14.9883], [120.6588, 14.9883], [120.6588, 14.9733]]]}, "properties": {"gap": 30.0, "sss": 48.1, "rwi": 0.578, "pop_density": 9114.0, "sss_t": 2, "rwi_t": 0, "cls": 6, "color": "#be64ac", "crowd_t": 8, "color_crowd": "#3b4994"}}, {"type": "Feature", "geometry": {"type": "Polygon", "coordinates": [[[120.7038, 15.0033], [120.7188, 15.0033], [120.7188, 15.0183], [120.7038, 15.0183], [120.7038, 15.0033]]]}, "properties": {"gap": 0.0, "sss": 0.0, "rwi": 0.888, "pop_density": 4322.0, "sss_t": 0, "rwi_t": 1, "cls": 1, "color": "#ace4e4", "crowd_t": 1, "color_crowd": "#ace4e4"}}, {"type": "Feature", "geometry": {"type": "Polygon", "coordinates": [[[120.7338, 14.9733], [120.7488, 14.9733], [120.7488, 14.9883], [120.7338, 14.9883], [120.7338, 14.9733]]]}, "properties": {"gap": 10.0, "sss": 17.8, "rwi": 0.427, "pop_density": 3452.0, "sss_t": 2, "rwi_t": 0, "cls": 6, "color": "#be64ac", "crowd_t": 7, "color_crowd": "#8c62aa"}}, {"type": "Feature", "geometry": {"type": "Polygon", "coordinates": [[[120.7338, 14.9883], [120.7488, 14.9883], [120.7488, 15.003300000000001], [120.7338, 15.003300000000001], [120.7338, 14.9883]]]}, "properties": {"gap": 4.6, "sss": 7.1, "rwi": 0.521, "pop_density": 7628.0, "sss_t": 1, "rwi_t": 0, "cls": 3, "color": "#dfb0d6", "crowd_t": 5, "color_crowd": "#5698b9"}}, {"type": "Feature", "geometry": {"type": "Polygon", "coordinates": [[[120.7188, 14.9883], [120.7338, 14.9883], [120.7338, 15.003300000000001], [120.7188, 15.003300000000001], [120.7188, 14.9883]]]}, "properties": {"gap": 17.3, "sss": 37.3, "rwi": 0.521, "pop_density": 25539.0, "sss_t": 2, "rwi_t": 0, "cls": 6, "color": "#be64ac", "crowd_t": 8, "color_crowd": "#3b4994"}}, {"type": "Feature", "geometry": {"type": "Polygon", "coordinates": [[[120.7188, 15.0033], [120.7338, 15.0033], [120.7338, 15.0183], [120.7188, 15.0183], [120.7188, 15.0033]]]}, "properties": {"gap": 17.2, "sss": 23.6, "rwi": 0.594, "pop_density": 12477.0, "sss_t": 2, "rwi_t": 0, "cls": 6, "color": "#be64ac", "crowd_t": 8, "color_crowd": "#3b4994"}}, {"type": "Feature", "geometry": {"type": "Polygon", "coordinates": [[[120.7338, 15.0033], [120.7488, 15.0033], [120.7488, 15.0183], [120.7338, 15.0183], [120.7338, 15.0033]]]}, "properties": {"gap": 0.0, "sss": 0.0, "rwi": 0.594, "pop_density": 3762.0, "sss_t": 0, "rwi_t": 0, "cls": 0, "color": "#e8e8e8", "crowd_t": 1, "color_crowd": "#ace4e4"}}, {"type": "Feature", "geometry": {"type": "Polygon", "coordinates": [[[120.6738, 15.0183], [120.6888, 15.0183], [120.6888, 15.0333], [120.6738, 15.0333], [120.6738, 15.0183]]]}, "properties": {"gap": 1.1, "sss": 1.5, "rwi": 1.068, "pop_density": 1886.0, "sss_t": 1, "rwi_t": 2, "cls": 5, "color": "#5698b9", "crowd_t": 3, "color_crowd": "#dfb0d6"}}, {"type": "Feature", "geometry": {"type": "Polygon", "coordinates": [[[120.6588, 15.0183], [120.6738, 15.0183], [120.6738, 15.0333], [120.6588, 15.0333], [120.6588, 15.0183]]]}, "properties": {"gap": 1.9, "sss": 2.5, "rwi": 0.726, "pop_density": 855.0, "sss_t": 1, "rwi_t": 0, "cls": 3, "color": "#dfb0d6", "crowd_t": 3, "color_crowd": "#dfb0d6"}}, {"type": "Feature", "geometry": {"type": "Polygon", "coordinates": [[[120.6738, 15.0333], [120.6888, 15.0333], [120.6888, 15.048300000000001], [120.6738, 15.048300000000001], [120.6738, 15.0333]]]}, "properties": {"gap": 3.3, "sss": 4.3, "rwi": 1.248, "pop_density": 1835.0, "sss_t": 1, "rwi_t": 2, "cls": 5, "color": "#5698b9", "crowd_t": 3, "color_crowd": "#dfb0d6"}}, {"type": "Feature", "geometry": {"type": "Polygon", "coordinates": [[[120.6588, 15.0333], [120.6738, 15.0333], [120.6738, 15.048300000000001], [120.6588, 15.048300000000001], [120.6588, 15.0333]]]}, "properties": {"gap": 7.8, "sss": 10.9, "rwi": 0.926, "pop_density": 1101.0, "sss_t": 2, "rwi_t": 1, "cls": 7, "color": "#8c62aa", "crowd_t": 6, "color_crowd": "#be64ac"}}, {"type": "Feature", "geometry": {"type": "Polygon", "coordinates": [[[120.6588, 15.0483], [120.6738, 15.0483], [120.6738, 15.0633], [120.6588, 15.0633], [120.6588, 15.0483]]]}, "properties": {"gap": 0.3, "sss": 0.4, "rwi": 0.989, "pop_density": 2845.0, "sss_t": 1, "rwi_t": 1, "cls": 4, "color": "#a5add3", "crowd_t": 4, "color_crowd": "#a5add3"}}, {"type": "Feature", "geometry": {"type": "Polygon", "coordinates": [[[120.6438, 15.0183], [120.6588, 15.0183], [120.6588, 15.0333], [120.6438, 15.0333], [120.6438, 15.0183]]]}, "properties": {"gap": 10.0, "sss": 12.6, "rwi": 0.726, "pop_density": 230.0, "sss_t": 2, "rwi_t": 0, "cls": 6, "color": "#be64ac", "crowd_t": 6, "color_crowd": "#be64ac"}}, {"type": "Feature", "geometry": {"type": "Polygon", "coordinates": [[[120.6888, 15.0333], [120.7038, 15.0333], [120.7038, 15.048300000000001], [120.6888, 15.048300000000001], [120.6888, 15.0333]]]}, "properties": {"gap": 0.0, "sss": 0.0, "rwi": 1.248, "pop_density": 5276.0, "sss_t": 0, "rwi_t": 2, "cls": 2, "color": "#5ac8c8", "crowd_t": 1, "color_crowd": "#ace4e4"}}, {"type": "Feature", "geometry": {"type": "Polygon", "coordinates": [[[120.6888, 15.0183], [120.7038, 15.0183], [120.7038, 15.0333], [120.6888, 15.0333], [120.6888, 15.0183]]]}, "properties": {"gap": 0.7, "sss": 1.7, "rwi": 0.888, "pop_density": 5599.0, "sss_t": 1, "rwi_t": 1, "cls": 4, "color": "#a5add3", "crowd_t": 4, "color_crowd": "#a5add3"}}, {"type": "Feature", "geometry": {"type": "Polygon", "coordinates": [[[120.7038, 15.0333], [120.7188, 15.0333], [120.7188, 15.048300000000001], [120.7038, 15.048300000000001], [120.7038, 15.0333]]]}, "properties": {"gap": 0.0, "sss": 0.0, "rwi": 1.248, "pop_density": 15273.0, "sss_t": 0, "rwi_t": 2, "cls": 2, "color": "#5ac8c8", "crowd_t": 2, "color_crowd": "#5ac8c8"}}, {"type": "Feature", "geometry": {"type": "Polygon", "coordinates": [[[120.7038, 15.0483], [120.7188, 15.0483], [120.7188, 15.0633], [120.7038, 15.0633], [120.7038, 15.0483]]]}, "properties": {"gap": 0.3, "sss": 0.5, "rwi": 1.023, "pop_density": 10355.0, "sss_t": 1, "rwi_t": 2, "cls": 5, "color": "#5698b9", "crowd_t": 5, "color_crowd": "#5698b9"}}, {"type": "Feature", "geometry": {"type": "Polygon", "coordinates": [[[120.7188, 15.0183], [120.7338, 15.0183], [120.7338, 15.0333], [120.7188, 15.0333], [120.7188, 15.0183]]]}, "properties": {"gap": 3.1, "sss": 4.8, "rwi": 0.594, "pop_density": 24624.0, "sss_t": 1, "rwi_t": 0, "cls": 3, "color": "#dfb0d6", "crowd_t": 5, "color_crowd": "#5698b9"}}, {"type": "Feature", "geometry": {"type": "Polygon", "coordinates": [[[120.7038, 15.0183], [120.7188, 15.0183], [120.7188, 15.0333], [120.7038, 15.0333], [120.7038, 15.0183]]]}, "properties": {"gap": 2.1, "sss": 3.8, "rwi": 0.888, "pop_density": 18015.0, "sss_t": 1, "rwi_t": 1, "cls": 4, "color": "#a5add3", "crowd_t": 5, "color_crowd": "#5698b9"}}, {"type": "Feature", "geometry": {"type": "Polygon", "coordinates": [[[120.6438, 15.0483], [120.6588, 15.0483], [120.6588, 15.0633], [120.6438, 15.0633], [120.6438, 15.0483]]]}, "properties": {"gap": 4.0, "sss": 5.4, "rwi": 0.989, "pop_density": 1384.0, "sss_t": 1, "rwi_t": 1, "cls": 4, "color": "#a5add3", "crowd_t": 3, "color_crowd": "#dfb0d6"}}, {"type": "Feature", "geometry": {"type": "Polygon", "coordinates": [[[120.6738, 15.0483], [120.6888, 15.0483], [120.6888, 15.0633], [120.6738, 15.0633], [120.6738, 15.0483]]]}, "properties": {"gap": 0.0, "sss": 0.0, "rwi": 1.103, "pop_density": 8221.0, "sss_t": 0, "rwi_t": 2, "cls": 2, "color": "#5ac8c8", "crowd_t": 2, "color_crowd": "#5ac8c8"}}, {"type": "Feature", "geometry": {"type": "Polygon", "coordinates": [[[120.6738, 15.0783], [120.6888, 15.0783], [120.6888, 15.093300000000001], [120.6738, 15.093300000000001], [120.6738, 15.0783]]]}, "properties": {"gap": 3.9, "sss": 8.2, "rwi": 0.698, "pop_density": 18286.0, "sss_t": 1, "rwi_t": 0, "cls": 3, "color": "#dfb0d6", "crowd_t": 5, "color_crowd": "#5698b9"}}, {"type": "Feature", "geometry": {"type": "Polygon", "coordinates": [[[120.6588, 15.0783], [120.6738, 15.0783], [120.6738, 15.093300000000001], [120.6588, 15.093300000000001], [120.6588, 15.0783]]]}, "properties": {"gap": 0.0, "sss": 0.0, "rwi": 1.172, "pop_density": 14638.0, "sss_t": 0, "rwi_t": 2, "cls": 2, "color": "#5ac8c8", "crowd_t": 2, "color_crowd": "#5ac8c8"}}, {"type": "Feature", "geometry": {"type": "Polygon", "coordinates": [[[120.6588, 15.0633], [120.6738, 15.0633], [120.6738, 15.0783], [120.6588, 15.0783], [120.6588, 15.0633]]]}, "properties": {"gap": 10.0, "sss": 16.9, "rwi": 0.989, "pop_density": 11486.0, "sss_t": 2, "rwi_t": 1, "cls": 7, "color": "#8c62aa", "crowd_t": 8, "color_crowd": "#3b4994"}}, {"type": "Feature", "geometry": {"type": "Polygon", "coordinates": [[[120.6738, 15.0633], [120.6888, 15.0633], [120.6888, 15.0783], [120.6738, 15.0783], [120.6738, 15.0633]]]}, "properties": {"gap": 0.0, "sss": 0.0, "rwi": 1.103, "pop_density": 6610.0, "sss_t": 0, "rwi_t": 2, "cls": 2, "color": "#5ac8c8", "crowd_t": 2, "color_crowd": "#5ac8c8"}}, {"type": "Feature", "geometry": {"type": "Polygon", "coordinates": [[[120.6438, 15.0633], [120.6588, 15.0633], [120.6588, 15.0783], [120.6438, 15.0783], [120.6438, 15.0633]]]}, "properties": {"gap": 0.0, "sss": 0.0, "rwi": 0.989, "pop_density": 980.0, "sss_t": 0, "rwi_t": 1, "cls": 1, "color": "#ace4e4", "crowd_t": 0, "color_crowd": "#e8e8e8"}}, {"type": "Feature", "geometry": {"type": "Polygon", "coordinates": [[[120.6888, 15.0483], [120.7038, 15.0483], [120.7038, 15.0633], [120.6888, 15.0633], [120.6888, 15.0483]]]}, "properties": {"gap": 5.6, "sss": 8.7, "rwi": 1.023, "pop_density": 6528.0, "sss_t": 2, "rwi_t": 2, "cls": 8, "color": "#3b4994", "crowd_t": 7, "color_crowd": "#8c62aa"}}, {"type": "Feature", "geometry": {"type": "Polygon", "coordinates": [[[120.6888, 15.0783], [120.7038, 15.0783], [120.7038, 15.093300000000001], [120.6888, 15.093300000000001], [120.6888, 15.0783]]]}, "properties": {"gap": 10.0, "sss": 13.7, "rwi": 0.764, "pop_density": 3117.0, "sss_t": 2, "rwi_t": 1, "cls": 7, "color": "#8c62aa", "crowd_t": 7, "color_crowd": "#8c62aa"}}, {"type": "Feature", "geometry": {"type": "Polygon", "coordinates": [[[120.6888, 15.0633], [120.7038, 15.0633], [120.7038, 15.0783], [120.6888, 15.0783], [120.6888, 15.0633]]]}, "properties": {"gap": 10.0, "sss": 15.0, "rwi": 1.023, "pop_density": 4689.0, "sss_t": 2, "rwi_t": 2, "cls": 8, "color": "#3b4994", "crowd_t": 7, "color_crowd": "#8c62aa"}}, {"type": "Feature", "geometry": {"type": "Polygon", "coordinates": [[[120.7188, 15.0633], [120.7338, 15.0633], [120.7338, 15.0783], [120.7188, 15.0783], [120.7188, 15.0633]]]}, "properties": {"gap": 1.8, "sss": 2.7, "rwi": 1.017, "pop_density": 2377.0, "sss_t": 1, "rwi_t": 2, "cls": 5, "color": "#5698b9", "crowd_t": 4, "color_crowd": "#a5add3"}}, {"type": "Feature", "geometry": {"type": "Polygon", "coordinates": [[[120.7188, 15.0483], [120.7338, 15.0483], [120.7338, 15.0633], [120.7188, 15.0633], [120.7188, 15.0483]]]}, "properties": {"gap": 0.0, "sss": 0.0, "rwi": 1.017, "pop_density": 6601.0, "sss_t": 0, "rwi_t": 2, "cls": 2, "color": "#5ac8c8", "crowd_t": 1, "color_crowd": "#ace4e4"}}, {"type": "Feature", "geometry": {"type": "Polygon", "coordinates": [[[120.7338, 15.0633], [120.7488, 15.0633], [120.7488, 15.0783], [120.7338, 15.0783], [120.7338, 15.0633]]]}, "properties": {"gap": 10.0, "sss": 13.9, "rwi": 1.017, "pop_density": 3440.0, "sss_t": 2, "rwi_t": 2, "cls": 8, "color": "#3b4994", "crowd_t": 7, "color_crowd": "#8c62aa"}}, {"type": "Feature", "geometry": {"type": "Polygon", "coordinates": [[[120.7038, 15.0783], [120.7188, 15.0783], [120.7188, 15.093300000000001], [120.7038, 15.093300000000001], [120.7038, 15.0783]]]}, "properties": {"gap": 0.0, "sss": 0.0, "rwi": 0.764, "pop_density": 2287.0, "sss_t": 0, "rwi_t": 1, "cls": 1, "color": "#ace4e4", "crowd_t": 0, "color_crowd": "#e8e8e8"}}]}