{"type": "FeatureCollection", "features": [{"type": "Feature", "geometry": {"type": "Polygon", "coordinates": [[[120.995, 14.55], [121.01, 14.55], [121.01, 14.565000000000001], [120.995, 14.565000000000001], [120.995, 14.55]]]}, "properties": {"gap": 4.9, "sss": 11.6, "rwi": 1.246, "pop_density": 26163.0, "sss_t": 1, "rwi_t": 1, "cls": 4, "color": "#a5add3", "crowd_t": 4, "color_crowd": "#a5add3"}}, {"type": "Feature", "geometry": {"type": "Polygon", "coordinates": [[[120.98, 14.49], [120.995, 14.49], [120.995, 14.505], [120.98, 14.505], [120.98, 14.49]]]}, "properties": {"gap": 1.0, "sss": 2.2, "rwi": 1.212, "pop_density": 23735.0, "sss_t": 0, "rwi_t": 1, "cls": 1, "color": "#ace4e4", "crowd_t": 1, "color_crowd": "#ace4e4"}}, {"type": "Feature", "geometry": {"type": "Polygon", "coordinates": [[[120.98, 14.55], [120.995, 14.55], [120.995, 14.565000000000001], [120.98, 14.565000000000001], [120.98, 14.55]]]}, "properties": {"gap": 5.6, "sss": 11.8, "rwi": 1.246, "pop_density": 16069.0, "sss_t": 1, "rwi_t": 1, "cls": 4, "color": "#a5add3", "crowd_t": 3, "color_crowd": "#dfb0d6"}}, {"type": "Feature", "geometry": {"type": "Polygon", "coordinates": [[[120.98, 14.535], [120.995, 14.535], [120.995, 14.55], [120.98, 14.55], [120.98, 14.535]]]}, "properties": {"gap": 7.8, "sss": 12.9, "rwi": 1.246, "pop_density": 3481.0, "sss_t": 2, "rwi_t": 1, "cls": 7, "color": "#8c62aa", "crowd_t": 6, "color_crowd": "#be64ac"}}, {"type": "Feature", "geometry": {"type": "Polygon", "coordinates": [[[120.98, 14.505], [120.995, 14.505], [120.995, 14.520000000000001], [120.98, 14.520000000000001], [120.98, 14.505]]]}, "properties": {"gap": 3.2, "sss": 5.2, "rwi": 1.212, "pop_density": 14292.0, "sss_t": 1, "rwi_t": 1, "cls": 4, "color": "#a5add3", "crowd_t": 3, "color_crowd": "#dfb0d6"}}, {"type": "Feature", "geometry": {"type": "Polygon", "coordinates": [[[120.995, 14.52], [121.01, 14.52], [121.01, 14.535], [120.995, 14.535], [120.995, 14.52]]]}, "properties": {"gap": 1.9, "sss": 4.7, "rwi": 1.16, "pop_density": 23481.0, "sss_t": 0, "rwi_t": 1, "cls": 1, "color": "#ace4e4", "crowd_t": 1, "color_crowd": "#ace4e4"}}, {"type": "Feature", "geometry": {"type": "Polygon", "coordinates": [[[120.995, 14.535], [121.01, 14.535], [121.01, 14.55], [120.995, 14.55], [120.995, 14.535]]]}, "properties": {"gap": 7.6, "sss": 18.1, "rwi": 1.246, "pop_density": 45787.0, "sss_t": 2, "rwi_t": 1, "cls": 7, "color": "#8c62aa", "crowd_t": 8, "color_crowd": "#3b4994"}}, {"type": "Feature", "geometry": {"type": "Polygon", "coordinates": [[[120.98, 14.52], [120.995, 14.52], [120.995, 14.535], [120.98, 14.535], [120.98, 14.52]]]}, "properties": {"gap": 7.8, "sss": 14.8, "rwi": 1.16, "pop_density": 12130.0, "sss_t": 2, "rwi_t": 1, "cls": 7, "color": "#8c62aa", "crowd_t": 6, "color_crowd": "#be64ac"}}, {"type": "Feature", "geometry": {"type": "Polygon", "coordinates": [[[120.995, 14.505], [121.01, 14.505], [121.01, 14.520000000000001], [120.995, 14.520000000000001], [120.995, 14.505]]]}, "properties": {"gap": 1.2, "sss": 2.8, "rwi": 1.212, "pop_density": 19999.0, "sss_t": 0, "rwi_t": 1, "cls": 1, "color": "#ace4e4", "crowd_t": 1, "color_crowd": "#ace4e4"}}, {"type": "Feature", "geometry": {"type": "Polygon", "coordinates": [[[120.965, 14.505], [120.98, 14.505], [120.98, 14.520000000000001], [120.965, 14.520000000000001], [120.965, 14.505]]]}, "properties": {"gap": 15.2, "sss": 22.1, "rwi": 0.431, "pop_density": 5309.0, "sss_t": 2, "rwi_t": 0, "cls": 6, "color": "#be64ac", "crowd_t": 6, "color_crowd": "#be64ac"}}, {"type": "Feature", "geometry": {"type": "Polygon", "coordinates": [[[120.995, 14.49], [121.01, 14.49], [121.01, 14.505], [120.995, 14.505], [120.995, 14.49]]]}, "properties": {"gap": 14.5, "sss": 21.7, "rwi": 1.212, "pop_density": 11913.0, "sss_t": 2, "rwi_t": 1, "cls": 7, "color": "#8c62aa", "crowd_t": 6, "color_crowd": "#be64ac"}}, {"type": "Feature", "geometry": {"type": "Polygon", "coordinates": [[[120.965, 14.52], [120.98, 14.52], [120.98, 14.535], [120.965, 14.535], [120.965, 14.52]]]}, "properties": {"gap": 8.9, "sss": 12.2, "rwi": 0.44, "pop_density": 5812.0, "sss_t": 2, "rwi_t": 0, "cls": 6, "color": "#be64ac", "crowd_t": 6, "color_crowd": "#be64ac"}}, {"type": "Feature", "geometry": {"type": "Polygon", "coordinates": [[[120.965, 14.535], [120.98, 14.535], [120.98, 14.55], [120.965, 14.55], [120.965, 14.535]]]}, "properties": {"gap": 2.1, "sss": 2.9, "rwi": 0.129, "pop_density": 2254.0, "sss_t": 0, "rwi_t": 0, "cls": 0, "color": "#e8e8e8", "crowd_t": 0, "color_crowd": "#e8e8e8"}}, {"type": "Feature", "geometry": {"type": "Polygon", "coordinates": [[[121.025, 14.535], [121.04, 14.535], [121.04, 14.55], [121.025, 14.55], [121.025, 14.535]]]}, "properties": {"gap": 4.1, "sss": 6.5, "rwi": 1.402, "pop_density": 3117.0, "sss_t": 1, "rwi_t": 2, "cls": 5, "color": "#5698b9", "crowd_t": 3, "color_crowd": "#dfb0d6"}}, {"type": "Feature", "geometry": {"type": "Polygon", "coordinates": [[[121.01, 14.535], [121.025, 14.535], [121.025, 14.55], [121.01, 14.55], [121.01, 14.535]]]}, "properties": {"gap": 4.7, "sss": 8.5, "rwi": 1.511, "pop_density": 11587.0, "sss_t": 1, "rwi_t": 2, "cls": 5, "color": "#5698b9", "crowd_t": 3, "color_crowd": "#dfb0d6"}}, {"type": "Feature", "geometry": {"type": "Polygon", "coordinates": [[[121.01, 14.55], [121.025, 14.55], [121.025, 14.565000000000001], [121.01, 14.565000000000001], [121.01, 14.55]]]}, "properties": {"gap": 1.7, "sss": 3.7, "rwi": 1.511, "pop_density": 14604.0, "sss_t": 0, "rwi_t": 2, "cls": 2, "color": "#5ac8c8", "crowd_t": 0, "color_crowd": "#e8e8e8"}}, {"type": "Feature", "geometry": {"type": "Polygon", "coordinates": [[[121.025, 14.505], [121.04, 14.505], [121.04, 14.520000000000001], [121.025, 14.520000000000001], [121.025, 14.505]]]}, "properties": {"gap": 1.7, "sss": 4.0, "rwi": 1.218, "pop_density": 24709.0, "sss_t": 0, "rwi_t": 1, "cls": 1, "color": "#ace4e4", "crowd_t": 1, "color_crowd": "#ace4e4"}}, {"type": "Feature", "geometry": {"type": "Polygon", "coordinates": [[[121.01, 14.52], [121.025, 14.52], [121.025, 14.535], [121.01, 14.535], [121.01, 14.52]]]}, "properties": {"gap": 0.6, "sss": 1.3, "rwi": 1.129, "pop_density": 15822.0, "sss_t": 0, "rwi_t": 0, "cls": 0, "color": "#e8e8e8", "crowd_t": 0, "color_crowd": "#e8e8e8"}}, {"type": "Feature", "geometry": {"type": "Polygon", "coordinates": [[[121.025, 14.52], [121.04, 14.52], [121.04, 14.535], [121.025, 14.535], [121.025, 14.52]]]}, "properties": {"gap": 5.8, "sss": 9.0, "rwi": 1.179, "pop_density": 14259.0, "sss_t": 1, "rwi_t": 1, "cls": 4, "color": "#a5add3", "crowd_t": 3, "color_crowd": "#dfb0d6"}}, {"type": "Feature", "geometry": {"type": "Polygon", "coordinates": [[[121.04, 14.535], [121.055, 14.535], [121.055, 14.55], [121.04, 14.55], [121.04, 14.535]]]}, "properties": {"gap": 7.6, "sss": 13.1, "rwi": 1.11, "pop_density": 3140.0, "sss_t": 2, "rwi_t": 0, "cls": 6, "color": "#be64ac", "crowd_t": 6, "color_crowd": "#be64ac"}}, {"type": "Feature", "geometry": {"type": "Polygon", "coordinates": [[[121.04, 14.55], [121.055, 14.55], [121.055, 14.565000000000001], [121.04, 14.565000000000001], [121.04, 14.55]]]}, "properties": {"gap": 5.3, "sss": 12.3, "rwi": 1.11, "pop_density": 15426.0, "sss_t": 1, "rwi_t": 0, "cls": 3, "color": "#dfb0d6", "crowd_t": 3, "color_crowd": "#dfb0d6"}}, {"type": "Feature", "geometry": {"type": "Polygon", "coordinates": [[[121.025, 14.55], [121.04, 14.55], [121.04, 14.565000000000001], [121.025, 14.565000000000001], [121.025, 14.55]]]}, "properties": {"gap": 6.5, "sss": 9.7, "rwi": 1.402, "pop_density": 5394.0, "sss_t": 2, "rwi_t": 2, "cls": 8, "color": "#3b4994", "crowd_t": 6, "color_crowd": "#be64ac"}}, {"type": "Feature", "geometry": {"type": "Polygon", "coordinates": [[[121.04, 14.505], [121.055, 14.505], [121.055, 14.520000000000001], [121.04, 14.520000000000001], [121.04, 14.505]]]}, "properties": {"gap": 3.5, "sss": 8.6, "rwi": 1.416, "pop_density": 42422.0, "sss_t": 1, "rwi_t": 2, "cls": 5, "color": "#5698b9", "crowd_t": 5, "color_crowd": "#5698b9"}}, {"type": "Feature", "geometry": {"type": "Polygon", "coordinates": [[[121.055, 14.52], [121.07000000000001, 14.52], [121.07000000000001, 14.535], [121.055, 14.535], [121.055, 14.52]]]}, "properties": {"gap": 4.1, "sss": 8.8, "rwi": 0.807, "pop_density": 17094.0, "sss_t": 1, "rwi_t": 0, "cls": 3, "color": "#dfb0d6", "crowd_t": 3, "color_crowd": "#dfb0d6"}}, {"type": "Feature", "geometry": {"type": "Polygon", "coordinates": [[[121.01, 14.505], [121.025, 14.505], [121.025, 14.520000000000001], [121.01, 14.520000000000001], [121.01, 14.505]]]}, "properties": {"gap": 3.0, "sss": 4.0, "rwi": 0.607, "pop_density": 9081.0, "sss_t": 1, "rwi_t": 0, "cls": 3, "color": "#dfb0d6", "crowd_t": 3, "color_crowd": "#dfb0d6"}}, {"type": "Feature", "geometry": {"type": "Polygon", "coordinates": [[[121.04, 14.52], [121.055, 14.52], [121.055, 14.535], [121.04, 14.535], [121.04, 14.52]]]}, "properties": {"gap": 10.4, "sss": 20.9, "rwi": 0.807, "pop_density": 7612.0, "sss_t": 2, "rwi_t": 0, "cls": 6, "color": "#be64ac", "crowd_t": 6, "color_crowd": "#be64ac"}}, {"type": "Feature", "geometry": {"type": "Polygon", "coordinates": [[[121.055, 14.505], [121.07000000000001, 14.505], [121.07000000000001, 14.520000000000001], [121.055, 14.520000000000001], [121.055, 14.505]]]}, "properties": {"gap": 0.3, "sss": 0.7, "rwi": 1.416, "pop_density": 80897.0, "sss_t": 0, "rwi_t": 2, "cls": 2, "color": "#5ac8c8", "crowd_t": 2, "color_crowd": "#5ac8c8"}}, {"type": "Feature", "geometry": {"type": "Polygon", "coordinates": [[[121.04, 14.49], [121.055, 14.49], [121.055, 14.505], [121.04, 14.505], [121.04, 14.49]]]}, "properties": {"gap": 0.0, "sss": 0.0, "rwi": 1.416, "pop_density": 45923.0, "sss_t": 0, "rwi_t": 2, "cls": 2, "color": "#5ac8c8", "crowd_t": 2, "color_crowd": "#5ac8c8"}}, {"type": "Feature", "geometry": {"type": "Polygon", "coordinates": [[[121.055, 14.49], [121.07000000000001, 14.49], [121.07000000000001, 14.505], [121.055, 14.505], [121.055, 14.49]]]}, "properties": {"gap": 4.8, "sss": 6.0, "rwi": 1.416, "pop_density": 26578.0, "sss_t": 1, "rwi_t": 2, "cls": 5, "color": "#5698b9", "crowd_t": 4, "color_crowd": "#a5add3"}}, {"type": "Feature", "geometry": {"type": "Polygon", "coordinates": [[[121.055, 14.535], [121.07000000000001, 14.535], [121.07000000000001, 14.55], [121.055, 14.55], [121.055, 14.535]]]}, "properties": {"gap": 3.7, "sss": 8.4, "rwi": 1.11, "pop_density": 41137.0, "sss_t": 1, "rwi_t": 0, "cls": 3, "color": "#dfb0d6", "crowd_t": 5, "color_crowd": "#5698b9"}}, {"type": "Feature", "geometry": {"type": "Polygon", "coordinates": [[[121.025, 14.49], [121.04, 14.49], [121.04, 14.505], [121.025, 14.505], [121.025, 14.49]]]}, "properties": {"gap": 1.4, "sss": 3.0, "rwi": 1.218, "pop_density": 13812.0, "sss_t": 0, "rwi_t": 1, "cls": 1, "color": "#ace4e4", "crowd_t": 0, "color_crowd": "#e8e8e8"}}, {"type": "Feature", "geometry": {"type": "Polygon", "coordinates": [[[121.01, 14.49], [121.025, 14.49], [121.025, 14.505], [121.01, 14.505], [121.01, 14.49]]]}, "properties": {"gap": 0.0, "sss": 0.0, "rwi": 0.607, "pop_density": 8822.0, "sss_t": 0, "rwi_t": 0, "cls": 0, "color": "#e8e8e8", "crowd_t": 0, "color_crowd": "#e8e8e8"}}, {"type": "Feature", "geometry": {"type": "Polygon", "coordinates": [[[121.055, 14.55], [121.07000000000001, 14.55], [121.07000000000001, 14.565000000000001], [121.055, 14.565000000000001], [121.055, 14.55]]]}, "properties": {"gap": 7.2, "sss": 17.1, "rwi": 1.11, "pop_density": 34195.0, "sss_t": 2, "rwi_t": 0, "cls": 6, "color": "#be64ac", "crowd_t": 8, "color_crowd": "#3b4994"}}, {"type": "Feature", "geometry": {"type": "Polygon", "coordinates": [[[121.07000000000001, 14.55], [121.08500000000001, 14.55], [121.08500000000001, 14.565000000000001], [121.07000000000001, 14.565000000000001], [121.07000000000001, 14.55]]]}, "properties": {"gap": 1.2, "sss": 3.0, "rwi": 1.373, "pop_density": 40502.0, "sss_t": 0, "rwi_t": 2, "cls": 2, "color": "#5ac8c8", "crowd_t": 2, "color_crowd": "#5ac8c8"}}, {"type": "Feature", "geometry": {"type": "Polygon", "coordinates": [[[121.08500000000001, 14.535], [121.10000000000001, 14.535], [121.10000000000001, 14.55], [121.08500000000001, 14.55], [121.08500000000001, 14.535]]]}, "properties": {"gap": 0.6, "sss": 1.0, "rwi": 1.323, "pop_density": 17825.0, "sss_t": 0, "rwi_t": 2, "cls": 2, "color": "#5ac8c8", "crowd_t": 0, "color_crowd": "#e8e8e8"}}, {"type": "Feature", "geometry": {"type": "Polygon", "coordinates": [[[121.07000000000001, 14.52], [121.08500000000001, 14.52], [121.08500000000001, 14.535], [121.07000000000001, 14.535], [121.07000000000001, 14.52]]]}, "properties": {"gap": 3.3, "sss": 8.1, "rwi": 1.049, "pop_density": 22266.0, "sss_t": 1, "rwi_t": 0, "cls": 3, "color": "#dfb0d6", "crowd_t": 4, "color_crowd": "#a5add3"}}, {"type": "Feature", "geometry": {"type": "Polygon", "coordinates": [[[121.07000000000001, 14.535], [121.08500000000001, 14.535], [121.08500000000001, 14.55], [121.07000000000001, 14.55], [121.07000000000001, 14.535]]]}, "properties": {"gap": 1.2, "sss": 3.1, "rwi": 1.373, "pop_density": 51373.0, "sss_t": 0, "rwi_t": 2, "cls": 2, "color": "#5ac8c8", "crowd_t": 2, "color_crowd": "#5ac8c8"}}, {"type": "Feature", "geometry": {"type": "Polygon", "coordinates": [[[121.08500000000001, 14.55], [121.10000000000001, 14.55], [121.10000000000001, 14.565000000000001], [121.08500000000001, 14.565000000000001], [121.08500000000001, 14.55]]]}, "properties": {"gap": 0.0, "sss": 0.0, "rwi": 1.323, "pop_density": 91865.0, "sss_t": 0, "rwi_t": 2, "cls": 2, "color": "#5ac8c8", "crowd_t": 2, "color_crowd": "#5ac8c8"}}, {"type": "Feature", "geometry": {"type": "Polygon", "coordinates": [[[121.08500000000001, 14.52], [121.10000000000001, 14.52], [121.10000000000001, 14.535], [121.08500000000001, 14.535], [121.08500000000001, 14.52]]]}, "properties": {"gap": 8.0, "sss": 13.2, "rwi": 0.777, "pop_density": 10096.0, "sss_t": 2, "rwi_t": 0, "cls": 6, "color": "#be64ac", "crowd_t": 6, "color_crowd": "#be64ac"}}, {"type": "Feature", "geometry": {"type": "Polygon", "coordinates": [[[121.07000000000001, 14.505], [121.08500000000001, 14.505], [121.08500000000001, 14.520000000000001], [121.07000000000001, 14.520000000000001], [121.07000000000001, 14.505]]]}, "properties": {"gap": 9.4, "sss": 17.5, "rwi": 1.008, "pop_density": 12112.0, "sss_t": 2, "rwi_t": 0, "cls": 6, "color": "#be64ac", "crowd_t": 6, "color_crowd": "#be64ac"}}, {"type": "Feature", "geometry": {"type": "Polygon", "coordinates": [[[121.10000000000001, 14.535], [121.11500000000001, 14.535], [121.11500000000001, 14.55], [121.10000000000001, 14.55], [121.10000000000001, 14.535]]]}, "properties": {"gap": 1.5, "sss": 2.9, "rwi": 1.323, "pop_density": 21236.0, "sss_t": 0, "rwi_t": 2, "cls": 2, "color": "#5ac8c8", "crowd_t": 1, "color_crowd": "#ace4e4"}}, {"type": "Feature", "geometry": {"type": "Polygon", "coordinates": [[[121.10000000000001, 14.52], [121.11500000000001, 14.52], [121.11500000000001, 14.535], [121.10000000000001, 14.535], [121.10000000000001, 14.52]]]}, "properties": {"gap": 15.4, "sss": 28.5, "rwi": 0.777, "pop_density": 12963.0, "sss_t": 2, "rwi_t": 0, "cls": 6, "color": "#be64ac", "crowd_t": 6, "color_crowd": "#be64ac"}}, {"type": "Feature", "geometry": {"type": "Polygon", "coordinates": [[[120.98, 14.595], [120.995, 14.595], [120.995, 14.610000000000001], [120.98, 14.610000000000001], [120.98, 14.595]]]}, "properties": {"gap": 11.4, "sss": 28.2, "rwi": 1.632, "pop_density": 39712.0, "sss_t": 2, "rwi_t": 2, "cls": 8, "color": "#3b4994", "crowd_t": 8, "color_crowd": "#3b4994"}}, {"type": "Feature", "geometry": {"type": "Polygon", "coordinates": [[[120.965, 14.58], [120.98, 14.58], [120.98, 14.595], [120.965, 14.595], [120.965, 14.58]]]}, "properties": {"gap": 6.2, "sss": 11.9, "rwi": 1.136, "pop_density": 14879.0, "sss_t": 2, "rwi_t": 1, "cls": 7, "color": "#8c62aa", "crowd_t": 6, "color_crowd": "#be64ac"}}, {"type": "Feature", "geometry": {"type": "Polygon", "coordinates": [[[120.995, 14.565], [121.01, 14.565], [121.01, 14.58], [120.995, 14.58], [120.995, 14.565]]]}, "properties": {"gap": 4.2, "sss": 10.0, "rwi": 1.009, "pop_density": 50991.0, "sss_t": 1, "rwi_t": 0, "cls": 3, "color": "#dfb0d6", "crowd_t": 5, "color_crowd": "#5698b9"}}, {"type": "Feature", "geometry": {"type": "Polygon", "coordinates": [[[120.98, 14.565], [120.995, 14.565], [120.995, 14.58], [120.98, 14.58], [120.98, 14.565]]]}, "properties": {"gap": 7.6, "sss": 17.8, "rwi": 1.009, "pop_density": 26278.0, "sss_t": 2, "rwi_t": 0, "cls": 6, "color": "#be64ac", "crowd_t": 7, "color_crowd": "#8c62aa"}}, {"type": "Feature", "geometry": {"type": "Polygon", "coordinates": [[[120.965, 14.565], [120.98, 14.565], [120.98, 14.58], [120.965, 14.58], [120.965, 14.565]]]}, "properties": {"gap": 9.4, "sss": 19.5, "rwi": 1.019, "pop_density": 12163.0, "sss_t": 2, "rwi_t": 0, "cls": 6, "color": "#be64ac", "crowd_t": 6, "color_crowd": "#be64ac"}}, {"type": "Feature", "geometry": {"type": "Polygon", "coordinates": [[[120.98, 14.61], [120.995, 14.61], [120.995, 14.625], [120.98, 14.625], [120.98, 14.61]]]}, "properties": {"gap": 6.2, "sss": 15.5, "rwi": 1.489, "pop_density": 37588.0, "sss_t": 2, "rwi_t": 2, "cls": 8, "color": "#3b4994", "crowd_t": 8, "color_crowd": "#3b4994"}}, {"type": "Feature", "geometry": {"type": "Polygon", "coordinates": [[[120.965, 14.595], [120.98, 14.595], [120.98, 14.610000000000001], [120.965, 14.610000000000001], [120.965, 14.595]]]}, "properties": {"gap": 6.8, "sss": 16.7, "rwi": 1.136, "pop_density": 33545.0, "sss_t": 2, "rwi_t": 1, "cls": 7, "color": "#8c62aa", "crowd_t": 8, "color_crowd": "#3b4994"}}, {"type": "Feature", "geometry": {"type": "Polygon", "coordinates": [[[120.95, 14.595], [120.965, 14.595], [120.965, 14.610000000000001], [120.95, 14.610000000000001], [120.95, 14.595]]]}, "properties": {"gap": 6.1, "sss": 13.4, "rwi": 1.136, "pop_density": 49271.0, "sss_t": 2, "rwi_t": 1, "cls": 7, "color": "#8c62aa", "crowd_t": 8, "color_crowd": "#3b4994"}}, {"type": "Feature", "geometry": {"type": "Polygon", "coordinates": [[[120.98, 14.58], [120.995, 14.58], [120.995, 14.595], [120.98, 14.595], [120.98, 14.58]]]}, "properties": {"gap": 7.0, "sss": 15.1, "rwi": 1.632, "pop_density": 13220.0, "sss_t": 2, "rwi_t": 2, "cls": 8, "color": "#3b4994", "crowd_t": 6, "color_crowd": "#be64ac"}}, {"type": "Feature", "geometry": {"type": "Polygon", "coordinates": [[[120.995, 14.595], [121.01, 14.595], [121.01, 14.610000000000001], [120.995, 14.610000000000001], [120.995, 14.595]]]}, "properties": {"gap": 9.3, "sss": 23.0, "rwi": 1.632, "pop_density": 47409.0, "sss_t": 2, "rwi_t": 2, "cls": 8, "color": "#3b4994", "crowd_t": 8, "color_crowd": "#3b4994"}}, {"type": "Feature", "geometry": {"type": "Polygon", "coordinates": [[[120.995, 14.58], [121.01, 14.58], [121.01, 14.595], [120.995, 14.595], [120.995, 14.58]]]}, "properties": {"gap": 3.3, "sss": 8.2, "rwi": 1.632, "pop_density": 56346.0, "sss_t": 1, "rwi_t": 2, "cls": 5, "color": "#5698b9", "crowd_t": 5, "color_crowd": "#5698b9"}}, {"type": "Feature", "geometry": {"type": "Polygon", "coordinates": [[[120.95, 14.61], [120.965, 14.61], [120.965, 14.625], [120.95, 14.625], [120.95, 14.61]]]}, "properties": {"gap": 9.8, "sss": 24.4, "rwi": 1.351, "pop_density": 131599.0, "sss_t": 2, "rwi_t": 2, "cls": 8, "color": "#3b4994", "crowd_t": 8, "color_crowd": "#3b4994"}}, {"type": "Feature", "geometry": {"type": "Polygon", "coordinates": [[[120.965, 14.61], [120.98, 14.61], [120.98, 14.625], [120.965, 14.625], [120.965, 14.61]]]}, "properties": {"gap": 5.4, "sss": 13.6, "rwi": 1.351, "pop_density": 62249.0, "sss_t": 1, "rwi_t": 2, "cls": 5, "color": "#5698b9", "crowd_t": 5, "color_crowd": "#5698b9"}}, {"type": "Feature", "geometry": {"type": "Polygon", "coordinates": [[[120.995, 14.61], [121.01, 14.61], [121.01, 14.625], [120.995, 14.625], [120.995, 14.61]]]}, "properties": {"gap": 4.6, "sss": 11.1, "rwi": 1.489, "pop_density": 42340.0, "sss_t": 1, "rwi_t": 2, "cls": 5, "color": "#5698b9", "crowd_t": 5, "color_crowd": "#5698b9"}}, {"type": "Feature", "geometry": {"type": "Polygon", "coordinates": [[[120.95, 14.625], [120.965, 14.625], [120.965, 14.64], [120.95, 14.64], [120.95, 14.625]]]}, "properties": {"gap": 5.4, "sss": 12.0, "rwi": 1.692, "pop_density": 45102.0, "sss_t": 1, "rwi_t": 2, "cls": 5, "color": "#5698b9", "crowd_t": 5, "color_crowd": "#5698b9"}}, {"type": "Feature", "geometry": {"type": "Polygon", "coordinates": [[[120.95, 14.58], [120.965, 14.58], [120.965, 14.595], [120.95, 14.595], [120.95, 14.58]]]}, "properties": {"gap": 5.0, "sss": 9.4, "rwi": 1.136, "pop_density": 19251.0, "sss_t": 1, "rwi_t": 1, "cls": 4, "color": "#a5add3", "crowd_t": 4, "color_crowd": "#a5add3"}}, {"type": "Feature", "geometry": {"type": "Polygon", "coordinates": [[[120.965, 14.625], [120.98, 14.625], [120.98, 14.64], [120.965, 14.64], [120.965, 14.625]]]}, "properties": {"gap": 1.7, "sss": 4.2, "rwi": 1.692, "pop_density": 75645.0, "sss_t": 0, "rwi_t": 2, "cls": 2, "color": "#5ac8c8", "crowd_t": 2, "color_crowd": "#5ac8c8"}}, {"type": "Feature", "geometry": {"type": "Polygon", "coordinates": [[[121.025, 14.61], [121.04, 14.61], [121.04, 14.625], [121.025, 14.625], [121.025, 14.61]]]}, "properties": {"gap": 4.9, "sss": 11.3, "rwi": 1.191, "pop_density": 16520.0, "sss_t": 1, "rwi_t": 1, "cls": 4, "color": "#a5add3", "crowd_t": 3, "color_crowd": "#dfb0d6"}}, {"type": "Feature", "geometry": {"type": "Polygon", "coordinates": [[[121.025, 14.58], [121.04, 14.58], [121.04, 14.595], [121.025, 14.595], [121.025, 14.58]]]}, "properties": {"gap": 4.8, "sss": 12.0, "rwi": 1.105, "pop_density": 51776.0, "sss_t": 1, "rwi_t": 0, "cls": 3, "color": "#dfb0d6", "crowd_t": 5, "color_crowd": "#5698b9"}}, {"type": "Feature", "geometry": {"type": "Polygon", "coordinates": [[[121.01, 14.595], [121.025, 14.595], [121.025, 14.610000000000001], [121.01, 14.610000000000001], [121.01, 14.595]]]}, "properties": {"gap": 8.9, "sss": 21.9, "rwi": 1.255, "pop_density": 35907.0, "sss_t": 2, "rwi_t": 1, "cls": 7, "color": "#8c62aa", "crowd_t": 8, "color_crowd": "#3b4994"}}, {"type": "Feature", "geometry": {"type": "Polygon", "coordinates": [[[121.025, 14.565], [121.04, 14.565], [121.04, 14.58], [121.025, 14.58], [121.025, 14.565]]]}, "properties": {"gap": 2.2, "sss": 5.2, "rwi": 1.389, "pop_density": 41190.0, "sss_t": 1, "rwi_t": 2, "cls": 5, "color": "#5698b9", "crowd_t": 5, "color_crowd": "#5698b9"}}, {"type": "Feature", "geometry": {"type": "Polygon", "coordinates": [[[121.04, 14.58], [121.055, 14.58], [121.055, 14.595], [121.04, 14.595], [121.04, 14.58]]]}, "properties": {"gap": 5.9, "sss": 12.6, "rwi": 0.857, "pop_density": 44607.0, "sss_t": 2, "rwi_t": 0, "cls": 6, "color": "#be64ac", "crowd_t": 8, "color_crowd": "#3b4994"}}, {"type": "Feature", "geometry": {"type": "Polygon", "coordinates": [[[121.01, 14.565], [121.025, 14.565], [121.025, 14.58], [121.01, 14.58], [121.01, 14.565]]]}, "properties": {"gap": 2.9, "sss": 6.8, "rwi": 1.087, "pop_density": 24504.0, "sss_t": 1, "rwi_t": 0, "cls": 3, "color": "#dfb0d6", "crowd_t": 4, "color_crowd": "#a5add3"}}, {"type": "Feature", "geometry": {"type": "Polygon", "coordinates": [[[121.025, 14.595], [121.04, 14.595], [121.04, 14.610000000000001], [121.025, 14.610000000000001], [121.025, 14.595]]]}, "properties": {"gap": 2.1, "sss": 4.8, "rwi": 1.105, "pop_density": 19674.0, "sss_t": 0, "rwi_t": 0, "cls": 0, "color": "#e8e8e8", "crowd_t": 1, "color_crowd": "#ace4e4"}}, {"type": "Feature", "geometry": {"type": "Polygon", "coordinates": [[[121.04, 14.565], [121.055, 14.565], [121.055, 14.58], [121.04, 14.58], [121.04, 14.565]]]}, "properties": {"gap": 3.8, "sss": 9.5, "rwi": 1.535, "pop_density": 37614.0, "sss_t": 1, "rwi_t": 2, "cls": 5, "color": "#5698b9", "crowd_t": 5, "color_crowd": "#5698b9"}}, {"type": "Feature", "geometry": {"type": "Polygon", "coordinates": [[[121.01, 14.61], [121.025, 14.61], [121.025, 14.625], [121.01, 14.625], [121.01, 14.61]]]}, "properties": {"gap": 4.0, "sss": 9.9, "rwi": 1.45, "pop_density": 32979.0, "sss_t": 1, "rwi_t": 2, "cls": 5, "color": "#5698b9", "crowd_t": 5, "color_crowd": "#5698b9"}}, {"type": "Feature", "geometry": {"type": "Polygon", "coordinates": [[[121.04, 14.61], [121.055, 14.61], [121.055, 14.625], [121.04, 14.625], [121.04, 14.61]]]}, "properties": {"gap": 6.5, "sss": 15.2, "rwi": 1.278, "pop_density": 27337.0, "sss_t": 2, "rwi_t": 1, "cls": 7, "color": "#8c62aa", "crowd_t": 7, "color_crowd": "#8c62aa"}}, {"type": "Feature", "geometry": {"type": "Polygon", "coordinates": [[[121.055, 14.61], [121.07000000000001, 14.61], [121.07000000000001, 14.625], [121.055, 14.625], [121.055, 14.61]]]}, "properties": {"gap": 2.1, "sss": 4.9, "rwi": 1.278, "pop_density": 25155.0, "sss_t": 0, "rwi_t": 1, "cls": 1, "color": "#ace4e4", "crowd_t": 1, "color_crowd": "#ace4e4"}}, {"type": "Feature", "geometry": {"type": "Polygon", "coordinates": [[[121.055, 14.565], [121.07000000000001, 14.565], [121.07000000000001, 14.58], [121.055, 14.58], [121.055, 14.565]]]}, "properties": {"gap": 3.6, "sss": 8.0, "rwi": 1.535, "pop_density": 16781.0, "sss_t": 1, "rwi_t": 2, "cls": 5, "color": "#5698b9", "crowd_t": 3, "color_crowd": "#dfb0d6"}}, {"type": "Feature", "geometry": {"type": "Polygon", "coordinates": [[[121.04, 14.595], [121.055, 14.595], [121.055, 14.610000000000001], [121.04, 14.610000000000001], [121.04, 14.595]]]}, "properties": {"gap": 8.3, "sss": 17.8, "rwi": 0.857, "pop_density": 12655.0, "sss_t": 2, "rwi_t": 0, "cls": 6, "color": "#be64ac", "crowd_t": 6, "color_crowd": "#be64ac"}}, {"type": "Feature", "geometry": {"type": "Polygon", "coordinates": [[[121.055, 14.595], [121.07000000000001, 14.595], [121.07000000000001, 14.610000000000001], [121.055, 14.610000000000001], [121.055, 14.595]]]}, "properties": {"gap": 5.5, "sss": 8.2, "rwi": 0.857, "pop_density": 5032.0, "sss_t": 1, "rwi_t": 0, "cls": 3, "color": "#dfb0d6", "crowd_t": 3, "color_crowd": "#dfb0d6"}}, {"type": "Feature", "geometry": {"type": "Polygon", "coordinates": [[[121.01, 14.58], [121.025, 14.58], [121.025, 14.595], [121.01, 14.595], [121.01, 14.58]]]}, "properties": {"gap": 1.4, "sss": 3.6, "rwi": 1.255, "pop_density": 39186.0, "sss_t": 0, "rwi_t": 1, "cls": 1, "color": "#ace4e4", "crowd_t": 2, "color_crowd": "#5ac8c8"}}, {"type": "Feature", "geometry": {"type": "Polygon", "coordinates": [[[121.055, 14.58], [121.07000000000001, 14.58], [121.07000000000001, 14.595], [121.055, 14.595], [121.055, 14.58]]]}, "properties": {"gap": 4.5, "sss": 8.0, "rwi": 0.857, "pop_density": 10615.0, "sss_t": 1, "rwi_t": 0, "cls": 3, "color": "#dfb0d6", "crowd_t": 3, "color_crowd": "#dfb0d6"}}, {"type": "Feature", "geometry": {"type": "Polygon", "coordinates": [[[121.01, 14.625], [121.025, 14.625], [121.025, 14.64], [121.01, 14.64], [121.01, 14.625]]]}, "properties": {"gap": 6.1, "sss": 14.3, "rwi": 1.143, "pop_density": 28963.0, "sss_t": 2, "rwi_t": 1, "cls": 7, "color": "#8c62aa", "crowd_t": 7, "color_crowd": "#8c62aa"}}, {"type": "Feature", "geometry": {"type": "Polygon", "coordinates": [[[121.07000000000001, 14.61], [121.08500000000001, 14.61], [121.08500000000001, 14.625], [121.07000000000001, 14.625], [121.07000000000001, 14.61]]]}, "properties": {"gap": 7.2, "sss": 17.0, "rwi": 1.122, "pop_density": 20538.0, "sss_t": 2, "rwi_t": 0, "cls": 6, "color": "#be64ac", "crowd_t": 7, "color_crowd": "#8c62aa"}}, {"type": "Feature", "geometry": {"type": "Polygon", "coordinates": [[[121.08500000000001, 14.61], [121.10000000000001, 14.61], [121.10000000000001, 14.625], [121.08500000000001, 14.625], [121.08500000000001, 14.61]]]}, "properties": {"gap": 4.5, "sss": 10.2, "rwi": 1.133, "pop_density": 20431.0, "sss_t": 1, "rwi_t": 0, "cls": 3, "color": "#dfb0d6", "crowd_t": 4, "color_crowd": "#a5add3"}}, {"type": "Feature", "geometry": {"type": "Polygon", "coordinates": [[[121.07000000000001, 14.58], [121.08500000000001, 14.58], [121.08500000000001, 14.595], [121.07000000000001, 14.595], [121.07000000000001, 14.58]]]}, "properties": {"gap": 5.6, "sss": 10.9, "rwi": 1.467, "pop_density": 8651.0, "sss_t": 1, "rwi_t": 2, "cls": 5, "color": "#5698b9", "crowd_t": 3, "color_crowd": "#dfb0d6"}}, {"type": "Feature", "geometry": {"type": "Polygon", "coordinates": [[[121.07000000000001, 14.565], [121.08500000000001, 14.565], [121.08500000000001, 14.58], [121.07000000000001, 14.58], [121.07000000000001, 14.565]]]}, "properties": {"gap": 4.8, "sss": 10.5, "rwi": 1.094, "pop_density": 26386.0, "sss_t": 1, "rwi_t": 0, "cls": 3, "color": "#dfb0d6", "crowd_t": 4, "color_crowd": "#a5add3"}}, {"type": "Feature", "geometry": {"type": "Polygon", "coordinates": [[[121.10000000000001, 14.61], [121.11500000000001, 14.61], [121.11500000000001, 14.625], [121.10000000000001, 14.625], [121.10000000000001, 14.61]]]}, "properties": {"gap": 1.9, "sss": 3.9, "rwi": 1.133, "pop_density": 11125.0, "sss_t": 0, "rwi_t": 0, "cls": 0, "color": "#e8e8e8", "crowd_t": 0, "color_crowd": "#e8e8e8"}}, {"type": "Feature", "geometry": {"type": "Polygon", "coordinates": [[[121.08500000000001, 14.595], [121.10000000000001, 14.595], [121.10000000000001, 14.610000000000001], [121.08500000000001, 14.610000000000001], [121.08500000000001, 14.595]]]}, "properties": {"gap": 0.8, "sss": 1.8, "rwi": 1.316, "pop_density": 18976.0, "sss_t": 0, "rwi_t": 1, "cls": 1, "color": "#ace4e4", "crowd_t": 1, "color_crowd": "#ace4e4"}}, {"type": "Feature", "geometry": {"type": "Polygon", "coordinates": [[[121.07000000000001, 14.595], [121.08500000000001, 14.595], [121.08500000000001, 14.610000000000001], [121.07000000000001, 14.610000000000001], [121.07000000000001, 14.595]]]}, "properties": {"gap": 8.3, "sss": 17.8, "rwi": 1.467, "pop_density": 7002.0, "sss_t": 2, "rwi_t": 2, "cls": 8, "color": "#3b4994", "crowd_t": 6, "color_crowd": "#be64ac"}}, {"type": "Feature", "geometry": {"type": "Polygon", "coordinates": [[[121.08500000000001, 14.58], [121.10000000000001, 14.58], [121.10000000000001, 14.595], [121.08500000000001, 14.595], [121.08500000000001, 14.58]]]}, "properties": {"gap": 4.1, "sss": 10.1, "rwi": 1.316, "pop_density": 37575.0, "sss_t": 1, "rwi_t": 1, "cls": 4, "color": "#a5add3", "crowd_t": 5, "color_crowd": "#5698b9"}}, {"type": "Feature", "geometry": {"type": "Polygon", "coordinates": [[[121.08500000000001, 14.565], [121.10000000000001, 14.565], [121.10000000000001, 14.58], [121.08500000000001, 14.58], [121.08500000000001, 14.565]]]}, "properties": {"gap": 0.0, "sss": 0.0, "rwi": 1.259, "pop_density": 32139.0, "sss_t": 0, "rwi_t": 1, "cls": 1, "color": "#ace4e4", "crowd_t": 1, "color_crowd": "#ace4e4"}}, {"type": "Feature", "geometry": {"type": "Polygon", "coordinates": [[[121.10000000000001, 14.595], [121.11500000000001, 14.595], [121.11500000000001, 14.610000000000001], [121.10000000000001, 14.610000000000001], [121.10000000000001, 14.595]]]}, "properties": {"gap": 0.0, "sss": 0.0, "rwi": 1.316, "pop_density": 18490.0, "sss_t": 0, "rwi_t": 1, "cls": 1, "color": "#ace4e4", "crowd_t": 0, "color_crowd": "#e8e8e8"}}, {"type": "Feature", "geometry": {"type": "Polygon", "coordinates": [[[121.10000000000001, 14.565], [121.11500000000001, 14.565], [121.11500000000001, 14.58], [121.10000000000001, 14.58], [121.10000000000001, 14.565]]]}, "properties": {"gap": 0.0, "sss": 0.0, "rwi": 1.259, "pop_density": 25930.0, "sss_t": 0, "rwi_t": 1, "cls": 1, "color": "#ace4e4", "crowd_t": 1, "color_crowd": "#ace4e4"}}, {"type": "Feature", "geometry": {"type": "Polygon", "coordinates": [[[121.10000000000001, 14.58], [121.11500000000001, 14.58], [121.11500000000001, 14.595], [121.10000000000001, 14.595], [121.10000000000001, 14.58]]]}, "properties": {"gap": 12.7, "sss": 30.6, "rwi": 1.316, "pop_density": 32134.0, "sss_t": 2, "rwi_t": 1, "cls": 7, "color": "#8c62aa", "crowd_t": 7, "color_crowd": "#8c62aa"}}, {"type": "Feature", "geometry": {"type": "Polygon", "coordinates": [[[121.10000000000001, 14.55], [121.11500000000001, 14.55], [121.11500000000001, 14.565000000000001], [121.10000000000001, 14.565000000000001], [121.10000000000001, 14.55]]]}, "properties": {"gap": 0.0, "sss": 0.0, "rwi": 1.323, "pop_density": 18807.0, "sss_t": 0, "rwi_t": 2, "cls": 2, "color": "#5ac8c8", "crowd_t": 0, "color_crowd": "#e8e8e8"}}, {"type": "Feature", "geometry": {"type": "Polygon", "coordinates": [[[120.98, 14.625], [120.995, 14.625], [120.995, 14.64], [120.98, 14.64], [120.98, 14.625]]]}, "properties": {"gap": 15.0, "sss": 34.7, "rwi": 0.965, "pop_density": 23586.0, "sss_t": 2, "rwi_t": 0, "cls": 6, "color": "#be64ac", "crowd_t": 7, "color_crowd": "#8c62aa"}}, {"type": "Feature", "geometry": {"type": "Polygon", "coordinates": [[[120.995, 14.64], [121.01, 14.64], [121.01, 14.655000000000001], [120.995, 14.655000000000001], [120.995, 14.64]]]}, "properties": {"gap": 3.3, "sss": 7.6, "rwi": 1.247, "pop_density": 27872.0, "sss_t": 1, "rwi_t": 1, "cls": 4, "color": "#a5add3", "crowd_t": 4, "color_crowd": "#a5add3"}}, {"type": "Feature", "geometry": {"type": "Polygon", "coordinates": [[[120.98, 14.655], [120.995, 14.655], [120.995, 14.67], [120.98, 14.67], [120.98, 14.655]]]}, "properties": {"gap": 4.3, "sss": 10.1, "rwi": 1.247, "pop_density": 38049.0, "sss_t": 1, "rwi_t": 1, "cls": 4, "color": "#a5add3", "crowd_t": 5, "color_crowd": "#5698b9"}}, {"type": "Feature", "geometry": {"type": "Polygon", "coordinates": [[[120.995, 14.67], [121.01, 14.67], [121.01, 14.685], [120.995, 14.685], [120.995, 14.67]]]}, "properties": {"gap": 0.0, "sss": 0.0, "rwi": 1.058, "pop_density": 38302.0, "sss_t": 0, "rwi_t": 0, "cls": 0, "color": "#e8e8e8", "crowd_t": 2, "color_crowd": "#5ac8c8"}}, {"type": "Feature", "geometry": {"type": "Polygon", "coordinates": [[[120.995, 14.655], [121.01, 14.655], [121.01, 14.67], [120.995, 14.67], [120.995, 14.655]]]}, "properties": {"gap": 4.2, "sss": 10.1, "rwi": 1.247, "pop_density": 40867.0, "sss_t": 1, "rwi_t": 1, "cls": 4, "color": "#a5add3", "crowd_t": 5, "color_crowd": "#5698b9"}}, {"type": "Feature", "geometry": {"type": "Polygon", "coordinates": [[[120.995, 14.625], [121.01, 14.625], [121.01, 14.64], [120.995, 14.64], [120.995, 14.625]]]}, "properties": {"gap": 3.8, "sss": 8.8, "rwi": 0.965, "pop_density": 17956.0, "sss_t": 1, "rwi_t": 0, "cls": 3, "color": "#dfb0d6", "crowd_t": 3, "color_crowd": "#dfb0d6"}}, {"type": "Feature", "geometry": {"type": "Polygon", "coordinates": [[[120.98, 14.64], [120.995, 14.64], [120.995, 14.655000000000001], [120.98, 14.655000000000001], [120.98, 14.64]]]}, "properties": {"gap": 9.1, "sss": 22.5, "rwi": 1.247, "pop_density": 29519.0, "sss_t": 2, "rwi_t": 1, "cls": 7, "color": "#8c62aa", "crowd_t": 7, "color_crowd": "#8c62aa"}}, {"type": "Feature", "geometry": {"type": "Polygon", "coordinates": [[[120.95, 14.64], [120.965, 14.64], [120.965, 14.655000000000001], [120.95, 14.655000000000001], [120.95, 14.64]]]}, "properties": {"gap": 4.1, "sss": 10.1, "rwi": 1.263, "pop_density": 52209.0, "sss_t": 1, "rwi_t": 1, "cls": 4, "color": "#a5add3", "crowd_t": 5, "color_crowd": "#5698b9"}}, {"type": "Feature", "geometry": {"type": "Polygon", "coordinates": [[[120.965, 14.64], [120.98, 14.64], [120.98, 14.655000000000001], [120.965, 14.655000000000001], [120.965, 14.64]]]}, "properties": {"gap": 2.3, "sss": 5.8, "rwi": 1.263, "pop_density": 62810.0, "sss_t": 1, "rwi_t": 1, "cls": 4, "color": "#a5add3", "crowd_t": 5, "color_crowd": "#5698b9"}}, {"type": "Feature", "geometry": {"type": "Polygon", "coordinates": [[[120.965, 14.655], [120.98, 14.655], [120.98, 14.67], [120.965, 14.67], [120.965, 14.655]]]}, "properties": {"gap": 3.2, "sss": 7.9, "rwi": 1.263, "pop_density": 36342.0, "sss_t": 1, "rwi_t": 1, "cls": 4, "color": "#a5add3", "crowd_t": 5, "color_crowd": "#5698b9"}}, {"type": "Feature", "geometry": {"type": "Polygon", "coordinates": [[[120.95, 14.655], [120.965, 14.655], [120.965, 14.67], [120.95, 14.67], [120.95, 14.655]]]}, "properties": {"gap": 6.7, "sss": 16.7, "rwi": 1.263, "pop_density": 53170.0, "sss_t": 2, "rwi_t": 1, "cls": 7, "color": "#8c62aa", "crowd_t": 8, "color_crowd": "#3b4994"}}, {"type": "Feature", "geometry": {"type": "Polygon", "coordinates": [[[120.95, 14.685], [120.965, 14.685], [120.965, 14.700000000000001], [120.95, 14.700000000000001], [120.95, 14.685]]]}, "properties": {"gap": 0.2, "sss": 0.4, "rwi": 1.047, "pop_density": 31476.0, "sss_t": 0, "rwi_t": 0, "cls": 0, "color": "#e8e8e8", "crowd_t": 1, "color_crowd": "#ace4e4"}}, {"type": "Feature", "geometry": {"type": "Polygon", "coordinates": [[[120.98, 14.67], [120.995, 14.67], [120.995, 14.685], [120.98, 14.685], [120.98, 14.67]]]}, "properties": {"gap": 0.8, "sss": 2.0, "rwi": 1.058, "pop_density": 29095.0, "sss_t": 0, "rwi_t": 0, "cls": 0, "color": "#e8e8e8", "crowd_t": 1, "color_crowd": "#ace4e4"}}, {"type": "Feature", "geometry": {"type": "Polygon", "coordinates": [[[120.995, 14.685], [121.01, 14.685], [121.01, 14.700000000000001], [120.995, 14.700000000000001], [120.995, 14.685]]]}, "properties": {"gap": 0.0, "sss": 0.0, "rwi": 1.058, "pop_density": 35837.0, "sss_t": 0, "rwi_t": 0, "cls": 0, "color": "#e8e8e8", "crowd_t": 2, "color_crowd": "#5ac8c8"}}, {"type": "Feature", "geometry": {"type": "Polygon", "coordinates": [[[120.965, 14.685], [120.98, 14.685], [120.98, 14.700000000000001], [120.965, 14.700000000000001], [120.965, 14.685]]]}, "properties": {"gap": 1.7, "sss": 3.7, "rwi": 1.047, "pop_density": 17584.0, "sss_t": 0, "rwi_t": 0, "cls": 0, "color": "#e8e8e8", "crowd_t": 0, "color_crowd": "#e8e8e8"}}, {"type": "Feature", "geometry": {"type": "Polygon", "coordinates": [[[120.98, 14.685], [120.995, 14.685], [120.995, 14.700000000000001], [120.98, 14.700000000000001], [120.98, 14.685]]]}, "properties": {"gap": 0.0, "sss": 0.0, "rwi": 1.058, "pop_density": 30985.0, "sss_t": 0, "rwi_t": 0, "cls": 0, "color": "#e8e8e8", "crowd_t": 1, "color_crowd": "#ace4e4"}}, {"type": "Feature", "geometry": {"type": "Polygon", "coordinates": [[[120.965, 14.67], [120.98, 14.67], [120.98, 14.685], [120.965, 14.685], [120.965, 14.67]]]}, "properties": {"gap": 0.1, "sss": 0.2, "rwi": 1.047, "pop_density": 16593.0, "sss_t": 0, "rwi_t": 0, "cls": 0, "color": "#e8e8e8", "crowd_t": 0, "color_crowd": "#e8e8e8"}}, {"type": "Feature", "geometry": {"type": "Polygon", "coordinates": [[[120.95, 14.67], [120.965, 14.67], [120.965, 14.685], [120.95, 14.685], [120.95, 14.67]]]}, "properties": {"gap": 0.0, "sss": 0.1, "rwi": 1.047, "pop_density": 34596.0, "sss_t": 0, "rwi_t": 0, "cls": 0, "color": "#e8e8e8", "crowd_t": 2, "color_crowd": "#5ac8c8"}}, {"type": "Feature", "geometry": {"type": "Polygon", "coordinates": [[[121.04, 14.64], [121.055, 14.64], [121.055, 14.655000000000001], [121.04, 14.655000000000001], [121.04, 14.64]]]}, "properties": {"gap": 9.6, "sss": 22.2, "rwi": 1.145, "pop_density": 21103.0, "sss_t": 2, "rwi_t": 1, "cls": 7, "color": "#8c62aa", "crowd_t": 7, "color_crowd": "#8c62aa"}}, {"type": "Feature", "geometry": {"type": "Polygon", "coordinates": [[[121.025, 14.625], [121.04, 14.625], [121.04, 14.64], [121.025, 14.64], [121.025, 14.625]]]}, "properties": {"gap": 2.8, "sss": 6.1, "rwi": 1.266, "pop_density": 17322.0, "sss_t": 1, "rwi_t": 1, "cls": 4, "color": "#a5add3", "crowd_t": 3, "color_crowd": "#dfb0d6"}}, {"type": "Feature", "geometry": {"type": "Polygon", "coordinates": [[[121.04, 14.625], [121.055, 14.625], [121.055, 14.64], [121.04, 14.64], [121.04, 14.625]]]}, "properties": {"gap": 6.8, "sss": 15.9, "rwi": 1.252, "pop_density": 22932.0, "sss_t": 2, "rwi_t": 1, "cls": 7, "color": "#8c62aa", "crowd_t": 7, "color_crowd": "#8c62aa"}}, {"type": "Feature", "geometry": {"type": "Polygon", "coordinates": [[[121.055, 14.625], [121.07000000000001, 14.625], [121.07000000000001, 14.64], [121.055, 14.64], [121.055, 14.625]]]}, "properties": {"gap": 4.1, "sss": 10.2, "rwi": 1.252, "pop_density": 27365.0, "sss_t": 1, "rwi_t": 1, "cls": 4, "color": "#a5add3", "crowd_t": 4, "color_crowd": "#a5add3"}}, {"type": "Feature", "geometry": {"type": "Polygon", "coordinates": [[[121.025, 14.67], [121.04, 14.67], [121.04, 14.685], [121.025, 14.685], [121.025, 14.67]]]}, "properties": {"gap": 5.5, "sss": 13.6, "rwi": 1.049, "pop_density": 33189.0, "sss_t": 1, "rwi_t": 0, "cls": 3, "color": "#dfb0d6", "crowd_t": 5, "color_crowd": "#5698b9"}}, {"type": "Feature", "geometry": {"type": "Polygon", "coordinates": [[[121.025, 14.64], [121.04, 14.64], [121.04, 14.655000000000001], [121.025, 14.655000000000001], [121.025, 14.64]]]}, "properties": {"gap": 10.7, "sss": 25.5, "rwi": 0.858, "pop_density": 25810.0, "sss_t": 2, "rwi_t": 0, "cls": 6, "color": "#be64ac", "crowd_t": 7, "color_crowd": "#8c62aa"}}, {"type": "Feature", "geometry": {"type": "Polygon", "coordinates": [[[121.025, 14.655], [121.04, 14.655], [121.04, 14.67], [121.025, 14.67], [121.025, 14.655]]]}, "properties": {"gap": 6.0, "sss": 14.7, "rwi": 0.858, "pop_density": 27630.0, "sss_t": 2, "rwi_t": 0, "cls": 6, "color": "#be64ac", "crowd_t": 7, "color_crowd": "#8c62aa"}}, {"type": "Feature", "geometry": {"type": "Polygon", "coordinates": [[[121.01, 14.64], [121.025, 14.64], [121.025, 14.655000000000001], [121.01, 14.655000000000001], [121.01, 14.64]]]}, "properties": {"gap": 0.7, "sss": 1.8, "rwi": 1.006, "pop_density": 28599.0, "sss_t": 0, "rwi_t": 0, "cls": 0, "color": "#e8e8e8", "crowd_t": 1, "color_crowd": "#ace4e4"}}, {"type": "Feature", "geometry": {"type": "Polygon", "coordinates": [[[121.04, 14.655], [121.055, 14.655], [121.055, 14.67], [121.04, 14.67], [121.04, 14.655]]]}, "properties": {"gap": 0.7, "sss": 1.6, "rwi": 1.145, "pop_density": 31201.0, "sss_t": 0, "rwi_t": 1, "cls": 1, "color": "#ace4e4", "crowd_t": 1, "color_crowd": "#ace4e4"}}, {"type": "Feature", "geometry": {"type": "Polygon", "coordinates": [[[121.01, 14.655], [121.025, 14.655], [121.025, 14.67], [121.01, 14.67], [121.01, 14.655]]]}, "properties": {"gap": 5.2, "sss": 12.7, "rwi": 1.006, "pop_density": 35690.0, "sss_t": 1, "rwi_t": 0, "cls": 3, "color": "#dfb0d6", "crowd_t": 5, "color_crowd": "#5698b9"}}, {"type": "Feature", "geometry": {"type": "Polygon", "coordinates": [[[121.01, 14.67], [121.025, 14.67], [121.025, 14.685], [121.01, 14.685], [121.01, 14.67]]]}, "properties": {"gap": 1.4, "sss": 3.4, "rwi": 1.395, "pop_density": 24548.0, "sss_t": 0, "rwi_t": 2, "cls": 2, "color": "#5ac8c8", "crowd_t": 1, "color_crowd": "#ace4e4"}}, {"type": "Feature", "geometry": {"type": "Polygon", "coordinates": [[[121.025, 14.685], [121.04, 14.685], [121.04, 14.700000000000001], [121.025, 14.700000000000001], [121.025, 14.685]]]}, "properties": {"gap": 10.5, "sss": 25.9, "rwi": 1.049, "pop_density": 32484.0, "sss_t": 2, "rwi_t": 0, "cls": 6, "color": "#be64ac", "crowd_t": 8, "color_crowd": "#3b4994"}}, {"type": "Feature", "geometry": {"type": "Polygon", "coordinates": [[[121.04, 14.67], [121.055, 14.67], [121.055, 14.685], [121.04, 14.685], [121.04, 14.67]]]}, "properties": {"gap": 7.1, "sss": 17.4, "rwi": 1.419, "pop_density": 28041.0, "sss_t": 2, "rwi_t": 2, "cls": 8, "color": "#3b4994", "crowd_t": 7, "color_crowd": "#8c62aa"}}, {"type": "Feature", "geometry": {"type": "Polygon", "coordinates": [[[121.055, 14.655], [121.07000000000001, 14.655], [121.07000000000001, 14.67], [121.055, 14.67], [121.055, 14.655]]]}, "properties": {"gap": 7.4, "sss": 17.0, "rwi": 1.145, "pop_density": 19172.0, "sss_t": 2, "rwi_t": 1, "cls": 7, "color": "#8c62aa", "crowd_t": 7, "color_crowd": "#8c62aa"}}, {"type": "Feature", "geometry": {"type": "Polygon", "coordinates": [[[121.055, 14.64], [121.07000000000001, 14.64], [121.07000000000001, 14.655000000000001], [121.055, 14.655000000000001], [121.055, 14.64]]]}, "properties": {"gap": 0.5, "sss": 1.1, "rwi": 1.145, "pop_density": 19266.0, "sss_t": 0, "rwi_t": 1, "cls": 1, "color": "#ace4e4", "crowd_t": 1, "color_crowd": "#ace4e4"}}, {"type": "Feature", "geometry": {"type": "Polygon", "coordinates": [[[121.055, 14.67], [121.07000000000001, 14.67], [121.07000000000001, 14.685], [121.055, 14.685], [121.055, 14.67]]]}, "properties": {"gap": 10.3, "sss": 23.7, "rwi": 1.419, "pop_density": 24950.0, "sss_t": 2, "rwi_t": 2, "cls": 8, "color": "#3b4994", "crowd_t": 7, "color_crowd": "#8c62aa"}}, {"type": "Feature", "geometry": {"type": "Polygon", "coordinates": [[[121.08500000000001, 14.625], [121.10000000000001, 14.625], [121.10000000000001, 14.64], [121.08500000000001, 14.64], [121.08500000000001, 14.625]]]}, "properties": {"gap": 0.5, "sss": 1.2, "rwi": 1.426, "pop_density": 13870.0, "sss_t": 0, "rwi_t": 2, "cls": 2, "color": "#5ac8c8", "crowd_t": 0, "color_crowd": "#e8e8e8"}}, {"type": "Feature", "geometry": {"type": "Polygon", "coordinates": [[[121.07000000000001, 14.655], [121.08500000000001, 14.655], [121.08500000000001, 14.67], [121.07000000000001, 14.67], [121.07000000000001, 14.655]]]}, "properties": {"gap": 7.3, "sss": 16.7, "rwi": 1.275, "pop_density": 20504.0, "sss_t": 2, "rwi_t": 1, "cls": 7, "color": "#8c62aa", "crowd_t": 7, "color_crowd": "#8c62aa"}}, {"type": "Feature", "geometry": {"type": "Polygon", "coordinates": [[[121.07000000000001, 14.625], [121.08500000000001, 14.625], [121.08500000000001, 14.64], [121.07000000000001, 14.64], [121.07000000000001, 14.625]]]}, "properties": {"gap": 4.1, "sss": 8.7, "rwi": 1.334, "pop_density": 15754.0, "sss_t": 1, "rwi_t": 2, "cls": 5, "color": "#5698b9", "crowd_t": 3, "color_crowd": "#dfb0d6"}}, {"type": "Feature", "geometry": {"type": "Polygon", "coordinates": [[[121.07000000000001, 14.64], [121.08500000000001, 14.64], [121.08500000000001, 14.655000000000001], [121.07000000000001, 14.655000000000001], [121.07000000000001, 14.64]]]}, "properties": {"gap": 5.2, "sss": 12.2, "rwi": 1.275, "pop_density": 15641.0, "sss_t": 1, "rwi_t": 1, "cls": 4, "color": "#a5add3", "crowd_t": 3, "color_crowd": "#dfb0d6"}}, {"type": "Feature", "geometry": {"type": "Polygon", "coordinates": [[[121.10000000000001, 14.64], [121.11500000000001, 14.64], [121.11500000000001, 14.655000000000001], [121.10000000000001, 14.655000000000001], [121.10000000000001, 14.64]]]}, "properties": {"gap": 0.8, "sss": 1.8, "rwi": 1.587, "pop_density": 23724.0, "sss_t": 0, "rwi_t": 2, "cls": 2, "color": "#5ac8c8", "crowd_t": 1, "color_crowd": "#ace4e4"}}, {"type": "Feature", "geometry": {"type": "Polygon", "coordinates": [[[121.10000000000001, 14.625], [121.11500000000001, 14.625], [121.11500000000001, 14.64], [121.10000000000001, 14.64], [121.10000000000001, 14.625]]]}, "properties": {"gap": 0.1, "sss": 0.3, "rwi": 1.426, "pop_density": 15148.0, "sss_t": 0, "rwi_t": 2, "cls": 2, "color": "#5ac8c8", "crowd_t": 0, "color_crowd": "#e8e8e8"}}, {"type": "Feature", "geometry": {"type": "Polygon", "coordinates": [[[121.08500000000001, 14.64], [121.10000000000001, 14.64], [121.10000000000001, 14.655000000000001], [121.08500000000001, 14.655000000000001], [121.08500000000001, 14.64]]]}, "properties": {"gap": 0.2, "sss": 0.4, "rwi": 1.587, "pop_density": 24664.0, "sss_t": 0, "rwi_t": 2, "cls": 2, "color": "#5ac8c8", "crowd_t": 1, "color_crowd": "#ace4e4"}}, {"type": "Feature", "geometry": {"type": "Polygon", "coordinates": [[[121.10000000000001, 14.655], [121.11500000000001, 14.655], [121.11500000000001, 14.67], [121.10000000000001, 14.67], [121.10000000000001, 14.655]]]}, "properties": {"gap": 2.2, "sss": 5.0, "rwi": 1.587, "pop_density": 24198.0, "sss_t": 1, "rwi_t": 2, "cls": 5, "color": "#5698b9", "crowd_t": 4, "color_crowd": "#a5add3"}}, {"type": "Feature", "geometry": {"type": "Polygon", "coordinates": [[[121.08500000000001, 14.685], [121.10000000000001, 14.685], [121.10000000000001, 14.700000000000001], [121.08500000000001, 14.700000000000001], [121.08500000000001, 14.685]]]}, "properties": {"gap": 9.8, "sss": 24.4, "rwi": 1.606, "pop_density": 51912.0, "sss_t": 2, "rwi_t": 2, "cls": 8, "color": "#3b4994", "crowd_t": 8, "color_crowd": "#3b4994"}}, {"type": "Feature", "geometry": {"type": "Polygon", "coordinates": [[[121.08500000000001, 14.655], [121.10000000000001, 14.655], [121.10000000000001, 14.67], [121.08500000000001, 14.67], [121.08500000000001, 14.655]]]}, "properties": {"gap": 0.0, "sss": 0.0, "rwi": 1.587, "pop_density": 32906.0, "sss_t": 0, "rwi_t": 2, "cls": 2, "color": "#5ac8c8", "crowd_t": 2, "color_crowd": "#5ac8c8"}}, {"type": "Feature", "geometry": {"type": "Polygon", "coordinates": [[[121.10000000000001, 14.67], [121.11500000000001, 14.67], [121.11500000000001, 14.685], [121.10000000000001, 14.685], [121.10000000000001, 14.67]]]}, "properties": {"gap": 0.0, "sss": 0.0, "rwi": 1.606, "pop_density": 27685.0, "sss_t": 0, "rwi_t": 2, "cls": 2, "color": "#5ac8c8", "crowd_t": 1, "color_crowd": "#ace4e4"}}, {"type": "Feature", "geometry": {"type": "Polygon", "coordinates": [[[121.07000000000001, 14.67], [121.08500000000001, 14.67], [121.08500000000001, 14.685], [121.07000000000001, 14.685], [121.07000000000001, 14.67]]]}, "properties": {"gap": 7.9, "sss": 19.8, "rwi": 1.508, "pop_density": 42267.0, "sss_t": 2, "rwi_t": 2, "cls": 8, "color": "#3b4994", "crowd_t": 8, "color_crowd": "#3b4994"}}, {"type": "Feature", "geometry": {"type": "Polygon", "coordinates": [[[121.07000000000001, 14.685], [121.08500000000001, 14.685], [121.08500000000001, 14.700000000000001], [121.07000000000001, 14.700000000000001], [121.07000000000001, 14.685]]]}, "properties": {"gap": 0.0, "sss": 0.0, "rwi": 1.508, "pop_density": 32592.0, "sss_t": 0, "rwi_t": 2, "cls": 2, "color": "#5ac8c8", "crowd_t": 2, "color_crowd": "#5ac8c8"}}, {"type": "Feature", "geometry": {"type": "Polygon", "coordinates": [[[121.055, 14.685], [121.07000000000001, 14.685], [121.07000000000001, 14.700000000000001], [121.055, 14.700000000000001], [121.055, 14.685]]]}, "properties": {"gap": 0.0, "sss": 0.0, "rwi": 1.419, "pop_density": 25074.0, "sss_t": 0, "rwi_t": 2, "cls": 2, "color": "#5ac8c8", "crowd_t": 1, "color_crowd": "#ace4e4"}}, {"type": "Feature", "geometry": {"type": "Polygon", "coordinates": [[[121.08500000000001, 14.67], [121.10000000000001, 14.67], [121.10000000000001, 14.685], [121.08500000000001, 14.685], [121.08500000000001, 14.67]]]}, "properties": {"gap": 16.6, "sss": 41.5, "rwi": 1.606, "pop_density": 58102.0, "sss_t": 2, "rwi_t": 2, "cls": 8, "color": "#3b4994", "crowd_t": 8, "color_crowd": "#3b4994"}}]}