{"type": "FeatureCollection", "features": [{"type": "Feature", "geometry": {"type": "Polygon", "coordinates": [[[121.1409, 14.5472], [121.1559, 14.5472], [121.1559, 14.5622], [121.1409, 14.5622], [121.1409, 14.5472]]]}, "properties": {"gap": 0.0, "sss": 0.0, "rwi": 1.11, "pop_density": 9559.0, "sss_t": 0, "rwi_t": 0, "cls": 0, "color": "#e8e8e8", "crowd_t": 2, "color_crowd": "#5ac8c8"}}, {"type": "Feature", "geometry": {"type": "Polygon", "coordinates": [[[121.1559, 14.5322], [121.1709, 14.5322], [121.1709, 14.5472], [121.1559, 14.5472], [121.1559, 14.5322]]]}, "properties": {"gap": 0.0, "sss": 0.0, "rwi": 1.25, "pop_density": 4574.0, "sss_t": 0, "rwi_t": 1, "cls": 1, "color": "#ace4e4", "crowd_t": 0, "color_crowd": "#e8e8e8"}}, {"type": "Feature", "geometry": {"type": "Polygon", "coordinates": [[[121.1259, 14.562199999999999], [121.1409, 14.562199999999999], [121.1409, 14.5772], [121.1259, 14.5772], [121.1259, 14.562199999999999]]]}, "properties": {"gap": 0.1, "sss": 0.2, "rwi": 1.468, "pop_density": 9338.0, "sss_t": 1, "rwi_t": 2, "cls": 5, "color": "#5698b9", "crowd_t": 4, "color_crowd": "#a5add3"}}, {"type": "Feature", "geometry": {"type": "Polygon", "coordinates": [[[121.1709, 14.562199999999999], [121.1859, 14.562199999999999], [121.1859, 14.5772], [121.1709, 14.5772], [121.1709, 14.562199999999999]]]}, "properties": {"gap": 2.9, "sss": 5.2, "rwi": 1.363, "pop_density": 41363.0, "sss_t": 2, "rwi_t": 2, "cls": 8, "color": "#3b4994", "crowd_t": 8, "color_crowd": "#3b4994"}}, {"type": "Feature", "geometry": {"type": "Polygon", "coordinates": [[[121.1709, 14.5472], [121.1859, 14.5472], [121.1859, 14.5622], [121.1709, 14.5622], [121.1709, 14.5472]]]}, "properties": {"gap": 0.0, "sss": 0.0, "rwi": 1.25, "pop_density": 6495.0, "sss_t": 0, "rwi_t": 1, "cls": 1, "color": "#ace4e4", "crowd_t": 0, "color_crowd": "#e8e8e8"}}, {"type": "Feature", "geometry": {"type": "Polygon", "coordinates": [[[121.1859, 14.5472], [121.2009, 14.5472], [121.2009, 14.5622], [121.1859, 14.5622], [121.1859, 14.5472]]]}, "properties": {"gap": 0.0, "sss": 0.0, "rwi": 1.408, "pop_density": 6825.0, "sss_t": 0, "rwi_t": 2, "cls": 2, "color": "#5ac8c8", "crowd_t": 1, "color_crowd": "#ace4e4"}}, {"type": "Feature", "geometry": {"type": "Polygon", "coordinates": [[[121.2009, 14.562199999999999], [121.2159, 14.562199999999999], [121.2159, 14.5772], [121.2009, 14.5772], [121.2009, 14.562199999999999]]]}, "properties": {"gap": 0.0, "sss": 0.0, "rwi": 1.18, "pop_density": 6571.0, "sss_t": 0, "rwi_t": 0, "cls": 0, "color": "#e8e8e8", "crowd_t": 1, "color_crowd": "#ace4e4"}}, {"type": "Feature", "geometry": {"type": "Polygon", "coordinates": [[[121.1409, 14.5772], [121.1559, 14.5772], [121.1559, 14.5922], [121.1409, 14.5922], [121.1409, 14.5772]]]}, "properties": {"gap": 16.7, "sss": 32.6, "rwi": 1.201, "pop_density": 9906.0, "sss_t": 2, "rwi_t": 0, "cls": 6, "color": "#be64ac", "crowd_t": 8, "color_crowd": "#3b4994"}}, {"type": "Feature", "geometry": {"type": "Polygon", "coordinates": [[[121.1259, 14.5772], [121.1409, 14.5772], [121.1409, 14.5922], [121.1259, 14.5922], [121.1259, 14.5772]]]}, "properties": {"gap": 2.8, "sss": 5.6, "rwi": 1.201, "pop_density": 21127.0, "sss_t": 2, "rwi_t": 0, "cls": 6, "color": "#be64ac", "crowd_t": 8, "color_crowd": "#3b4994"}}, {"type": "Feature", "geometry": {"type": "Polygon", "coordinates": [[[121.1559, 14.5772], [121.1709, 14.5772], [121.1709, 14.5922], [121.1559, 14.5922], [121.1559, 14.5772]]]}, "properties": {"gap": 0.0, "sss": 0.0, "rwi": 1.363, "pop_density": 12294.0, "sss_t": 0, "rwi_t": 2, "cls": 2, "color": "#5ac8c8", "crowd_t": 2, "color_crowd": "#5ac8c8"}}, {"type": "Feature", "geometry": {"type": "Polygon", "coordinates": [[[121.1559, 14.5922], [121.1709, 14.5922], [121.1709, 14.6072], [121.1559, 14.6072], [121.1559, 14.5922]]]}, "properties": {"gap": 0.0, "sss": 0.0, "rwi": 1.363, "pop_density": 6143.0, "sss_t": 0, "rwi_t": 2, "cls": 2, "color": "#5ac8c8", "crowd_t": 0, "color_crowd": "#e8e8e8"}}, {"type": "Feature", "geometry": {"type": "Polygon", "coordinates": [[[121.1709, 14.5772], [121.1859, 14.5772], [121.1859, 14.5922], [121.1709, 14.5922], [121.1709, 14.5772]]]}, "properties": {"gap": 0.0, "sss": 0.0, "rwi": 1.363, "pop_density": 38526.0, "sss_t": 0, "rwi_t": 2, "cls": 2, "color": "#5ac8c8", "crowd_t": 2, "color_crowd": "#5ac8c8"}}, {"type": "Feature", "geometry": {"type": "Polygon", "coordinates": [[[121.1409, 14.607199999999999], [121.1559, 14.607199999999999], [121.1559, 14.6222], [121.1409, 14.6222], [121.1409, 14.607199999999999]]]}, "properties": {"gap": 0.0, "sss": 0.0, "rwi": 1.31, "pop_density": 4509.0, "sss_t": 0, "rwi_t": 1, "cls": 1, "color": "#ace4e4", "crowd_t": 0, "color_crowd": "#e8e8e8"}}, {"type": "Feature", "geometry": {"type": "Polygon", "coordinates": [[[121.1259, 14.6372], [121.1409, 14.6372], [121.1409, 14.6522], [121.1259, 14.6522], [121.1259, 14.6372]]]}, "properties": {"gap": 5.5, "sss": 8.2, "rwi": 1.202, "pop_density": 6833.0, "sss_t": 2, "rwi_t": 0, "cls": 6, "color": "#be64ac", "crowd_t": 7, "color_crowd": "#8c62aa"}}, {"type": "Feature", "geometry": {"type": "Polygon", "coordinates": [[[121.1259, 14.6222], [121.1409, 14.6222], [121.1409, 14.6372], [121.1259, 14.6372], [121.1259, 14.6222]]]}, "properties": {"gap": 2.5, "sss": 4.4, "rwi": 1.202, "pop_density": 5058.0, "sss_t": 2, "rwi_t": 0, "cls": 6, "color": "#be64ac", "crowd_t": 6, "color_crowd": "#be64ac"}}, {"type": "Feature", "geometry": {"type": "Polygon", "coordinates": [[[121.1259, 14.607199999999999], [121.1409, 14.607199999999999], [121.1409, 14.6222], [121.1259, 14.6222], [121.1259, 14.607199999999999]]]}, "properties": {"gap": 0.0, "sss": 0.0, "rwi": 1.31, "pop_density": 2313.0, "sss_t": 0, "rwi_t": 1, "cls": 1, "color": "#ace4e4", "crowd_t": 0, "color_crowd": "#e8e8e8"}}, {"type": "Feature", "geometry": {"type": "Polygon", "coordinates": [[[121.1559, 14.6222], [121.1709, 14.6222], [121.1709, 14.6372], [121.1559, 14.6372], [121.1559, 14.6222]]]}, "properties": {"gap": 10.0, "sss": 16.1, "rwi": 1.144, "pop_density": 7028.0, "sss_t": 2, "rwi_t": 0, "cls": 6, "color": "#be64ac", "crowd_t": 7, "color_crowd": "#8c62aa"}}]}