{"type": "FeatureCollection", "features": [{"type": "Feature", "geometry": {"type": "Polygon", "coordinates": [[[120.8214, 14.8188], [120.8364, 14.8188], [120.8364, 14.8338], [120.8214, 14.8338], [120.8214, 14.8188]]]}, "properties": {"gap": 12.1, "sss": 21.0, "rwi": 0.812, "pop_density": 7570.0, "sss_t": 2, "rwi_t": 0, "cls": 6, "color": "#be64ac", "crowd_t": 8, "color_crowd": "#3b4994"}}, {"type": "Feature", "geometry": {"type": "Polygon", "coordinates": [[[120.8514, 14.8038], [120.8664, 14.8038], [120.8664, 14.818800000000001], [120.8514, 14.818800000000001], [120.8514, 14.8038]]]}, "properties": {"gap": 10.0, "sss": 15.7, "rwi": 0.904, "pop_density": 8400.0, "sss_t": 2, "rwi_t": 0, "cls": 6, "color": "#be64ac", "crowd_t": 8, "color_crowd": "#3b4994"}}, {"type": "Feature", "geometry": {"type": "Polygon", "coordinates": [[[120.8514, 14.7888], [120.8664, 14.7888], [120.8664, 14.8038], [120.8514, 14.8038], [120.8514, 14.7888]]]}, "properties": {"gap": 10.0, "sss": 14.4, "rwi": 0.904, "pop_density": 4969.0, "sss_t": 2, "rwi_t": 0, "cls": 6, "color": "#be64ac", "crowd_t": 7, "color_crowd": "#8c62aa"}}, {"type": "Feature", "geometry": {"type": "Polygon", "coordinates": [[[120.8364, 14.8038], [120.8514, 14.8038], [120.8514, 14.818800000000001], [120.8364, 14.818800000000001], [120.8364, 14.8038]]]}, "properties": {"gap": 10.0, "sss": 16.9, "rwi": 0.709, "pop_density": 11412.0, "sss_t": 2, "rwi_t": 0, "cls": 6, "color": "#be64ac", "crowd_t": 8, "color_crowd": "#3b4994"}}, {"type": "Feature", "geometry": {"type": "Polygon", "coordinates": [[[120.7614, 14.8338], [120.7764, 14.8338], [120.7764, 14.8488], [120.7614, 14.8488], [120.7614, 14.8338]]]}, "properties": {"gap": 0.0, "sss": 0.0, "rwi": 0.784, "pop_density": 10360.0, "sss_t": 0, "rwi_t": 0, "cls": 0, "color": "#e8e8e8", "crowd_t": 2, "color_crowd": "#5ac8c8"}}, {"type": "Feature", "geometry": {"type": "Polygon", "coordinates": [[[120.7614, 14.8488], [120.7764, 14.8488], [120.7764, 14.863800000000001], [120.7614, 14.863800000000001], [120.7614, 14.8488]]]}, "properties": {"gap": 0.0, "sss": 0.0, "rwi": 0.784, "pop_density": 2737.0, "sss_t": 0, "rwi_t": 0, "cls": 0, "color": "#e8e8e8", "crowd_t": 0, "color_crowd": "#e8e8e8"}}, {"type": "Feature", "geometry": {"type": "Polygon", "coordinates": [[[120.8064, 14.8338], [120.8214, 14.8338], [120.8214, 14.8488], [120.8064, 14.8488], [120.8064, 14.8338]]]}, "properties": {"gap": 5.0, "sss": 10.0, "rwi": 1.221, "pop_density": 5014.0, "sss_t": 2, "rwi_t": 1, "cls": 7, "color": "#8c62aa", "crowd_t": 7, "color_crowd": "#8c62aa"}}, {"type": "Feature", "geometry": {"type": "Polygon", "coordinates": [[[120.8364, 14.8338], [120.8514, 14.8338], [120.8514, 14.8488], [120.8364, 14.8488], [120.8364, 14.8338]]]}, "properties": {"gap": 0.0, "sss": 0.0, "rwi": 1.182, "pop_density": 4320.0, "sss_t": 0, "rwi_t": 1, "cls": 1, "color": "#ace4e4", "crowd_t": 1, "color_crowd": "#ace4e4"}}, {"type": "Feature", "geometry": {"type": "Polygon", "coordinates": [[[120.8064, 14.8488], [120.8214, 14.8488], [120.8214, 14.863800000000001], [120.8064, 14.863800000000001], [120.8064, 14.8488]]]}, "properties": {"gap": 0.5, "sss": 1.3, "rwi": 1.221, "pop_density": 7015.0, "sss_t": 1, "rwi_t": 1, "cls": 4, "color": "#a5add3", "crowd_t": 5, "color_crowd": "#5698b9"}}, {"type": "Feature", "geometry": {"type": "Polygon", "coordinates": [[[120.8064, 14.8188], [120.8214, 14.8188], [120.8214, 14.8338], [120.8064, 14.8338], [120.8064, 14.8188]]]}, "properties": {"gap": 10.0, "sss": 17.9, "rwi": 0.651, "pop_density": 7173.0, "sss_t": 2, "rwi_t": 0, "cls": 6, "color": "#be64ac", "crowd_t": 8, "color_crowd": "#3b4994"}}, {"type": "Feature", "geometry": {"type": "Polygon", "coordinates": [[[120.8214, 14.8488], [120.8364, 14.8488], [120.8364, 14.863800000000001], [120.8214, 14.863800000000001], [120.8214, 14.8488]]]}, "properties": {"gap": 0.0, "sss": 0.0, "rwi": 1.182, "pop_density": 2218.0, "sss_t": 0, "rwi_t": 1, "cls": 1, "color": "#ace4e4", "crowd_t": 0, "color_crowd": "#e8e8e8"}}, {"type": "Feature", "geometry": {"type": "Polygon", "coordinates": [[[120.8064, 14.8638], [120.8214, 14.8638], [120.8214, 14.8788], [120.8064, 14.8788], [120.8064, 14.8638]]]}, "properties": {"gap": 10.0, "sss": 16.5, "rwi": 1.203, "pop_density": 4707.0, "sss_t": 2, "rwi_t": 1, "cls": 7, "color": "#8c62aa", "crowd_t": 7, "color_crowd": "#8c62aa"}}, {"type": "Feature", "geometry": {"type": "Polygon", "coordinates": [[[120.8214, 14.8338], [120.8364, 14.8338], [120.8364, 14.8488], [120.8214, 14.8488], [120.8214, 14.8338]]]}, "properties": {"gap": 0.0, "sss": 0.0, "rwi": 1.182, "pop_density": 1765.0, "sss_t": 0, "rwi_t": 1, "cls": 1, "color": "#ace4e4", "crowd_t": 0, "color_crowd": "#e8e8e8"}}, {"type": "Feature", "geometry": {"type": "Polygon", "coordinates": [[[120.8514, 14.8488], [120.8664, 14.8488], [120.8664, 14.863800000000001], [120.8514, 14.863800000000001], [120.8514, 14.8488]]]}, "properties": {"gap": 0.0, "sss": 0.0, "rwi": 1.615, "pop_density": 8979.0, "sss_t": 0, "rwi_t": 2, "cls": 2, "color": "#5ac8c8", "crowd_t": 2, "color_crowd": "#5ac8c8"}}, {"type": "Feature", "geometry": {"type": "Polygon", "coordinates": [[[120.8514, 14.8338], [120.8664, 14.8338], [120.8664, 14.8488], [120.8514, 14.8488], [120.8514, 14.8338]]]}, "properties": {"gap": 0.0, "sss": 0.0, "rwi": 1.615, "pop_density": 5026.0, "sss_t": 0, "rwi_t": 2, "cls": 2, "color": "#5ac8c8", "crowd_t": 1, "color_crowd": "#ace4e4"}}, {"type": "Feature", "geometry": {"type": "Polygon", "coordinates": [[[120.8664, 14.8488], [120.8814, 14.8488], [120.8814, 14.863800000000001], [120.8664, 14.863800000000001], [120.8664, 14.8488]]]}, "properties": {"gap": 0.0, "sss": 0.0, "rwi": 1.615, "pop_density": 3456.0, "sss_t": 0, "rwi_t": 2, "cls": 2, "color": "#5ac8c8", "crowd_t": 0, "color_crowd": "#e8e8e8"}}, {"type": "Feature", "geometry": {"type": "Polygon", "coordinates": [[[120.7914, 14.8788], [120.8064, 14.8788], [120.8064, 14.8938], [120.7914, 14.8938], [120.7914, 14.8788]]]}, "properties": {"gap": 0.0, "sss": 0.0, "rwi": 1.363, "pop_density": 3449.0, "sss_t": 0, "rwi_t": 2, "cls": 2, "color": "#5ac8c8", "crowd_t": 0, "color_crowd": "#e8e8e8"}}, {"type": "Feature", "geometry": {"type": "Polygon", "coordinates": [[[120.7914, 14.8638], [120.8064, 14.8638], [120.8064, 14.8788], [120.7914, 14.8788], [120.7914, 14.8638]]]}, "properties": {"gap": 0.0, "sss": 0.0, "rwi": 1.282, "pop_density": 2757.0, "sss_t": 0, "rwi_t": 1, "cls": 1, "color": "#ace4e4", "crowd_t": 0, "color_crowd": "#e8e8e8"}}, {"type": "Feature", "geometry": {"type": "Polygon", "coordinates": [[[120.7764, 14.8938], [120.7914, 14.8938], [120.7914, 14.908800000000001], [120.7764, 14.908800000000001], [120.7764, 14.8938]]]}, "properties": {"gap": 0.0, "sss": 0.0, "rwi": 1.363, "pop_density": 3515.0, "sss_t": 0, "rwi_t": 2, "cls": 2, "color": "#5ac8c8", "crowd_t": 1, "color_crowd": "#ace4e4"}}, {"type": "Feature", "geometry": {"type": "Polygon", "coordinates": [[[120.7764, 14.8788], [120.7914, 14.8788], [120.7914, 14.8938], [120.7764, 14.8938], [120.7764, 14.8788]]]}, "properties": {"gap": 0.0, "sss": 0.0, "rwi": 1.363, "pop_density": 4245.0, "sss_t": 0, "rwi_t": 2, "cls": 2, "color": "#5ac8c8", "crowd_t": 1, "color_crowd": "#ace4e4"}}, {"type": "Feature", "geometry": {"type": "Polygon", "coordinates": [[[120.7614, 14.8938], [120.7764, 14.8938], [120.7764, 14.908800000000001], [120.7614, 14.908800000000001], [120.7614, 14.8938]]]}, "properties": {"gap": 0.0, "sss": 0.0, "rwi": 1.266, "pop_density": 2208.0, "sss_t": 0, "rwi_t": 1, "cls": 1, "color": "#ace4e4", "crowd_t": 0, "color_crowd": "#e8e8e8"}}, {"type": "Feature", "geometry": {"type": "Polygon", "coordinates": [[[120.8364, 14.8788], [120.8514, 14.8788], [120.8514, 14.8938], [120.8364, 14.8938], [120.8364, 14.8788]]]}, "properties": {"gap": 1.3, "sss": 2.1, "rwi": 1.29, "pop_density": 4428.0, "sss_t": 1, "rwi_t": 2, "cls": 5, "color": "#5698b9", "crowd_t": 4, "color_crowd": "#a5add3"}}, {"type": "Feature", "geometry": {"type": "Polygon", "coordinates": [[[120.8514, 14.8638], [120.8664, 14.8638], [120.8664, 14.8788], [120.8514, 14.8788], [120.8514, 14.8638]]]}, "properties": {"gap": 0.0, "sss": 0.0, "rwi": 1.02, "pop_density": 2839.0, "sss_t": 0, "rwi_t": 0, "cls": 0, "color": "#e8e8e8", "crowd_t": 0, "color_crowd": "#e8e8e8"}}, {"type": "Feature", "geometry": {"type": "Polygon", "coordinates": [[[120.8514, 14.8788], [120.8664, 14.8788], [120.8664, 14.8938], [120.8514, 14.8938], [120.8514, 14.8788]]]}, "properties": {"gap": 1.1, "sss": 1.7, "rwi": 1.145, "pop_density": 6254.0, "sss_t": 1, "rwi_t": 0, "cls": 3, "color": "#dfb0d6", "crowd_t": 5, "color_crowd": "#5698b9"}}, {"type": "Feature", "geometry": {"type": "Polygon", "coordinates": [[[120.8214, 14.8788], [120.8364, 14.8788], [120.8364, 14.8938], [120.8214, 14.8938], [120.8214, 14.8788]]]}, "properties": {"gap": 3.1, "sss": 4.4, "rwi": 1.29, "pop_density": 2996.0, "sss_t": 2, "rwi_t": 2, "cls": 8, "color": "#3b4994", "crowd_t": 6, "color_crowd": "#be64ac"}}]}