{"type": "FeatureCollection", "features": [{"type": "Feature", "geometry": {"type": "Polygon", "coordinates": [[[120.5669, 15.931], [120.5819, 15.931], [120.5819, 15.946], [120.5669, 15.946], [120.5669, 15.931]]]}, "properties": {"gap": 10.0, "sss": 13.5, "rwi": 0.611, "pop_density": 2463.0, "sss_t": 2, "rwi_t": 0, "cls": 6, "color": "#be64ac", "crowd_t": 7, "color_crowd": "#8c62aa"}}, {"type": "Feature", "geometry": {"type": "Polygon", "coordinates": [[[120.5519, 15.946], [120.5669, 15.946], [120.5669, 15.961], [120.5519, 15.961], [120.5519, 15.946]]]}, "properties": {"gap": 10.0, "sss": 14.6, "rwi": 0.789, "pop_density": 5348.0, "sss_t": 2, "rwi_t": 1, "cls": 7, "color": "#8c62aa", "crowd_t": 8, "color_crowd": "#3b4994"}}, {"type": "Feature", "geometry": {"type": "Polygon", "coordinates": [[[120.5519, 15.931], [120.5669, 15.931], [120.5669, 15.946], [120.5519, 15.946], [120.5519, 15.931]]]}, "properties": {"gap": 30.0, "sss": 37.7, "rwi": 0.789, "pop_density": 201.0, "sss_t": 2, "rwi_t": 1, "cls": 7, "color": "#8c62aa", "crowd_t": 6, "color_crowd": "#be64ac"}}, {"type": "Feature", "geometry": {"type": "Polygon", "coordinates": [[[120.5819, 15.960999999999999], [120.5969, 15.960999999999999], [120.5969, 15.975999999999999], [120.5819, 15.975999999999999], [120.5819, 15.960999999999999]]]}, "properties": {"gap": 0.0, "sss": 0.0, "rwi": 0.775, "pop_density": 1488.0, "sss_t": 0, "rwi_t": 1, "cls": 1, "color": "#ace4e4", "crowd_t": 1, "color_crowd": "#ace4e4"}}, {"type": "Feature", "geometry": {"type": "Polygon", "coordinates": [[[120.5819, 15.931], [120.5969, 15.931], [120.5969, 15.946], [120.5819, 15.946], [120.5819, 15.931]]]}, "properties": {"gap": 0.0, "sss": 0.0, "rwi": 1.013, "pop_density": 1389.0, "sss_t": 0, "rwi_t": 2, "cls": 2, "color": "#5ac8c8", "crowd_t": 1, "color_crowd": "#ace4e4"}}, {"type": "Feature", "geometry": {"type": "Polygon", "coordinates": [[[120.5969, 15.931], [120.6119, 15.931], [120.6119, 15.946], [120.5969, 15.946], [120.5969, 15.931]]]}, "properties": {"gap": 0.0, "sss": 0.0, "rwi": 1.013, "pop_density": 362.0, "sss_t": 0, "rwi_t": 2, "cls": 2, "color": "#5ac8c8", "crowd_t": 0, "color_crowd": "#e8e8e8"}}, {"type": "Feature", "geometry": {"type": "Polygon", "coordinates": [[[120.5369, 15.975999999999999], [120.5519, 15.975999999999999], [120.5519, 15.991], [120.5369, 15.991], [120.5369, 15.975999999999999]]]}, "properties": {"gap": 0.0, "sss": 0.0, "rwi": 0.879, "pop_density": 10270.0, "sss_t": 0, "rwi_t": 1, "cls": 1, "color": "#ace4e4", "crowd_t": 2, "color_crowd": "#5ac8c8"}}, {"type": "Feature", "geometry": {"type": "Polygon", "coordinates": [[[120.5369, 15.991], [120.5519, 15.991], [120.5519, 16.006], [120.5369, 16.006], [120.5369, 15.991]]]}, "properties": {"gap": 0.0, "sss": 0.0, "rwi": 0.879, "pop_density": 4315.0, "sss_t": 0, "rwi_t": 1, "cls": 1, "color": "#ace4e4", "crowd_t": 2, "color_crowd": "#5ac8c8"}}, {"type": "Feature", "geometry": {"type": "Polygon", "coordinates": [[[120.5519, 15.975999999999999], [120.5669, 15.975999999999999], [120.5669, 15.991], [120.5519, 15.991], [120.5519, 15.975999999999999]]]}, "properties": {"gap": 9.3, "sss": 12.3, "rwi": 0.879, "pop_density": 2124.0, "sss_t": 2, "rwi_t": 1, "cls": 7, "color": "#8c62aa", "crowd_t": 7, "color_crowd": "#8c62aa"}}, {"type": "Feature", "geometry": {"type": "Polygon", "coordinates": [[[120.5819, 15.975999999999999], [120.5969, 15.975999999999999], [120.5969, 15.991], [120.5819, 15.991], [120.5819, 15.975999999999999]]]}, "properties": {"gap": 0.0, "sss": 0.0, "rwi": 0.32, "pop_density": 3127.0, "sss_t": 0, "rwi_t": 0, "cls": 0, "color": "#e8e8e8", "crowd_t": 2, "color_crowd": "#5ac8c8"}}, {"type": "Feature", "geometry": {"type": "Polygon", "coordinates": [[[120.5519, 15.960999999999999], [120.5669, 15.960999999999999], [120.5669, 15.975999999999999], [120.5519, 15.975999999999999], [120.5519, 15.960999999999999]]]}, "properties": {"gap": 10.0, "sss": 13.8, "rwi": 0.924, "pop_density": 3470.0, "sss_t": 2, "rwi_t": 2, "cls": 8, "color": "#3b4994", "crowd_t": 8, "color_crowd": "#3b4994"}}, {"type": "Feature", "geometry": {"type": "Polygon", "coordinates": [[[120.5669, 15.991], [120.5819, 15.991], [120.5819, 16.006], [120.5669, 16.006], [120.5669, 15.991]]]}, "properties": {"gap": 4.8, "sss": 6.4, "rwi": 0.708, "pop_density": 1069.0, "sss_t": 1, "rwi_t": 0, "cls": 3, "color": "#dfb0d6", "crowd_t": 3, "color_crowd": "#dfb0d6"}}, {"type": "Feature", "geometry": {"type": "Polygon", "coordinates": [[[120.5519, 15.991], [120.5669, 15.991], [120.5669, 16.006], [120.5519, 16.006], [120.5519, 15.991]]]}, "properties": {"gap": 10.0, "sss": 12.5, "rwi": 0.879, "pop_density": 0.0, "sss_t": 2, "rwi_t": 1, "cls": 7, "color": "#8c62aa", "crowd_t": 6, "color_crowd": "#be64ac"}}, {"type": "Feature", "geometry": {"type": "Polygon", "coordinates": [[[120.5819, 15.991], [120.5969, 15.991], [120.5969, 16.006], [120.5819, 16.006], [120.5819, 15.991]]]}, "properties": {"gap": 0.0, "sss": 0.0, "rwi": 0.32, "pop_density": 955.0, "sss_t": 0, "rwi_t": 0, "cls": 0, "color": "#e8e8e8", "crowd_t": 0, "color_crowd": "#e8e8e8"}}, {"type": "Feature", "geometry": {"type": "Polygon", "coordinates": [[[120.5219, 16.006], [120.5369, 16.006], [120.5369, 16.021], [120.5219, 16.021], [120.5219, 16.006]]]}, "properties": {"gap": 0.0, "sss": 0.0, "rwi": 0.904, "pop_density": 3732.0, "sss_t": 0, "rwi_t": 2, "cls": 2, "color": "#5ac8c8", "crowd_t": 2, "color_crowd": "#5ac8c8"}}, {"type": "Feature", "geometry": {"type": "Polygon", "coordinates": [[[120.5669, 16.006], [120.5819, 16.006], [120.5819, 16.021], [120.5669, 16.021], [120.5669, 16.006]]]}, "properties": {"gap": 0.0, "sss": 0.0, "rwi": 0.489, "pop_density": 2835.0, "sss_t": 0, "rwi_t": 0, "cls": 0, "color": "#e8e8e8", "crowd_t": 1, "color_crowd": "#ace4e4"}}, {"type": "Feature", "geometry": {"type": "Polygon", "coordinates": [[[120.5669, 16.021], [120.5819, 16.021], [120.5819, 16.036], [120.5669, 16.036], [120.5669, 16.021]]]}, "properties": {"gap": 0.0, "sss": 0.0, "rwi": 0.489, "pop_density": 1241.0, "sss_t": 0, "rwi_t": 0, "cls": 0, "color": "#e8e8e8", "crowd_t": 0, "color_crowd": "#e8e8e8"}}]}