{"type": "FeatureCollection", "features": [{"type": "Feature", "geometry": {"type": "Polygon", "coordinates": [[[122.55330000000001, 10.6833], [122.56830000000001, 10.6833], [122.56830000000001, 10.6983], [122.55330000000001, 10.6983], [122.55330000000001, 10.6833]]]}, "properties": {"gap": 2.6, "sss": 6.4, "rwi": 1.255, "pop_density": 25785.0, "sss_t": 1, "rwi_t": 2, "cls": 5, "color": "#5698b9", "crowd_t": 5, "color_crowd": "#5698b9"}}, {"type": "Feature", "geometry": {"type": "Polygon", "coordinates": [[[122.5383, 10.6983], [122.55330000000001, 10.6983], [122.55330000000001, 10.7133], [122.5383, 10.7133], [122.5383, 10.6983]]]}, "properties": {"gap": 3.4, "sss": 5.8, "rwi": 1.071, "pop_density": 4133.0, "sss_t": 1, "rwi_t": 1, "cls": 4, "color": "#a5add3", "crowd_t": 3, "color_crowd": "#dfb0d6"}}, {"type": "Feature", "geometry": {"type": "Polygon", "coordinates": [[[122.5383, 10.6833], [122.55330000000001, 10.6833], [122.55330000000001, 10.6983], [122.5383, 10.6983], [122.5383, 10.6833]]]}, "properties": {"gap": 4.3, "sss": 9.9, "rwi": 1.255, "pop_density": 19769.0, "sss_t": 1, "rwi_t": 2, "cls": 5, "color": "#5698b9", "crowd_t": 5, "color_crowd": "#5698b9"}}, {"type": "Feature", "geometry": {"type": "Polygon", "coordinates": [[[122.5233, 10.6833], [122.5383, 10.6833], [122.5383, 10.6983], [122.5233, 10.6983], [122.5233, 10.6833]]]}, "properties": {"gap": 0.0, "sss": 0.0, "rwi": 1.191, "pop_density": 7799.0, "sss_t": 0, "rwi_t": 2, "cls": 2, "color": "#5ac8c8", "crowd_t": 1, "color_crowd": "#ace4e4"}}, {"type": "Feature", "geometry": {"type": "Polygon", "coordinates": [[[122.5233, 10.6983], [122.5383, 10.6983], [122.5383, 10.7133], [122.5233, 10.7133], [122.5233, 10.6983]]]}, "properties": {"gap": 0.0, "sss": 0.0, "rwi": 1.098, "pop_density": 5189.0, "sss_t": 0, "rwi_t": 1, "cls": 1, "color": "#ace4e4", "crowd_t": 0, "color_crowd": "#e8e8e8"}}, {"type": "Feature", "geometry": {"type": "Polygon", "coordinates": [[[122.5233, 10.668299999999999], [122.5383, 10.668299999999999], [122.5383, 10.6833], [122.5233, 10.6833], [122.5233, 10.668299999999999]]]}, "properties": {"gap": 3.8, "sss": 8.6, "rwi": 0.353, "pop_density": 18596.0, "sss_t": 1, "rwi_t": 0, "cls": 3, "color": "#dfb0d6", "crowd_t": 5, "color_crowd": "#5698b9"}}, {"type": "Feature", "geometry": {"type": "Polygon", "coordinates": [[[122.55330000000001, 10.6983], [122.56830000000001, 10.6983], [122.56830000000001, 10.7133], [122.55330000000001, 10.7133], [122.55330000000001, 10.6983]]]}, "properties": {"gap": 6.9, "sss": 15.0, "rwi": 1.071, "pop_density": 6082.0, "sss_t": 1, "rwi_t": 1, "cls": 4, "color": "#a5add3", "crowd_t": 4, "color_crowd": "#a5add3"}}, {"type": "Feature", "geometry": {"type": "Polygon", "coordinates": [[[122.5383, 10.713299999999998], [122.55330000000001, 10.713299999999998], [122.55330000000001, 10.728299999999999], [122.5383, 10.728299999999999], [122.5383, 10.713299999999998]]]}, "properties": {"gap": 7.5, "sss": 12.7, "rwi": 1.071, "pop_density": 7234.0, "sss_t": 2, "rwi_t": 1, "cls": 7, "color": "#8c62aa", "crowd_t": 7, "color_crowd": "#8c62aa"}}, {"type": "Feature", "geometry": {"type": "Polygon", "coordinates": [[[122.5383, 10.668299999999999], [122.55330000000001, 10.668299999999999], [122.55330000000001, 10.6833], [122.5383, 10.6833], [122.5383, 10.668299999999999]]]}, "properties": {"gap": 0.0, "sss": 0.0, "rwi": 0.353, "pop_density": 21371.0, "sss_t": 0, "rwi_t": 0, "cls": 0, "color": "#e8e8e8", "crowd_t": 2, "color_crowd": "#5ac8c8"}}, {"type": "Feature", "geometry": {"type": "Polygon", "coordinates": [[[122.58330000000001, 10.6983], [122.59830000000001, 10.6983], [122.59830000000001, 10.7133], [122.58330000000001, 10.7133], [122.58330000000001, 10.6983]]]}, "properties": {"gap": 0.0, "sss": 0.0, "rwi": 0.316, "pop_density": 11484.0, "sss_t": 0, "rwi_t": 0, "cls": 0, "color": "#e8e8e8", "crowd_t": 2, "color_crowd": "#5ac8c8"}}, {"type": "Feature", "geometry": {"type": "Polygon", "coordinates": [[[122.56830000000001, 10.6983], [122.58330000000001, 10.6983], [122.58330000000001, 10.7133], [122.56830000000001, 10.7133], [122.56830000000001, 10.6983]]]}, "properties": {"gap": 2.0, "sss": 4.5, "rwi": 1.154, "pop_density": 14692.0, "sss_t": 0, "rwi_t": 2, "cls": 2, "color": "#5ac8c8", "crowd_t": 2, "color_crowd": "#5ac8c8"}}, {"type": "Feature", "geometry": {"type": "Polygon", "coordinates": [[[122.56830000000001, 10.6833], [122.58330000000001, 10.6833], [122.58330000000001, 10.6983], [122.56830000000001, 10.6983], [122.56830000000001, 10.6833]]]}, "properties": {"gap": 1.1, "sss": 2.4, "rwi": 1.473, "pop_density": 13451.0, "sss_t": 0, "rwi_t": 2, "cls": 2, "color": "#5ac8c8", "crowd_t": 2, "color_crowd": "#5ac8c8"}}, {"type": "Feature", "geometry": {"type": "Polygon", "coordinates": [[[122.55330000000001, 10.713299999999998], [122.56830000000001, 10.713299999999998], [122.56830000000001, 10.728299999999999], [122.55330000000001, 10.728299999999999], [122.55330000000001, 10.713299999999998]]]}, "properties": {"gap": 2.0, "sss": 4.7, "rwi": 1.071, "pop_density": 14620.0, "sss_t": 1, "rwi_t": 1, "cls": 4, "color": "#a5add3", "crowd_t": 5, "color_crowd": "#5698b9"}}, {"type": "Feature", "geometry": {"type": "Polygon", "coordinates": [[[122.55330000000001, 10.728299999999999], [122.56830000000001, 10.728299999999999], [122.56830000000001, 10.7433], [122.55330000000001, 10.7433], [122.55330000000001, 10.728299999999999]]]}, "properties": {"gap": 5.3, "sss": 11.4, "rwi": 1.036, "pop_density": 7546.0, "sss_t": 1, "rwi_t": 0, "cls": 3, "color": "#dfb0d6", "crowd_t": 4, "color_crowd": "#a5add3"}}, {"type": "Feature", "geometry": {"type": "Polygon", "coordinates": [[[122.5383, 10.728299999999999], [122.55330000000001, 10.728299999999999], [122.55330000000001, 10.7433], [122.5383, 10.7433], [122.5383, 10.728299999999999]]]}, "properties": {"gap": 11.2, "sss": 17.5, "rwi": 1.036, "pop_density": 6827.0, "sss_t": 2, "rwi_t": 0, "cls": 6, "color": "#be64ac", "crowd_t": 7, "color_crowd": "#8c62aa"}}, {"type": "Feature", "geometry": {"type": "Polygon", "coordinates": [[[122.5383, 10.7433], [122.55330000000001, 10.7433], [122.55330000000001, 10.7583], [122.5383, 10.7583], [122.5383, 10.7433]]]}, "properties": {"gap": 6.5, "sss": 11.5, "rwi": 1.036, "pop_density": 3266.0, "sss_t": 1, "rwi_t": 0, "cls": 3, "color": "#dfb0d6", "crowd_t": 3, "color_crowd": "#dfb0d6"}}, {"type": "Feature", "geometry": {"type": "Polygon", "coordinates": [[[122.5233, 10.713299999999998], [122.5383, 10.713299999999998], [122.5383, 10.728299999999999], [122.5233, 10.728299999999999], [122.5233, 10.713299999999998]]]}, "properties": {"gap": 15.3, "sss": 31.7, "rwi": 1.098, "pop_density": 6041.0, "sss_t": 2, "rwi_t": 1, "cls": 7, "color": "#8c62aa", "crowd_t": 7, "color_crowd": "#8c62aa"}}, {"type": "Feature", "geometry": {"type": "Polygon", "coordinates": [[[122.5233, 10.728299999999999], [122.5383, 10.728299999999999], [122.5383, 10.7433], [122.5233, 10.7433], [122.5233, 10.728299999999999]]]}, "properties": {"gap": 0.0, "sss": 0.0, "rwi": 0.79, "pop_density": 915.0, "sss_t": 0, "rwi_t": 0, "cls": 0, "color": "#e8e8e8", "crowd_t": 0, "color_crowd": "#e8e8e8"}}, {"type": "Feature", "geometry": {"type": "Polygon", "coordinates": [[[122.5233, 10.7433], [122.5383, 10.7433], [122.5383, 10.7583], [122.5233, 10.7583], [122.5233, 10.7433]]]}, "properties": {"gap": 8.9, "sss": 11.1, "rwi": 0.79, "pop_density": 435.0, "sss_t": 2, "rwi_t": 0, "cls": 6, "color": "#be64ac", "crowd_t": 6, "color_crowd": "#be64ac"}}, {"type": "Feature", "geometry": {"type": "Polygon", "coordinates": [[[122.56830000000001, 10.728299999999999], [122.58330000000001, 10.728299999999999], [122.58330000000001, 10.7433], [122.56830000000001, 10.7433], [122.56830000000001, 10.728299999999999]]]}, "properties": {"gap": 0.4, "sss": 0.5, "rwi": 1.19, "pop_density": 4556.0, "sss_t": 0, "rwi_t": 2, "cls": 2, "color": "#5ac8c8", "crowd_t": 0, "color_crowd": "#e8e8e8"}}, {"type": "Feature", "geometry": {"type": "Polygon", "coordinates": [[[122.56830000000001, 10.713299999999998], [122.58330000000001, 10.713299999999998], [122.58330000000001, 10.728299999999999], [122.56830000000001, 10.728299999999999], [122.56830000000001, 10.713299999999998]]]}, "properties": {"gap": 0.3, "sss": 0.6, "rwi": 1.154, "pop_density": 11327.0, "sss_t": 0, "rwi_t": 2, "cls": 2, "color": "#5ac8c8", "crowd_t": 1, "color_crowd": "#ace4e4"}}, {"type": "Feature", "geometry": {"type": "Polygon", "coordinates": [[[122.58330000000001, 10.7433], [122.59830000000001, 10.7433], [122.59830000000001, 10.7583], [122.58330000000001, 10.7583], [122.58330000000001, 10.7433]]]}, "properties": {"gap": 10.0, "sss": 14.7, "rwi": 0.297, "pop_density": 5672.0, "sss_t": 2, "rwi_t": 0, "cls": 6, "color": "#be64ac", "crowd_t": 7, "color_crowd": "#8c62aa"}}, {"type": "Feature", "geometry": {"type": "Polygon", "coordinates": [[[122.56830000000001, 10.7433], [122.58330000000001, 10.7433], [122.58330000000001, 10.7583], [122.56830000000001, 10.7583], [122.56830000000001, 10.7433]]]}, "properties": {"gap": 10.0, "sss": 13.8, "rwi": 1.19, "pop_density": 3322.0, "sss_t": 2, "rwi_t": 2, "cls": 8, "color": "#3b4994", "crowd_t": 6, "color_crowd": "#be64ac"}}, {"type": "Feature", "geometry": {"type": "Polygon", "coordinates": [[[122.55330000000001, 10.7433], [122.56830000000001, 10.7433], [122.56830000000001, 10.7583], [122.55330000000001, 10.7583], [122.55330000000001, 10.7433]]]}, "properties": {"gap": 9.1, "sss": 17.0, "rwi": 1.036, "pop_density": 5232.0, "sss_t": 2, "rwi_t": 0, "cls": 6, "color": "#be64ac", "crowd_t": 6, "color_crowd": "#be64ac"}}, {"type": "Feature", "geometry": {"type": "Polygon", "coordinates": [[[122.58330000000001, 10.728299999999999], [122.59830000000001, 10.728299999999999], [122.59830000000001, 10.7433], [122.58330000000001, 10.7433], [122.58330000000001, 10.728299999999999]]]}, "properties": {"gap": 10.0, "sss": 12.5, "rwi": 0.297, "pop_density": 0.0, "sss_t": 2, "rwi_t": 0, "cls": 6, "color": "#be64ac", "crowd_t": 6, "color_crowd": "#be64ac"}}]}