{"type": "FeatureCollection", "features": [{"type": "Feature", "geometry": {"type": "Polygon", "coordinates": [[[125.1372, 6.0722], [125.15220000000001, 6.0722], [125.15220000000001, 6.087199999999999], [125.1372, 6.087199999999999], [125.1372, 6.0722]]]}, "properties": {"gap": 0.0, "sss": 0.0, "rwi": 1.2, "pop_density": 12337.0, "sss_t": 0, "rwi_t": 1, "cls": 1, "color": "#ace4e4", "crowd_t": 2, "color_crowd": "#5ac8c8"}}, {"type": "Feature", "geometry": {"type": "Polygon", "coordinates": [[[125.15220000000001, 6.0572], [125.16720000000001, 6.0572], [125.16720000000001, 6.0722], [125.15220000000001, 6.0722], [125.15220000000001, 6.0572]]]}, "properties": {"gap": 0.0, "sss": 0.0, "rwi": 1.315, "pop_density": 7548.0, "sss_t": 0, "rwi_t": 1, "cls": 1, "color": "#ace4e4", "crowd_t": 1, "color_crowd": "#ace4e4"}}, {"type": "Feature", "geometry": {"type": "Polygon", "coordinates": [[[125.1372, 6.1171999999999995], [125.15220000000001, 6.1171999999999995], [125.15220000000001, 6.132199999999999], [125.1372, 6.132199999999999], [125.1372, 6.1171999999999995]]]}, "properties": {"gap": 0.0, "sss": 0.0, "rwi": 1.463, "pop_density": 10947.0, "sss_t": 0, "rwi_t": 2, "cls": 2, "color": "#5ac8c8", "crowd_t": 2, "color_crowd": "#5ac8c8"}}, {"type": "Feature", "geometry": {"type": "Polygon", "coordinates": [[[125.1372, 6.1322], [125.15220000000001, 6.1322], [125.15220000000001, 6.1472], [125.1372, 6.1472], [125.1372, 6.1322]]]}, "properties": {"gap": 0.0, "sss": 0.0, "rwi": 1.463, "pop_density": 11400.0, "sss_t": 0, "rwi_t": 2, "cls": 2, "color": "#5ac8c8", "crowd_t": 2, "color_crowd": "#5ac8c8"}}, {"type": "Feature", "geometry": {"type": "Polygon", "coordinates": [[[125.15220000000001, 6.1022], [125.16720000000001, 6.1022], [125.16720000000001, 6.1171999999999995], [125.15220000000001, 6.1171999999999995], [125.15220000000001, 6.1022]]]}, "properties": {"gap": 0.0, "sss": 0.0, "rwi": 1.147, "pop_density": 12087.0, "sss_t": 0, "rwi_t": 0, "cls": 0, "color": "#e8e8e8", "crowd_t": 2, "color_crowd": "#5ac8c8"}}, {"type": "Feature", "geometry": {"type": "Polygon", "coordinates": [[[125.15220000000001, 6.1171999999999995], [125.16720000000001, 6.1171999999999995], [125.16720000000001, 6.132199999999999], [125.15220000000001, 6.132199999999999], [125.15220000000001, 6.1171999999999995]]]}, "properties": {"gap": 0.0, "sss": 0.0, "rwi": 1.342, "pop_density": 8639.0, "sss_t": 0, "rwi_t": 2, "cls": 2, "color": "#5ac8c8", "crowd_t": 2, "color_crowd": "#5ac8c8"}}, {"type": "Feature", "geometry": {"type": "Polygon", "coordinates": [[[125.18220000000001, 6.1171999999999995], [125.19720000000001, 6.1171999999999995], [125.19720000000001, 6.132199999999999], [125.18220000000001, 6.132199999999999], [125.18220000000001, 6.1171999999999995]]]}, "properties": {"gap": 0.0, "sss": 0.0, "rwi": 1.236, "pop_density": 8382.0, "sss_t": 0, "rwi_t": 1, "cls": 1, "color": "#ace4e4", "crowd_t": 1, "color_crowd": "#ace4e4"}}, {"type": "Feature", "geometry": {"type": "Polygon", "coordinates": [[[125.16720000000001, 6.1171999999999995], [125.18220000000001, 6.1171999999999995], [125.18220000000001, 6.132199999999999], [125.16720000000001, 6.132199999999999], [125.16720000000001, 6.1171999999999995]]]}, "properties": {"gap": 0.0, "sss": 0.0, "rwi": 1.342, "pop_density": 8798.0, "sss_t": 0, "rwi_t": 2, "cls": 2, "color": "#5ac8c8", "crowd_t": 2, "color_crowd": "#5ac8c8"}}, {"type": "Feature", "geometry": {"type": "Polygon", "coordinates": [[[125.19720000000001, 6.1171999999999995], [125.21220000000001, 6.1171999999999995], [125.21220000000001, 6.132199999999999], [125.19720000000001, 6.132199999999999], [125.19720000000001, 6.1171999999999995]]]}, "properties": {"gap": 0.0, "sss": 0.0, "rwi": 0.855, "pop_density": 5280.0, "sss_t": 0, "rwi_t": 0, "cls": 0, "color": "#e8e8e8", "crowd_t": 0, "color_crowd": "#e8e8e8"}}, {"type": "Feature", "geometry": {"type": "Polygon", "coordinates": [[[125.18220000000001, 6.1022], [125.19720000000001, 6.1022], [125.19720000000001, 6.1171999999999995], [125.18220000000001, 6.1171999999999995], [125.18220000000001, 6.1022]]]}, "properties": {"gap": 0.0, "sss": 0.0, "rwi": 1.014, "pop_density": 3214.0, "sss_t": 0, "rwi_t": 0, "cls": 0, "color": "#e8e8e8", "crowd_t": 0, "color_crowd": "#e8e8e8"}}, {"type": "Feature", "geometry": {"type": "Polygon", "coordinates": [[[125.19720000000001, 6.1022], [125.21220000000001, 6.1022], [125.21220000000001, 6.1171999999999995], [125.19720000000001, 6.1171999999999995], [125.19720000000001, 6.1022]]]}, "properties": {"gap": 0.0, "sss": 0.0, "rwi": 1.189, "pop_density": 895.0, "sss_t": 0, "rwi_t": 1, "cls": 1, "color": "#ace4e4", "crowd_t": 0, "color_crowd": "#e8e8e8"}}, {"type": "Feature", "geometry": {"type": "Polygon", "coordinates": [[[125.15220000000001, 6.1322], [125.16720000000001, 6.1322], [125.16720000000001, 6.1472], [125.15220000000001, 6.1472], [125.15220000000001, 6.1322]]]}, "properties": {"gap": 0.0, "sss": 0.0, "rwi": 1.342, "pop_density": 6951.0, "sss_t": 0, "rwi_t": 2, "cls": 2, "color": "#5ac8c8", "crowd_t": 1, "color_crowd": "#ace4e4"}}, {"type": "Feature", "geometry": {"type": "Polygon", "coordinates": [[[125.1222, 6.1322], [125.1372, 6.1322], [125.1372, 6.1472], [125.1222, 6.1472], [125.1222, 6.1322]]]}, "properties": {"gap": 0.0, "sss": 0.0, "rwi": 1.505, "pop_density": 30708.0, "sss_t": 0, "rwi_t": 2, "cls": 2, "color": "#5ac8c8", "crowd_t": 2, "color_crowd": "#5ac8c8"}}, {"type": "Feature", "geometry": {"type": "Polygon", "coordinates": [[[125.16720000000001, 6.1322], [125.18220000000001, 6.1322], [125.18220000000001, 6.1472], [125.16720000000001, 6.1472], [125.16720000000001, 6.1322]]]}, "properties": {"gap": 7.6, "sss": 10.7, "rwi": 1.342, "pop_density": 5948.0, "sss_t": 2, "rwi_t": 2, "cls": 8, "color": "#3b4994", "crowd_t": 7, "color_crowd": "#8c62aa"}}, {"type": "Feature", "geometry": {"type": "Polygon", "coordinates": [[[125.15220000000001, 6.1472], [125.16720000000001, 6.1472], [125.16720000000001, 6.1621999999999995], [125.15220000000001, 6.1621999999999995], [125.15220000000001, 6.1472]]]}, "properties": {"gap": 0.0, "sss": 0.0, "rwi": 1.258, "pop_density": 5844.0, "sss_t": 0, "rwi_t": 1, "cls": 1, "color": "#ace4e4", "crowd_t": 1, "color_crowd": "#ace4e4"}}, {"type": "Feature", "geometry": {"type": "Polygon", "coordinates": [[[125.19720000000001, 6.1322], [125.21220000000001, 6.1322], [125.21220000000001, 6.1472], [125.19720000000001, 6.1472], [125.19720000000001, 6.1322]]]}, "properties": {"gap": 30.0, "sss": 45.0, "rwi": 0.855, "pop_density": 6439.0, "sss_t": 2, "rwi_t": 0, "cls": 6, "color": "#be64ac", "crowd_t": 7, "color_crowd": "#8c62aa"}}, {"type": "Feature", "geometry": {"type": "Polygon", "coordinates": [[[125.18220000000001, 6.1322], [125.19720000000001, 6.1322], [125.19720000000001, 6.1472], [125.18220000000001, 6.1472], [125.18220000000001, 6.1322]]]}, "properties": {"gap": 0.0, "sss": 0.0, "rwi": 1.236, "pop_density": 4208.0, "sss_t": 0, "rwi_t": 1, "cls": 1, "color": "#ace4e4", "crowd_t": 0, "color_crowd": "#e8e8e8"}}, {"type": "Feature", "geometry": {"type": "Polygon", "coordinates": [[[125.18220000000001, 6.1622], [125.19720000000001, 6.1622], [125.19720000000001, 6.1772], [125.18220000000001, 6.1772], [125.18220000000001, 6.1622]]]}, "properties": {"gap": 0.0, "sss": 0.0, "rwi": 0.964, "pop_density": 16.0, "sss_t": 0, "rwi_t": 0, "cls": 0, "color": "#e8e8e8", "crowd_t": 0, "color_crowd": "#e8e8e8"}}, {"type": "Feature", "geometry": {"type": "Polygon", "coordinates": [[[125.18220000000001, 6.1472], [125.19720000000001, 6.1472], [125.19720000000001, 6.1621999999999995], [125.18220000000001, 6.1621999999999995], [125.18220000000001, 6.1472]]]}, "properties": {"gap": 0.0, "sss": 0.0, "rwi": 0.964, "pop_density": 34.0, "sss_t": 0, "rwi_t": 0, "cls": 0, "color": "#e8e8e8", "crowd_t": 0, "color_crowd": "#e8e8e8"}}, {"type": "Feature", "geometry": {"type": "Polygon", "coordinates": [[[125.21220000000001, 6.1772], [125.22720000000001, 6.1772], [125.22720000000001, 6.1922], [125.21220000000001, 6.1922], [125.21220000000001, 6.1772]]]}, "properties": {"gap": 10.0, "sss": 13.1, "rwi": 1.119, "pop_density": 1560.0, "sss_t": 2, "rwi_t": 0, "cls": 6, "color": "#be64ac", "crowd_t": 6, "color_crowd": "#be64ac"}}]}