{"type": "FeatureCollection", "features": [{"type": "Feature", "geometry": {"type": "Polygon", "coordinates": [[[120.5693, 15.4311], [120.5843, 15.4311], [120.5843, 15.446100000000001], [120.5693, 15.446100000000001], [120.5693, 15.4311]]]}, "properties": {"gap": 0.0, "sss": 0.0, "rwi": 0.623, "pop_density": 461.0, "sss_t": 0, "rwi_t": 1, "cls": 1, "color": "#ace4e4", "crowd_t": 0, "color_crowd": "#e8e8e8"}}, {"type": "Feature", "geometry": {"type": "Polygon", "coordinates": [[[120.5693, 15.4611], [120.5843, 15.4611], [120.5843, 15.4761], [120.5693, 15.4761], [120.5693, 15.4611]]]}, "properties": {"gap": 0.0, "sss": 0.0, "rwi": 0.921, "pop_density": 3837.0, "sss_t": 0, "rwi_t": 1, "cls": 1, "color": "#ace4e4", "crowd_t": 1, "color_crowd": "#ace4e4"}}, {"type": "Feature", "geometry": {"type": "Polygon", "coordinates": [[[120.5393, 15.446100000000001], [120.5543, 15.446100000000001], [120.5543, 15.461100000000002], [120.5393, 15.461100000000002], [120.5393, 15.446100000000001]]]}, "properties": {"gap": 30.0, "sss": 38.0, "rwi": -0.213, "pop_density": 432.0, "sss_t": 2, "rwi_t": 0, "cls": 6, "color": "#be64ac", "crowd_t": 6, "color_crowd": "#be64ac"}}, {"type": "Feature", "geometry": {"type": "Polygon", "coordinates": [[[120.5543, 15.446100000000001], [120.5693, 15.446100000000001], [120.5693, 15.461100000000002], [120.5543, 15.461100000000002], [120.5543, 15.446100000000001]]]}, "properties": {"gap": 0.0, "sss": 0.0, "rwi": -0.213, "pop_density": 510.0, "sss_t": 0, "rwi_t": 0, "cls": 0, "color": "#e8e8e8", "crowd_t": 0, "color_crowd": "#e8e8e8"}}, {"type": "Feature", "geometry": {"type": "Polygon", "coordinates": [[[120.5393, 15.4311], [120.5543, 15.4311], [120.5543, 15.446100000000001], [120.5393, 15.446100000000001], [120.5393, 15.4311]]]}, "properties": {"gap": 30.0, "sss": 37.5, "rwi": -0.213, "pop_density": 0.0, "sss_t": 2, "rwi_t": 0, "cls": 6, "color": "#be64ac", "crowd_t": 6, "color_crowd": "#be64ac"}}, {"type": "Feature", "geometry": {"type": "Polygon", "coordinates": [[[120.5993, 15.4311], [120.6143, 15.4311], [120.6143, 15.446100000000001], [120.5993, 15.446100000000001], [120.5993, 15.4311]]]}, "properties": {"gap": 10.0, "sss": 14.0, "rwi": 1.208, "pop_density": 701.0, "sss_t": 2, "rwi_t": 2, "cls": 8, "color": "#3b4994", "crowd_t": 6, "color_crowd": "#be64ac"}}, {"type": "Feature", "geometry": {"type": "Polygon", "coordinates": [[[120.6143, 15.4311], [120.6293, 15.4311], [120.6293, 15.446100000000001], [120.6143, 15.446100000000001], [120.6143, 15.4311]]]}, "properties": {"gap": 10.0, "sss": 13.9, "rwi": 0.466, "pop_density": 3713.0, "sss_t": 1, "rwi_t": 0, "cls": 3, "color": "#dfb0d6", "crowd_t": 4, "color_crowd": "#a5add3"}}, {"type": "Feature", "geometry": {"type": "Polygon", "coordinates": [[[120.5843, 15.446100000000001], [120.5993, 15.446100000000001], [120.5993, 15.461100000000002], [120.5843, 15.461100000000002], [120.5843, 15.446100000000001]]]}, "properties": {"gap": 5.6, "sss": 8.9, "rwi": 1.208, "pop_density": 8121.0, "sss_t": 1, "rwi_t": 2, "cls": 5, "color": "#5698b9", "crowd_t": 5, "color_crowd": "#5698b9"}}, {"type": "Feature", "geometry": {"type": "Polygon", "coordinates": [[[120.5693, 15.446100000000001], [120.5843, 15.446100000000001], [120.5843, 15.461100000000002], [120.5693, 15.461100000000002], [120.5693, 15.446100000000001]]]}, "properties": {"gap": 0.0, "sss": 0.0, "rwi": 0.623, "pop_density": 3018.0, "sss_t": 0, "rwi_t": 1, "cls": 1, "color": "#ace4e4", "crowd_t": 0, "color_crowd": "#e8e8e8"}}, {"type": "Feature", "geometry": {"type": "Polygon", "coordinates": [[[120.5843, 15.4611], [120.5993, 15.4611], [120.5993, 15.4761], [120.5843, 15.4761], [120.5843, 15.4611]]]}, "properties": {"gap": 8.1, "sss": 14.6, "rwi": 1.207, "pop_density": 7220.0, "sss_t": 1, "rwi_t": 2, "cls": 5, "color": "#5698b9", "crowd_t": 5, "color_crowd": "#5698b9"}}, {"type": "Feature", "geometry": {"type": "Polygon", "coordinates": [[[120.5843, 15.4311], [120.5993, 15.4311], [120.5993, 15.446100000000001], [120.5843, 15.446100000000001], [120.5843, 15.4311]]]}, "properties": {"gap": 10.0, "sss": 21.4, "rwi": 1.208, "pop_density": 4248.0, "sss_t": 2, "rwi_t": 2, "cls": 8, "color": "#3b4994", "crowd_t": 7, "color_crowd": "#8c62aa"}}, {"type": "Feature", "geometry": {"type": "Polygon", "coordinates": [[[120.6293, 15.446100000000001], [120.6443, 15.446100000000001], [120.6443, 15.461100000000002], [120.6293, 15.461100000000002], [120.6293, 15.446100000000001]]]}, "properties": {"gap": 0.0, "sss": 0.0, "rwi": 0.466, "pop_density": 2763.0, "sss_t": 0, "rwi_t": 0, "cls": 0, "color": "#e8e8e8", "crowd_t": 0, "color_crowd": "#e8e8e8"}}, {"type": "Feature", "geometry": {"type": "Polygon", "coordinates": [[[120.6293, 15.4311], [120.6443, 15.4311], [120.6443, 15.446100000000001], [120.6293, 15.446100000000001], [120.6293, 15.4311]]]}, "properties": {"gap": 10.0, "sss": 18.2, "rwi": 0.466, "pop_density": 14791.0, "sss_t": 1, "rwi_t": 0, "cls": 3, "color": "#dfb0d6", "crowd_t": 5, "color_crowd": "#5698b9"}}, {"type": "Feature", "geometry": {"type": "Polygon", "coordinates": [[[120.5543, 15.4761], [120.5693, 15.4761], [120.5693, 15.491100000000001], [120.5543, 15.491100000000001], [120.5543, 15.4761]]]}, "properties": {"gap": 10.0, "sss": 16.2, "rwi": 0.368, "pop_density": 6605.0, "sss_t": 1, "rwi_t": 0, "cls": 3, "color": "#dfb0d6", "crowd_t": 5, "color_crowd": "#5698b9"}}, {"type": "Feature", "geometry": {"type": "Polygon", "coordinates": [[[120.5693, 15.4761], [120.5843, 15.4761], [120.5843, 15.491100000000001], [120.5693, 15.491100000000001], [120.5693, 15.4761]]]}, "properties": {"gap": 3.7, "sss": 6.3, "rwi": 0.968, "pop_density": 5657.0, "sss_t": 1, "rwi_t": 1, "cls": 4, "color": "#a5add3", "crowd_t": 4, "color_crowd": "#a5add3"}}, {"type": "Feature", "geometry": {"type": "Polygon", "coordinates": [[[120.5693, 15.491100000000001], [120.5843, 15.491100000000001], [120.5843, 15.506100000000002], [120.5693, 15.506100000000002], [120.5693, 15.491100000000001]]]}, "properties": {"gap": 0.6, "sss": 0.9, "rwi": 0.995, "pop_density": 11072.0, "sss_t": 1, "rwi_t": 1, "cls": 4, "color": "#a5add3", "crowd_t": 5, "color_crowd": "#5698b9"}}, {"type": "Feature", "geometry": {"type": "Polygon", "coordinates": [[[120.5693, 15.5061], [120.5843, 15.5061], [120.5843, 15.5211], [120.5693, 15.5211], [120.5693, 15.5061]]]}, "properties": {"gap": 10.0, "sss": 16.9, "rwi": 0.995, "pop_density": 6027.0, "sss_t": 1, "rwi_t": 1, "cls": 4, "color": "#a5add3", "crowd_t": 5, "color_crowd": "#5698b9"}}, {"type": "Feature", "geometry": {"type": "Polygon", "coordinates": [[[120.5393, 15.4761], [120.5543, 15.4761], [120.5543, 15.491100000000001], [120.5393, 15.491100000000001], [120.5393, 15.4761]]]}, "properties": {"gap": 10.0, "sss": 13.0, "rwi": 0.368, "pop_density": 1264.0, "sss_t": 1, "rwi_t": 0, "cls": 3, "color": "#dfb0d6", "crowd_t": 3, "color_crowd": "#dfb0d6"}}, {"type": "Feature", "geometry": {"type": "Polygon", "coordinates": [[[120.5843, 15.491100000000001], [120.5993, 15.491100000000001], [120.5993, 15.506100000000002], [120.5843, 15.506100000000002], [120.5843, 15.491100000000001]]]}, "properties": {"gap": 0.0, "sss": 0.0, "rwi": 1.074, "pop_density": 10474.0, "sss_t": 0, "rwi_t": 2, "cls": 2, "color": "#5ac8c8", "crowd_t": 2, "color_crowd": "#5ac8c8"}}, {"type": "Feature", "geometry": {"type": "Polygon", "coordinates": [[[120.5843, 15.4761], [120.5993, 15.4761], [120.5993, 15.491100000000001], [120.5843, 15.491100000000001], [120.5843, 15.4761]]]}, "properties": {"gap": 0.1, "sss": 0.1, "rwi": 1.267, "pop_density": 5299.0, "sss_t": 1, "rwi_t": 2, "cls": 5, "color": "#5698b9", "crowd_t": 4, "color_crowd": "#a5add3"}}, {"type": "Feature", "geometry": {"type": "Polygon", "coordinates": [[[120.5843, 15.5211], [120.5993, 15.5211], [120.5993, 15.536100000000001], [120.5843, 15.536100000000001], [120.5843, 15.5211]]]}, "properties": {"gap": 10.0, "sss": 18.6, "rwi": 0.589, "pop_density": 4838.0, "sss_t": 1, "rwi_t": 0, "cls": 3, "color": "#dfb0d6", "crowd_t": 4, "color_crowd": "#a5add3"}}, {"type": "Feature", "geometry": {"type": "Polygon", "coordinates": [[[120.5993, 15.4761], [120.6143, 15.4761], [120.6143, 15.491100000000001], [120.5993, 15.491100000000001], [120.5993, 15.4761]]]}, "properties": {"gap": 0.0, "sss": 0.0, "rwi": 1.267, "pop_density": 4170.0, "sss_t": 0, "rwi_t": 2, "cls": 2, "color": "#5ac8c8", "crowd_t": 1, "color_crowd": "#ace4e4"}}, {"type": "Feature", "geometry": {"type": "Polygon", "coordinates": [[[120.5993, 15.491100000000001], [120.6143, 15.491100000000001], [120.6143, 15.506100000000002], [120.5993, 15.506100000000002], [120.5993, 15.491100000000001]]]}, "properties": {"gap": 0.0, "sss": 0.0, "rwi": 1.074, "pop_density": 13552.0, "sss_t": 0, "rwi_t": 2, "cls": 2, "color": "#5ac8c8", "crowd_t": 2, "color_crowd": "#5ac8c8"}}, {"type": "Feature", "geometry": {"type": "Polygon", "coordinates": [[[120.6143, 15.4761], [120.6293, 15.4761], [120.6293, 15.491100000000001], [120.6143, 15.491100000000001], [120.6143, 15.4761]]]}, "properties": {"gap": 0.0, "sss": 0.0, "rwi": 0.658, "pop_density": 3667.0, "sss_t": 0, "rwi_t": 1, "cls": 1, "color": "#ace4e4", "crowd_t": 1, "color_crowd": "#ace4e4"}}, {"type": "Feature", "geometry": {"type": "Polygon", "coordinates": [[[120.6293, 15.4761], [120.6443, 15.4761], [120.6443, 15.491100000000001], [120.6293, 15.491100000000001], [120.6293, 15.4761]]]}, "properties": {"gap": 0.0, "sss": 0.0, "rwi": 0.658, "pop_density": 6782.0, "sss_t": 0, "rwi_t": 1, "cls": 1, "color": "#ace4e4", "crowd_t": 2, "color_crowd": "#5ac8c8"}}, {"type": "Feature", "geometry": {"type": "Polygon", "coordinates": [[[120.5543, 15.5061], [120.5693, 15.5061], [120.5693, 15.5211], [120.5543, 15.5211], [120.5543, 15.5061]]]}, "properties": {"gap": 10.0, "sss": 14.9, "rwi": 0.649, "pop_density": 6306.0, "sss_t": 1, "rwi_t": 1, "cls": 4, "color": "#a5add3", "crowd_t": 5, "color_crowd": "#5698b9"}}, {"type": "Feature", "geometry": {"type": "Polygon", "coordinates": [[[120.5393, 15.5211], [120.5543, 15.5211], [120.5543, 15.536100000000001], [120.5393, 15.536100000000001], [120.5393, 15.5211]]]}, "properties": {"gap": 10.0, "sss": 12.9, "rwi": 1.136, "pop_density": 1147.0, "sss_t": 1, "rwi_t": 2, "cls": 5, "color": "#5698b9", "crowd_t": 3, "color_crowd": "#dfb0d6"}}, {"type": "Feature", "geometry": {"type": "Polygon", "coordinates": [[[120.5993, 15.5061], [120.6143, 15.5061], [120.6143, 15.5211], [120.5993, 15.5211], [120.5993, 15.5061]]]}, "properties": {"gap": 20.7, "sss": 36.1, "rwi": 1.074, "pop_density": 5692.0, "sss_t": 2, "rwi_t": 2, "cls": 8, "color": "#3b4994", "crowd_t": 8, "color_crowd": "#3b4994"}}, {"type": "Feature", "geometry": {"type": "Polygon", "coordinates": [[[120.5843, 15.5061], [120.5993, 15.5061], [120.5993, 15.5211], [120.5843, 15.5211], [120.5843, 15.5061]]]}, "properties": {"gap": 32.8, "sss": 59.9, "rwi": 1.074, "pop_density": 5162.0, "sss_t": 2, "rwi_t": 2, "cls": 8, "color": "#3b4994", "crowd_t": 7, "color_crowd": "#8c62aa"}}, {"type": "Feature", "geometry": {"type": "Polygon", "coordinates": [[[120.6143, 15.5061], [120.6293, 15.5061], [120.6293, 15.5211], [120.6143, 15.5211], [120.6143, 15.5061]]]}, "properties": {"gap": 10.4, "sss": 13.5, "rwi": 0.476, "pop_density": 1244.0, "sss_t": 2, "rwi_t": 0, "cls": 6, "color": "#be64ac", "crowd_t": 6, "color_crowd": "#be64ac"}}, {"type": "Feature", "geometry": {"type": "Polygon", "coordinates": [[[120.6293, 15.5211], [120.6443, 15.5211], [120.6443, 15.536100000000001], [120.6293, 15.536100000000001], [120.6293, 15.5211]]]}, "properties": {"gap": 30.0, "sss": 43.1, "rwi": 0.661, "pop_density": 4850.0, "sss_t": 2, "rwi_t": 1, "cls": 7, "color": "#8c62aa", "crowd_t": 7, "color_crowd": "#8c62aa"}}, {"type": "Feature", "geometry": {"type": "Polygon", "coordinates": [[[120.6293, 15.5061], [120.6443, 15.5061], [120.6443, 15.5211], [120.6293, 15.5211], [120.6293, 15.5061]]]}, "properties": {"gap": 0.0, "sss": 0.0, "rwi": 0.476, "pop_density": 36.0, "sss_t": 0, "rwi_t": 0, "cls": 0, "color": "#e8e8e8", "crowd_t": 0, "color_crowd": "#e8e8e8"}}]}