{"type": "FeatureCollection", "features": [{"type": "Feature", "geometry": {"type": "Polygon", "coordinates": [[[124.6194, 10.984], [124.6344, 10.984], [124.6344, 10.999], [124.6194, 10.999], [124.6194, 10.984]]]}, "properties": {"gap": 10.0, "sss": 14.8, "rwi": 1.089, "pop_density": 4966.0, "sss_t": 1, "rwi_t": 2, "cls": 5, "color": "#5698b9", "crowd_t": 4, "color_crowd": "#a5add3"}}, {"type": "Feature", "geometry": {"type": "Polygon", "coordinates": [[[124.6494, 10.954], [124.6644, 10.954], [124.6644, 10.969000000000001], [124.6494, 10.969000000000001], [124.6494, 10.954]]]}, "properties": {"gap": 10.0, "sss": 13.6, "rwi": 1.086, "pop_density": 2487.0, "sss_t": 1, "rwi_t": 1, "cls": 4, "color": "#a5add3", "crowd_t": 3, "color_crowd": "#dfb0d6"}}, {"type": "Feature", "geometry": {"type": "Polygon", "coordinates": [[[124.6644, 10.954], [124.6794, 10.954], [124.6794, 10.969000000000001], [124.6644, 10.969000000000001], [124.6644, 10.954]]]}, "properties": {"gap": 10.0, "sss": 13.7, "rwi": 1.086, "pop_density": 2989.0, "sss_t": 1, "rwi_t": 1, "cls": 4, "color": "#a5add3", "crowd_t": 3, "color_crowd": "#dfb0d6"}}, {"type": "Feature", "geometry": {"type": "Polygon", "coordinates": [[[124.6344, 10.954], [124.6494, 10.954], [124.6494, 10.969000000000001], [124.6344, 10.969000000000001], [124.6344, 10.954]]]}, "properties": {"gap": 10.0, "sss": 13.9, "rwi": 1.086, "pop_density": 3701.0, "sss_t": 1, "rwi_t": 1, "cls": 4, "color": "#a5add3", "crowd_t": 4, "color_crowd": "#a5add3"}}, {"type": "Feature", "geometry": {"type": "Polygon", "coordinates": [[[124.6194, 10.969000000000001], [124.6344, 10.969000000000001], [124.6344, 10.984000000000002], [124.6194, 10.984000000000002], [124.6194, 10.969000000000001]]]}, "properties": {"gap": 10.0, "sss": 16.2, "rwi": -0.295, "pop_density": 9048.0, "sss_t": 1, "rwi_t": 0, "cls": 3, "color": "#dfb0d6", "crowd_t": 5, "color_crowd": "#5698b9"}}, {"type": "Feature", "geometry": {"type": "Polygon", "coordinates": [[[124.6344, 10.969000000000001], [124.6494, 10.969000000000001], [124.6494, 10.984000000000002], [124.6344, 10.984000000000002], [124.6344, 10.969000000000001]]]}, "properties": {"gap": 10.0, "sss": 15.6, "rwi": 1.086, "pop_density": 8076.0, "sss_t": 1, "rwi_t": 1, "cls": 4, "color": "#a5add3", "crowd_t": 4, "color_crowd": "#a5add3"}}, {"type": "Feature", "geometry": {"type": "Polygon", "coordinates": [[[124.5894, 11.014000000000001], [124.6044, 11.014000000000001], [124.6044, 11.029000000000002], [124.5894, 11.029000000000002], [124.5894, 11.014000000000001]]]}, "properties": {"gap": 0.0, "sss": 0.0, "rwi": 1.59, "pop_density": 11459.0, "sss_t": 0, "rwi_t": 2, "cls": 2, "color": "#5ac8c8", "crowd_t": 2, "color_crowd": "#5ac8c8"}}, {"type": "Feature", "geometry": {"type": "Polygon", "coordinates": [[[124.6044, 10.999], [124.6194, 10.999], [124.6194, 11.014000000000001], [124.6044, 11.014000000000001], [124.6044, 10.999]]]}, "properties": {"gap": 0.2, "sss": 0.3, "rwi": 1.301, "pop_density": 8106.0, "sss_t": 0, "rwi_t": 2, "cls": 2, "color": "#5ac8c8", "crowd_t": 2, "color_crowd": "#5ac8c8"}}, {"type": "Feature", "geometry": {"type": "Polygon", "coordinates": [[[124.6044, 11.014000000000001], [124.6194, 11.014000000000001], [124.6194, 11.029000000000002], [124.6044, 11.029000000000002], [124.6044, 11.014000000000001]]]}, "properties": {"gap": 0.0, "sss": 0.0, "rwi": 1.301, "pop_density": 9558.0, "sss_t": 0, "rwi_t": 2, "cls": 2, "color": "#5ac8c8", "crowd_t": 2, "color_crowd": "#5ac8c8"}}, {"type": "Feature", "geometry": {"type": "Polygon", "coordinates": [[[124.6344, 11.014000000000001], [124.6494, 11.014000000000001], [124.6494, 11.029000000000002], [124.6344, 11.029000000000002], [124.6344, 11.014000000000001]]]}, "properties": {"gap": 30.0, "sss": 38.0, "rwi": -0.151, "pop_density": 399.0, "sss_t": 2, "rwi_t": 0, "cls": 6, "color": "#be64ac", "crowd_t": 6, "color_crowd": "#be64ac"}}, {"type": "Feature", "geometry": {"type": "Polygon", "coordinates": [[[124.6044, 10.984], [124.6194, 10.984], [124.6194, 10.999], [124.6044, 10.999], [124.6044, 10.984]]]}, "properties": {"gap": 10.0, "sss": 19.1, "rwi": 1.089, "pop_density": 13107.0, "sss_t": 1, "rwi_t": 2, "cls": 5, "color": "#5698b9", "crowd_t": 5, "color_crowd": "#5698b9"}}, {"type": "Feature", "geometry": {"type": "Polygon", "coordinates": [[[124.5894, 11.029], [124.6044, 11.029], [124.6044, 11.044], [124.5894, 11.044], [124.5894, 11.029]]]}, "properties": {"gap": 0.0, "sss": 0.0, "rwi": 0.843, "pop_density": 3465.0, "sss_t": 0, "rwi_t": 1, "cls": 1, "color": "#ace4e4", "crowd_t": 1, "color_crowd": "#ace4e4"}}, {"type": "Feature", "geometry": {"type": "Polygon", "coordinates": [[[124.5744, 11.029], [124.5894, 11.029], [124.5894, 11.044], [124.5744, 11.044], [124.5744, 11.029]]]}, "properties": {"gap": 6.4, "sss": 8.5, "rwi": 0.504, "pop_density": 2158.0, "sss_t": 1, "rwi_t": 0, "cls": 3, "color": "#dfb0d6", "crowd_t": 3, "color_crowd": "#dfb0d6"}}, {"type": "Feature", "geometry": {"type": "Polygon", "coordinates": [[[124.5594, 11.029], [124.5744, 11.029], [124.5744, 11.044], [124.5594, 11.044], [124.5594, 11.029]]]}, "properties": {"gap": 10.0, "sss": 14.0, "rwi": 0.504, "pop_density": 3946.0, "sss_t": 1, "rwi_t": 0, "cls": 3, "color": "#dfb0d6", "crowd_t": 4, "color_crowd": "#a5add3"}}, {"type": "Feature", "geometry": {"type": "Polygon", "coordinates": [[[124.6044, 11.029], [124.6194, 11.029], [124.6194, 11.044], [124.6044, 11.044], [124.6044, 11.029]]]}, "properties": {"gap": 30.0, "sss": 38.2, "rwi": 0.199, "pop_density": 607.0, "sss_t": 2, "rwi_t": 0, "cls": 6, "color": "#be64ac", "crowd_t": 6, "color_crowd": "#be64ac"}}, {"type": "Feature", "geometry": {"type": "Polygon", "coordinates": [[[124.6044, 11.044], [124.6194, 11.044], [124.6194, 11.059000000000001], [124.6044, 11.059000000000001], [124.6044, 11.044]]]}, "properties": {"gap": 0.0, "sss": 0.0, "rwi": 0.657, "pop_density": 10471.0, "sss_t": 0, "rwi_t": 1, "cls": 1, "color": "#ace4e4", "crowd_t": 2, "color_crowd": "#5ac8c8"}}, {"type": "Feature", "geometry": {"type": "Polygon", "coordinates": [[[124.5894, 11.059000000000001], [124.6044, 11.059000000000001], [124.6044, 11.074000000000002], [124.5894, 11.074000000000002], [124.5894, 11.059000000000001]]]}, "properties": {"gap": 10.0, "sss": 13.1, "rwi": 0.654, "pop_density": 1517.0, "sss_t": 1, "rwi_t": 0, "cls": 3, "color": "#dfb0d6", "crowd_t": 3, "color_crowd": "#dfb0d6"}}, {"type": "Feature", "geometry": {"type": "Polygon", "coordinates": [[[124.5894, 11.044], [124.6044, 11.044], [124.6044, 11.059000000000001], [124.5894, 11.059000000000001], [124.5894, 11.044]]]}, "properties": {"gap": 4.3, "sss": 5.5, "rwi": 0.654, "pop_density": 3705.0, "sss_t": 0, "rwi_t": 0, "cls": 0, "color": "#e8e8e8", "crowd_t": 1, "color_crowd": "#ace4e4"}}]}