{"type": "FeatureCollection", "features": [{"type": "Feature", "geometry": {"type": "Polygon", "coordinates": [[[122.0415, 6.9097], [122.0565, 6.9097], [122.0565, 6.9247], [122.0415, 6.9247], [122.0415, 6.9097]]]}, "properties": {"gap": 0.0, "sss": 0.0, "rwi": 1.263, "pop_density": 23408.0, "sss_t": 0, "rwi_t": 1, "cls": 1, "color": "#ace4e4", "crowd_t": 2, "color_crowd": "#5ac8c8"}}, {"type": "Feature", "geometry": {"type": "Polygon", "coordinates": [[[122.0565, 6.9097], [122.0715, 6.9097], [122.0715, 6.9247], [122.0565, 6.9247], [122.0565, 6.9097]]]}, "properties": {"gap": 0.0, "sss": 0.0, "rwi": 1.834, "pop_density": 31090.0, "sss_t": 0, "rwi_t": 2, "cls": 2, "color": "#5ac8c8", "crowd_t": 2, "color_crowd": "#5ac8c8"}}, {"type": "Feature", "geometry": {"type": "Polygon", "coordinates": [[[122.0715, 6.8947], [122.0865, 6.8947], [122.0865, 6.9097], [122.0715, 6.9097], [122.0715, 6.8947]]]}, "properties": {"gap": 0.0, "sss": 0.0, "rwi": 0.925, "pop_density": 9035.0, "sss_t": 0, "rwi_t": 0, "cls": 0, "color": "#e8e8e8", "crowd_t": 1, "color_crowd": "#ace4e4"}}, {"type": "Feature", "geometry": {"type": "Polygon", "coordinates": [[[122.0865, 6.8947], [122.1015, 6.8947], [122.1015, 6.9097], [122.0865, 6.9097], [122.0865, 6.8947]]]}, "properties": {"gap": 0.0, "sss": 0.0, "rwi": 1.123, "pop_density": 15772.0, "sss_t": 0, "rwi_t": 0, "cls": 0, "color": "#e8e8e8", "crowd_t": 2, "color_crowd": "#5ac8c8"}}, {"type": "Feature", "geometry": {"type": "Polygon", "coordinates": [[[122.0715, 6.9097], [122.0865, 6.9097], [122.0865, 6.9247], [122.0715, 6.9247], [122.0715, 6.9097]]]}, "properties": {"gap": 0.0, "sss": 0.0, "rwi": 1.834, "pop_density": 11027.0, "sss_t": 0, "rwi_t": 2, "cls": 2, "color": "#5ac8c8", "crowd_t": 1, "color_crowd": "#ace4e4"}}, {"type": "Feature", "geometry": {"type": "Polygon", "coordinates": [[[122.0565, 6.9247000000000005], [122.0715, 6.9247000000000005], [122.0715, 6.9397], [122.0565, 6.9397], [122.0565, 6.9247000000000005]]]}, "properties": {"gap": 0.0, "sss": 0.0, "rwi": 1.73, "pop_density": 6223.0, "sss_t": 0, "rwi_t": 2, "cls": 2, "color": "#5ac8c8", "crowd_t": 1, "color_crowd": "#ace4e4"}}, {"type": "Feature", "geometry": {"type": "Polygon", "coordinates": [[[122.0415, 6.9247000000000005], [122.0565, 6.9247000000000005], [122.0565, 6.9397], [122.0415, 6.9397], [122.0415, 6.9247000000000005]]]}, "properties": {"gap": 0.0, "sss": 0.0, "rwi": 1.193, "pop_density": 14950.0, "sss_t": 0, "rwi_t": 1, "cls": 1, "color": "#ace4e4", "crowd_t": 2, "color_crowd": "#5ac8c8"}}, {"type": "Feature", "geometry": {"type": "Polygon", "coordinates": [[[122.0415, 6.9397], [122.0565, 6.9397], [122.0565, 6.9547], [122.0415, 6.9547], [122.0415, 6.9397]]]}, "properties": {"gap": 10.0, "sss": 14.4, "rwi": 1.193, "pop_density": 4898.0, "sss_t": 2, "rwi_t": 1, "cls": 7, "color": "#8c62aa", "crowd_t": 6, "color_crowd": "#be64ac"}}, {"type": "Feature", "geometry": {"type": "Polygon", "coordinates": [[[122.0265, 6.9397], [122.0415, 6.9397], [122.0415, 6.9547], [122.0265, 6.9547], [122.0265, 6.9397]]]}, "properties": {"gap": 10.0, "sss": 13.2, "rwi": 1.193, "pop_density": 1055.0, "sss_t": 2, "rwi_t": 1, "cls": 7, "color": "#8c62aa", "crowd_t": 6, "color_crowd": "#be64ac"}}, {"type": "Feature", "geometry": {"type": "Polygon", "coordinates": [[[122.0865, 6.9397], [122.1015, 6.9397], [122.1015, 6.9547], [122.0865, 6.9547], [122.0865, 6.9397]]]}, "properties": {"gap": 0.0, "sss": 0.0, "rwi": 1.54, "pop_density": 15162.0, "sss_t": 0, "rwi_t": 1, "cls": 1, "color": "#ace4e4", "crowd_t": 2, "color_crowd": "#5ac8c8"}}, {"type": "Feature", "geometry": {"type": "Polygon", "coordinates": [[[122.0865, 6.9247000000000005], [122.1015, 6.9247000000000005], [122.1015, 6.9397], [122.0865, 6.9397], [122.0865, 6.9247000000000005]]]}, "properties": {"gap": 0.0, "sss": 0.0, "rwi": 1.54, "pop_density": 13677.0, "sss_t": 0, "rwi_t": 1, "cls": 1, "color": "#ace4e4", "crowd_t": 1, "color_crowd": "#ace4e4"}}, {"type": "Feature", "geometry": {"type": "Polygon", "coordinates": [[[122.0715, 6.9397], [122.0865, 6.9397], [122.0865, 6.9547], [122.0715, 6.9547], [122.0715, 6.9397]]]}, "properties": {"gap": 0.0, "sss": 0.0, "rwi": 1.73, "pop_density": 8070.0, "sss_t": 0, "rwi_t": 2, "cls": 2, "color": "#5ac8c8", "crowd_t": 1, "color_crowd": "#ace4e4"}}, {"type": "Feature", "geometry": {"type": "Polygon", "coordinates": [[[122.1165, 6.954700000000001], [122.1315, 6.954700000000001], [122.1315, 6.9697000000000005], [122.1165, 6.9697000000000005], [122.1165, 6.954700000000001]]]}, "properties": {"gap": 0.0, "sss": 0.0, "rwi": 0.979, "pop_density": 1786.0, "sss_t": 0, "rwi_t": 0, "cls": 0, "color": "#e8e8e8", "crowd_t": 0, "color_crowd": "#e8e8e8"}}, {"type": "Feature", "geometry": {"type": "Polygon", "coordinates": [[[122.1015, 6.9397], [122.1165, 6.9397], [122.1165, 6.9547], [122.1015, 6.9547], [122.1015, 6.9397]]]}, "properties": {"gap": 3.4, "sss": 6.2, "rwi": 0.929, "pop_density": 3496.0, "sss_t": 2, "rwi_t": 0, "cls": 6, "color": "#be64ac", "crowd_t": 6, "color_crowd": "#be64ac"}}, {"type": "Feature", "geometry": {"type": "Polygon", "coordinates": [[[122.0865, 6.954700000000001], [122.1015, 6.954700000000001], [122.1015, 6.9697000000000005], [122.0865, 6.9697000000000005], [122.0865, 6.954700000000001]]]}, "properties": {"gap": 10.0, "sss": 12.6, "rwi": 1.127, "pop_density": 294.0, "sss_t": 2, "rwi_t": 0, "cls": 6, "color": "#be64ac", "crowd_t": 6, "color_crowd": "#be64ac"}}]}