{"type": "FeatureCollection", "features": [{"type": "Feature", "geometry": {"type": "Polygon", "coordinates": [[[124.7935, 6.4604], [124.8085, 6.4604], [124.8085, 6.4754], [124.7935, 6.4754], [124.7935, 6.4604]]]}, "properties": {"gap": 10.0, "sss": 12.7, "rwi": 0.785, "pop_density": 564.0, "sss_t": 2, "rwi_t": 2, "cls": 8, "color": "#3b4994", "crowd_t": 6, "color_crowd": "#be64ac"}}, {"type": "Feature", "geometry": {"type": "Polygon", "coordinates": [[[124.7935, 6.4454], [124.8085, 6.4454], [124.8085, 6.4604], [124.7935, 6.4604], [124.7935, 6.4454]]]}, "properties": {"gap": 10.0, "sss": 14.3, "rwi": 0.785, "pop_density": 4593.0, "sss_t": 2, "rwi_t": 2, "cls": 8, "color": "#3b4994", "crowd_t": 8, "color_crowd": "#3b4994"}}, {"type": "Feature", "geometry": {"type": "Polygon", "coordinates": [[[124.8235, 6.4754000000000005], [124.8385, 6.4754000000000005], [124.8385, 6.4904], [124.8235, 6.4904], [124.8235, 6.4754000000000005]]]}, "properties": {"gap": 1.2, "sss": 1.5, "rwi": 0.92, "pop_density": 5150.0, "sss_t": 0, "rwi_t": 2, "cls": 2, "color": "#5ac8c8", "crowd_t": 2, "color_crowd": "#5ac8c8"}}, {"type": "Feature", "geometry": {"type": "Polygon", "coordinates": [[[124.8385, 6.4754000000000005], [124.8535, 6.4754000000000005], [124.8535, 6.4904], [124.8385, 6.4904], [124.8385, 6.4754000000000005]]]}, "properties": {"gap": 3.0, "sss": 4.5, "rwi": 0.92, "pop_density": 9558.0, "sss_t": 1, "rwi_t": 2, "cls": 5, "color": "#5698b9", "crowd_t": 5, "color_crowd": "#5698b9"}}, {"type": "Feature", "geometry": {"type": "Polygon", "coordinates": [[[124.8535, 6.4754000000000005], [124.8685, 6.4754000000000005], [124.8685, 6.4904], [124.8535, 6.4904], [124.8535, 6.4754000000000005]]]}, "properties": {"gap": 1.9, "sss": 3.0, "rwi": 0.878, "pop_density": 9909.0, "sss_t": 1, "rwi_t": 2, "cls": 5, "color": "#5698b9", "crowd_t": 5, "color_crowd": "#5698b9"}}, {"type": "Feature", "geometry": {"type": "Polygon", "coordinates": [[[124.8385, 6.4604], [124.8535, 6.4604], [124.8535, 6.4754], [124.8385, 6.4754], [124.8385, 6.4604]]]}, "properties": {"gap": 4.7, "sss": 7.3, "rwi": 0.471, "pop_density": 4769.0, "sss_t": 1, "rwi_t": 0, "cls": 3, "color": "#dfb0d6", "crowd_t": 5, "color_crowd": "#5698b9"}}, {"type": "Feature", "geometry": {"type": "Polygon", "coordinates": [[[124.8235, 6.4604], [124.8385, 6.4604], [124.8385, 6.4754], [124.8235, 6.4754], [124.8235, 6.4604]]]}, "properties": {"gap": 6.1, "sss": 9.0, "rwi": 0.471, "pop_density": 2133.0, "sss_t": 2, "rwi_t": 0, "cls": 6, "color": "#be64ac", "crowd_t": 7, "color_crowd": "#8c62aa"}}, {"type": "Feature", "geometry": {"type": "Polygon", "coordinates": [[[124.8535, 6.4604], [124.8685, 6.4604], [124.8685, 6.4754], [124.8535, 6.4754], [124.8535, 6.4604]]]}, "properties": {"gap": 0.0, "sss": 0.0, "rwi": 0.453, "pop_density": 1717.0, "sss_t": 0, "rwi_t": 0, "cls": 0, "color": "#e8e8e8", "crowd_t": 0, "color_crowd": "#e8e8e8"}}, {"type": "Feature", "geometry": {"type": "Polygon", "coordinates": [[[124.8685, 6.4604], [124.8835, 6.4604], [124.8835, 6.4754], [124.8685, 6.4754], [124.8685, 6.4604]]]}, "properties": {"gap": 6.0, "sss": 10.2, "rwi": 0.532, "pop_density": 5739.0, "sss_t": 2, "rwi_t": 1, "cls": 7, "color": "#8c62aa", "crowd_t": 8, "color_crowd": "#3b4994"}}, {"type": "Feature", "geometry": {"type": "Polygon", "coordinates": [[[124.8685, 6.4454], [124.8835, 6.4454], [124.8835, 6.4604], [124.8685, 6.4604], [124.8685, 6.4454]]]}, "properties": {"gap": 10.0, "sss": 13.9, "rwi": 0.532, "pop_density": 3752.0, "sss_t": 2, "rwi_t": 1, "cls": 7, "color": "#8c62aa", "crowd_t": 7, "color_crowd": "#8c62aa"}}, {"type": "Feature", "geometry": {"type": "Polygon", "coordinates": [[[124.8685, 6.4754000000000005], [124.8835, 6.4754000000000005], [124.8835, 6.4904], [124.8685, 6.4904], [124.8685, 6.4754000000000005]]]}, "properties": {"gap": 0.0, "sss": 0.0, "rwi": 0.364, "pop_density": 4565.0, "sss_t": 0, "rwi_t": 0, "cls": 0, "color": "#e8e8e8", "crowd_t": 1, "color_crowd": "#ace4e4"}}, {"type": "Feature", "geometry": {"type": "Polygon", "coordinates": [[[124.8085, 6.5054], [124.8235, 6.5054], [124.8235, 6.5203999999999995], [124.8085, 6.5203999999999995], [124.8085, 6.5054]]]}, "properties": {"gap": 20.0, "sss": 25.0, "rwi": 0.549, "pop_density": 849.0, "sss_t": 2, "rwi_t": 1, "cls": 7, "color": "#8c62aa", "crowd_t": 6, "color_crowd": "#be64ac"}}, {"type": "Feature", "geometry": {"type": "Polygon", "coordinates": [[[124.7935, 6.4904], [124.8085, 6.4904], [124.8085, 6.5054], [124.7935, 6.5054], [124.7935, 6.4904]]]}, "properties": {"gap": 26.8, "sss": 33.5, "rwi": -0.448, "pop_density": 0.0, "sss_t": 2, "rwi_t": 0, "cls": 6, "color": "#be64ac", "crowd_t": 6, "color_crowd": "#be64ac"}}, {"type": "Feature", "geometry": {"type": "Polygon", "coordinates": [[[124.8085, 6.4754000000000005], [124.8235, 6.4754000000000005], [124.8235, 6.4904], [124.8085, 6.4904], [124.8085, 6.4754000000000005]]]}, "properties": {"gap": 9.7, "sss": 12.3, "rwi": 0.336, "pop_density": 1253.0, "sss_t": 2, "rwi_t": 0, "cls": 6, "color": "#be64ac", "crowd_t": 6, "color_crowd": "#be64ac"}}, {"type": "Feature", "geometry": {"type": "Polygon", "coordinates": [[[124.8235, 6.5054], [124.8385, 6.5054], [124.8385, 6.5203999999999995], [124.8235, 6.5203999999999995], [124.8235, 6.5054]]]}, "properties": {"gap": 2.1, "sss": 3.0, "rwi": 0.505, "pop_density": 3184.0, "sss_t": 1, "rwi_t": 0, "cls": 3, "color": "#dfb0d6", "crowd_t": 4, "color_crowd": "#a5add3"}}, {"type": "Feature", "geometry": {"type": "Polygon", "coordinates": [[[124.8385, 6.4904], [124.8535, 6.4904], [124.8535, 6.5054], [124.8385, 6.5054], [124.8385, 6.4904]]]}, "properties": {"gap": 2.8, "sss": 4.1, "rwi": 1.017, "pop_density": 3095.0, "sss_t": 1, "rwi_t": 2, "cls": 5, "color": "#5698b9", "crowd_t": 4, "color_crowd": "#a5add3"}}, {"type": "Feature", "geometry": {"type": "Polygon", "coordinates": [[[124.8235, 6.4904], [124.8385, 6.4904], [124.8385, 6.5054], [124.8235, 6.5054], [124.8235, 6.4904]]]}, "properties": {"gap": 4.4, "sss": 6.8, "rwi": 1.017, "pop_density": 4080.0, "sss_t": 1, "rwi_t": 2, "cls": 5, "color": "#5698b9", "crowd_t": 4, "color_crowd": "#a5add3"}}, {"type": "Feature", "geometry": {"type": "Polygon", "coordinates": [[[124.8385, 6.5054], [124.8535, 6.5054], [124.8535, 6.5203999999999995], [124.8385, 6.5203999999999995], [124.8385, 6.5054]]]}, "properties": {"gap": 1.7, "sss": 2.4, "rwi": 0.505, "pop_density": 1297.0, "sss_t": 1, "rwi_t": 0, "cls": 3, "color": "#dfb0d6", "crowd_t": 3, "color_crowd": "#dfb0d6"}}, {"type": "Feature", "geometry": {"type": "Polygon", "coordinates": [[[124.8535, 6.4904], [124.8685, 6.4904], [124.8685, 6.5054], [124.8535, 6.5054], [124.8535, 6.4904]]]}, "properties": {"gap": 1.2, "sss": 1.8, "rwi": 0.876, "pop_density": 5220.0, "sss_t": 1, "rwi_t": 2, "cls": 5, "color": "#5698b9", "crowd_t": 5, "color_crowd": "#5698b9"}}, {"type": "Feature", "geometry": {"type": "Polygon", "coordinates": [[[124.8535, 6.5054], [124.8685, 6.5054], [124.8685, 6.5203999999999995], [124.8535, 6.5203999999999995], [124.8535, 6.5054]]]}, "properties": {"gap": 0.0, "sss": 0.0, "rwi": 0.619, "pop_density": 3661.0, "sss_t": 0, "rwi_t": 1, "cls": 1, "color": "#ace4e4", "crowd_t": 1, "color_crowd": "#ace4e4"}}, {"type": "Feature", "geometry": {"type": "Polygon", "coordinates": [[[124.8685, 6.4904], [124.8835, 6.4904], [124.8835, 6.5054], [124.8685, 6.5054], [124.8685, 6.4904]]]}, "properties": {"gap": 0.0, "sss": 0.0, "rwi": 0.379, "pop_density": 293.0, "sss_t": 0, "rwi_t": 0, "cls": 0, "color": "#e8e8e8", "crowd_t": 0, "color_crowd": "#e8e8e8"}}, {"type": "Feature", "geometry": {"type": "Polygon", "coordinates": [[[124.8085, 6.5204], [124.8235, 6.5204], [124.8235, 6.5354], [124.8085, 6.5354], [124.8085, 6.5204]]]}, "properties": {"gap": 0.0, "sss": 0.0, "rwi": 0.549, "pop_density": 5134.0, "sss_t": 0, "rwi_t": 1, "cls": 1, "color": "#ace4e4", "crowd_t": 2, "color_crowd": "#5ac8c8"}}, {"type": "Feature", "geometry": {"type": "Polygon", "coordinates": [[[124.7935, 6.5354], [124.8085, 6.5354], [124.8085, 6.5504], [124.7935, 6.5504], [124.7935, 6.5354]]]}, "properties": {"gap": 0.0, "sss": 0.0, "rwi": 0.513, "pop_density": 2595.0, "sss_t": 0, "rwi_t": 1, "cls": 1, "color": "#ace4e4", "crowd_t": 1, "color_crowd": "#ace4e4"}}, {"type": "Feature", "geometry": {"type": "Polygon", "coordinates": [[[124.8235, 6.5204], [124.8385, 6.5204], [124.8385, 6.5354], [124.8235, 6.5354], [124.8235, 6.5204]]]}, "properties": {"gap": 0.0, "sss": 0.0, "rwi": 0.505, "pop_density": 0.0, "sss_t": 0, "rwi_t": 0, "cls": 0, "color": "#e8e8e8", "crowd_t": 0, "color_crowd": "#e8e8e8"}}, {"type": "Feature", "geometry": {"type": "Polygon", "coordinates": [[[124.8535, 6.5204], [124.8685, 6.5204], [124.8685, 6.5354], [124.8535, 6.5354], [124.8535, 6.5204]]]}, "properties": {"gap": 14.1, "sss": 17.7, "rwi": 0.619, "pop_density": 5387.0, "sss_t": 2, "rwi_t": 1, "cls": 7, "color": "#8c62aa", "crowd_t": 8, "color_crowd": "#3b4994"}}, {"type": "Feature", "geometry": {"type": "Polygon", "coordinates": [[[124.8385, 6.5204], [124.8535, 6.5204], [124.8535, 6.5354], [124.8385, 6.5354], [124.8385, 6.5204]]]}, "properties": {"gap": 0.0, "sss": 0.0, "rwi": 0.505, "pop_density": 0.0, "sss_t": 0, "rwi_t": 0, "cls": 0, "color": "#e8e8e8", "crowd_t": 0, "color_crowd": "#e8e8e8"}}]}