{"type": "FeatureCollection", "features": [{"type": "Feature", "geometry": {"type": "Polygon", "coordinates": [[[124.0353, 12.9558], [124.05030000000001, 12.9558], [124.05030000000001, 12.9708], [124.0353, 12.9708], [124.0353, 12.9558]]]}, "properties": {"gap": 10.0, "sss": 14.0, "rwi": 0.714, "pop_density": 3796.0, "sss_t": 2, "rwi_t": 1, "cls": 7, "color": "#8c62aa", "crowd_t": 7, "color_crowd": "#8c62aa"}}, {"type": "Feature", "geometry": {"type": "Polygon", "coordinates": [[[124.0353, 12.9258], [124.05030000000001, 12.9258], [124.05030000000001, 12.940800000000001], [124.0353, 12.940800000000001], [124.0353, 12.9258]]]}, "properties": {"gap": 10.0, "sss": 12.9, "rwi": -0.527, "pop_density": 1233.0, "sss_t": 2, "rwi_t": 0, "cls": 6, "color": "#be64ac", "crowd_t": 6, "color_crowd": "#be64ac"}}, {"type": "Feature", "geometry": {"type": "Polygon", "coordinates": [[[123.9753, 12.9708], [123.9903, 12.9708], [123.9903, 12.985800000000001], [123.9753, 12.985800000000001], [123.9753, 12.9708]]]}, "properties": {"gap": 2.2, "sss": 3.2, "rwi": 0.745, "pop_density": 6656.0, "sss_t": 1, "rwi_t": 1, "cls": 4, "color": "#a5add3", "crowd_t": 5, "color_crowd": "#5698b9"}}, {"type": "Feature", "geometry": {"type": "Polygon", "coordinates": [[[123.9903, 12.9708], [124.0053, 12.9708], [124.0053, 12.985800000000001], [123.9903, 12.985800000000001], [123.9903, 12.9708]]]}, "properties": {"gap": 0.6, "sss": 1.2, "rwi": 1.179, "pop_density": 6654.0, "sss_t": 1, "rwi_t": 2, "cls": 5, "color": "#5698b9", "crowd_t": 5, "color_crowd": "#5698b9"}}, {"type": "Feature", "geometry": {"type": "Polygon", "coordinates": [[[123.9903, 12.9558], [124.0053, 12.9558], [124.0053, 12.9708], [123.9903, 12.9708], [123.9903, 12.9558]]]}, "properties": {"gap": 0.3, "sss": 0.6, "rwi": 1.179, "pop_density": 11836.0, "sss_t": 1, "rwi_t": 2, "cls": 5, "color": "#5698b9", "crowd_t": 5, "color_crowd": "#5698b9"}}, {"type": "Feature", "geometry": {"type": "Polygon", "coordinates": [[[123.9753, 12.9558], [123.9903, 12.9558], [123.9903, 12.9708], [123.9753, 12.9708], [123.9753, 12.9558]]]}, "properties": {"gap": 0.0, "sss": 0.0, "rwi": 0.745, "pop_density": 3201.0, "sss_t": 0, "rwi_t": 1, "cls": 1, "color": "#ace4e4", "crowd_t": 0, "color_crowd": "#e8e8e8"}}, {"type": "Feature", "geometry": {"type": "Polygon", "coordinates": [[[123.9603, 12.9708], [123.9753, 12.9708], [123.9753, 12.985800000000001], [123.9603, 12.985800000000001], [123.9603, 12.9708]]]}, "properties": {"gap": 0.0, "sss": 0.0, "rwi": 0.745, "pop_density": 5279.0, "sss_t": 0, "rwi_t": 1, "cls": 1, "color": "#ace4e4", "crowd_t": 1, "color_crowd": "#ace4e4"}}, {"type": "Feature", "geometry": {"type": "Polygon", "coordinates": [[[123.9603, 12.9558], [123.9753, 12.9558], [123.9753, 12.9708], [123.9603, 12.9708], [123.9603, 12.9558]]]}, "properties": {"gap": 0.0, "sss": 0.0, "rwi": 0.745, "pop_density": 2210.0, "sss_t": 0, "rwi_t": 1, "cls": 1, "color": "#ace4e4", "crowd_t": 0, "color_crowd": "#e8e8e8"}}, {"type": "Feature", "geometry": {"type": "Polygon", "coordinates": [[[124.0053, 12.985800000000001], [124.0203, 12.985800000000001], [124.0203, 13.000800000000002], [124.0053, 13.000800000000002], [124.0053, 12.985800000000001]]]}, "properties": {"gap": 5.6, "sss": 9.2, "rwi": 0.578, "pop_density": 7446.0, "sss_t": 2, "rwi_t": 0, "cls": 6, "color": "#be64ac", "crowd_t": 8, "color_crowd": "#3b4994"}}, {"type": "Feature", "geometry": {"type": "Polygon", "coordinates": [[[124.0053, 12.9708], [124.0203, 12.9708], [124.0203, 12.985800000000001], [124.0053, 12.985800000000001], [124.0053, 12.9708]]]}, "properties": {"gap": 4.1, "sss": 8.3, "rwi": 1.179, "pop_density": 10748.0, "sss_t": 1, "rwi_t": 2, "cls": 5, "color": "#5698b9", "crowd_t": 5, "color_crowd": "#5698b9"}}, {"type": "Feature", "geometry": {"type": "Polygon", "coordinates": [[[124.0053, 12.9558], [124.0203, 12.9558], [124.0203, 12.9708], [124.0053, 12.9708], [124.0053, 12.9558]]]}, "properties": {"gap": 0.0, "sss": 0.0, "rwi": 1.179, "pop_density": 4343.0, "sss_t": 0, "rwi_t": 2, "cls": 2, "color": "#5ac8c8", "crowd_t": 1, "color_crowd": "#ace4e4"}}, {"type": "Feature", "geometry": {"type": "Polygon", "coordinates": [[[124.0203, 12.9708], [124.0353, 12.9708], [124.0353, 12.985800000000001], [124.0203, 12.985800000000001], [124.0203, 12.9708]]]}, "properties": {"gap": 0.0, "sss": 0.0, "rwi": 0.686, "pop_density": 4371.0, "sss_t": 0, "rwi_t": 0, "cls": 0, "color": "#e8e8e8", "crowd_t": 1, "color_crowd": "#ace4e4"}}, {"type": "Feature", "geometry": {"type": "Polygon", "coordinates": [[[124.0353, 12.9708], [124.05030000000001, 12.9708], [124.05030000000001, 12.985800000000001], [124.0353, 12.985800000000001], [124.0353, 12.9708]]]}, "properties": {"gap": 0.0, "sss": 0.0, "rwi": 0.714, "pop_density": 6185.0, "sss_t": 0, "rwi_t": 1, "cls": 1, "color": "#ace4e4", "crowd_t": 2, "color_crowd": "#5ac8c8"}}, {"type": "Feature", "geometry": {"type": "Polygon", "coordinates": [[[123.9903, 12.985800000000001], [124.0053, 12.985800000000001], [124.0053, 13.000800000000002], [123.9903, 13.000800000000002], [123.9903, 12.985800000000001]]]}, "properties": {"gap": 0.0, "sss": 0.0, "rwi": 0.578, "pop_density": 45.0, "sss_t": 0, "rwi_t": 0, "cls": 0, "color": "#e8e8e8", "crowd_t": 0, "color_crowd": "#e8e8e8"}}, {"type": "Feature", "geometry": {"type": "Polygon", "coordinates": [[[124.0203, 13.0008], [124.0353, 13.0008], [124.0353, 13.0158], [124.0203, 13.0158], [124.0203, 13.0008]]]}, "properties": {"gap": 10.0, "sss": 14.4, "rwi": 0.262, "pop_density": 4964.0, "sss_t": 2, "rwi_t": 0, "cls": 6, "color": "#be64ac", "crowd_t": 7, "color_crowd": "#8c62aa"}}, {"type": "Feature", "geometry": {"type": "Polygon", "coordinates": [[[124.0203, 13.0158], [124.0353, 13.0158], [124.0353, 13.030800000000001], [124.0203, 13.030800000000001], [124.0203, 13.0158]]]}, "properties": {"gap": 10.0, "sss": 12.7, "rwi": 0.262, "pop_density": 454.0, "sss_t": 2, "rwi_t": 0, "cls": 6, "color": "#be64ac", "crowd_t": 6, "color_crowd": "#be64ac"}}, {"type": "Feature", "geometry": {"type": "Polygon", "coordinates": [[[124.0203, 12.985800000000001], [124.0353, 12.985800000000001], [124.0353, 13.000800000000002], [124.0203, 13.000800000000002], [124.0203, 12.985800000000001]]]}, "properties": {"gap": 10.0, "sss": 13.6, "rwi": 1.15, "pop_density": 2644.0, "sss_t": 2, "rwi_t": 2, "cls": 8, "color": "#3b4994", "crowd_t": 6, "color_crowd": "#be64ac"}}]}