{"type": "FeatureCollection", "features": [{"type": "Feature", "geometry": {"type": "Polygon", "coordinates": [[[126.1717, 6.9072], [126.1867, 6.9072], [126.1867, 6.922199999999999], [126.1717, 6.922199999999999], [126.1717, 6.9072]]]}, "properties": {"gap": 30.0, "sss": 37.5, "rwi": 0.304, "pop_density": 0.0, "sss_t": 2, "rwi_t": 0, "cls": 6, "color": "#be64ac", "crowd_t": 6, "color_crowd": "#be64ac"}}, {"type": "Feature", "geometry": {"type": "Polygon", "coordinates": [[[126.1717, 6.9372], [126.1867, 6.9372], [126.1867, 6.9521999999999995], [126.1717, 6.9521999999999995], [126.1717, 6.9372]]]}, "properties": {"gap": 29.3, "sss": 38.1, "rwi": 0.142, "pop_density": 1268.0, "sss_t": 1, "rwi_t": 0, "cls": 3, "color": "#dfb0d6", "crowd_t": 4, "color_crowd": "#a5add3"}}, {"type": "Feature", "geometry": {"type": "Polygon", "coordinates": [[[126.2467, 6.922199999999999], [126.2617, 6.922199999999999], [126.2617, 6.937199999999999], [126.2467, 6.937199999999999], [126.2467, 6.922199999999999]]]}, "properties": {"gap": 0.0, "sss": 0.0, "rwi": 1.078, "pop_density": 605.0, "sss_t": 0, "rwi_t": 1, "cls": 1, "color": "#ace4e4", "crowd_t": 1, "color_crowd": "#ace4e4"}}, {"type": "Feature", "geometry": {"type": "Polygon", "coordinates": [[[126.2017, 6.9521999999999995], [126.2167, 6.9521999999999995], [126.2167, 6.967199999999999], [126.2017, 6.967199999999999], [126.2017, 6.9521999999999995]]]}, "properties": {"gap": 5.9, "sss": 8.0, "rwi": 1.145, "pop_density": 1814.0, "sss_t": 1, "rwi_t": 2, "cls": 5, "color": "#5698b9", "crowd_t": 5, "color_crowd": "#5698b9"}}, {"type": "Feature", "geometry": {"type": "Polygon", "coordinates": [[[126.1867, 6.9372], [126.2017, 6.9372], [126.2017, 6.9521999999999995], [126.1867, 6.9521999999999995], [126.1867, 6.9372]]]}, "properties": {"gap": 32.9, "sss": 42.1, "rwi": -0.161, "pop_density": 1142.0, "sss_t": 2, "rwi_t": 0, "cls": 6, "color": "#be64ac", "crowd_t": 7, "color_crowd": "#8c62aa"}}, {"type": "Feature", "geometry": {"type": "Polygon", "coordinates": [[[126.1867, 6.9521999999999995], [126.2017, 6.9521999999999995], [126.2017, 6.967199999999999], [126.1867, 6.967199999999999], [126.1867, 6.9521999999999995]]]}, "properties": {"gap": 30.0, "sss": 38.0, "rwi": 1.145, "pop_density": 445.0, "sss_t": 2, "rwi_t": 2, "cls": 8, "color": "#3b4994", "crowd_t": 6, "color_crowd": "#be64ac"}}, {"type": "Feature", "geometry": {"type": "Polygon", "coordinates": [[[126.2167, 6.9372], [126.2317, 6.9372], [126.2317, 6.9521999999999995], [126.2167, 6.9521999999999995], [126.2167, 6.9372]]]}, "properties": {"gap": 2.1, "sss": 3.2, "rwi": 0.673, "pop_density": 1928.0, "sss_t": 0, "rwi_t": 1, "cls": 1, "color": "#ace4e4", "crowd_t": 2, "color_crowd": "#5ac8c8"}}, {"type": "Feature", "geometry": {"type": "Polygon", "coordinates": [[[126.2167, 6.9521999999999995], [126.2317, 6.9521999999999995], [126.2317, 6.967199999999999], [126.2167, 6.967199999999999], [126.2167, 6.9521999999999995]]]}, "properties": {"gap": 4.6, "sss": 5.7, "rwi": 1.038, "pop_density": 906.0, "sss_t": 1, "rwi_t": 1, "cls": 4, "color": "#a5add3", "crowd_t": 4, "color_crowd": "#a5add3"}}, {"type": "Feature", "geometry": {"type": "Polygon", "coordinates": [[[126.2317, 6.9372], [126.2467, 6.9372], [126.2467, 6.9521999999999995], [126.2317, 6.9521999999999995], [126.2317, 6.9372]]]}, "properties": {"gap": 3.8, "sss": 5.4, "rwi": 1.078, "pop_density": 2558.0, "sss_t": 0, "rwi_t": 1, "cls": 1, "color": "#ace4e4", "crowd_t": 2, "color_crowd": "#5ac8c8"}}, {"type": "Feature", "geometry": {"type": "Polygon", "coordinates": [[[126.2167, 6.9822], [126.2317, 6.9822], [126.2317, 6.997199999999999], [126.2167, 6.997199999999999], [126.2167, 6.9822]]]}, "properties": {"gap": 30.0, "sss": 50.5, "rwi": -0.567, "pop_density": 11227.0, "sss_t": 2, "rwi_t": 0, "cls": 6, "color": "#be64ac", "crowd_t": 8, "color_crowd": "#3b4994"}}, {"type": "Feature", "geometry": {"type": "Polygon", "coordinates": [[[126.2467, 6.9372], [126.2617, 6.9372], [126.2617, 6.9521999999999995], [126.2467, 6.9521999999999995], [126.2467, 6.9372]]]}, "properties": {"gap": 1.1, "sss": 1.3, "rwi": 1.078, "pop_density": 582.0, "sss_t": 0, "rwi_t": 1, "cls": 1, "color": "#ace4e4", "crowd_t": 0, "color_crowd": "#e8e8e8"}}, {"type": "Feature", "geometry": {"type": "Polygon", "coordinates": [[[126.2617, 6.9521999999999995], [126.2767, 6.9521999999999995], [126.2767, 6.967199999999999], [126.2617, 6.967199999999999], [126.2617, 6.9521999999999995]]]}, "properties": {"gap": 0.0, "sss": 0.0, "rwi": 0.429, "pop_density": 0.0, "sss_t": 0, "rwi_t": 0, "cls": 0, "color": "#e8e8e8", "crowd_t": 0, "color_crowd": "#e8e8e8"}}, {"type": "Feature", "geometry": {"type": "Polygon", "coordinates": [[[126.2617, 6.9372], [126.2767, 6.9372], [126.2767, 6.9521999999999995], [126.2617, 6.9521999999999995], [126.2617, 6.9372]]]}, "properties": {"gap": 10.0, "sss": 12.6, "rwi": 1.078, "pop_density": 305.0, "sss_t": 1, "rwi_t": 1, "cls": 4, "color": "#a5add3", "crowd_t": 3, "color_crowd": "#dfb0d6"}}]}