{"type": "FeatureCollection", "features": [{"type": "Feature", "geometry": {"type": "Polygon", "coordinates": [[[121.1351, 14.1666], [121.1501, 14.1666], [121.1501, 14.181600000000001], [121.1351, 14.181600000000001], [121.1351, 14.1666]]]}, "properties": {"gap": 2.7, "sss": 3.9, "rwi": 1.364, "pop_density": 2235.0, "sss_t": 2, "rwi_t": 2, "cls": 8, "color": "#3b4994", "crowd_t": 6, "color_crowd": "#be64ac"}}, {"type": "Feature", "geometry": {"type": "Polygon", "coordinates": [[[121.1201, 14.1666], [121.1351, 14.1666], [121.1351, 14.181600000000001], [121.1201, 14.181600000000001], [121.1201, 14.1666]]]}, "properties": {"gap": 5.7, "sss": 7.9, "rwi": 1.103, "pop_density": 1660.0, "sss_t": 2, "rwi_t": 0, "cls": 6, "color": "#be64ac", "crowd_t": 6, "color_crowd": "#be64ac"}}, {"type": "Feature", "geometry": {"type": "Polygon", "coordinates": [[[121.1051, 14.1666], [121.1201, 14.1666], [121.1201, 14.181600000000001], [121.1051, 14.181600000000001], [121.1051, 14.1666]]]}, "properties": {"gap": 0.3, "sss": 0.5, "rwi": 1.103, "pop_density": 1744.0, "sss_t": 1, "rwi_t": 0, "cls": 3, "color": "#dfb0d6", "crowd_t": 3, "color_crowd": "#dfb0d6"}}, {"type": "Feature", "geometry": {"type": "Polygon", "coordinates": [[[121.1351, 14.1516], [121.1501, 14.1516], [121.1501, 14.1666], [121.1351, 14.1666], [121.1351, 14.1516]]]}, "properties": {"gap": 0.0, "sss": 0.0, "rwi": 1.364, "pop_density": 4507.0, "sss_t": 0, "rwi_t": 2, "cls": 2, "color": "#5ac8c8", "crowd_t": 1, "color_crowd": "#ace4e4"}}, {"type": "Feature", "geometry": {"type": "Polygon", "coordinates": [[[121.1351, 14.1816], [121.1501, 14.1816], [121.1501, 14.1966], [121.1351, 14.1966], [121.1351, 14.1816]]]}, "properties": {"gap": 2.1, "sss": 3.1, "rwi": 1.179, "pop_density": 5004.0, "sss_t": 1, "rwi_t": 0, "cls": 3, "color": "#dfb0d6", "crowd_t": 4, "color_crowd": "#a5add3"}}, {"type": "Feature", "geometry": {"type": "Polygon", "coordinates": [[[121.1201, 14.1816], [121.1351, 14.1816], [121.1351, 14.1966], [121.1201, 14.1966], [121.1201, 14.1816]]]}, "properties": {"gap": 4.1, "sss": 5.5, "rwi": 1.059, "pop_density": 2009.0, "sss_t": 2, "rwi_t": 0, "cls": 6, "color": "#be64ac", "crowd_t": 6, "color_crowd": "#be64ac"}}, {"type": "Feature", "geometry": {"type": "Polygon", "coordinates": [[[121.1501, 14.1816], [121.1651, 14.1816], [121.1651, 14.1966], [121.1501, 14.1966], [121.1501, 14.1816]]]}, "properties": {"gap": 0.0, "sss": 0.0, "rwi": 1.183, "pop_density": 8371.0, "sss_t": 0, "rwi_t": 1, "cls": 1, "color": "#ace4e4", "crowd_t": 1, "color_crowd": "#ace4e4"}}, {"type": "Feature", "geometry": {"type": "Polygon", "coordinates": [[[121.1501, 14.1666], [121.1651, 14.1666], [121.1651, 14.181600000000001], [121.1501, 14.181600000000001], [121.1501, 14.1666]]]}, "properties": {"gap": 10.0, "sss": 12.6, "rwi": 1.09, "pop_density": 376.0, "sss_t": 2, "rwi_t": 0, "cls": 6, "color": "#be64ac", "crowd_t": 6, "color_crowd": "#be64ac"}}, {"type": "Feature", "geometry": {"type": "Polygon", "coordinates": [[[121.1951, 14.1666], [121.2101, 14.1666], [121.2101, 14.181600000000001], [121.1951, 14.181600000000001], [121.1951, 14.1666]]]}, "properties": {"gap": 0.0, "sss": 0.0, "rwi": 1.032, "pop_density": 3011.0, "sss_t": 0, "rwi_t": 0, "cls": 0, "color": "#e8e8e8", "crowd_t": 0, "color_crowd": "#e8e8e8"}}, {"type": "Feature", "geometry": {"type": "Polygon", "coordinates": [[[121.1201, 14.2116], [121.1351, 14.2116], [121.1351, 14.226600000000001], [121.1201, 14.226600000000001], [121.1201, 14.2116]]]}, "properties": {"gap": 0.0, "sss": 0.0, "rwi": 1.244, "pop_density": 10449.0, "sss_t": 0, "rwi_t": 1, "cls": 1, "color": "#ace4e4", "crowd_t": 2, "color_crowd": "#5ac8c8"}}, {"type": "Feature", "geometry": {"type": "Polygon", "coordinates": [[[121.1201, 14.1966], [121.1351, 14.1966], [121.1351, 14.2116], [121.1201, 14.2116], [121.1201, 14.1966]]]}, "properties": {"gap": 0.0, "sss": 0.0, "rwi": 1.244, "pop_density": 5044.0, "sss_t": 0, "rwi_t": 1, "cls": 1, "color": "#ace4e4", "crowd_t": 1, "color_crowd": "#ace4e4"}}, {"type": "Feature", "geometry": {"type": "Polygon", "coordinates": [[[121.1351, 14.1966], [121.1501, 14.1966], [121.1501, 14.2116], [121.1351, 14.2116], [121.1351, 14.1966]]]}, "properties": {"gap": 0.3, "sss": 0.4, "rwi": 1.437, "pop_density": 3976.0, "sss_t": 1, "rwi_t": 2, "cls": 5, "color": "#5698b9", "crowd_t": 4, "color_crowd": "#a5add3"}}, {"type": "Feature", "geometry": {"type": "Polygon", "coordinates": [[[121.1051, 14.2116], [121.1201, 14.2116], [121.1201, 14.226600000000001], [121.1051, 14.226600000000001], [121.1051, 14.2116]]]}, "properties": {"gap": 10.0, "sss": 14.8, "rwi": 1.244, "pop_density": 5939.0, "sss_t": 2, "rwi_t": 1, "cls": 7, "color": "#8c62aa", "crowd_t": 7, "color_crowd": "#8c62aa"}}, {"type": "Feature", "geometry": {"type": "Polygon", "coordinates": [[[121.1051, 14.1966], [121.1201, 14.1966], [121.1201, 14.2116], [121.1051, 14.2116], [121.1051, 14.1966]]]}, "properties": {"gap": 10.0, "sss": 13.9, "rwi": 1.244, "pop_density": 3552.0, "sss_t": 2, "rwi_t": 1, "cls": 7, "color": "#8c62aa", "crowd_t": 6, "color_crowd": "#be64ac"}}, {"type": "Feature", "geometry": {"type": "Polygon", "coordinates": [[[121.1051, 14.1816], [121.1201, 14.1816], [121.1201, 14.1966], [121.1051, 14.1966], [121.1051, 14.1816]]]}, "properties": {"gap": 10.0, "sss": 15.2, "rwi": 1.059, "pop_density": 5105.0, "sss_t": 2, "rwi_t": 0, "cls": 6, "color": "#be64ac", "crowd_t": 7, "color_crowd": "#8c62aa"}}, {"type": "Feature", "geometry": {"type": "Polygon", "coordinates": [[[121.1201, 14.2266], [121.1351, 14.2266], [121.1351, 14.2416], [121.1201, 14.2416], [121.1201, 14.2266]]]}, "properties": {"gap": 0.0, "sss": 0.0, "rwi": 1.171, "pop_density": 4274.0, "sss_t": 0, "rwi_t": 0, "cls": 0, "color": "#e8e8e8", "crowd_t": 1, "color_crowd": "#ace4e4"}}, {"type": "Feature", "geometry": {"type": "Polygon", "coordinates": [[[121.1501, 14.1966], [121.1651, 14.1966], [121.1651, 14.2116], [121.1501, 14.2116], [121.1501, 14.1966]]]}, "properties": {"gap": 0.9, "sss": 2.2, "rwi": 1.334, "pop_density": 22379.0, "sss_t": 1, "rwi_t": 2, "cls": 5, "color": "#5698b9", "crowd_t": 5, "color_crowd": "#5698b9"}}, {"type": "Feature", "geometry": {"type": "Polygon", "coordinates": [[[121.1651, 14.2116], [121.1801, 14.2116], [121.1801, 14.226600000000001], [121.1651, 14.226600000000001], [121.1651, 14.2116]]]}, "properties": {"gap": 0.0, "sss": 0.0, "rwi": 1.334, "pop_density": 11158.0, "sss_t": 0, "rwi_t": 2, "cls": 2, "color": "#5ac8c8", "crowd_t": 2, "color_crowd": "#5ac8c8"}}, {"type": "Feature", "geometry": {"type": "Polygon", "coordinates": [[[121.1501, 14.2116], [121.1651, 14.2116], [121.1651, 14.226600000000001], [121.1501, 14.226600000000001], [121.1501, 14.2116]]]}, "properties": {"gap": 0.0, "sss": 0.0, "rwi": 1.334, "pop_density": 24757.0, "sss_t": 0, "rwi_t": 2, "cls": 2, "color": "#5ac8c8", "crowd_t": 2, "color_crowd": "#5ac8c8"}}, {"type": "Feature", "geometry": {"type": "Polygon", "coordinates": [[[121.1651, 14.1966], [121.1801, 14.1966], [121.1801, 14.2116], [121.1651, 14.2116], [121.1651, 14.1966]]]}, "properties": {"gap": 0.0, "sss": 0.0, "rwi": 1.334, "pop_density": 5559.0, "sss_t": 0, "rwi_t": 2, "cls": 2, "color": "#5ac8c8", "crowd_t": 1, "color_crowd": "#ace4e4"}}, {"type": "Feature", "geometry": {"type": "Polygon", "coordinates": [[[121.1351, 14.2116], [121.1501, 14.2116], [121.1501, 14.226600000000001], [121.1351, 14.226600000000001], [121.1351, 14.2116]]]}, "properties": {"gap": 0.0, "sss": 0.0, "rwi": 1.437, "pop_density": 26132.0, "sss_t": 0, "rwi_t": 2, "cls": 2, "color": "#5ac8c8", "crowd_t": 2, "color_crowd": "#5ac8c8"}}, {"type": "Feature", "geometry": {"type": "Polygon", "coordinates": [[[121.1801, 14.2116], [121.1951, 14.2116], [121.1951, 14.226600000000001], [121.1801, 14.226600000000001], [121.1801, 14.2116]]]}, "properties": {"gap": 0.0, "sss": 0.0, "rwi": 1.045, "pop_density": 13455.0, "sss_t": 0, "rwi_t": 0, "cls": 0, "color": "#e8e8e8", "crowd_t": 2, "color_crowd": "#5ac8c8"}}, {"type": "Feature", "geometry": {"type": "Polygon", "coordinates": [[[121.1051, 14.2266], [121.1201, 14.2266], [121.1201, 14.2416], [121.1051, 14.2416], [121.1051, 14.2266]]]}, "properties": {"gap": 9.7, "sss": 12.5, "rwi": 1.171, "pop_density": 1968.0, "sss_t": 2, "rwi_t": 0, "cls": 6, "color": "#be64ac", "crowd_t": 6, "color_crowd": "#be64ac"}}, {"type": "Feature", "geometry": {"type": "Polygon", "coordinates": [[[121.1051, 14.2416], [121.1201, 14.2416], [121.1201, 14.2566], [121.1051, 14.2566], [121.1051, 14.2416]]]}, "properties": {"gap": 6.0, "sss": 7.5, "rwi": 1.278, "pop_density": 319.0, "sss_t": 2, "rwi_t": 1, "cls": 7, "color": "#8c62aa", "crowd_t": 6, "color_crowd": "#be64ac"}}, {"type": "Feature", "geometry": {"type": "Polygon", "coordinates": [[[121.1201, 14.2416], [121.1351, 14.2416], [121.1351, 14.2566], [121.1201, 14.2566], [121.1201, 14.2416]]]}, "properties": {"gap": 0.0, "sss": 0.0, "rwi": 1.278, "pop_density": 10171.0, "sss_t": 0, "rwi_t": 1, "cls": 1, "color": "#ace4e4", "crowd_t": 2, "color_crowd": "#5ac8c8"}}, {"type": "Feature", "geometry": {"type": "Polygon", "coordinates": [[[121.1051, 14.2566], [121.1201, 14.2566], [121.1201, 14.271600000000001], [121.1051, 14.271600000000001], [121.1051, 14.2566]]]}, "properties": {"gap": 10.0, "sss": 12.8, "rwi": 1.278, "pop_density": 669.0, "sss_t": 2, "rwi_t": 1, "cls": 7, "color": "#8c62aa", "crowd_t": 6, "color_crowd": "#be64ac"}}, {"type": "Feature", "geometry": {"type": "Polygon", "coordinates": [[[121.1501, 14.2266], [121.1651, 14.2266], [121.1651, 14.2416], [121.1501, 14.2416], [121.1501, 14.2266]]]}, "properties": {"gap": 0.0, "sss": 0.0, "rwi": 1.37, "pop_density": 29617.0, "sss_t": 0, "rwi_t": 2, "cls": 2, "color": "#5ac8c8", "crowd_t": 2, "color_crowd": "#5ac8c8"}}, {"type": "Feature", "geometry": {"type": "Polygon", "coordinates": [[[121.1651, 14.2266], [121.1801, 14.2266], [121.1801, 14.2416], [121.1651, 14.2416], [121.1651, 14.2266]]]}, "properties": {"gap": 0.0, "sss": 0.0, "rwi": 1.37, "pop_density": 19554.0, "sss_t": 0, "rwi_t": 2, "cls": 2, "color": "#5ac8c8", "crowd_t": 2, "color_crowd": "#5ac8c8"}}, {"type": "Feature", "geometry": {"type": "Polygon", "coordinates": [[[121.1351, 14.2266], [121.1501, 14.2266], [121.1501, 14.2416], [121.1351, 14.2416], [121.1351, 14.2266]]]}, "properties": {"gap": 0.0, "sss": 0.0, "rwi": 1.254, "pop_density": 24569.0, "sss_t": 0, "rwi_t": 1, "cls": 1, "color": "#ace4e4", "crowd_t": 2, "color_crowd": "#5ac8c8"}}]}