{"type": "FeatureCollection", "features": [{"type": "Feature", "geometry": {"type": "Polygon", "coordinates": [[[123.816, 8.132], [123.831, 8.132], [123.831, 8.147], [123.816, 8.147], [123.816, 8.132]]]}, "properties": {"gap": 0.4, "sss": 0.5, "rwi": 0.515, "pop_density": 3331.0, "sss_t": 1, "rwi_t": 0, "cls": 3, "color": "#dfb0d6", "crowd_t": 3, "color_crowd": "#dfb0d6"}}, {"type": "Feature", "geometry": {"type": "Polygon", "coordinates": [[[123.801, 8.117], [123.816, 8.117], [123.816, 8.132000000000001], [123.801, 8.132000000000001], [123.801, 8.117]]]}, "properties": {"gap": 0.0, "sss": 0.0, "rwi": 1.148, "pop_density": 1734.0, "sss_t": 0, "rwi_t": 2, "cls": 2, "color": "#5ac8c8", "crowd_t": 0, "color_crowd": "#e8e8e8"}}, {"type": "Feature", "geometry": {"type": "Polygon", "coordinates": [[[123.831, 8.117], [123.846, 8.117], [123.846, 8.132000000000001], [123.831, 8.132000000000001], [123.831, 8.117]]]}, "properties": {"gap": 0.0, "sss": 0.0, "rwi": 1.149, "pop_density": 8170.0, "sss_t": 0, "rwi_t": 2, "cls": 2, "color": "#5ac8c8", "crowd_t": 2, "color_crowd": "#5ac8c8"}}, {"type": "Feature", "geometry": {"type": "Polygon", "coordinates": [[[123.816, 8.117], [123.831, 8.117], [123.831, 8.132000000000001], [123.816, 8.132000000000001], [123.816, 8.117]]]}, "properties": {"gap": 26.4, "sss": 33.0, "rwi": 0.515, "pop_density": 0.0, "sss_t": 2, "rwi_t": 0, "cls": 6, "color": "#be64ac", "crowd_t": 6, "color_crowd": "#be64ac"}}, {"type": "Feature", "geometry": {"type": "Polygon", "coordinates": [[[123.831, 8.102], [123.846, 8.102], [123.846, 8.117], [123.831, 8.117], [123.831, 8.102]]]}, "properties": {"gap": 0.0, "sss": 0.0, "rwi": 0.023, "pop_density": 380.0, "sss_t": 0, "rwi_t": 0, "cls": 0, "color": "#e8e8e8", "crowd_t": 0, "color_crowd": "#e8e8e8"}}, {"type": "Feature", "geometry": {"type": "Polygon", "coordinates": [[[123.876, 8.102], [123.891, 8.102], [123.891, 8.117], [123.876, 8.117], [123.876, 8.102]]]}, "properties": {"gap": 0.0, "sss": 0.0, "rwi": -0.03, "pop_density": 4617.0, "sss_t": 0, "rwi_t": 0, "cls": 0, "color": "#e8e8e8", "crowd_t": 1, "color_crowd": "#ace4e4"}}, {"type": "Feature", "geometry": {"type": "Polygon", "coordinates": [[[123.816, 8.147], [123.831, 8.147], [123.831, 8.162], [123.816, 8.162], [123.816, 8.147]]]}, "properties": {"gap": 2.7, "sss": 4.9, "rwi": 0.788, "pop_density": 6561.0, "sss_t": 1, "rwi_t": 1, "cls": 4, "color": "#a5add3", "crowd_t": 4, "color_crowd": "#a5add3"}}, {"type": "Feature", "geometry": {"type": "Polygon", "coordinates": [[[123.831, 8.147], [123.846, 8.147], [123.846, 8.162], [123.831, 8.162], [123.831, 8.147]]]}, "properties": {"gap": 5.0, "sss": 8.3, "rwi": 1.051, "pop_density": 11416.0, "sss_t": 2, "rwi_t": 1, "cls": 7, "color": "#8c62aa", "crowd_t": 8, "color_crowd": "#3b4994"}}, {"type": "Feature", "geometry": {"type": "Polygon", "coordinates": [[[123.846, 8.132], [123.861, 8.132], [123.861, 8.147], [123.846, 8.147], [123.846, 8.132]]]}, "properties": {"gap": 6.5, "sss": 13.9, "rwi": 1.149, "pop_density": 19567.0, "sss_t": 2, "rwi_t": 2, "cls": 8, "color": "#3b4994", "crowd_t": 8, "color_crowd": "#3b4994"}}, {"type": "Feature", "geometry": {"type": "Polygon", "coordinates": [[[123.846, 8.162], [123.861, 8.162], [123.861, 8.177000000000001], [123.846, 8.177000000000001], [123.846, 8.162]]]}, "properties": {"gap": 6.7, "sss": 10.5, "rwi": 0.737, "pop_density": 6675.0, "sss_t": 2, "rwi_t": 0, "cls": 6, "color": "#be64ac", "crowd_t": 7, "color_crowd": "#8c62aa"}}, {"type": "Feature", "geometry": {"type": "Polygon", "coordinates": [[[123.831, 8.132], [123.846, 8.132], [123.846, 8.147], [123.831, 8.147], [123.831, 8.132]]]}, "properties": {"gap": 4.7, "sss": 8.4, "rwi": 1.149, "pop_density": 11428.0, "sss_t": 1, "rwi_t": 2, "cls": 5, "color": "#5698b9", "crowd_t": 5, "color_crowd": "#5698b9"}}, {"type": "Feature", "geometry": {"type": "Polygon", "coordinates": [[[123.846, 8.147], [123.861, 8.147], [123.861, 8.162], [123.846, 8.162], [123.846, 8.147]]]}, "properties": {"gap": 5.6, "sss": 8.7, "rwi": 1.051, "pop_density": 11412.0, "sss_t": 2, "rwi_t": 1, "cls": 7, "color": "#8c62aa", "crowd_t": 8, "color_crowd": "#3b4994"}}, {"type": "Feature", "geometry": {"type": "Polygon", "coordinates": [[[123.831, 8.162], [123.846, 8.162], [123.846, 8.177000000000001], [123.831, 8.177000000000001], [123.831, 8.162]]]}, "properties": {"gap": 0.0, "sss": 0.0, "rwi": 0.737, "pop_density": 536.0, "sss_t": 0, "rwi_t": 0, "cls": 0, "color": "#e8e8e8", "crowd_t": 0, "color_crowd": "#e8e8e8"}}, {"type": "Feature", "geometry": {"type": "Polygon", "coordinates": [[[123.846, 8.177], [123.861, 8.177], [123.861, 8.192], [123.846, 8.192], [123.846, 8.177]]]}, "properties": {"gap": 2.8, "sss": 4.1, "rwi": 0.737, "pop_density": 3614.0, "sss_t": 1, "rwi_t": 0, "cls": 3, "color": "#dfb0d6", "crowd_t": 4, "color_crowd": "#a5add3"}}]}