{"type": "FeatureCollection", "features": [{"type": "Feature", "geometry": {"type": "Polygon", "coordinates": [[[123.3149, 8.5414], [123.3299, 8.5414], [123.3299, 8.5564], [123.3149, 8.5564], [123.3149, 8.5414]]]}, "properties": {"gap": 10.0, "sss": 13.2, "rwi": 0.276, "pop_density": 1716.0, "sss_t": 1, "rwi_t": 0, "cls": 3, "color": "#dfb0d6", "crowd_t": 3, "color_crowd": "#dfb0d6"}}, {"type": "Feature", "geometry": {"type": "Polygon", "coordinates": [[[123.3299, 8.5564], [123.3449, 8.5564], [123.3449, 8.5714], [123.3299, 8.5714], [123.3299, 8.5564]]]}, "properties": {"gap": 4.9, "sss": 7.1, "rwi": 1.123, "pop_density": 4117.0, "sss_t": 0, "rwi_t": 1, "cls": 1, "color": "#ace4e4", "crowd_t": 1, "color_crowd": "#ace4e4"}}, {"type": "Feature", "geometry": {"type": "Polygon", "coordinates": [[[123.3449, 8.5564], [123.3599, 8.5564], [123.3599, 8.5714], [123.3449, 8.5714], [123.3449, 8.5564]]]}, "properties": {"gap": 0.0, "sss": 0.0, "rwi": 1.123, "pop_density": 10147.0, "sss_t": 0, "rwi_t": 1, "cls": 1, "color": "#ace4e4", "crowd_t": 2, "color_crowd": "#5ac8c8"}}, {"type": "Feature", "geometry": {"type": "Polygon", "coordinates": [[[123.3299, 8.5414], [123.3449, 8.5414], [123.3449, 8.5564], [123.3299, 8.5564], [123.3299, 8.5414]]]}, "properties": {"gap": 10.0, "sss": 13.2, "rwi": 0.476, "pop_density": 1766.0, "sss_t": 1, "rwi_t": 0, "cls": 3, "color": "#dfb0d6", "crowd_t": 3, "color_crowd": "#dfb0d6"}}, {"type": "Feature", "geometry": {"type": "Polygon", "coordinates": [[[123.3599, 8.5564], [123.3749, 8.5564], [123.3749, 8.5714], [123.3599, 8.5714], [123.3599, 8.5564]]]}, "properties": {"gap": 10.0, "sss": 14.8, "rwi": 0.584, "pop_density": 5834.0, "sss_t": 1, "rwi_t": 1, "cls": 4, "color": "#a5add3", "crowd_t": 4, "color_crowd": "#a5add3"}}, {"type": "Feature", "geometry": {"type": "Polygon", "coordinates": [[[123.3299, 8.5864], [123.3449, 8.5864], [123.3449, 8.6014], [123.3299, 8.6014], [123.3299, 8.5864]]]}, "properties": {"gap": 4.5, "sss": 7.4, "rwi": 1.437, "pop_density": 4853.0, "sss_t": 0, "rwi_t": 2, "cls": 2, "color": "#5ac8c8", "crowd_t": 1, "color_crowd": "#ace4e4"}}, {"type": "Feature", "geometry": {"type": "Polygon", "coordinates": [[[123.3449, 8.571399999999999], [123.3599, 8.571399999999999], [123.3599, 8.5864], [123.3449, 8.5864], [123.3449, 8.571399999999999]]]}, "properties": {"gap": 8.6, "sss": 15.2, "rwi": 1.123, "pop_density": 9585.0, "sss_t": 1, "rwi_t": 1, "cls": 4, "color": "#a5add3", "crowd_t": 5, "color_crowd": "#5698b9"}}, {"type": "Feature", "geometry": {"type": "Polygon", "coordinates": [[[123.3299, 8.571399999999999], [123.3449, 8.571399999999999], [123.3449, 8.5864], [123.3299, 8.5864], [123.3299, 8.571399999999999]]]}, "properties": {"gap": 4.5, "sss": 7.6, "rwi": 1.123, "pop_density": 8256.0, "sss_t": 0, "rwi_t": 1, "cls": 1, "color": "#ace4e4", "crowd_t": 2, "color_crowd": "#5ac8c8"}}, {"type": "Feature", "geometry": {"type": "Polygon", "coordinates": [[[123.3449, 8.5864], [123.3599, 8.5864], [123.3599, 8.6014], [123.3449, 8.6014], [123.3449, 8.5864]]]}, "properties": {"gap": 7.6, "sss": 10.5, "rwi": 1.437, "pop_density": 3692.0, "sss_t": 1, "rwi_t": 2, "cls": 5, "color": "#5698b9", "crowd_t": 3, "color_crowd": "#dfb0d6"}}, {"type": "Feature", "geometry": {"type": "Polygon", "coordinates": [[[123.3449, 8.6014], [123.3599, 8.6014], [123.3599, 8.6164], [123.3449, 8.6164], [123.3449, 8.6014]]]}, "properties": {"gap": 10.0, "sss": 16.2, "rwi": 0.364, "pop_density": 9754.0, "sss_t": 1, "rwi_t": 0, "cls": 3, "color": "#dfb0d6", "crowd_t": 5, "color_crowd": "#5698b9"}}, {"type": "Feature", "geometry": {"type": "Polygon", "coordinates": [[[123.3599, 8.6014], [123.3749, 8.6014], [123.3749, 8.6164], [123.3599, 8.6164], [123.3599, 8.6014]]]}, "properties": {"gap": 10.0, "sss": 14.4, "rwi": 0.922, "pop_density": 5131.0, "sss_t": 1, "rwi_t": 1, "cls": 4, "color": "#a5add3", "crowd_t": 4, "color_crowd": "#a5add3"}}, {"type": "Feature", "geometry": {"type": "Polygon", "coordinates": [[[123.3749, 8.616399999999999], [123.3899, 8.616399999999999], [123.3899, 8.6314], [123.3749, 8.6314], [123.3749, 8.616399999999999]]]}, "properties": {"gap": 5.8, "sss": 7.6, "rwi": 0.381, "pop_density": 1368.0, "sss_t": 1, "rwi_t": 0, "cls": 3, "color": "#dfb0d6", "crowd_t": 3, "color_crowd": "#dfb0d6"}}]}