{"type": "FeatureCollection", "features": [{"type": "Feature", "geometry": {"type": "Polygon", "coordinates": [[[124.64970000000001, 12.032], [124.66470000000001, 12.032], [124.66470000000001, 12.047], [124.64970000000001, 12.047], [124.64970000000001, 12.032]]]}, "properties": {"gap": 10.0, "sss": 13.4, "rwi": 0.813, "pop_density": 2209.0, "sss_t": 2, "rwi_t": 1, "cls": 7, "color": "#8c62aa", "crowd_t": 6, "color_crowd": "#be64ac"}}, {"type": "Feature", "geometry": {"type": "Polygon", "coordinates": [[[124.5447, 12.077], [124.5597, 12.077], [124.5597, 12.092], [124.5447, 12.092], [124.5447, 12.077]]]}, "properties": {"gap": 0.0, "sss": 0.0, "rwi": -0.065, "pop_density": 527.0, "sss_t": 0, "rwi_t": 0, "cls": 0, "color": "#e8e8e8", "crowd_t": 0, "color_crowd": "#e8e8e8"}}, {"type": "Feature", "geometry": {"type": "Polygon", "coordinates": [[[124.5597, 12.062], [124.5747, 12.062], [124.5747, 12.077], [124.5597, 12.077], [124.5597, 12.062]]]}, "properties": {"gap": 0.5, "sss": 1.0, "rwi": 1.005, "pop_density": 6209.0, "sss_t": 1, "rwi_t": 2, "cls": 5, "color": "#5698b9", "crowd_t": 5, "color_crowd": "#5698b9"}}, {"type": "Feature", "geometry": {"type": "Polygon", "coordinates": [[[124.5747, 12.062], [124.58970000000001, 12.062], [124.58970000000001, 12.077], [124.5747, 12.077], [124.5747, 12.062]]]}, "properties": {"gap": 7.8, "sss": 16.0, "rwi": 1.005, "pop_density": 5792.0, "sss_t": 2, "rwi_t": 2, "cls": 8, "color": "#3b4994", "crowd_t": 8, "color_crowd": "#3b4994"}}, {"type": "Feature", "geometry": {"type": "Polygon", "coordinates": [[[124.5447, 12.062], [124.5597, 12.062], [124.5597, 12.077], [124.5447, 12.077], [124.5447, 12.062]]]}, "properties": {"gap": 30.0, "sss": 43.0, "rwi": 0.855, "pop_density": 4774.0, "sss_t": 2, "rwi_t": 2, "cls": 8, "color": "#3b4994", "crowd_t": 7, "color_crowd": "#8c62aa"}}, {"type": "Feature", "geometry": {"type": "Polygon", "coordinates": [[[124.58970000000001, 12.062], [124.60470000000001, 12.062], [124.60470000000001, 12.077], [124.58970000000001, 12.077], [124.58970000000001, 12.062]]]}, "properties": {"gap": 4.2, "sss": 7.4, "rwi": 1.172, "pop_density": 10411.0, "sss_t": 1, "rwi_t": 2, "cls": 5, "color": "#5698b9", "crowd_t": 5, "color_crowd": "#5698b9"}}, {"type": "Feature", "geometry": {"type": "Polygon", "coordinates": [[[124.58970000000001, 12.077], [124.60470000000001, 12.077], [124.60470000000001, 12.092], [124.58970000000001, 12.092], [124.58970000000001, 12.077]]]}, "properties": {"gap": 0.0, "sss": 0.0, "rwi": -0.482, "pop_density": 5004.0, "sss_t": 0, "rwi_t": 0, "cls": 0, "color": "#e8e8e8", "crowd_t": 2, "color_crowd": "#5ac8c8"}}, {"type": "Feature", "geometry": {"type": "Polygon", "coordinates": [[[124.60470000000001, 12.062], [124.61970000000001, 12.062], [124.61970000000001, 12.077], [124.60470000000001, 12.077], [124.60470000000001, 12.062]]]}, "properties": {"gap": 0.7, "sss": 1.1, "rwi": 0.806, "pop_density": 2380.0, "sss_t": 1, "rwi_t": 1, "cls": 4, "color": "#a5add3", "crowd_t": 4, "color_crowd": "#a5add3"}}, {"type": "Feature", "geometry": {"type": "Polygon", "coordinates": [[[124.5747, 12.077], [124.58970000000001, 12.077], [124.58970000000001, 12.092], [124.5747, 12.092], [124.5747, 12.077]]]}, "properties": {"gap": 0.0, "sss": 0.0, "rwi": -0.145, "pop_density": 1045.0, "sss_t": 0, "rwi_t": 0, "cls": 0, "color": "#e8e8e8", "crowd_t": 0, "color_crowd": "#e8e8e8"}}, {"type": "Feature", "geometry": {"type": "Polygon", "coordinates": [[[124.60470000000001, 12.046999999999999], [124.61970000000001, 12.046999999999999], [124.61970000000001, 12.062], [124.60470000000001, 12.062], [124.60470000000001, 12.046999999999999]]]}, "properties": {"gap": 10.0, "sss": 15.5, "rwi": 0.432, "pop_density": 3727.0, "sss_t": 2, "rwi_t": 0, "cls": 6, "color": "#be64ac", "crowd_t": 7, "color_crowd": "#8c62aa"}}, {"type": "Feature", "geometry": {"type": "Polygon", "coordinates": [[[124.61970000000001, 12.046999999999999], [124.63470000000001, 12.046999999999999], [124.63470000000001, 12.062], [124.61970000000001, 12.062], [124.61970000000001, 12.046999999999999]]]}, "properties": {"gap": 3.9, "sss": 6.1, "rwi": 0.432, "pop_density": 3188.0, "sss_t": 1, "rwi_t": 0, "cls": 3, "color": "#dfb0d6", "crowd_t": 4, "color_crowd": "#a5add3"}}, {"type": "Feature", "geometry": {"type": "Polygon", "coordinates": [[[124.61970000000001, 12.062], [124.63470000000001, 12.062], [124.63470000000001, 12.077], [124.61970000000001, 12.077], [124.61970000000001, 12.062]]]}, "properties": {"gap": 0.0, "sss": 0.0, "rwi": 0.806, "pop_density": 0.0, "sss_t": 0, "rwi_t": 1, "cls": 1, "color": "#ace4e4", "crowd_t": 0, "color_crowd": "#e8e8e8"}}]}