{"type": "FeatureCollection", "features": [{"type": "Feature", "geometry": {"type": "Polygon", "coordinates": [[[123.4066, 7.825], [123.4216, 7.825], [123.4216, 7.84], [123.4066, 7.84], [123.4066, 7.825]]]}, "properties": {"gap": 5.9, "sss": 9.6, "rwi": 1.074, "pop_density": 6127.0, "sss_t": 1, "rwi_t": 1, "cls": 4, "color": "#a5add3", "crowd_t": 3, "color_crowd": "#dfb0d6"}}, {"type": "Feature", "geometry": {"type": "Polygon", "coordinates": [[[123.3916, 7.825], [123.4066, 7.825], [123.4066, 7.84], [123.3916, 7.84], [123.3916, 7.825]]]}, "properties": {"gap": 10.0, "sss": 13.6, "rwi": 1.074, "pop_density": 2303.0, "sss_t": 2, "rwi_t": 1, "cls": 7, "color": "#8c62aa", "crowd_t": 6, "color_crowd": "#be64ac"}}, {"type": "Feature", "geometry": {"type": "Polygon", "coordinates": [[[123.3916, 7.8100000000000005], [123.4066, 7.8100000000000005], [123.4066, 7.825], [123.3916, 7.825], [123.3916, 7.8100000000000005]]]}, "properties": {"gap": 10.0, "sss": 12.9, "rwi": 0.725, "pop_density": 996.0, "sss_t": 2, "rwi_t": 0, "cls": 6, "color": "#be64ac", "crowd_t": 6, "color_crowd": "#be64ac"}}, {"type": "Feature", "geometry": {"type": "Polygon", "coordinates": [[[123.4366, 7.825], [123.4516, 7.825], [123.4516, 7.84], [123.4366, 7.84], [123.4366, 7.825]]]}, "properties": {"gap": 2.2, "sss": 5.0, "rwi": 1.324, "pop_density": 15424.0, "sss_t": 0, "rwi_t": 2, "cls": 2, "color": "#5ac8c8", "crowd_t": 2, "color_crowd": "#5ac8c8"}}, {"type": "Feature", "geometry": {"type": "Polygon", "coordinates": [[[123.4216, 7.84], [123.4366, 7.84], [123.4366, 7.8549999999999995], [123.4216, 7.8549999999999995], [123.4216, 7.84]]]}, "properties": {"gap": 0.0, "sss": 0.0, "rwi": 0.805, "pop_density": 1879.0, "sss_t": 0, "rwi_t": 1, "cls": 1, "color": "#ace4e4", "crowd_t": 0, "color_crowd": "#e8e8e8"}}, {"type": "Feature", "geometry": {"type": "Polygon", "coordinates": [[[123.4516, 7.825], [123.4666, 7.825], [123.4666, 7.84], [123.4516, 7.84], [123.4516, 7.825]]]}, "properties": {"gap": 8.8, "sss": 14.4, "rwi": 1.324, "pop_density": 8952.0, "sss_t": 1, "rwi_t": 2, "cls": 5, "color": "#5698b9", "crowd_t": 4, "color_crowd": "#a5add3"}}, {"type": "Feature", "geometry": {"type": "Polygon", "coordinates": [[[123.4216, 7.8100000000000005], [123.4366, 7.8100000000000005], [123.4366, 7.825], [123.4216, 7.825], [123.4216, 7.8100000000000005]]]}, "properties": {"gap": 0.0, "sss": 0.0, "rwi": 0.592, "pop_density": 18330.0, "sss_t": 0, "rwi_t": 0, "cls": 0, "color": "#e8e8e8", "crowd_t": 2, "color_crowd": "#5ac8c8"}}, {"type": "Feature", "geometry": {"type": "Polygon", "coordinates": [[[123.4216, 7.825], [123.4366, 7.825], [123.4366, 7.84], [123.4216, 7.84], [123.4216, 7.825]]]}, "properties": {"gap": 4.3, "sss": 9.0, "rwi": 1.682, "pop_density": 11752.0, "sss_t": 1, "rwi_t": 2, "cls": 5, "color": "#5698b9", "crowd_t": 4, "color_crowd": "#a5add3"}}, {"type": "Feature", "geometry": {"type": "Polygon", "coordinates": [[[123.4366, 7.8100000000000005], [123.4516, 7.8100000000000005], [123.4516, 7.825], [123.4366, 7.825], [123.4366, 7.8100000000000005]]]}, "properties": {"gap": 0.0, "sss": 0.0, "rwi": 0.103, "pop_density": 20551.0, "sss_t": 0, "rwi_t": 0, "cls": 0, "color": "#e8e8e8", "crowd_t": 2, "color_crowd": "#5ac8c8"}}, {"type": "Feature", "geometry": {"type": "Polygon", "coordinates": [[[123.4516, 7.84], [123.4666, 7.84], [123.4666, 7.8549999999999995], [123.4516, 7.8549999999999995], [123.4516, 7.84]]]}, "properties": {"gap": 4.2, "sss": 7.5, "rwi": 1.166, "pop_density": 12603.0, "sss_t": 1, "rwi_t": 1, "cls": 4, "color": "#a5add3", "crowd_t": 5, "color_crowd": "#5698b9"}}, {"type": "Feature", "geometry": {"type": "Polygon", "coordinates": [[[123.4366, 7.84], [123.4516, 7.84], [123.4516, 7.8549999999999995], [123.4366, 7.8549999999999995], [123.4366, 7.84]]]}, "properties": {"gap": 0.0, "sss": 0.0, "rwi": 1.166, "pop_density": 6929.0, "sss_t": 0, "rwi_t": 1, "cls": 1, "color": "#ace4e4", "crowd_t": 1, "color_crowd": "#ace4e4"}}, {"type": "Feature", "geometry": {"type": "Polygon", "coordinates": [[[123.4666, 7.84], [123.4816, 7.84], [123.4816, 7.8549999999999995], [123.4666, 7.8549999999999995], [123.4666, 7.84]]]}, "properties": {"gap": 10.0, "sss": 16.0, "rwi": 0.171, "pop_density": 9022.0, "sss_t": 2, "rwi_t": 0, "cls": 6, "color": "#be64ac", "crowd_t": 7, "color_crowd": "#8c62aa"}}, {"type": "Feature", "geometry": {"type": "Polygon", "coordinates": [[[123.4816, 7.84], [123.4966, 7.84], [123.4966, 7.8549999999999995], [123.4816, 7.8549999999999995], [123.4816, 7.84]]]}, "properties": {"gap": 30.0, "sss": 38.4, "rwi": 0.171, "pop_density": 768.0, "sss_t": 2, "rwi_t": 0, "cls": 6, "color": "#be64ac", "crowd_t": 6, "color_crowd": "#be64ac"}}]}