{"type": "FeatureCollection", "features": [{"type": "Feature", "geometry": {"type": "Polygon", "coordinates": [[[120.58200000000001, 15.095], [120.59700000000001, 15.095], [120.59700000000001, 15.110000000000001], [120.58200000000001, 15.110000000000001], [120.58200000000001, 15.095]]]}, "properties": {"gap": 10.0, "sss": 12.9, "rwi": 1.363, "pop_density": 1108.0, "sss_t": 2, "rwi_t": 2, "cls": 8, "color": "#3b4994", "crowd_t": 7, "color_crowd": "#8c62aa"}}, {"type": "Feature", "geometry": {"type": "Polygon", "coordinates": [[[120.56700000000001, 15.125], [120.58200000000001, 15.125], [120.58200000000001, 15.14], [120.56700000000001, 15.14], [120.56700000000001, 15.125]]]}, "properties": {"gap": 0.1, "sss": 0.1, "rwi": 1.092, "pop_density": 3278.0, "sss_t": 1, "rwi_t": 1, "cls": 4, "color": "#a5add3", "crowd_t": 4, "color_crowd": "#a5add3"}}, {"type": "Feature", "geometry": {"type": "Polygon", "coordinates": [[[120.58200000000001, 15.110000000000001], [120.59700000000001, 15.110000000000001], [120.59700000000001, 15.125000000000002], [120.58200000000001, 15.125000000000002], [120.58200000000001, 15.110000000000001]]]}, "properties": {"gap": 2.0, "sss": 2.8, "rwi": 1.51, "pop_density": 5668.0, "sss_t": 1, "rwi_t": 2, "cls": 5, "color": "#5698b9", "crowd_t": 5, "color_crowd": "#5698b9"}}, {"type": "Feature", "geometry": {"type": "Polygon", "coordinates": [[[120.59700000000001, 15.110000000000001], [120.61200000000001, 15.110000000000001], [120.61200000000001, 15.125000000000002], [120.59700000000001, 15.125000000000002], [120.59700000000001, 15.110000000000001]]]}, "properties": {"gap": 2.1, "sss": 3.8, "rwi": 1.51, "pop_density": 21823.0, "sss_t": 2, "rwi_t": 2, "cls": 8, "color": "#3b4994", "crowd_t": 8, "color_crowd": "#3b4994"}}, {"type": "Feature", "geometry": {"type": "Polygon", "coordinates": [[[120.59700000000001, 15.125], [120.61200000000001, 15.125], [120.61200000000001, 15.14], [120.59700000000001, 15.14], [120.59700000000001, 15.125]]]}, "properties": {"gap": 0.0, "sss": 0.0, "rwi": 1.51, "pop_density": 14153.0, "sss_t": 0, "rwi_t": 2, "cls": 2, "color": "#5ac8c8", "crowd_t": 2, "color_crowd": "#5ac8c8"}}, {"type": "Feature", "geometry": {"type": "Polygon", "coordinates": [[[120.58200000000001, 15.125], [120.59700000000001, 15.125], [120.59700000000001, 15.14], [120.58200000000001, 15.14], [120.58200000000001, 15.125]]]}, "properties": {"gap": 0.8, "sss": 1.9, "rwi": 1.51, "pop_density": 11169.0, "sss_t": 1, "rwi_t": 2, "cls": 5, "color": "#5698b9", "crowd_t": 5, "color_crowd": "#5698b9"}}, {"type": "Feature", "geometry": {"type": "Polygon", "coordinates": [[[120.62700000000001, 15.095], [120.64200000000001, 15.095], [120.64200000000001, 15.110000000000001], [120.62700000000001, 15.110000000000001], [120.62700000000001, 15.095]]]}, "properties": {"gap": 0.0, "sss": 0.0, "rwi": 1.04, "pop_density": 276.0, "sss_t": 0, "rwi_t": 1, "cls": 1, "color": "#ace4e4", "crowd_t": 0, "color_crowd": "#e8e8e8"}}, {"type": "Feature", "geometry": {"type": "Polygon", "coordinates": [[[120.61200000000001, 15.095], [120.62700000000001, 15.095], [120.62700000000001, 15.110000000000001], [120.61200000000001, 15.110000000000001], [120.61200000000001, 15.095]]]}, "properties": {"gap": 0.0, "sss": 0.0, "rwi": 1.04, "pop_density": 8397.0, "sss_t": 0, "rwi_t": 1, "cls": 1, "color": "#ace4e4", "crowd_t": 2, "color_crowd": "#5ac8c8"}}, {"type": "Feature", "geometry": {"type": "Polygon", "coordinates": [[[120.61200000000001, 15.125], [120.62700000000001, 15.125], [120.62700000000001, 15.14], [120.61200000000001, 15.14], [120.61200000000001, 15.125]]]}, "properties": {"gap": 0.0, "sss": 0.0, "rwi": 0.754, "pop_density": 17670.0, "sss_t": 0, "rwi_t": 0, "cls": 0, "color": "#e8e8e8", "crowd_t": 2, "color_crowd": "#5ac8c8"}}, {"type": "Feature", "geometry": {"type": "Polygon", "coordinates": [[[120.56700000000001, 15.14], [120.58200000000001, 15.14], [120.58200000000001, 15.155000000000001], [120.56700000000001, 15.155000000000001], [120.56700000000001, 15.14]]]}, "properties": {"gap": 0.0, "sss": 0.0, "rwi": 1.134, "pop_density": 3252.0, "sss_t": 0, "rwi_t": 1, "cls": 1, "color": "#ace4e4", "crowd_t": 1, "color_crowd": "#ace4e4"}}, {"type": "Feature", "geometry": {"type": "Polygon", "coordinates": [[[120.552, 15.155000000000001], [120.56700000000001, 15.155000000000001], [120.56700000000001, 15.170000000000002], [120.552, 15.170000000000002], [120.552, 15.155000000000001]]]}, "properties": {"gap": 4.8, "sss": 6.3, "rwi": 0.93, "pop_density": 803.0, "sss_t": 2, "rwi_t": 0, "cls": 6, "color": "#be64ac", "crowd_t": 6, "color_crowd": "#be64ac"}}, {"type": "Feature", "geometry": {"type": "Polygon", "coordinates": [[[120.537, 15.155000000000001], [120.552, 15.155000000000001], [120.552, 15.170000000000002], [120.537, 15.170000000000002], [120.537, 15.155000000000001]]]}, "properties": {"gap": 2.4, "sss": 3.2, "rwi": 0.93, "pop_density": 832.0, "sss_t": 2, "rwi_t": 0, "cls": 6, "color": "#be64ac", "crowd_t": 6, "color_crowd": "#be64ac"}}, {"type": "Feature", "geometry": {"type": "Polygon", "coordinates": [[[120.552, 15.14], [120.56700000000001, 15.14], [120.56700000000001, 15.155000000000001], [120.552, 15.155000000000001], [120.552, 15.14]]]}, "properties": {"gap": 0.0, "sss": 0.0, "rwi": 1.33, "pop_density": 6301.0, "sss_t": 0, "rwi_t": 2, "cls": 2, "color": "#5ac8c8", "crowd_t": 2, "color_crowd": "#5ac8c8"}}, {"type": "Feature", "geometry": {"type": "Polygon", "coordinates": [[[120.56700000000001, 15.155000000000001], [120.58200000000001, 15.155000000000001], [120.58200000000001, 15.170000000000002], [120.56700000000001, 15.170000000000002], [120.56700000000001, 15.155000000000001]]]}, "properties": {"gap": 5.0, "sss": 7.4, "rwi": 1.169, "pop_density": 907.0, "sss_t": 2, "rwi_t": 1, "cls": 7, "color": "#8c62aa", "crowd_t": 6, "color_crowd": "#be64ac"}}, {"type": "Feature", "geometry": {"type": "Polygon", "coordinates": [[[120.59700000000001, 15.14], [120.61200000000001, 15.14], [120.61200000000001, 15.155000000000001], [120.59700000000001, 15.155000000000001], [120.59700000000001, 15.14]]]}, "properties": {"gap": 0.0, "sss": 0.0, "rwi": 1.341, "pop_density": 7505.0, "sss_t": 0, "rwi_t": 2, "cls": 2, "color": "#5ac8c8", "crowd_t": 2, "color_crowd": "#5ac8c8"}}, {"type": "Feature", "geometry": {"type": "Polygon", "coordinates": [[[120.58200000000001, 15.14], [120.59700000000001, 15.14], [120.59700000000001, 15.155000000000001], [120.58200000000001, 15.155000000000001], [120.58200000000001, 15.14]]]}, "properties": {"gap": 0.7, "sss": 1.4, "rwi": 1.341, "pop_density": 3906.0, "sss_t": 1, "rwi_t": 2, "cls": 5, "color": "#5698b9", "crowd_t": 4, "color_crowd": "#a5add3"}}, {"type": "Feature", "geometry": {"type": "Polygon", "coordinates": [[[120.58200000000001, 15.155000000000001], [120.59700000000001, 15.155000000000001], [120.59700000000001, 15.170000000000002], [120.58200000000001, 15.170000000000002], [120.58200000000001, 15.155000000000001]]]}, "properties": {"gap": 2.3, "sss": 3.6, "rwi": 1.115, "pop_density": 1167.0, "sss_t": 2, "rwi_t": 1, "cls": 7, "color": "#8c62aa", "crowd_t": 7, "color_crowd": "#8c62aa"}}, {"type": "Feature", "geometry": {"type": "Polygon", "coordinates": [[[120.59700000000001, 15.155000000000001], [120.61200000000001, 15.155000000000001], [120.61200000000001, 15.170000000000002], [120.59700000000001, 15.170000000000002], [120.59700000000001, 15.155000000000001]]]}, "properties": {"gap": 3.6, "sss": 6.0, "rwi": 1.115, "pop_density": 12535.0, "sss_t": 2, "rwi_t": 1, "cls": 7, "color": "#8c62aa", "crowd_t": 8, "color_crowd": "#3b4994"}}, {"type": "Feature", "geometry": {"type": "Polygon", "coordinates": [[[120.61200000000001, 15.155000000000001], [120.62700000000001, 15.155000000000001], [120.62700000000001, 15.170000000000002], [120.61200000000001, 15.170000000000002], [120.61200000000001, 15.155000000000001]]]}, "properties": {"gap": 0.0, "sss": 0.0, "rwi": 1.239, "pop_density": 9652.0, "sss_t": 0, "rwi_t": 2, "cls": 2, "color": "#5ac8c8", "crowd_t": 2, "color_crowd": "#5ac8c8"}}, {"type": "Feature", "geometry": {"type": "Polygon", "coordinates": [[[120.61200000000001, 15.14], [120.62700000000001, 15.14], [120.62700000000001, 15.155000000000001], [120.61200000000001, 15.155000000000001], [120.61200000000001, 15.14]]]}, "properties": {"gap": 0.1, "sss": 0.1, "rwi": 1.243, "pop_density": 6463.0, "sss_t": 1, "rwi_t": 2, "cls": 5, "color": "#5698b9", "crowd_t": 5, "color_crowd": "#5698b9"}}, {"type": "Feature", "geometry": {"type": "Polygon", "coordinates": [[[120.62700000000001, 15.14], [120.64200000000001, 15.14], [120.64200000000001, 15.155000000000001], [120.62700000000001, 15.155000000000001], [120.62700000000001, 15.14]]]}, "properties": {"gap": 0.0, "sss": 0.0, "rwi": 1.243, "pop_density": 3791.0, "sss_t": 0, "rwi_t": 2, "cls": 2, "color": "#5ac8c8", "crowd_t": 1, "color_crowd": "#ace4e4"}}, {"type": "Feature", "geometry": {"type": "Polygon", "coordinates": [[[120.62700000000001, 15.155000000000001], [120.64200000000001, 15.155000000000001], [120.64200000000001, 15.170000000000002], [120.62700000000001, 15.170000000000002], [120.62700000000001, 15.155000000000001]]]}, "properties": {"gap": 0.0, "sss": 0.0, "rwi": 1.239, "pop_density": 16422.0, "sss_t": 0, "rwi_t": 2, "cls": 2, "color": "#5ac8c8", "crowd_t": 2, "color_crowd": "#5ac8c8"}}, {"type": "Feature", "geometry": {"type": "Polygon", "coordinates": [[[120.64200000000001, 15.125], [120.65700000000001, 15.125], [120.65700000000001, 15.14], [120.64200000000001, 15.14], [120.64200000000001, 15.125]]]}, "properties": {"gap": 0.0, "sss": 0.0, "rwi": 0.754, "pop_density": 2036.0, "sss_t": 0, "rwi_t": 0, "cls": 0, "color": "#e8e8e8", "crowd_t": 1, "color_crowd": "#ace4e4"}}, {"type": "Feature", "geometry": {"type": "Polygon", "coordinates": [[[120.61200000000001, 15.17], [120.62700000000001, 15.17], [120.62700000000001, 15.185], [120.61200000000001, 15.185], [120.61200000000001, 15.17]]]}, "properties": {"gap": 0.0, "sss": 0.0, "rwi": 1.239, "pop_density": 2054.0, "sss_t": 0, "rwi_t": 2, "cls": 2, "color": "#5ac8c8", "crowd_t": 1, "color_crowd": "#ace4e4"}}, {"type": "Feature", "geometry": {"type": "Polygon", "coordinates": [[[120.62700000000001, 15.125], [120.64200000000001, 15.125], [120.64200000000001, 15.14], [120.62700000000001, 15.14], [120.62700000000001, 15.125]]]}, "properties": {"gap": 0.0, "sss": 0.0, "rwi": 0.754, "pop_density": 2083.0, "sss_t": 0, "rwi_t": 0, "cls": 0, "color": "#e8e8e8", "crowd_t": 1, "color_crowd": "#ace4e4"}}, {"type": "Feature", "geometry": {"type": "Polygon", "coordinates": [[[120.537, 15.200000000000001], [120.552, 15.200000000000001], [120.552, 15.215000000000002], [120.537, 15.215000000000002], [120.537, 15.200000000000001]]]}, "properties": {"gap": 7.9, "sss": 9.9, "rwi": 0.512, "pop_density": 48.0, "sss_t": 2, "rwi_t": 0, "cls": 6, "color": "#be64ac", "crowd_t": 6, "color_crowd": "#be64ac"}}, {"type": "Feature", "geometry": {"type": "Polygon", "coordinates": [[[120.56700000000001, 15.17], [120.58200000000001, 15.17], [120.58200000000001, 15.185], [120.56700000000001, 15.185], [120.56700000000001, 15.17]]]}, "properties": {"gap": 0.0, "sss": 0.0, "rwi": 1.169, "pop_density": 646.0, "sss_t": 1, "rwi_t": 1, "cls": 4, "color": "#a5add3", "crowd_t": 3, "color_crowd": "#dfb0d6"}}, {"type": "Feature", "geometry": {"type": "Polygon", "coordinates": [[[120.537, 15.17], [120.552, 15.17], [120.552, 15.185], [120.537, 15.185], [120.537, 15.17]]]}, "properties": {"gap": 9.1, "sss": 13.8, "rwi": 0.93, "pop_density": 1057.0, "sss_t": 2, "rwi_t": 0, "cls": 6, "color": "#be64ac", "crowd_t": 7, "color_crowd": "#8c62aa"}}, {"type": "Feature", "geometry": {"type": "Polygon", "coordinates": [[[120.537, 15.185], [120.552, 15.185], [120.552, 15.200000000000001], [120.537, 15.200000000000001], [120.537, 15.185]]]}, "properties": {"gap": 7.6, "sss": 11.9, "rwi": 0.512, "pop_density": 108.0, "sss_t": 2, "rwi_t": 0, "cls": 6, "color": "#be64ac", "crowd_t": 6, "color_crowd": "#be64ac"}}, {"type": "Feature", "geometry": {"type": "Polygon", "coordinates": [[[120.552, 15.17], [120.56700000000001, 15.17], [120.56700000000001, 15.185], [120.552, 15.185], [120.552, 15.17]]]}, "properties": {"gap": 0.0, "sss": 0.0, "rwi": 0.93, "pop_density": 535.0, "sss_t": 0, "rwi_t": 0, "cls": 0, "color": "#e8e8e8", "crowd_t": 0, "color_crowd": "#e8e8e8"}}, {"type": "Feature", "geometry": {"type": "Polygon", "coordinates": [[[120.552, 15.185], [120.56700000000001, 15.185], [120.56700000000001, 15.200000000000001], [120.552, 15.200000000000001], [120.552, 15.185]]]}, "properties": {"gap": 4.2, "sss": 5.2, "rwi": 0.512, "pop_density": 9.0, "sss_t": 2, "rwi_t": 0, "cls": 6, "color": "#be64ac", "crowd_t": 6, "color_crowd": "#be64ac"}}, {"type": "Feature", "geometry": {"type": "Polygon", "coordinates": [[[120.552, 15.200000000000001], [120.56700000000001, 15.200000000000001], [120.56700000000001, 15.215000000000002], [120.552, 15.215000000000002], [120.552, 15.200000000000001]]]}, "properties": {"gap": 0.7, "sss": 0.9, "rwi": 0.512, "pop_density": 4.0, "sss_t": 1, "rwi_t": 0, "cls": 3, "color": "#dfb0d6", "crowd_t": 3, "color_crowd": "#dfb0d6"}}, {"type": "Feature", "geometry": {"type": "Polygon", "coordinates": [[[120.59700000000001, 15.17], [120.61200000000001, 15.17], [120.61200000000001, 15.185], [120.59700000000001, 15.185], [120.59700000000001, 15.17]]]}, "properties": {"gap": 1.0, "sss": 1.5, "rwi": 1.115, "pop_density": 930.0, "sss_t": 1, "rwi_t": 1, "cls": 4, "color": "#a5add3", "crowd_t": 3, "color_crowd": "#dfb0d6"}}, {"type": "Feature", "geometry": {"type": "Polygon", "coordinates": [[[120.56700000000001, 15.185], [120.58200000000001, 15.185], [120.58200000000001, 15.200000000000001], [120.56700000000001, 15.200000000000001], [120.56700000000001, 15.185]]]}, "properties": {"gap": 2.4, "sss": 3.0, "rwi": 0.956, "pop_density": 266.0, "sss_t": 2, "rwi_t": 0, "cls": 6, "color": "#be64ac", "crowd_t": 6, "color_crowd": "#be64ac"}}, {"type": "Feature", "geometry": {"type": "Polygon", "coordinates": [[[120.58200000000001, 15.185], [120.59700000000001, 15.185], [120.59700000000001, 15.200000000000001], [120.58200000000001, 15.200000000000001], [120.58200000000001, 15.185]]]}, "properties": {"gap": 0.0, "sss": 0.0, "rwi": 1.032, "pop_density": 9396.0, "sss_t": 0, "rwi_t": 1, "cls": 1, "color": "#ace4e4", "crowd_t": 2, "color_crowd": "#5ac8c8"}}, {"type": "Feature", "geometry": {"type": "Polygon", "coordinates": [[[120.59700000000001, 15.200000000000001], [120.61200000000001, 15.200000000000001], [120.61200000000001, 15.215000000000002], [120.59700000000001, 15.215000000000002], [120.59700000000001, 15.200000000000001]]]}, "properties": {"gap": 15.7, "sss": 19.9, "rwi": 1.032, "pop_density": 514.0, "sss_t": 2, "rwi_t": 1, "cls": 7, "color": "#8c62aa", "crowd_t": 6, "color_crowd": "#be64ac"}}, {"type": "Feature", "geometry": {"type": "Polygon", "coordinates": [[[120.56700000000001, 15.200000000000001], [120.58200000000001, 15.200000000000001], [120.58200000000001, 15.215000000000002], [120.56700000000001, 15.215000000000002], [120.56700000000001, 15.200000000000001]]]}, "properties": {"gap": 0.0, "sss": 0.0, "rwi": 0.956, "pop_density": 379.0, "sss_t": 0, "rwi_t": 0, "cls": 0, "color": "#e8e8e8", "crowd_t": 0, "color_crowd": "#e8e8e8"}}, {"type": "Feature", "geometry": {"type": "Polygon", "coordinates": [[[120.59700000000001, 15.185], [120.61200000000001, 15.185], [120.61200000000001, 15.200000000000001], [120.59700000000001, 15.200000000000001], [120.59700000000001, 15.185]]]}, "properties": {"gap": 1.7, "sss": 3.1, "rwi": 1.032, "pop_density": 2888.0, "sss_t": 1, "rwi_t": 1, "cls": 4, "color": "#a5add3", "crowd_t": 4, "color_crowd": "#a5add3"}}, {"type": "Feature", "geometry": {"type": "Polygon", "coordinates": [[[120.58200000000001, 15.200000000000001], [120.59700000000001, 15.200000000000001], [120.59700000000001, 15.215000000000002], [120.58200000000001, 15.215000000000002], [120.58200000000001, 15.200000000000001]]]}, "properties": {"gap": 0.0, "sss": 0.0, "rwi": 1.032, "pop_density": 8377.0, "sss_t": 0, "rwi_t": 1, "cls": 1, "color": "#ace4e4", "crowd_t": 2, "color_crowd": "#5ac8c8"}}, {"type": "Feature", "geometry": {"type": "Polygon", "coordinates": [[[120.58200000000001, 15.17], [120.59700000000001, 15.17], [120.59700000000001, 15.185], [120.58200000000001, 15.185], [120.58200000000001, 15.17]]]}, "properties": {"gap": 3.5, "sss": 4.6, "rwi": 1.115, "pop_density": 973.0, "sss_t": 2, "rwi_t": 1, "cls": 7, "color": "#8c62aa", "crowd_t": 7, "color_crowd": "#8c62aa"}}, {"type": "Feature", "geometry": {"type": "Polygon", "coordinates": [[[120.62700000000001, 15.185], [120.64200000000001, 15.185], [120.64200000000001, 15.200000000000001], [120.62700000000001, 15.200000000000001], [120.62700000000001, 15.185]]]}, "properties": {"gap": 0.0, "sss": 0.0, "rwi": 0.793, "pop_density": 4432.0, "sss_t": 0, "rwi_t": 0, "cls": 0, "color": "#e8e8e8", "crowd_t": 1, "color_crowd": "#ace4e4"}}]}