{"type": "FeatureCollection", "features": [{"type": "Feature", "geometry": {"type": "Polygon", "coordinates": [[[124.6072, 8.4356], [124.6222, 8.4356], [124.6222, 8.450600000000001], [124.6072, 8.450600000000001], [124.6072, 8.4356]]]}, "properties": {"gap": 0.1, "sss": 0.1, "rwi": 1.421, "pop_density": 4058.0, "sss_t": 1, "rwi_t": 1, "cls": 4, "color": "#a5add3", "crowd_t": 3, "color_crowd": "#dfb0d6"}}, {"type": "Feature", "geometry": {"type": "Polygon", "coordinates": [[[124.6072, 8.4206], [124.6222, 8.4206], [124.6222, 8.4356], [124.6072, 8.4356], [124.6072, 8.4206]]]}, "properties": {"gap": 10.0, "sss": 14.4, "rwi": 1.421, "pop_density": 5004.0, "sss_t": 2, "rwi_t": 1, "cls": 7, "color": "#8c62aa", "crowd_t": 6, "color_crowd": "#be64ac"}}, {"type": "Feature", "geometry": {"type": "Polygon", "coordinates": [[[124.6072, 8.4506], [124.6222, 8.4506], [124.6222, 8.4656], [124.6072, 8.4656], [124.6072, 8.4506]]]}, "properties": {"gap": 1.5, "sss": 1.9, "rwi": 1.386, "pop_density": 1021.0, "sss_t": 2, "rwi_t": 1, "cls": 7, "color": "#8c62aa", "crowd_t": 6, "color_crowd": "#be64ac"}}, {"type": "Feature", "geometry": {"type": "Polygon", "coordinates": [[[124.6372, 8.4506], [124.65220000000001, 8.4506], [124.65220000000001, 8.4656], [124.6372, 8.4656], [124.6372, 8.4506]]]}, "properties": {"gap": 8.8, "sss": 12.4, "rwi": 1.635, "pop_density": 3933.0, "sss_t": 2, "rwi_t": 2, "cls": 8, "color": "#3b4994", "crowd_t": 6, "color_crowd": "#be64ac"}}, {"type": "Feature", "geometry": {"type": "Polygon", "coordinates": [[[124.6372, 8.4356], [124.65220000000001, 8.4356], [124.65220000000001, 8.450600000000001], [124.6372, 8.450600000000001], [124.6372, 8.4356]]]}, "properties": {"gap": 4.8, "sss": 7.4, "rwi": 1.622, "pop_density": 6922.0, "sss_t": 2, "rwi_t": 2, "cls": 8, "color": "#3b4994", "crowd_t": 7, "color_crowd": "#8c62aa"}}, {"type": "Feature", "geometry": {"type": "Polygon", "coordinates": [[[124.65220000000001, 8.4506], [124.66720000000001, 8.4506], [124.66720000000001, 8.4656], [124.65220000000001, 8.4656], [124.65220000000001, 8.4506]]]}, "properties": {"gap": 10.0, "sss": 13.9, "rwi": 0.919, "pop_density": 3646.0, "sss_t": 2, "rwi_t": 0, "cls": 6, "color": "#be64ac", "crowd_t": 6, "color_crowd": "#be64ac"}}, {"type": "Feature", "geometry": {"type": "Polygon", "coordinates": [[[124.6222, 8.4356], [124.6372, 8.4356], [124.6372, 8.450600000000001], [124.6222, 8.450600000000001], [124.6222, 8.4356]]]}, "properties": {"gap": 0.0, "sss": 0.0, "rwi": 1.622, "pop_density": 4617.0, "sss_t": 0, "rwi_t": 2, "cls": 2, "color": "#5ac8c8", "crowd_t": 0, "color_crowd": "#e8e8e8"}}, {"type": "Feature", "geometry": {"type": "Polygon", "coordinates": [[[124.6222, 8.4506], [124.6372, 8.4506], [124.6372, 8.4656], [124.6222, 8.4656], [124.6222, 8.4506]]]}, "properties": {"gap": 0.0, "sss": 0.0, "rwi": 1.635, "pop_density": 2872.0, "sss_t": 0, "rwi_t": 2, "cls": 2, "color": "#5ac8c8", "crowd_t": 0, "color_crowd": "#e8e8e8"}}, {"type": "Feature", "geometry": {"type": "Polygon", "coordinates": [[[124.6222, 8.4656], [124.6372, 8.4656], [124.6372, 8.4806], [124.6222, 8.4806], [124.6222, 8.4656]]]}, "properties": {"gap": 9.4, "sss": 20.1, "rwi": 1.216, "pop_density": 17682.0, "sss_t": 2, "rwi_t": 0, "cls": 6, "color": "#be64ac", "crowd_t": 8, "color_crowd": "#3b4994"}}, {"type": "Feature", "geometry": {"type": "Polygon", "coordinates": [[[124.5922, 8.4806], [124.6072, 8.4806], [124.6072, 8.495600000000001], [124.5922, 8.495600000000001], [124.5922, 8.4806]]]}, "properties": {"gap": 0.0, "sss": 0.0, "rwi": 1.091, "pop_density": 8305.0, "sss_t": 0, "rwi_t": 0, "cls": 0, "color": "#e8e8e8", "crowd_t": 1, "color_crowd": "#ace4e4"}}, {"type": "Feature", "geometry": {"type": "Polygon", "coordinates": [[[124.5922, 8.4656], [124.6072, 8.4656], [124.6072, 8.4806], [124.5922, 8.4806], [124.5922, 8.4656]]]}, "properties": {"gap": 0.0, "sss": 0.0, "rwi": 1.091, "pop_density": 639.0, "sss_t": 0, "rwi_t": 0, "cls": 0, "color": "#e8e8e8", "crowd_t": 0, "color_crowd": "#e8e8e8"}}, {"type": "Feature", "geometry": {"type": "Polygon", "coordinates": [[[124.65220000000001, 8.4806], [124.66720000000001, 8.4806], [124.66720000000001, 8.495600000000001], [124.65220000000001, 8.495600000000001], [124.65220000000001, 8.4806]]]}, "properties": {"gap": 0.0, "sss": 0.0, "rwi": 1.037, "pop_density": 20650.0, "sss_t": 1, "rwi_t": 0, "cls": 3, "color": "#dfb0d6", "crowd_t": 5, "color_crowd": "#5698b9"}}, {"type": "Feature", "geometry": {"type": "Polygon", "coordinates": [[[124.6372, 8.4806], [124.65220000000001, 8.4806], [124.65220000000001, 8.495600000000001], [124.6372, 8.495600000000001], [124.6372, 8.4806]]]}, "properties": {"gap": 6.1, "sss": 14.1, "rwi": 1.216, "pop_density": 24306.0, "sss_t": 2, "rwi_t": 0, "cls": 6, "color": "#be64ac", "crowd_t": 8, "color_crowd": "#3b4994"}}, {"type": "Feature", "geometry": {"type": "Polygon", "coordinates": [[[124.6372, 8.4656], [124.65220000000001, 8.4656], [124.65220000000001, 8.4806], [124.6372, 8.4806], [124.6372, 8.4656]]]}, "properties": {"gap": 2.3, "sss": 5.0, "rwi": 1.216, "pop_density": 10435.0, "sss_t": 2, "rwi_t": 0, "cls": 6, "color": "#be64ac", "crowd_t": 7, "color_crowd": "#8c62aa"}}, {"type": "Feature", "geometry": {"type": "Polygon", "coordinates": [[[124.6222, 8.4806], [124.6372, 8.4806], [124.6372, 8.495600000000001], [124.6222, 8.495600000000001], [124.6222, 8.4806]]]}, "properties": {"gap": 0.7, "sss": 1.3, "rwi": 1.216, "pop_density": 13628.0, "sss_t": 1, "rwi_t": 0, "cls": 3, "color": "#dfb0d6", "crowd_t": 5, "color_crowd": "#5698b9"}}, {"type": "Feature", "geometry": {"type": "Polygon", "coordinates": [[[124.6222, 8.4956], [124.6372, 8.4956], [124.6372, 8.5106], [124.6222, 8.5106], [124.6222, 8.4956]]]}, "properties": {"gap": 0.0, "sss": 0.0, "rwi": 1.435, "pop_density": 11268.0, "sss_t": 1, "rwi_t": 1, "cls": 4, "color": "#a5add3", "crowd_t": 4, "color_crowd": "#a5add3"}}, {"type": "Feature", "geometry": {"type": "Polygon", "coordinates": [[[124.65220000000001, 8.4656], [124.66720000000001, 8.4656], [124.66720000000001, 8.4806], [124.65220000000001, 8.4806], [124.65220000000001, 8.4656]]]}, "properties": {"gap": 0.0, "sss": 0.0, "rwi": 1.037, "pop_density": 19777.0, "sss_t": 0, "rwi_t": 0, "cls": 0, "color": "#e8e8e8", "crowd_t": 2, "color_crowd": "#5ac8c8"}}, {"type": "Feature", "geometry": {"type": "Polygon", "coordinates": [[[124.68220000000001, 8.4656], [124.69720000000001, 8.4656], [124.69720000000001, 8.4806], [124.68220000000001, 8.4806], [124.68220000000001, 8.4656]]]}, "properties": {"gap": 1.5, "sss": 3.1, "rwi": 1.493, "pop_density": 14656.0, "sss_t": 1, "rwi_t": 2, "cls": 5, "color": "#5698b9", "crowd_t": 5, "color_crowd": "#5698b9"}}, {"type": "Feature", "geometry": {"type": "Polygon", "coordinates": [[[124.66720000000001, 8.4806], [124.68220000000001, 8.4806], [124.68220000000001, 8.495600000000001], [124.66720000000001, 8.495600000000001], [124.66720000000001, 8.4806]]]}, "properties": {"gap": 0.2, "sss": 0.3, "rwi": 1.493, "pop_density": 11059.0, "sss_t": 1, "rwi_t": 2, "cls": 5, "color": "#5698b9", "crowd_t": 4, "color_crowd": "#a5add3"}}, {"type": "Feature", "geometry": {"type": "Polygon", "coordinates": [[[124.66720000000001, 8.4656], [124.68220000000001, 8.4656], [124.68220000000001, 8.4806], [124.66720000000001, 8.4806], [124.66720000000001, 8.4656]]]}, "properties": {"gap": 0.1, "sss": 0.1, "rwi": 1.493, "pop_density": 18900.0, "sss_t": 1, "rwi_t": 2, "cls": 5, "color": "#5698b9", "crowd_t": 5, "color_crowd": "#5698b9"}}, {"type": "Feature", "geometry": {"type": "Polygon", "coordinates": [[[124.69720000000001, 8.4656], [124.71220000000001, 8.4656], [124.71220000000001, 8.4806], [124.69720000000001, 8.4806], [124.69720000000001, 8.4656]]]}, "properties": {"gap": 0.0, "sss": 0.0, "rwi": 1.493, "pop_density": 6556.0, "sss_t": 0, "rwi_t": 2, "cls": 2, "color": "#5ac8c8", "crowd_t": 0, "color_crowd": "#e8e8e8"}}, {"type": "Feature", "geometry": {"type": "Polygon", "coordinates": [[[124.5922, 8.4956], [124.6072, 8.4956], [124.6072, 8.5106], [124.5922, 8.5106], [124.5922, 8.4956]]]}, "properties": {"gap": 0.0, "sss": 0.0, "rwi": 1.55, "pop_density": 12109.0, "sss_t": 0, "rwi_t": 2, "cls": 2, "color": "#5ac8c8", "crowd_t": 1, "color_crowd": "#ace4e4"}}, {"type": "Feature", "geometry": {"type": "Polygon", "coordinates": [[[124.6072, 8.4956], [124.6222, 8.4956], [124.6222, 8.5106], [124.6072, 8.5106], [124.6072, 8.4956]]]}, "properties": {"gap": 0.0, "sss": 0.0, "rwi": 1.264, "pop_density": 8577.0, "sss_t": 0, "rwi_t": 1, "cls": 1, "color": "#ace4e4", "crowd_t": 1, "color_crowd": "#ace4e4"}}, {"type": "Feature", "geometry": {"type": "Polygon", "coordinates": [[[124.6222, 8.5106], [124.6372, 8.5106], [124.6372, 8.5256], [124.6222, 8.5256], [124.6222, 8.5106]]]}, "properties": {"gap": 0.0, "sss": 0.0, "rwi": -0.515, "pop_density": 10859.0, "sss_t": 0, "rwi_t": 0, "cls": 0, "color": "#e8e8e8", "crowd_t": 1, "color_crowd": "#ace4e4"}}, {"type": "Feature", "geometry": {"type": "Polygon", "coordinates": [[[124.6072, 8.5106], [124.6222, 8.5106], [124.6222, 8.5256], [124.6072, 8.5256], [124.6072, 8.5106]]]}, "properties": {"gap": 3.0, "sss": 5.5, "rwi": 0.598, "pop_density": 12660.0, "sss_t": 2, "rwi_t": 0, "cls": 6, "color": "#be64ac", "crowd_t": 8, "color_crowd": "#3b4994"}}, {"type": "Feature", "geometry": {"type": "Polygon", "coordinates": [[[124.5922, 8.5106], [124.6072, 8.5106], [124.6072, 8.5256], [124.5922, 8.5256], [124.5922, 8.5106]]]}, "properties": {"gap": 0.0, "sss": 0.0, "rwi": 0.04, "pop_density": 6558.0, "sss_t": 0, "rwi_t": 0, "cls": 0, "color": "#e8e8e8", "crowd_t": 0, "color_crowd": "#e8e8e8"}}, {"type": "Feature", "geometry": {"type": "Polygon", "coordinates": [[[124.65220000000001, 8.4956], [124.66720000000001, 8.4956], [124.66720000000001, 8.5106], [124.65220000000001, 8.5106], [124.65220000000001, 8.4956]]]}, "properties": {"gap": 0.0, "sss": 0.0, "rwi": 0.979, "pop_density": 18991.0, "sss_t": 0, "rwi_t": 0, "cls": 0, "color": "#e8e8e8", "crowd_t": 2, "color_crowd": "#5ac8c8"}}, {"type": "Feature", "geometry": {"type": "Polygon", "coordinates": [[[124.6372, 8.4956], [124.65220000000001, 8.4956], [124.65220000000001, 8.5106], [124.6372, 8.5106], [124.6372, 8.4956]]]}, "properties": {"gap": 0.0, "sss": 0.0, "rwi": 1.435, "pop_density": 9501.0, "sss_t": 0, "rwi_t": 1, "cls": 1, "color": "#ace4e4", "crowd_t": 1, "color_crowd": "#ace4e4"}}]}