{"type": "FeatureCollection", "features": [{"type": "Feature", "geometry": {"type": "Polygon", "coordinates": [[[121.6085, 13.9019], [121.6235, 13.9019], [121.6235, 13.9169], [121.6085, 13.9169], [121.6085, 13.9019]]]}, "properties": {"gap": 0.0, "sss": 0.0, "rwi": 1.167, "pop_density": 8740.0, "sss_t": 0, "rwi_t": 1, "cls": 1, "color": "#ace4e4", "crowd_t": 2, "color_crowd": "#5ac8c8"}}, {"type": "Feature", "geometry": {"type": "Polygon", "coordinates": [[[121.6235, 13.9019], [121.63850000000001, 13.9019], [121.63850000000001, 13.9169], [121.6235, 13.9169], [121.6235, 13.9019]]]}, "properties": {"gap": 0.0, "sss": 0.0, "rwi": 0.661, "pop_density": 5497.0, "sss_t": 0, "rwi_t": 0, "cls": 0, "color": "#e8e8e8", "crowd_t": 1, "color_crowd": "#ace4e4"}}, {"type": "Feature", "geometry": {"type": "Polygon", "coordinates": [[[121.5935, 13.9319], [121.6085, 13.9319], [121.6085, 13.946900000000001], [121.5935, 13.946900000000001], [121.5935, 13.9319]]]}, "properties": {"gap": 0.0, "sss": 0.0, "rwi": 1.311, "pop_density": 6343.0, "sss_t": 0, "rwi_t": 2, "cls": 2, "color": "#5ac8c8", "crowd_t": 1, "color_crowd": "#ace4e4"}}, {"type": "Feature", "geometry": {"type": "Polygon", "coordinates": [[[121.5785, 13.9319], [121.5935, 13.9319], [121.5935, 13.946900000000001], [121.5785, 13.946900000000001], [121.5785, 13.9319]]]}, "properties": {"gap": 0.0, "sss": 0.0, "rwi": 1.038, "pop_density": 1270.0, "sss_t": 0, "rwi_t": 0, "cls": 0, "color": "#e8e8e8", "crowd_t": 0, "color_crowd": "#e8e8e8"}}, {"type": "Feature", "geometry": {"type": "Polygon", "coordinates": [[[121.6085, 13.9319], [121.6235, 13.9319], [121.6235, 13.946900000000001], [121.6085, 13.946900000000001], [121.6085, 13.9319]]]}, "properties": {"gap": 0.2, "sss": 0.5, "rwi": 1.311, "pop_density": 21283.0, "sss_t": 2, "rwi_t": 2, "cls": 8, "color": "#3b4994", "crowd_t": 8, "color_crowd": "#3b4994"}}, {"type": "Feature", "geometry": {"type": "Polygon", "coordinates": [[[121.6085, 13.9169], [121.6235, 13.9169], [121.6235, 13.9319], [121.6085, 13.9319], [121.6085, 13.9169]]]}, "properties": {"gap": 0.8, "sss": 1.6, "rwi": 1.311, "pop_density": 18826.0, "sss_t": 2, "rwi_t": 2, "cls": 8, "color": "#3b4994", "crowd_t": 8, "color_crowd": "#3b4994"}}, {"type": "Feature", "geometry": {"type": "Polygon", "coordinates": [[[121.6235, 13.9319], [121.63850000000001, 13.9319], [121.63850000000001, 13.946900000000001], [121.6235, 13.946900000000001], [121.6235, 13.9319]]]}, "properties": {"gap": 0.0, "sss": 0.0, "rwi": 1.352, "pop_density": 5552.0, "sss_t": 0, "rwi_t": 2, "cls": 2, "color": "#5ac8c8", "crowd_t": 1, "color_crowd": "#ace4e4"}}, {"type": "Feature", "geometry": {"type": "Polygon", "coordinates": [[[121.5935, 13.9019], [121.6085, 13.9019], [121.6085, 13.9169], [121.5935, 13.9169], [121.5935, 13.9019]]]}, "properties": {"gap": 9.8, "sss": 16.1, "rwi": 1.167, "pop_density": 8723.0, "sss_t": 2, "rwi_t": 1, "cls": 7, "color": "#8c62aa", "crowd_t": 7, "color_crowd": "#8c62aa"}}, {"type": "Feature", "geometry": {"type": "Polygon", "coordinates": [[[121.63850000000001, 13.9319], [121.65350000000001, 13.9319], [121.65350000000001, 13.946900000000001], [121.63850000000001, 13.946900000000001], [121.63850000000001, 13.9319]]]}, "properties": {"gap": 0.0, "sss": 0.0, "rwi": 0.471, "pop_density": 1016.0, "sss_t": 0, "rwi_t": 0, "cls": 0, "color": "#e8e8e8", "crowd_t": 0, "color_crowd": "#e8e8e8"}}, {"type": "Feature", "geometry": {"type": "Polygon", "coordinates": [[[121.63850000000001, 13.9169], [121.65350000000001, 13.9169], [121.65350000000001, 13.9319], [121.63850000000001, 13.9319], [121.63850000000001, 13.9169]]]}, "properties": {"gap": 0.0, "sss": 0.0, "rwi": 0.471, "pop_density": 2766.0, "sss_t": 0, "rwi_t": 0, "cls": 0, "color": "#e8e8e8", "crowd_t": 0, "color_crowd": "#e8e8e8"}}, {"type": "Feature", "geometry": {"type": "Polygon", "coordinates": [[[121.5635, 13.9469], [121.5785, 13.9469], [121.5785, 13.9619], [121.5635, 13.9619], [121.5635, 13.9469]]]}, "properties": {"gap": 0.0, "sss": 0.0, "rwi": 1.446, "pop_density": 415.0, "sss_t": 0, "rwi_t": 2, "cls": 2, "color": "#5ac8c8", "crowd_t": 0, "color_crowd": "#e8e8e8"}}, {"type": "Feature", "geometry": {"type": "Polygon", "coordinates": [[[121.5785, 13.9769], [121.5935, 13.9769], [121.5935, 13.991900000000001], [121.5785, 13.991900000000001], [121.5785, 13.9769]]]}, "properties": {"gap": 10.0, "sss": 12.5, "rwi": 0.273, "pop_density": 0.0, "sss_t": 2, "rwi_t": 0, "cls": 6, "color": "#be64ac", "crowd_t": 6, "color_crowd": "#be64ac"}}, {"type": "Feature", "geometry": {"type": "Polygon", "coordinates": [[[121.6085, 13.9469], [121.6235, 13.9469], [121.6235, 13.9619], [121.6085, 13.9619], [121.6085, 13.9469]]]}, "properties": {"gap": 0.0, "sss": 0.0, "rwi": 1.153, "pop_density": 8990.0, "sss_t": 0, "rwi_t": 1, "cls": 1, "color": "#ace4e4", "crowd_t": 2, "color_crowd": "#5ac8c8"}}, {"type": "Feature", "geometry": {"type": "Polygon", "coordinates": [[[121.5935, 13.9469], [121.6085, 13.9469], [121.6085, 13.9619], [121.5935, 13.9619], [121.5935, 13.9469]]]}, "properties": {"gap": 0.0, "sss": 0.0, "rwi": 1.153, "pop_density": 12049.0, "sss_t": 0, "rwi_t": 1, "cls": 1, "color": "#ace4e4", "crowd_t": 2, "color_crowd": "#5ac8c8"}}]}