{"type": "FeatureCollection", "features": [{"type": "Feature", "geometry": {"type": "Polygon", "coordinates": [[[121.5179, 16.6616], [121.5329, 16.6616], [121.5329, 16.6766], [121.5179, 16.6766], [121.5179, 16.6616]]]}, "properties": {"gap": 0.0, "sss": 0.0, "rwi": 0.244, "pop_density": 1004.0, "sss_t": 0, "rwi_t": 0, "cls": 0, "color": "#e8e8e8", "crowd_t": 0, "color_crowd": "#e8e8e8"}}, {"type": "Feature", "geometry": {"type": "Polygon", "coordinates": [[[121.5329, 16.6766], [121.5479, 16.6766], [121.5479, 16.6916], [121.5329, 16.6916], [121.5329, 16.6766]]]}, "properties": {"gap": 0.7, "sss": 1.1, "rwi": 1.21, "pop_density": 7059.0, "sss_t": 1, "rwi_t": 2, "cls": 5, "color": "#5698b9", "crowd_t": 5, "color_crowd": "#5698b9"}}, {"type": "Feature", "geometry": {"type": "Polygon", "coordinates": [[[121.5029, 16.6616], [121.5179, 16.6616], [121.5179, 16.6766], [121.5029, 16.6766], [121.5029, 16.6616]]]}, "properties": {"gap": 0.0, "sss": 0.0, "rwi": 0.244, "pop_density": 0.0, "sss_t": 0, "rwi_t": 0, "cls": 0, "color": "#e8e8e8", "crowd_t": 0, "color_crowd": "#e8e8e8"}}, {"type": "Feature", "geometry": {"type": "Polygon", "coordinates": [[[121.5029, 16.6466], [121.5179, 16.6466], [121.5179, 16.6616], [121.5029, 16.6616], [121.5029, 16.6466]]]}, "properties": {"gap": 0.0, "sss": 0.0, "rwi": 0.364, "pop_density": 211.0, "sss_t": 0, "rwi_t": 0, "cls": 0, "color": "#e8e8e8", "crowd_t": 0, "color_crowd": "#e8e8e8"}}, {"type": "Feature", "geometry": {"type": "Polygon", "coordinates": [[[121.5329, 16.6616], [121.5479, 16.6616], [121.5479, 16.6766], [121.5329, 16.6766], [121.5329, 16.6616]]]}, "properties": {"gap": 0.0, "sss": 0.0, "rwi": 0.85, "pop_density": 3509.0, "sss_t": 0, "rwi_t": 1, "cls": 1, "color": "#ace4e4", "crowd_t": 1, "color_crowd": "#ace4e4"}}, {"type": "Feature", "geometry": {"type": "Polygon", "coordinates": [[[121.5479, 16.6766], [121.5629, 16.6766], [121.5629, 16.6916], [121.5479, 16.6916], [121.5479, 16.6766]]]}, "properties": {"gap": 0.2, "sss": 0.4, "rwi": 0.906, "pop_density": 11852.0, "sss_t": 0, "rwi_t": 1, "cls": 1, "color": "#ace4e4", "crowd_t": 2, "color_crowd": "#5ac8c8"}}, {"type": "Feature", "geometry": {"type": "Polygon", "coordinates": [[[121.5479, 16.6616], [121.5629, 16.6616], [121.5629, 16.6766], [121.5479, 16.6766], [121.5479, 16.6616]]]}, "properties": {"gap": 2.4, "sss": 4.3, "rwi": 0.974, "pop_density": 5491.0, "sss_t": 1, "rwi_t": 2, "cls": 5, "color": "#5698b9", "crowd_t": 5, "color_crowd": "#5698b9"}}, {"type": "Feature", "geometry": {"type": "Polygon", "coordinates": [[[121.5479, 16.6466], [121.5629, 16.6466], [121.5629, 16.6616], [121.5479, 16.6616], [121.5479, 16.6466]]]}, "properties": {"gap": 3.5, "sss": 4.7, "rwi": 0.849, "pop_density": 1080.0, "sss_t": 1, "rwi_t": 1, "cls": 4, "color": "#a5add3", "crowd_t": 3, "color_crowd": "#dfb0d6"}}, {"type": "Feature", "geometry": {"type": "Polygon", "coordinates": [[[121.5629, 16.6616], [121.5779, 16.6616], [121.5779, 16.6766], [121.5629, 16.6766], [121.5629, 16.6616]]]}, "properties": {"gap": 0.0, "sss": 0.0, "rwi": 0.974, "pop_density": 1288.0, "sss_t": 0, "rwi_t": 2, "cls": 2, "color": "#5ac8c8", "crowd_t": 0, "color_crowd": "#e8e8e8"}}, {"type": "Feature", "geometry": {"type": "Polygon", "coordinates": [[[121.5179, 16.6916], [121.5329, 16.6916], [121.5329, 16.7066], [121.5179, 16.7066], [121.5179, 16.6916]]]}, "properties": {"gap": 5.2, "sss": 6.9, "rwi": 0.427, "pop_density": 1428.0, "sss_t": 2, "rwi_t": 0, "cls": 6, "color": "#be64ac", "crowd_t": 6, "color_crowd": "#be64ac"}}, {"type": "Feature", "geometry": {"type": "Polygon", "coordinates": [[[121.5029, 16.6766], [121.5179, 16.6766], [121.5179, 16.6916], [121.5029, 16.6916], [121.5029, 16.6766]]]}, "properties": {"gap": 0.7, "sss": 0.9, "rwi": 0.427, "pop_density": 1942.0, "sss_t": 1, "rwi_t": 0, "cls": 3, "color": "#dfb0d6", "crowd_t": 4, "color_crowd": "#a5add3"}}, {"type": "Feature", "geometry": {"type": "Polygon", "coordinates": [[[121.5329, 16.6916], [121.5479, 16.6916], [121.5479, 16.7066], [121.5329, 16.7066], [121.5329, 16.6916]]]}, "properties": {"gap": 2.9, "sss": 3.7, "rwi": 1.21, "pop_density": 2028.0, "sss_t": 1, "rwi_t": 2, "cls": 5, "color": "#5698b9", "crowd_t": 4, "color_crowd": "#a5add3"}}, {"type": "Feature", "geometry": {"type": "Polygon", "coordinates": [[[121.5179, 16.6766], [121.5329, 16.6766], [121.5329, 16.6916], [121.5179, 16.6916], [121.5179, 16.6766]]]}, "properties": {"gap": 10.0, "sss": 13.7, "rwi": 0.427, "pop_density": 3227.0, "sss_t": 2, "rwi_t": 0, "cls": 6, "color": "#be64ac", "crowd_t": 7, "color_crowd": "#8c62aa"}}, {"type": "Feature", "geometry": {"type": "Polygon", "coordinates": [[[121.5479, 16.6916], [121.5629, 16.6916], [121.5629, 16.7066], [121.5479, 16.7066], [121.5479, 16.6916]]]}, "properties": {"gap": 1.9, "sss": 3.3, "rwi": 0.906, "pop_density": 8619.0, "sss_t": 1, "rwi_t": 1, "cls": 4, "color": "#a5add3", "crowd_t": 5, "color_crowd": "#5698b9"}}, {"type": "Feature", "geometry": {"type": "Polygon", "coordinates": [[[121.5479, 16.706599999999998], [121.5629, 16.706599999999998], [121.5629, 16.7216], [121.5479, 16.7216], [121.5479, 16.706599999999998]]]}, "properties": {"gap": 4.2, "sss": 6.5, "rwi": 1.27, "pop_density": 3206.0, "sss_t": 2, "rwi_t": 2, "cls": 8, "color": "#3b4994", "crowd_t": 7, "color_crowd": "#8c62aa"}}, {"type": "Feature", "geometry": {"type": "Polygon", "coordinates": [[[121.5629, 16.6916], [121.5779, 16.6916], [121.5779, 16.7066], [121.5629, 16.7066], [121.5629, 16.6916]]]}, "properties": {"gap": 4.0, "sss": 5.9, "rwi": 0.906, "pop_density": 4132.0, "sss_t": 1, "rwi_t": 1, "cls": 4, "color": "#a5add3", "crowd_t": 5, "color_crowd": "#5698b9"}}, {"type": "Feature", "geometry": {"type": "Polygon", "coordinates": [[[121.5029, 16.706599999999998], [121.5179, 16.706599999999998], [121.5179, 16.7216], [121.5029, 16.7216], [121.5029, 16.706599999999998]]]}, "properties": {"gap": 0.0, "sss": 0.0, "rwi": 0.155, "pop_density": 180.0, "sss_t": 0, "rwi_t": 0, "cls": 0, "color": "#e8e8e8", "crowd_t": 0, "color_crowd": "#e8e8e8"}}, {"type": "Feature", "geometry": {"type": "Polygon", "coordinates": [[[121.5779, 16.6916], [121.5929, 16.6916], [121.5929, 16.7066], [121.5779, 16.7066], [121.5779, 16.6916]]]}, "properties": {"gap": 5.9, "sss": 9.3, "rwi": 1.116, "pop_density": 5493.0, "sss_t": 2, "rwi_t": 2, "cls": 8, "color": "#3b4994", "crowd_t": 8, "color_crowd": "#3b4994"}}, {"type": "Feature", "geometry": {"type": "Polygon", "coordinates": [[[121.5629, 16.6766], [121.5779, 16.6766], [121.5779, 16.6916], [121.5629, 16.6916], [121.5629, 16.6766]]]}, "properties": {"gap": 0.0, "sss": 0.0, "rwi": 0.906, "pop_density": 8610.0, "sss_t": 0, "rwi_t": 1, "cls": 1, "color": "#ace4e4", "crowd_t": 2, "color_crowd": "#5ac8c8"}}, {"type": "Feature", "geometry": {"type": "Polygon", "coordinates": [[[121.5479, 16.7216], [121.5629, 16.7216], [121.5629, 16.7366], [121.5479, 16.7366], [121.5479, 16.7216]]]}, "properties": {"gap": 5.8, "sss": 9.2, "rwi": 0.564, "pop_density": 2446.0, "sss_t": 2, "rwi_t": 1, "cls": 7, "color": "#8c62aa", "crowd_t": 7, "color_crowd": "#8c62aa"}}, {"type": "Feature", "geometry": {"type": "Polygon", "coordinates": [[[121.5629, 16.706599999999998], [121.5779, 16.706599999999998], [121.5779, 16.7216], [121.5629, 16.7216], [121.5629, 16.706599999999998]]]}, "properties": {"gap": 10.0, "sss": 12.8, "rwi": 1.27, "pop_density": 853.0, "sss_t": 2, "rwi_t": 2, "cls": 8, "color": "#3b4994", "crowd_t": 6, "color_crowd": "#be64ac"}}, {"type": "Feature", "geometry": {"type": "Polygon", "coordinates": [[[121.5929, 16.706599999999998], [121.6079, 16.706599999999998], [121.6079, 16.7216], [121.5929, 16.7216], [121.5929, 16.706599999999998]]]}, "properties": {"gap": 10.0, "sss": 13.1, "rwi": -0.039, "pop_density": 1524.0, "sss_t": 2, "rwi_t": 0, "cls": 6, "color": "#be64ac", "crowd_t": 7, "color_crowd": "#8c62aa"}}]}