{"type": "FeatureCollection", "features": [{"type": "Feature", "geometry": {"type": "Polygon", "coordinates": [[[123.8488, 9.6272], [123.8638, 9.6272], [123.8638, 9.6422], [123.8488, 9.6422], [123.8488, 9.6272]]]}, "properties": {"gap": 0.0, "sss": 0.0, "rwi": 1.483, "pop_density": 9490.0, "sss_t": 0, "rwi_t": 2, "cls": 2, "color": "#5ac8c8", "crowd_t": 2, "color_crowd": "#5ac8c8"}}, {"type": "Feature", "geometry": {"type": "Polygon", "coordinates": [[[123.8338, 9.6272], [123.8488, 9.6272], [123.8488, 9.6422], [123.8338, 9.6422], [123.8338, 9.6272]]]}, "properties": {"gap": 13.0, "sss": 21.5, "rwi": 1.483, "pop_density": 9384.0, "sss_t": 2, "rwi_t": 2, "cls": 8, "color": "#3b4994", "crowd_t": 8, "color_crowd": "#3b4994"}}, {"type": "Feature", "geometry": {"type": "Polygon", "coordinates": [[[123.8638, 9.6272], [123.8788, 9.6272], [123.8788, 9.6422], [123.8638, 9.6422], [123.8638, 9.6272]]]}, "properties": {"gap": 0.0, "sss": 0.0, "rwi": 1.497, "pop_density": 7046.0, "sss_t": 0, "rwi_t": 2, "cls": 2, "color": "#5ac8c8", "crowd_t": 1, "color_crowd": "#ace4e4"}}, {"type": "Feature", "geometry": {"type": "Polygon", "coordinates": [[[123.8788, 9.6272], [123.8938, 9.6272], [123.8938, 9.6422], [123.8788, 9.6422], [123.8788, 9.6272]]]}, "properties": {"gap": 0.0, "sss": 0.0, "rwi": 1.36, "pop_density": 2960.0, "sss_t": 0, "rwi_t": 2, "cls": 2, "color": "#5ac8c8", "crowd_t": 0, "color_crowd": "#e8e8e8"}}, {"type": "Feature", "geometry": {"type": "Polygon", "coordinates": [[[123.8938, 9.6122], [123.9088, 9.6122], [123.9088, 9.6272], [123.8938, 9.6272], [123.8938, 9.6122]]]}, "properties": {"gap": 11.5, "sss": 20.2, "rwi": 0.321, "pop_density": 7198.0, "sss_t": 2, "rwi_t": 0, "cls": 6, "color": "#be64ac", "crowd_t": 8, "color_crowd": "#3b4994"}}, {"type": "Feature", "geometry": {"type": "Polygon", "coordinates": [[[123.8788, 9.6122], [123.8938, 9.6122], [123.8938, 9.6272], [123.8788, 9.6272], [123.8788, 9.6122]]]}, "properties": {"gap": 30.0, "sss": 58.4, "rwi": 1.36, "pop_density": 8418.0, "sss_t": 2, "rwi_t": 2, "cls": 8, "color": "#3b4994", "crowd_t": 8, "color_crowd": "#3b4994"}}, {"type": "Feature", "geometry": {"type": "Polygon", "coordinates": [[[123.9088, 9.6122], [123.9238, 9.6122], [123.9238, 9.6272], [123.9088, 9.6272], [123.9088, 9.6122]]]}, "properties": {"gap": 3.7, "sss": 7.1, "rwi": 0.321, "pop_density": 3922.0, "sss_t": 2, "rwi_t": 0, "cls": 6, "color": "#be64ac", "crowd_t": 6, "color_crowd": "#be64ac"}}, {"type": "Feature", "geometry": {"type": "Polygon", "coordinates": [[[123.8938, 9.6272], [123.9088, 9.6272], [123.9088, 9.6422], [123.8938, 9.6422], [123.8938, 9.6272]]]}, "properties": {"gap": 4.5, "sss": 9.0, "rwi": 1.36, "pop_density": 0.0, "sss_t": 2, "rwi_t": 2, "cls": 8, "color": "#3b4994", "crowd_t": 6, "color_crowd": "#be64ac"}}, {"type": "Feature", "geometry": {"type": "Polygon", "coordinates": [[[123.9088, 9.6272], [123.9238, 9.6272], [123.9238, 9.6422], [123.9088, 9.6422], [123.9088, 9.6272]]]}, "properties": {"gap": 0.0, "sss": 0.0, "rwi": 0.626, "pop_density": 3295.0, "sss_t": 0, "rwi_t": 0, "cls": 0, "color": "#e8e8e8", "crowd_t": 0, "color_crowd": "#e8e8e8"}}, {"type": "Feature", "geometry": {"type": "Polygon", "coordinates": [[[123.9238, 9.6122], [123.9388, 9.6122], [123.9388, 9.6272], [123.9238, 9.6272], [123.9238, 9.6122]]]}, "properties": {"gap": 10.0, "sss": 12.8, "rwi": 0.321, "pop_density": 745.0, "sss_t": 2, "rwi_t": 0, "cls": 6, "color": "#be64ac", "crowd_t": 6, "color_crowd": "#be64ac"}}, {"type": "Feature", "geometry": {"type": "Polygon", "coordinates": [[[123.8488, 9.6422], [123.8638, 9.6422], [123.8638, 9.657200000000001], [123.8488, 9.657200000000001], [123.8488, 9.6422]]]}, "properties": {"gap": 0.0, "sss": 0.0, "rwi": 1.28, "pop_density": 7382.0, "sss_t": 0, "rwi_t": 0, "cls": 0, "color": "#e8e8e8", "crowd_t": 2, "color_crowd": "#5ac8c8"}}, {"type": "Feature", "geometry": {"type": "Polygon", "coordinates": [[[123.8638, 9.6422], [123.8788, 9.6422], [123.8788, 9.657200000000001], [123.8638, 9.657200000000001], [123.8638, 9.6422]]]}, "properties": {"gap": 0.0, "sss": 0.0, "rwi": 1.324, "pop_density": 6052.0, "sss_t": 0, "rwi_t": 1, "cls": 1, "color": "#ace4e4", "crowd_t": 1, "color_crowd": "#ace4e4"}}, {"type": "Feature", "geometry": {"type": "Polygon", "coordinates": [[[123.8488, 9.6722], [123.8638, 9.6722], [123.8638, 9.6872], [123.8488, 9.6872], [123.8488, 9.6722]]]}, "properties": {"gap": 0.0, "sss": 0.0, "rwi": 1.28, "pop_density": 5916.0, "sss_t": 0, "rwi_t": 0, "cls": 0, "color": "#e8e8e8", "crowd_t": 1, "color_crowd": "#ace4e4"}}, {"type": "Feature", "geometry": {"type": "Polygon", "coordinates": [[[123.8338, 9.6422], [123.8488, 9.6422], [123.8488, 9.657200000000001], [123.8338, 9.657200000000001], [123.8338, 9.6422]]]}, "properties": {"gap": 0.0, "sss": 0.0, "rwi": 1.28, "pop_density": 12686.0, "sss_t": 0, "rwi_t": 0, "cls": 0, "color": "#e8e8e8", "crowd_t": 2, "color_crowd": "#5ac8c8"}}, {"type": "Feature", "geometry": {"type": "Polygon", "coordinates": [[[123.8488, 9.6572], [123.8638, 9.6572], [123.8638, 9.6722], [123.8488, 9.6722], [123.8488, 9.6572]]]}, "properties": {"gap": 0.0, "sss": 0.0, "rwi": 1.28, "pop_density": 6306.0, "sss_t": 0, "rwi_t": 0, "cls": 0, "color": "#e8e8e8", "crowd_t": 1, "color_crowd": "#ace4e4"}}, {"type": "Feature", "geometry": {"type": "Polygon", "coordinates": [[[123.8638, 9.6572], [123.8788, 9.6572], [123.8788, 9.6722], [123.8638, 9.6722], [123.8638, 9.6572]]]}, "properties": {"gap": 0.0, "sss": 0.0, "rwi": 1.324, "pop_density": 6167.0, "sss_t": 0, "rwi_t": 1, "cls": 1, "color": "#ace4e4", "crowd_t": 1, "color_crowd": "#ace4e4"}}, {"type": "Feature", "geometry": {"type": "Polygon", "coordinates": [[[123.8788, 9.6722], [123.8938, 9.6722], [123.8938, 9.6872], [123.8788, 9.6872], [123.8788, 9.6722]]]}, "properties": {"gap": 0.0, "sss": 0.0, "rwi": 0.263, "pop_density": 4528.0, "sss_t": 0, "rwi_t": 0, "cls": 0, "color": "#e8e8e8", "crowd_t": 0, "color_crowd": "#e8e8e8"}}]}