{"type": "FeatureCollection", "features": [{"type": "Feature", "geometry": {"type": "Polygon", "coordinates": [[[125.5731, 7.0398000000000005], [125.5881, 7.0398000000000005], [125.5881, 7.0548], [125.5731, 7.0548], [125.5731, 7.0398000000000005]]]}, "properties": {"gap": 3.5, "sss": 5.3, "rwi": 1.094, "pop_density": 8350.0, "sss_t": 1, "rwi_t": 0, "cls": 3, "color": "#dfb0d6", "crowd_t": 4, "color_crowd": "#a5add3"}}, {"type": "Feature", "geometry": {"type": "Polygon", "coordinates": [[[125.5581, 7.0398000000000005], [125.5731, 7.0398000000000005], [125.5731, 7.0548], [125.5581, 7.0548], [125.5581, 7.0398000000000005]]]}, "properties": {"gap": 5.2, "sss": 8.3, "rwi": 1.509, "pop_density": 9790.0, "sss_t": 2, "rwi_t": 2, "cls": 8, "color": "#3b4994", "crowd_t": 7, "color_crowd": "#8c62aa"}}, {"type": "Feature", "geometry": {"type": "Polygon", "coordinates": [[[125.5881, 7.0398000000000005], [125.6031, 7.0398000000000005], [125.6031, 7.0548], [125.5881, 7.0548], [125.5881, 7.0398000000000005]]]}, "properties": {"gap": 5.3, "sss": 11.8, "rwi": 1.094, "pop_density": 32908.0, "sss_t": 2, "rwi_t": 0, "cls": 6, "color": "#be64ac", "crowd_t": 8, "color_crowd": "#3b4994"}}, {"type": "Feature", "geometry": {"type": "Polygon", "coordinates": [[[125.5731, 7.0248], [125.5881, 7.0248], [125.5881, 7.0398], [125.5731, 7.0398], [125.5731, 7.0248]]]}, "properties": {"gap": 9.9, "sss": 17.7, "rwi": 0.486, "pop_density": 8656.0, "sss_t": 2, "rwi_t": 0, "cls": 6, "color": "#be64ac", "crowd_t": 7, "color_crowd": "#8c62aa"}}, {"type": "Feature", "geometry": {"type": "Polygon", "coordinates": [[[125.6031, 7.0398000000000005], [125.6181, 7.0398000000000005], [125.6181, 7.0548], [125.6031, 7.0548], [125.6031, 7.0398000000000005]]]}, "properties": {"gap": 4.2, "sss": 7.7, "rwi": 1.042, "pop_density": 34807.0, "sss_t": 1, "rwi_t": 0, "cls": 3, "color": "#dfb0d6", "crowd_t": 5, "color_crowd": "#5698b9"}}, {"type": "Feature", "geometry": {"type": "Polygon", "coordinates": [[[125.5731, 7.0548], [125.5881, 7.0548], [125.5881, 7.0698], [125.5731, 7.0698], [125.5731, 7.0548]]]}, "properties": {"gap": 5.7, "sss": 9.3, "rwi": 1.342, "pop_density": 7057.0, "sss_t": 2, "rwi_t": 2, "cls": 8, "color": "#3b4994", "crowd_t": 6, "color_crowd": "#be64ac"}}, {"type": "Feature", "geometry": {"type": "Polygon", "coordinates": [[[125.5881, 7.0548], [125.6031, 7.0548], [125.6031, 7.0698], [125.5881, 7.0698], [125.5881, 7.0548]]]}, "properties": {"gap": 6.3, "sss": 12.3, "rwi": 1.342, "pop_density": 18201.0, "sss_t": 2, "rwi_t": 2, "cls": 8, "color": "#3b4994", "crowd_t": 8, "color_crowd": "#3b4994"}}, {"type": "Feature", "geometry": {"type": "Polygon", "coordinates": [[[125.5581, 7.0548], [125.5731, 7.0548], [125.5731, 7.0698], [125.5581, 7.0698], [125.5581, 7.0548]]]}, "properties": {"gap": 6.4, "sss": 10.7, "rwi": 1.389, "pop_density": 9172.0, "sss_t": 2, "rwi_t": 2, "cls": 8, "color": "#3b4994", "crowd_t": 7, "color_crowd": "#8c62aa"}}, {"type": "Feature", "geometry": {"type": "Polygon", "coordinates": [[[125.5581, 7.0698], [125.5731, 7.0698], [125.5731, 7.0847999999999995], [125.5581, 7.0847999999999995], [125.5581, 7.0698]]]}, "properties": {"gap": 2.6, "sss": 3.6, "rwi": 1.389, "pop_density": 7348.0, "sss_t": 1, "rwi_t": 2, "cls": 5, "color": "#5698b9", "crowd_t": 4, "color_crowd": "#a5add3"}}, {"type": "Feature", "geometry": {"type": "Polygon", "coordinates": [[[125.5731, 7.0698], [125.5881, 7.0698], [125.5881, 7.0847999999999995], [125.5731, 7.0847999999999995], [125.5731, 7.0698]]]}, "properties": {"gap": 2.5, "sss": 3.5, "rwi": 1.342, "pop_density": 13639.0, "sss_t": 1, "rwi_t": 2, "cls": 5, "color": "#5698b9", "crowd_t": 5, "color_crowd": "#5698b9"}}, {"type": "Feature", "geometry": {"type": "Polygon", "coordinates": [[[125.5881, 7.0698], [125.6031, 7.0698], [125.6031, 7.0847999999999995], [125.5881, 7.0847999999999995], [125.5881, 7.0698]]]}, "properties": {"gap": 0.7, "sss": 1.1, "rwi": 1.342, "pop_density": 12626.0, "sss_t": 1, "rwi_t": 2, "cls": 5, "color": "#5698b9", "crowd_t": 5, "color_crowd": "#5698b9"}}, {"type": "Feature", "geometry": {"type": "Polygon", "coordinates": [[[125.6181, 7.0698], [125.6331, 7.0698], [125.6331, 7.0847999999999995], [125.6181, 7.0847999999999995], [125.6181, 7.0698]]]}, "properties": {"gap": 0.5, "sss": 1.0, "rwi": 1.324, "pop_density": 16149.0, "sss_t": 0, "rwi_t": 1, "cls": 1, "color": "#ace4e4", "crowd_t": 2, "color_crowd": "#5ac8c8"}}, {"type": "Feature", "geometry": {"type": "Polygon", "coordinates": [[[125.6031, 7.0548], [125.6181, 7.0548], [125.6181, 7.0698], [125.6031, 7.0698], [125.6031, 7.0548]]]}, "properties": {"gap": 0.6, "sss": 1.4, "rwi": 1.484, "pop_density": 57994.0, "sss_t": 0, "rwi_t": 2, "cls": 2, "color": "#5ac8c8", "crowd_t": 2, "color_crowd": "#5ac8c8"}}, {"type": "Feature", "geometry": {"type": "Polygon", "coordinates": [[[125.6031, 7.0698], [125.6181, 7.0698], [125.6181, 7.0847999999999995], [125.6031, 7.0847999999999995], [125.6031, 7.0698]]]}, "properties": {"gap": 0.0, "sss": 0.0, "rwi": 1.484, "pop_density": 22581.0, "sss_t": 0, "rwi_t": 2, "cls": 2, "color": "#5ac8c8", "crowd_t": 2, "color_crowd": "#5ac8c8"}}, {"type": "Feature", "geometry": {"type": "Polygon", "coordinates": [[[125.6181, 7.0848], [125.6331, 7.0848], [125.6331, 7.0998], [125.6181, 7.0998], [125.6181, 7.0848]]]}, "properties": {"gap": 0.0, "sss": 0.0, "rwi": 1.473, "pop_density": 16918.0, "sss_t": 0, "rwi_t": 2, "cls": 2, "color": "#5ac8c8", "crowd_t": 2, "color_crowd": "#5ac8c8"}}, {"type": "Feature", "geometry": {"type": "Polygon", "coordinates": [[[125.6181, 7.0548], [125.6331, 7.0548], [125.6331, 7.0698], [125.6181, 7.0698], [125.6181, 7.0548]]]}, "properties": {"gap": 3.4, "sss": 7.4, "rwi": 1.324, "pop_density": 18946.0, "sss_t": 1, "rwi_t": 1, "cls": 4, "color": "#a5add3", "crowd_t": 5, "color_crowd": "#5698b9"}}, {"type": "Feature", "geometry": {"type": "Polygon", "coordinates": [[[125.5731, 7.0848], [125.5881, 7.0848], [125.5881, 7.0998], [125.5731, 7.0998], [125.5731, 7.0848]]]}, "properties": {"gap": 0.9, "sss": 1.5, "rwi": 1.231, "pop_density": 661.0, "sss_t": 1, "rwi_t": 1, "cls": 4, "color": "#a5add3", "crowd_t": 3, "color_crowd": "#dfb0d6"}}, {"type": "Feature", "geometry": {"type": "Polygon", "coordinates": [[[125.5881, 7.0998], [125.6031, 7.0998], [125.6031, 7.1148], [125.5881, 7.1148], [125.5881, 7.0998]]]}, "properties": {"gap": 5.2, "sss": 8.8, "rwi": 0.972, "pop_density": 8158.0, "sss_t": 2, "rwi_t": 0, "cls": 6, "color": "#be64ac", "crowd_t": 7, "color_crowd": "#8c62aa"}}, {"type": "Feature", "geometry": {"type": "Polygon", "coordinates": [[[125.5581, 7.0848], [125.5731, 7.0848], [125.5731, 7.0998], [125.5581, 7.0998], [125.5581, 7.0848]]]}, "properties": {"gap": 3.7, "sss": 4.8, "rwi": 0.876, "pop_density": 611.0, "sss_t": 1, "rwi_t": 0, "cls": 3, "color": "#dfb0d6", "crowd_t": 3, "color_crowd": "#dfb0d6"}}, {"type": "Feature", "geometry": {"type": "Polygon", "coordinates": [[[125.5881, 7.0848], [125.6031, 7.0848], [125.6031, 7.0998], [125.5881, 7.0998], [125.5881, 7.0848]]]}, "properties": {"gap": 1.1, "sss": 1.4, "rwi": 1.231, "pop_density": 6593.0, "sss_t": 1, "rwi_t": 1, "cls": 4, "color": "#a5add3", "crowd_t": 3, "color_crowd": "#dfb0d6"}}, {"type": "Feature", "geometry": {"type": "Polygon", "coordinates": [[[125.5731, 7.0998], [125.5881, 7.0998], [125.5881, 7.1148], [125.5731, 7.1148], [125.5731, 7.0998]]]}, "properties": {"gap": 6.4, "sss": 8.6, "rwi": 0.972, "pop_density": 1586.0, "sss_t": 2, "rwi_t": 0, "cls": 6, "color": "#be64ac", "crowd_t": 6, "color_crowd": "#be64ac"}}, {"type": "Feature", "geometry": {"type": "Polygon", "coordinates": [[[125.5581, 7.0998], [125.5731, 7.0998], [125.5731, 7.1148], [125.5581, 7.1148], [125.5581, 7.0998]]]}, "properties": {"gap": 0.0, "sss": 0.0, "rwi": 0.549, "pop_density": 338.0, "sss_t": 0, "rwi_t": 0, "cls": 0, "color": "#e8e8e8", "crowd_t": 0, "color_crowd": "#e8e8e8"}}, {"type": "Feature", "geometry": {"type": "Polygon", "coordinates": [[[125.5581, 7.114800000000001], [125.5731, 7.114800000000001], [125.5731, 7.1298], [125.5581, 7.1298], [125.5581, 7.114800000000001]]]}, "properties": {"gap": 10.0, "sss": 13.1, "rwi": 0.549, "pop_density": 1636.0, "sss_t": 2, "rwi_t": 0, "cls": 6, "color": "#be64ac", "crowd_t": 6, "color_crowd": "#be64ac"}}, {"type": "Feature", "geometry": {"type": "Polygon", "coordinates": [[[125.6031, 7.0848], [125.6181, 7.0848], [125.6181, 7.0998], [125.6031, 7.0998], [125.6031, 7.0848]]]}, "properties": {"gap": 0.2, "sss": 0.5, "rwi": 1.108, "pop_density": 14810.0, "sss_t": 0, "rwi_t": 1, "cls": 1, "color": "#ace4e4", "crowd_t": 2, "color_crowd": "#5ac8c8"}}, {"type": "Feature", "geometry": {"type": "Polygon", "coordinates": [[[125.6181, 7.0998], [125.6331, 7.0998], [125.6331, 7.1148], [125.6181, 7.1148], [125.6181, 7.0998]]]}, "properties": {"gap": 0.5, "sss": 1.0, "rwi": 1.259, "pop_density": 9032.0, "sss_t": 0, "rwi_t": 1, "cls": 1, "color": "#ace4e4", "crowd_t": 1, "color_crowd": "#ace4e4"}}, {"type": "Feature", "geometry": {"type": "Polygon", "coordinates": [[[125.6031, 7.0998], [125.6181, 7.0998], [125.6181, 7.1148], [125.6031, 7.1148], [125.6031, 7.0998]]]}, "properties": {"gap": 3.4, "sss": 6.8, "rwi": 1.52, "pop_density": 11852.0, "sss_t": 1, "rwi_t": 2, "cls": 5, "color": "#5698b9", "crowd_t": 4, "color_crowd": "#a5add3"}}, {"type": "Feature", "geometry": {"type": "Polygon", "coordinates": [[[125.6031, 7.114800000000001], [125.6181, 7.114800000000001], [125.6181, 7.1298], [125.6031, 7.1298], [125.6031, 7.114800000000001]]]}, "properties": {"gap": 7.6, "sss": 18.8, "rwi": 1.52, "pop_density": 12219.0, "sss_t": 2, "rwi_t": 2, "cls": 8, "color": "#3b4994", "crowd_t": 8, "color_crowd": "#3b4994"}}, {"type": "Feature", "geometry": {"type": "Polygon", "coordinates": [[[125.5881, 7.114800000000001], [125.6031, 7.114800000000001], [125.6031, 7.1298], [125.5881, 7.1298], [125.5881, 7.114800000000001]]]}, "properties": {"gap": 0.0, "sss": 0.0, "rwi": 0.972, "pop_density": 7847.0, "sss_t": 0, "rwi_t": 0, "cls": 0, "color": "#e8e8e8", "crowd_t": 1, "color_crowd": "#ace4e4"}}, {"type": "Feature", "geometry": {"type": "Polygon", "coordinates": [[[125.6181, 7.114800000000001], [125.6331, 7.114800000000001], [125.6331, 7.1298], [125.6181, 7.1298], [125.6181, 7.114800000000001]]]}, "properties": {"gap": 5.4, "sss": 7.8, "rwi": 1.259, "pop_density": 3839.0, "sss_t": 2, "rwi_t": 1, "cls": 7, "color": "#8c62aa", "crowd_t": 6, "color_crowd": "#be64ac"}}, {"type": "Feature", "geometry": {"type": "Polygon", "coordinates": [[[125.6331, 7.0998], [125.6481, 7.0998], [125.6481, 7.1148], [125.6331, 7.1148], [125.6331, 7.0998]]]}, "properties": {"gap": 0.2, "sss": 0.3, "rwi": 1.114, "pop_density": 5783.0, "sss_t": 0, "rwi_t": 1, "cls": 1, "color": "#ace4e4", "crowd_t": 0, "color_crowd": "#e8e8e8"}}, {"type": "Feature", "geometry": {"type": "Polygon", "coordinates": [[[125.6481, 7.0998], [125.6631, 7.0998], [125.6631, 7.1148], [125.6481, 7.1148], [125.6481, 7.0998]]]}, "properties": {"gap": 0.4, "sss": 0.7, "rwi": 1.114, "pop_density": 7782.0, "sss_t": 0, "rwi_t": 1, "cls": 1, "color": "#ace4e4", "crowd_t": 1, "color_crowd": "#ace4e4"}}, {"type": "Feature", "geometry": {"type": "Polygon", "coordinates": [[[125.6331, 7.0848], [125.6481, 7.0848], [125.6481, 7.0998], [125.6331, 7.0998], [125.6331, 7.0848]]]}, "properties": {"gap": 0.0, "sss": 0.0, "rwi": 0.989, "pop_density": 8472.0, "sss_t": 0, "rwi_t": 0, "cls": 0, "color": "#e8e8e8", "crowd_t": 1, "color_crowd": "#ace4e4"}}, {"type": "Feature", "geometry": {"type": "Polygon", "coordinates": [[[125.6481, 7.114800000000001], [125.6631, 7.114800000000001], [125.6631, 7.1298], [125.6481, 7.1298], [125.6481, 7.114800000000001]]]}, "properties": {"gap": 2.4, "sss": 4.1, "rwi": 1.114, "pop_density": 5486.0, "sss_t": 1, "rwi_t": 1, "cls": 4, "color": "#a5add3", "crowd_t": 3, "color_crowd": "#dfb0d6"}}, {"type": "Feature", "geometry": {"type": "Polygon", "coordinates": [[[125.6331, 7.114800000000001], [125.6481, 7.114800000000001], [125.6481, 7.1298], [125.6331, 7.1298], [125.6331, 7.114800000000001]]]}, "properties": {"gap": 8.0, "sss": 11.5, "rwi": 1.114, "pop_density": 4116.0, "sss_t": 2, "rwi_t": 1, "cls": 7, "color": "#8c62aa", "crowd_t": 6, "color_crowd": "#be64ac"}}, {"type": "Feature", "geometry": {"type": "Polygon", "coordinates": [[[125.6481, 7.0848], [125.6631, 7.0848], [125.6631, 7.0998], [125.6481, 7.0998], [125.6481, 7.0848]]]}, "properties": {"gap": 0.0, "sss": 0.0, "rwi": 0.989, "pop_density": 2765.0, "sss_t": 0, "rwi_t": 0, "cls": 0, "color": "#e8e8e8", "crowd_t": 0, "color_crowd": "#e8e8e8"}}]}