{"type": "FeatureCollection", "features": [{"type": "Feature", "geometry": {"type": "Polygon", "coordinates": [[[123.87, 10.29], [123.885, 10.29], [123.885, 10.305], [123.87, 10.305], [123.87, 10.29]]]}, "properties": {"gap": 4.8, "sss": 11.6, "rwi": 1.402, "pop_density": 30250.0, "sss_t": 1, "rwi_t": 2, "cls": 5, "color": "#5698b9", "crowd_t": 5, "color_crowd": "#5698b9"}}, {"type": "Feature", "geometry": {"type": "Polygon", "coordinates": [[[123.855, 10.275], [123.87, 10.275], [123.87, 10.290000000000001], [123.855, 10.290000000000001], [123.855, 10.275]]]}, "properties": {"gap": 5.4, "sss": 11.8, "rwi": 1.174, "pop_density": 22076.0, "sss_t": 2, "rwi_t": 1, "cls": 7, "color": "#8c62aa", "crowd_t": 8, "color_crowd": "#3b4994"}}, {"type": "Feature", "geometry": {"type": "Polygon", "coordinates": [[[123.855, 10.29], [123.87, 10.29], [123.87, 10.305], [123.855, 10.305], [123.855, 10.29]]]}, "properties": {"gap": 0.5, "sss": 1.1, "rwi": 1.402, "pop_density": 17319.0, "sss_t": 1, "rwi_t": 2, "cls": 5, "color": "#5698b9", "crowd_t": 5, "color_crowd": "#5698b9"}}, {"type": "Feature", "geometry": {"type": "Polygon", "coordinates": [[[123.87, 10.275], [123.885, 10.275], [123.885, 10.290000000000001], [123.87, 10.290000000000001], [123.87, 10.275]]]}, "properties": {"gap": 4.9, "sss": 11.4, "rwi": 1.174, "pop_density": 28160.0, "sss_t": 1, "rwi_t": 1, "cls": 4, "color": "#a5add3", "crowd_t": 5, "color_crowd": "#5698b9"}}, {"type": "Feature", "geometry": {"type": "Polygon", "coordinates": [[[123.855, 10.26], [123.87, 10.26], [123.87, 10.275], [123.855, 10.275], [123.855, 10.26]]]}, "properties": {"gap": 0.0, "sss": 0.0, "rwi": 0.741, "pop_density": 13539.0, "sss_t": 0, "rwi_t": 0, "cls": 0, "color": "#e8e8e8", "crowd_t": 2, "color_crowd": "#5ac8c8"}}, {"type": "Feature", "geometry": {"type": "Polygon", "coordinates": [[[123.84, 10.26], [123.855, 10.26], [123.855, 10.275], [123.84, 10.275], [123.84, 10.26]]]}, "properties": {"gap": 10.4, "sss": 20.8, "rwi": 1.286, "pop_density": 16415.0, "sss_t": 2, "rwi_t": 2, "cls": 8, "color": "#3b4994", "crowd_t": 8, "color_crowd": "#3b4994"}}, {"type": "Feature", "geometry": {"type": "Polygon", "coordinates": [[[123.84, 10.275], [123.855, 10.275], [123.855, 10.290000000000001], [123.84, 10.290000000000001], [123.84, 10.275]]]}, "properties": {"gap": 8.2, "sss": 17.5, "rwi": 1.716, "pop_density": 22402.0, "sss_t": 2, "rwi_t": 2, "cls": 8, "color": "#3b4994", "crowd_t": 8, "color_crowd": "#3b4994"}}, {"type": "Feature", "geometry": {"type": "Polygon", "coordinates": [[[123.87, 10.26], [123.885, 10.26], [123.885, 10.275], [123.87, 10.275], [123.87, 10.26]]]}, "properties": {"gap": 1.0, "sss": 2.2, "rwi": 0.741, "pop_density": 9860.0, "sss_t": 1, "rwi_t": 0, "cls": 3, "color": "#dfb0d6", "crowd_t": 4, "color_crowd": "#a5add3"}}, {"type": "Feature", "geometry": {"type": "Polygon", "coordinates": [[[123.87, 10.305], [123.885, 10.305], [123.885, 10.32], [123.87, 10.32], [123.87, 10.305]]]}, "properties": {"gap": 0.0, "sss": 0.0, "rwi": 1.402, "pop_density": 9411.0, "sss_t": 0, "rwi_t": 2, "cls": 2, "color": "#5ac8c8", "crowd_t": 1, "color_crowd": "#ace4e4"}}, {"type": "Feature", "geometry": {"type": "Polygon", "coordinates": [[[123.855, 10.305], [123.87, 10.305], [123.87, 10.32], [123.855, 10.32], [123.855, 10.305]]]}, "properties": {"gap": 0.0, "sss": 0.0, "rwi": 1.402, "pop_density": 16844.0, "sss_t": 0, "rwi_t": 2, "cls": 2, "color": "#5ac8c8", "crowd_t": 2, "color_crowd": "#5ac8c8"}}, {"type": "Feature", "geometry": {"type": "Polygon", "coordinates": [[[123.885, 10.29], [123.9, 10.29], [123.9, 10.305], [123.885, 10.305], [123.885, 10.29]]]}, "properties": {"gap": 5.1, "sss": 12.7, "rwi": 1.226, "pop_density": 38740.0, "sss_t": 2, "rwi_t": 2, "cls": 8, "color": "#3b4994", "crowd_t": 8, "color_crowd": "#3b4994"}}, {"type": "Feature", "geometry": {"type": "Polygon", "coordinates": [[[123.9, 10.29], [123.915, 10.29], [123.915, 10.305], [123.9, 10.305], [123.9, 10.29]]]}, "properties": {"gap": 1.9, "sss": 4.6, "rwi": 1.287, "pop_density": 25551.0, "sss_t": 1, "rwi_t": 2, "cls": 5, "color": "#5698b9", "crowd_t": 5, "color_crowd": "#5698b9"}}, {"type": "Feature", "geometry": {"type": "Polygon", "coordinates": [[[123.9, 10.305], [123.915, 10.305], [123.915, 10.32], [123.9, 10.32], [123.9, 10.305]]]}, "properties": {"gap": 6.6, "sss": 15.6, "rwi": 1.287, "pop_density": 27043.0, "sss_t": 2, "rwi_t": 2, "cls": 8, "color": "#3b4994", "crowd_t": 8, "color_crowd": "#3b4994"}}, {"type": "Feature", "geometry": {"type": "Polygon", "coordinates": [[[123.885, 10.275], [123.9, 10.275], [123.9, 10.290000000000001], [123.885, 10.290000000000001], [123.885, 10.275]]]}, "properties": {"gap": 0.0, "sss": 0.0, "rwi": 1.191, "pop_density": 26315.0, "sss_t": 0, "rwi_t": 1, "cls": 1, "color": "#ace4e4", "crowd_t": 2, "color_crowd": "#5ac8c8"}}, {"type": "Feature", "geometry": {"type": "Polygon", "coordinates": [[[123.885, 10.305], [123.9, 10.305], [123.9, 10.32], [123.885, 10.32], [123.885, 10.305]]]}, "properties": {"gap": 5.2, "sss": 12.5, "rwi": 1.226, "pop_density": 19295.0, "sss_t": 2, "rwi_t": 2, "cls": 8, "color": "#3b4994", "crowd_t": 8, "color_crowd": "#3b4994"}}, {"type": "Feature", "geometry": {"type": "Polygon", "coordinates": [[[123.915, 10.305], [123.93, 10.305], [123.93, 10.32], [123.915, 10.32], [123.915, 10.305]]]}, "properties": {"gap": 2.1, "sss": 4.2, "rwi": 1.287, "pop_density": 10733.0, "sss_t": 1, "rwi_t": 2, "cls": 5, "color": "#5698b9", "crowd_t": 4, "color_crowd": "#a5add3"}}, {"type": "Feature", "geometry": {"type": "Polygon", "coordinates": [[[123.9, 10.275], [123.915, 10.275], [123.915, 10.290000000000001], [123.9, 10.290000000000001], [123.9, 10.275]]]}, "properties": {"gap": 0.0, "sss": 0.0, "rwi": 0.649, "pop_density": 1216.0, "sss_t": 0, "rwi_t": 0, "cls": 0, "color": "#e8e8e8", "crowd_t": 0, "color_crowd": "#e8e8e8"}}, {"type": "Feature", "geometry": {"type": "Polygon", "coordinates": [[[123.915, 10.26], [123.93, 10.26], [123.93, 10.275], [123.915, 10.275], [123.915, 10.26]]]}, "properties": {"gap": 0.0, "sss": 0.0, "rwi": 0.523, "pop_density": 0.0, "sss_t": 0, "rwi_t": 0, "cls": 0, "color": "#e8e8e8", "crowd_t": 0, "color_crowd": "#e8e8e8"}}, {"type": "Feature", "geometry": {"type": "Polygon", "coordinates": [[[123.94500000000001, 10.26], [123.96000000000001, 10.26], [123.96000000000001, 10.275], [123.94500000000001, 10.275], [123.94500000000001, 10.26]]]}, "properties": {"gap": 10.1, "sss": 19.8, "rwi": 0.523, "pop_density": 8507.0, "sss_t": 2, "rwi_t": 0, "cls": 6, "color": "#be64ac", "crowd_t": 7, "color_crowd": "#8c62aa"}}, {"type": "Feature", "geometry": {"type": "Polygon", "coordinates": [[[123.94500000000001, 10.29], [123.96000000000001, 10.29], [123.96000000000001, 10.305], [123.94500000000001, 10.305], [123.94500000000001, 10.29]]]}, "properties": {"gap": 24.3, "sss": 51.2, "rwi": 1.014, "pop_density": 18523.0, "sss_t": 2, "rwi_t": 1, "cls": 7, "color": "#8c62aa", "crowd_t": 8, "color_crowd": "#3b4994"}}, {"type": "Feature", "geometry": {"type": "Polygon", "coordinates": [[[123.93, 10.275], [123.94500000000001, 10.275], [123.94500000000001, 10.290000000000001], [123.93, 10.290000000000001], [123.93, 10.275]]]}, "properties": {"gap": 10.0, "sss": 18.7, "rwi": 0.687, "pop_density": 12773.0, "sss_t": 2, "rwi_t": 0, "cls": 6, "color": "#be64ac", "crowd_t": 7, "color_crowd": "#8c62aa"}}, {"type": "Feature", "geometry": {"type": "Polygon", "coordinates": [[[123.93, 10.26], [123.94500000000001, 10.26], [123.94500000000001, 10.275], [123.93, 10.275], [123.93, 10.26]]]}, "properties": {"gap": 0.0, "sss": 0.0, "rwi": 0.523, "pop_density": 5505.0, "sss_t": 0, "rwi_t": 0, "cls": 0, "color": "#e8e8e8", "crowd_t": 0, "color_crowd": "#e8e8e8"}}, {"type": "Feature", "geometry": {"type": "Polygon", "coordinates": [[[123.94500000000001, 10.305], [123.96000000000001, 10.305], [123.96000000000001, 10.32], [123.94500000000001, 10.32], [123.94500000000001, 10.305]]]}, "properties": {"gap": 3.0, "sss": 5.6, "rwi": 1.014, "pop_density": 13389.0, "sss_t": 1, "rwi_t": 1, "cls": 4, "color": "#a5add3", "crowd_t": 4, "color_crowd": "#a5add3"}}, {"type": "Feature", "geometry": {"type": "Polygon", "coordinates": [[[123.84, 10.305], [123.855, 10.305], [123.855, 10.32], [123.84, 10.32], [123.84, 10.305]]]}, "properties": {"gap": 0.0, "sss": 0.0, "rwi": 0.831, "pop_density": 12066.0, "sss_t": 0, "rwi_t": 0, "cls": 0, "color": "#e8e8e8", "crowd_t": 1, "color_crowd": "#ace4e4"}}, {"type": "Feature", "geometry": {"type": "Polygon", "coordinates": [[[123.87, 10.32], [123.885, 10.32], [123.885, 10.335], [123.87, 10.335], [123.87, 10.32]]]}, "properties": {"gap": 0.4, "sss": 0.7, "rwi": 1.026, "pop_density": 10940.0, "sss_t": 1, "rwi_t": 1, "cls": 4, "color": "#a5add3", "crowd_t": 4, "color_crowd": "#a5add3"}}, {"type": "Feature", "geometry": {"type": "Polygon", "coordinates": [[[123.855, 10.334999999999999], [123.87, 10.334999999999999], [123.87, 10.35], [123.855, 10.35], [123.855, 10.334999999999999]]]}, "properties": {"gap": 0.0, "sss": 0.0, "rwi": 0.379, "pop_density": 20116.0, "sss_t": 0, "rwi_t": 0, "cls": 0, "color": "#e8e8e8", "crowd_t": 2, "color_crowd": "#5ac8c8"}}, {"type": "Feature", "geometry": {"type": "Polygon", "coordinates": [[[123.855, 10.32], [123.87, 10.32], [123.87, 10.335], [123.855, 10.335], [123.855, 10.32]]]}, "properties": {"gap": 0.0, "sss": 0.0, "rwi": 1.026, "pop_density": 6168.0, "sss_t": 0, "rwi_t": 1, "cls": 1, "color": "#ace4e4", "crowd_t": 0, "color_crowd": "#e8e8e8"}}, {"type": "Feature", "geometry": {"type": "Polygon", "coordinates": [[[123.87, 10.334999999999999], [123.885, 10.334999999999999], [123.885, 10.35], [123.87, 10.35], [123.87, 10.334999999999999]]]}, "properties": {"gap": 0.0, "sss": 0.0, "rwi": 0.379, "pop_density": 4484.0, "sss_t": 0, "rwi_t": 0, "cls": 0, "color": "#e8e8e8", "crowd_t": 0, "color_crowd": "#e8e8e8"}}, {"type": "Feature", "geometry": {"type": "Polygon", "coordinates": [[[123.855, 10.35], [123.87, 10.35], [123.87, 10.365], [123.855, 10.365], [123.855, 10.35]]]}, "properties": {"gap": 0.0, "sss": 0.0, "rwi": 0.379, "pop_density": 0.0, "sss_t": 0, "rwi_t": 0, "cls": 0, "color": "#e8e8e8", "crowd_t": 0, "color_crowd": "#e8e8e8"}}, {"type": "Feature", "geometry": {"type": "Polygon", "coordinates": [[[123.9, 10.32], [123.915, 10.32], [123.915, 10.335], [123.9, 10.335], [123.9, 10.32]]]}, "properties": {"gap": 5.6, "sss": 12.8, "rwi": 1.201, "pop_density": 14231.0, "sss_t": 2, "rwi_t": 1, "cls": 7, "color": "#8c62aa", "crowd_t": 8, "color_crowd": "#3b4994"}}, {"type": "Feature", "geometry": {"type": "Polygon", "coordinates": [[[123.885, 10.32], [123.9, 10.32], [123.9, 10.335], [123.885, 10.335], [123.885, 10.32]]]}, "properties": {"gap": 4.0, "sss": 8.5, "rwi": 1.824, "pop_density": 8963.0, "sss_t": 1, "rwi_t": 2, "cls": 5, "color": "#5698b9", "crowd_t": 4, "color_crowd": "#a5add3"}}, {"type": "Feature", "geometry": {"type": "Polygon", "coordinates": [[[123.885, 10.35], [123.9, 10.35], [123.9, 10.365], [123.885, 10.365], [123.885, 10.35]]]}, "properties": {"gap": 0.0, "sss": 0.0, "rwi": 1.49, "pop_density": 194.0, "sss_t": 0, "rwi_t": 2, "cls": 2, "color": "#5ac8c8", "crowd_t": 0, "color_crowd": "#e8e8e8"}}, {"type": "Feature", "geometry": {"type": "Polygon", "coordinates": [[[123.885, 10.334999999999999], [123.9, 10.334999999999999], [123.9, 10.35], [123.885, 10.35], [123.885, 10.334999999999999]]]}, "properties": {"gap": 1.4, "sss": 2.6, "rwi": 1.49, "pop_density": 7998.0, "sss_t": 1, "rwi_t": 2, "cls": 5, "color": "#5698b9", "crowd_t": 4, "color_crowd": "#a5add3"}}, {"type": "Feature", "geometry": {"type": "Polygon", "coordinates": [[[123.9, 10.334999999999999], [123.915, 10.334999999999999], [123.915, 10.35], [123.9, 10.35], [123.9, 10.334999999999999]]]}, "properties": {"gap": 2.9, "sss": 6.5, "rwi": 1.554, "pop_density": 17374.0, "sss_t": 1, "rwi_t": 2, "cls": 5, "color": "#5698b9", "crowd_t": 5, "color_crowd": "#5698b9"}}, {"type": "Feature", "geometry": {"type": "Polygon", "coordinates": [[[123.9, 10.35], [123.915, 10.35], [123.915, 10.365], [123.9, 10.365], [123.9, 10.35]]]}, "properties": {"gap": 0.0, "sss": 0.0, "rwi": 1.554, "pop_density": 6161.0, "sss_t": 0, "rwi_t": 2, "cls": 2, "color": "#5ac8c8", "crowd_t": 0, "color_crowd": "#e8e8e8"}}, {"type": "Feature", "geometry": {"type": "Polygon", "coordinates": [[[123.915, 10.32], [123.93, 10.32], [123.93, 10.335], [123.915, 10.335], [123.915, 10.32]]]}, "properties": {"gap": 2.4, "sss": 4.4, "rwi": 1.201, "pop_density": 5180.0, "sss_t": 1, "rwi_t": 1, "cls": 4, "color": "#a5add3", "crowd_t": 3, "color_crowd": "#dfb0d6"}}, {"type": "Feature", "geometry": {"type": "Polygon", "coordinates": [[[123.93, 10.32], [123.94500000000001, 10.32], [123.94500000000001, 10.335], [123.93, 10.335], [123.93, 10.32]]]}, "properties": {"gap": 3.8, "sss": 8.0, "rwi": 1.21, "pop_density": 9641.0, "sss_t": 1, "rwi_t": 1, "cls": 4, "color": "#a5add3", "crowd_t": 4, "color_crowd": "#a5add3"}}, {"type": "Feature", "geometry": {"type": "Polygon", "coordinates": [[[123.94500000000001, 10.334999999999999], [123.96000000000001, 10.334999999999999], [123.96000000000001, 10.35], [123.94500000000001, 10.35], [123.94500000000001, 10.334999999999999]]]}, "properties": {"gap": 5.3, "sss": 10.7, "rwi": 0.995, "pop_density": 16432.0, "sss_t": 2, "rwi_t": 1, "cls": 7, "color": "#8c62aa", "crowd_t": 8, "color_crowd": "#3b4994"}}, {"type": "Feature", "geometry": {"type": "Polygon", "coordinates": [[[123.915, 10.334999999999999], [123.93, 10.334999999999999], [123.93, 10.35], [123.915, 10.35], [123.915, 10.334999999999999]]]}, "properties": {"gap": 1.8, "sss": 3.6, "rwi": 1.554, "pop_density": 9589.0, "sss_t": 1, "rwi_t": 2, "cls": 5, "color": "#5698b9", "crowd_t": 4, "color_crowd": "#a5add3"}}, {"type": "Feature", "geometry": {"type": "Polygon", "coordinates": [[[123.93, 10.334999999999999], [123.94500000000001, 10.334999999999999], [123.94500000000001, 10.35], [123.93, 10.35], [123.93, 10.334999999999999]]]}, "properties": {"gap": 5.6, "sss": 12.6, "rwi": 0.995, "pop_density": 12554.0, "sss_t": 2, "rwi_t": 1, "cls": 7, "color": "#8c62aa", "crowd_t": 7, "color_crowd": "#8c62aa"}}, {"type": "Feature", "geometry": {"type": "Polygon", "coordinates": [[[123.915, 10.35], [123.93, 10.35], [123.93, 10.365], [123.915, 10.365], [123.915, 10.35]]]}, "properties": {"gap": 5.9, "sss": 12.4, "rwi": 1.554, "pop_density": 8449.0, "sss_t": 2, "rwi_t": 2, "cls": 8, "color": "#3b4994", "crowd_t": 7, "color_crowd": "#8c62aa"}}, {"type": "Feature", "geometry": {"type": "Polygon", "coordinates": [[[123.94500000000001, 10.32], [123.96000000000001, 10.32], [123.96000000000001, 10.335], [123.94500000000001, 10.335], [123.94500000000001, 10.32]]]}, "properties": {"gap": 6.9, "sss": 16.2, "rwi": 1.21, "pop_density": 22636.0, "sss_t": 2, "rwi_t": 1, "cls": 7, "color": "#8c62aa", "crowd_t": 8, "color_crowd": "#3b4994"}}, {"type": "Feature", "geometry": {"type": "Polygon", "coordinates": [[[123.93, 10.305], [123.94500000000001, 10.305], [123.94500000000001, 10.32], [123.93, 10.32], [123.93, 10.305]]]}, "properties": {"gap": 0.0, "sss": 0.0, "rwi": 1.014, "pop_density": 5321.0, "sss_t": 0, "rwi_t": 1, "cls": 1, "color": "#ace4e4", "crowd_t": 0, "color_crowd": "#e8e8e8"}}, {"type": "Feature", "geometry": {"type": "Polygon", "coordinates": [[[123.87, 10.379999999999999], [123.885, 10.379999999999999], [123.885, 10.395], [123.87, 10.395], [123.87, 10.379999999999999]]]}, "properties": {"gap": 10.0, "sss": 12.5, "rwi": -0.058, "pop_density": 0.0, "sss_t": 2, "rwi_t": 0, "cls": 6, "color": "#be64ac", "crowd_t": 6, "color_crowd": "#be64ac"}}, {"type": "Feature", "geometry": {"type": "Polygon", "coordinates": [[[123.855, 10.379999999999999], [123.87, 10.379999999999999], [123.87, 10.395], [123.855, 10.395], [123.855, 10.379999999999999]]]}, "properties": {"gap": 2.9, "sss": 3.7, "rwi": -0.058, "pop_density": 0.0, "sss_t": 1, "rwi_t": 0, "cls": 3, "color": "#dfb0d6", "crowd_t": 3, "color_crowd": "#dfb0d6"}}, {"type": "Feature", "geometry": {"type": "Polygon", "coordinates": [[[123.855, 10.365], [123.87, 10.365], [123.87, 10.38], [123.855, 10.38], [123.855, 10.365]]]}, "properties": {"gap": 10.0, "sss": 12.5, "rwi": 0.989, "pop_density": 0.0, "sss_t": 2, "rwi_t": 0, "cls": 6, "color": "#be64ac", "crowd_t": 6, "color_crowd": "#be64ac"}}, {"type": "Feature", "geometry": {"type": "Polygon", "coordinates": [[[123.87, 10.365], [123.885, 10.365], [123.885, 10.38], [123.87, 10.38], [123.87, 10.365]]]}, "properties": {"gap": 8.1, "sss": 10.8, "rwi": 0.989, "pop_density": 1852.0, "sss_t": 2, "rwi_t": 0, "cls": 6, "color": "#be64ac", "crowd_t": 6, "color_crowd": "#be64ac"}}, {"type": "Feature", "geometry": {"type": "Polygon", "coordinates": [[[123.855, 10.395], [123.87, 10.395], [123.87, 10.41], [123.855, 10.41], [123.855, 10.395]]]}, "properties": {"gap": 0.0, "sss": 0.0, "rwi": -0.058, "pop_density": 0.0, "sss_t": 0, "rwi_t": 0, "cls": 0, "color": "#e8e8e8", "crowd_t": 0, "color_crowd": "#e8e8e8"}}, {"type": "Feature", "geometry": {"type": "Polygon", "coordinates": [[[123.84, 10.395], [123.855, 10.395], [123.855, 10.41], [123.84, 10.41], [123.84, 10.395]]]}, "properties": {"gap": 0.0, "sss": 0.0, "rwi": 0.729, "pop_density": 0.0, "sss_t": 0, "rwi_t": 0, "cls": 0, "color": "#e8e8e8", "crowd_t": 0, "color_crowd": "#e8e8e8"}}, {"type": "Feature", "geometry": {"type": "Polygon", "coordinates": [[[123.87, 10.35], [123.885, 10.35], [123.885, 10.365], [123.87, 10.365], [123.87, 10.35]]]}, "properties": {"gap": 0.0, "sss": 0.0, "rwi": 0.379, "pop_density": 2428.0, "sss_t": 0, "rwi_t": 0, "cls": 0, "color": "#e8e8e8", "crowd_t": 0, "color_crowd": "#e8e8e8"}}, {"type": "Feature", "geometry": {"type": "Polygon", "coordinates": [[[123.93, 10.365], [123.94500000000001, 10.365], [123.94500000000001, 10.38], [123.93, 10.38], [123.93, 10.365]]]}, "properties": {"gap": 1.2, "sss": 2.0, "rwi": 1.216, "pop_density": 10118.0, "sss_t": 1, "rwi_t": 2, "cls": 5, "color": "#5698b9", "crowd_t": 4, "color_crowd": "#a5add3"}}, {"type": "Feature", "geometry": {"type": "Polygon", "coordinates": [[[123.94500000000001, 10.35], [123.96000000000001, 10.35], [123.96000000000001, 10.365], [123.94500000000001, 10.365], [123.94500000000001, 10.35]]]}, "properties": {"gap": 9.6, "sss": 17.2, "rwi": 0.995, "pop_density": 7438.0, "sss_t": 2, "rwi_t": 1, "cls": 7, "color": "#8c62aa", "crowd_t": 7, "color_crowd": "#8c62aa"}}, {"type": "Feature", "geometry": {"type": "Polygon", "coordinates": [[[123.915, 10.365], [123.93, 10.365], [123.93, 10.38], [123.915, 10.38], [123.915, 10.365]]]}, "properties": {"gap": 0.2, "sss": 0.5, "rwi": 1.192, "pop_density": 7971.0, "sss_t": 1, "rwi_t": 1, "cls": 4, "color": "#a5add3", "crowd_t": 4, "color_crowd": "#a5add3"}}, {"type": "Feature", "geometry": {"type": "Polygon", "coordinates": [[[123.915, 10.395], [123.93, 10.395], [123.93, 10.41], [123.915, 10.41], [123.915, 10.395]]]}, "properties": {"gap": 0.0, "sss": 0.0, "rwi": 1.055, "pop_density": 1956.0, "sss_t": 0, "rwi_t": 1, "cls": 1, "color": "#ace4e4", "crowd_t": 0, "color_crowd": "#e8e8e8"}}, {"type": "Feature", "geometry": {"type": "Polygon", "coordinates": [[[123.9, 10.365], [123.915, 10.365], [123.915, 10.38], [123.9, 10.38], [123.9, 10.365]]]}, "properties": {"gap": 7.1, "sss": 15.2, "rwi": 1.192, "pop_density": 11034.0, "sss_t": 2, "rwi_t": 1, "cls": 7, "color": "#8c62aa", "crowd_t": 7, "color_crowd": "#8c62aa"}}, {"type": "Feature", "geometry": {"type": "Polygon", "coordinates": [[[123.93, 10.379999999999999], [123.94500000000001, 10.379999999999999], [123.94500000000001, 10.395], [123.93, 10.395], [123.93, 10.379999999999999]]]}, "properties": {"gap": 0.0, "sss": 0.0, "rwi": 0.869, "pop_density": 145.0, "sss_t": 0, "rwi_t": 0, "cls": 0, "color": "#e8e8e8", "crowd_t": 0, "color_crowd": "#e8e8e8"}}, {"type": "Feature", "geometry": {"type": "Polygon", "coordinates": [[[123.93, 10.35], [123.94500000000001, 10.35], [123.94500000000001, 10.365], [123.93, 10.365], [123.93, 10.35]]]}, "properties": {"gap": 0.0, "sss": 0.0, "rwi": 0.995, "pop_density": 9654.0, "sss_t": 0, "rwi_t": 1, "cls": 1, "color": "#ace4e4", "crowd_t": 1, "color_crowd": "#ace4e4"}}]}