{"type": "FeatureCollection", "features": [{"type": "Feature", "geometry": {"type": "Polygon", "coordinates": [[[125.3405, 6.7291], [125.3555, 6.7291], [125.3555, 6.7440999999999995], [125.3405, 6.7440999999999995], [125.3405, 6.7291]]]}, "properties": {"gap": 0.0, "sss": 0.0, "rwi": 1.404, "pop_density": 3335.0, "sss_t": 0, "rwi_t": 2, "cls": 2, "color": "#5ac8c8", "crowd_t": 1, "color_crowd": "#ace4e4"}}, {"type": "Feature", "geometry": {"type": "Polygon", "coordinates": [[[125.3555, 6.7291], [125.3705, 6.7291], [125.3705, 6.7440999999999995], [125.3555, 6.7440999999999995], [125.3555, 6.7291]]]}, "properties": {"gap": 2.0, "sss": 2.9, "rwi": 0.918, "pop_density": 2949.0, "sss_t": 0, "rwi_t": 1, "cls": 1, "color": "#ace4e4", "crowd_t": 1, "color_crowd": "#ace4e4"}}, {"type": "Feature", "geometry": {"type": "Polygon", "coordinates": [[[125.3555, 6.6991], [125.3705, 6.6991], [125.3705, 6.714099999999999], [125.3555, 6.714099999999999], [125.3555, 6.6991]]]}, "properties": {"gap": 0.0, "sss": 0.0, "rwi": 0.804, "pop_density": 928.0, "sss_t": 0, "rwi_t": 0, "cls": 0, "color": "#e8e8e8", "crowd_t": 0, "color_crowd": "#e8e8e8"}}, {"type": "Feature", "geometry": {"type": "Polygon", "coordinates": [[[125.3705, 6.714099999999999], [125.38550000000001, 6.714099999999999], [125.38550000000001, 6.729099999999999], [125.3705, 6.729099999999999], [125.3705, 6.714099999999999]]]}, "properties": {"gap": 10.0, "sss": 12.6, "rwi": 0.804, "pop_density": 322.0, "sss_t": 0, "rwi_t": 0, "cls": 0, "color": "#e8e8e8", "crowd_t": 0, "color_crowd": "#e8e8e8"}}, {"type": "Feature", "geometry": {"type": "Polygon", "coordinates": [[[125.3105, 6.7440999999999995], [125.3255, 6.7440999999999995], [125.3255, 6.759099999999999], [125.3105, 6.759099999999999], [125.3105, 6.7440999999999995]]]}, "properties": {"gap": 30.0, "sss": 37.5, "rwi": 0.144, "pop_density": 0.0, "sss_t": 1, "rwi_t": 0, "cls": 3, "color": "#dfb0d6", "crowd_t": 3, "color_crowd": "#dfb0d6"}}, {"type": "Feature", "geometry": {"type": "Polygon", "coordinates": [[[125.3255, 6.7440999999999995], [125.3405, 6.7440999999999995], [125.3405, 6.759099999999999], [125.3255, 6.759099999999999], [125.3255, 6.7440999999999995]]]}, "properties": {"gap": 30.0, "sss": 39.2, "rwi": 1.404, "pop_density": 1438.0, "sss_t": 1, "rwi_t": 2, "cls": 5, "color": "#5698b9", "crowd_t": 4, "color_crowd": "#a5add3"}}, {"type": "Feature", "geometry": {"type": "Polygon", "coordinates": [[[125.3705, 6.7440999999999995], [125.38550000000001, 6.7440999999999995], [125.38550000000001, 6.759099999999999], [125.3705, 6.759099999999999], [125.3705, 6.7440999999999995]]]}, "properties": {"gap": 16.0, "sss": 21.3, "rwi": 1.023, "pop_density": 1388.0, "sss_t": 1, "rwi_t": 1, "cls": 4, "color": "#a5add3", "crowd_t": 4, "color_crowd": "#a5add3"}}, {"type": "Feature", "geometry": {"type": "Polygon", "coordinates": [[[125.3705, 6.7291], [125.38550000000001, 6.7291], [125.38550000000001, 6.7440999999999995], [125.3705, 6.7440999999999995], [125.3705, 6.7291]]]}, "properties": {"gap": 0.0, "sss": 0.0, "rwi": 1.023, "pop_density": 6301.0, "sss_t": 0, "rwi_t": 1, "cls": 1, "color": "#ace4e4", "crowd_t": 2, "color_crowd": "#5ac8c8"}}, {"type": "Feature", "geometry": {"type": "Polygon", "coordinates": [[[125.3555, 6.759099999999999], [125.3705, 6.759099999999999], [125.3705, 6.774099999999999], [125.3555, 6.774099999999999], [125.3555, 6.759099999999999]]]}, "properties": {"gap": 30.0, "sss": 51.0, "rwi": 1.072, "pop_density": 13641.0, "sss_t": 1, "rwi_t": 2, "cls": 5, "color": "#5698b9", "crowd_t": 5, "color_crowd": "#5698b9"}}, {"type": "Feature", "geometry": {"type": "Polygon", "coordinates": [[[125.3405, 6.759099999999999], [125.3555, 6.759099999999999], [125.3555, 6.774099999999999], [125.3405, 6.774099999999999], [125.3405, 6.759099999999999]]]}, "properties": {"gap": 23.1, "sss": 43.0, "rwi": 1.197, "pop_density": 15310.0, "sss_t": 1, "rwi_t": 2, "cls": 5, "color": "#5698b9", "crowd_t": 5, "color_crowd": "#5698b9"}}, {"type": "Feature", "geometry": {"type": "Polygon", "coordinates": [[[125.3105, 6.759099999999999], [125.3255, 6.759099999999999], [125.3255, 6.774099999999999], [125.3105, 6.774099999999999], [125.3105, 6.759099999999999]]]}, "properties": {"gap": 30.0, "sss": 38.4, "rwi": 0.996, "pop_density": 781.0, "sss_t": 1, "rwi_t": 1, "cls": 4, "color": "#a5add3", "crowd_t": 3, "color_crowd": "#dfb0d6"}}, {"type": "Feature", "geometry": {"type": "Polygon", "coordinates": [[[125.3405, 6.7741], [125.3555, 6.7741], [125.3555, 6.7890999999999995], [125.3405, 6.7890999999999995], [125.3405, 6.7741]]]}, "properties": {"gap": 35.1, "sss": 36.0, "rwi": -0.327, "pop_density": 0.0, "sss_t": 2, "rwi_t": 0, "cls": 6, "color": "#be64ac", "crowd_t": 6, "color_crowd": "#be64ac"}}, {"type": "Feature", "geometry": {"type": "Polygon", "coordinates": [[[125.3705, 6.7741], [125.38550000000001, 6.7741], [125.38550000000001, 6.7890999999999995], [125.3705, 6.7890999999999995], [125.3705, 6.7741]]]}, "properties": {"gap": 30.0, "sss": 42.9, "rwi": 0.828, "pop_density": 4702.0, "sss_t": 1, "rwi_t": 0, "cls": 3, "color": "#dfb0d6", "crowd_t": 5, "color_crowd": "#5698b9"}}]}