{"type": "FeatureCollection", "features": [{"type": "Feature", "geometry": {"type": "Polygon", "coordinates": [[[125.0605, 6.9646], [125.0755, 6.9646], [125.0755, 6.9796], [125.0605, 6.9796], [125.0605, 6.9646]]]}, "properties": {"gap": 19.9, "sss": 24.9, "rwi": 0.111, "pop_density": 31.0, "sss_t": 2, "rwi_t": 0, "cls": 6, "color": "#be64ac", "crowd_t": 6, "color_crowd": "#be64ac"}}, {"type": "Feature", "geometry": {"type": "Polygon", "coordinates": [[[125.0455, 6.9796], [125.0605, 6.9796], [125.0605, 6.994599999999999], [125.0455, 6.994599999999999], [125.0455, 6.9796]]]}, "properties": {"gap": 0.0, "sss": 0.0, "rwi": 0.111, "pop_density": 0.0, "sss_t": 0, "rwi_t": 0, "cls": 0, "color": "#e8e8e8", "crowd_t": 0, "color_crowd": "#e8e8e8"}}, {"type": "Feature", "geometry": {"type": "Polygon", "coordinates": [[[125.0455, 6.9646], [125.0605, 6.9646], [125.0605, 6.9796], [125.0455, 6.9796], [125.0455, 6.9646]]]}, "properties": {"gap": 10.0, "sss": 15.4, "rwi": 0.111, "pop_density": 1150.0, "sss_t": 2, "rwi_t": 0, "cls": 6, "color": "#be64ac", "crowd_t": 6, "color_crowd": "#be64ac"}}, {"type": "Feature", "geometry": {"type": "Polygon", "coordinates": [[[125.0755, 6.9646], [125.0905, 6.9646], [125.0905, 6.9796], [125.0755, 6.9796], [125.0755, 6.9646]]]}, "properties": {"gap": 0.0, "sss": 0.0, "rwi": 0.544, "pop_density": 5550.0, "sss_t": 0, "rwi_t": 1, "cls": 1, "color": "#ace4e4", "crowd_t": 1, "color_crowd": "#ace4e4"}}, {"type": "Feature", "geometry": {"type": "Polygon", "coordinates": [[[125.0755, 6.9796], [125.0905, 6.9796], [125.0905, 6.994599999999999], [125.0755, 6.994599999999999], [125.0755, 6.9796]]]}, "properties": {"gap": 0.0, "sss": 0.0, "rwi": 0.544, "pop_density": 9998.0, "sss_t": 0, "rwi_t": 1, "cls": 1, "color": "#ace4e4", "crowd_t": 2, "color_crowd": "#5ac8c8"}}, {"type": "Feature", "geometry": {"type": "Polygon", "coordinates": [[[125.0605, 6.9946], [125.0755, 6.9946], [125.0755, 7.0096], [125.0605, 7.0096], [125.0605, 6.9946]]]}, "properties": {"gap": 0.0, "sss": 0.0, "rwi": 0.187, "pop_density": 2938.0, "sss_t": 0, "rwi_t": 0, "cls": 0, "color": "#e8e8e8", "crowd_t": 1, "color_crowd": "#ace4e4"}}, {"type": "Feature", "geometry": {"type": "Polygon", "coordinates": [[[125.0455, 7.0096], [125.0605, 7.0096], [125.0605, 7.0245999999999995], [125.0455, 7.0245999999999995], [125.0455, 7.0096]]]}, "properties": {"gap": 13.4, "sss": 18.3, "rwi": 0.602, "pop_density": 1797.0, "sss_t": 2, "rwi_t": 1, "cls": 7, "color": "#8c62aa", "crowd_t": 7, "color_crowd": "#8c62aa"}}, {"type": "Feature", "geometry": {"type": "Polygon", "coordinates": [[[125.0455, 6.9946], [125.0605, 6.9946], [125.0605, 7.0096], [125.0455, 7.0096], [125.0455, 6.9946]]]}, "properties": {"gap": 0.0, "sss": 0.0, "rwi": 0.187, "pop_density": 364.0, "sss_t": 0, "rwi_t": 0, "cls": 0, "color": "#e8e8e8", "crowd_t": 0, "color_crowd": "#e8e8e8"}}, {"type": "Feature", "geometry": {"type": "Polygon", "coordinates": [[[125.0605, 7.0096], [125.0755, 7.0096], [125.0755, 7.0245999999999995], [125.0605, 7.0245999999999995], [125.0605, 7.0096]]]}, "properties": {"gap": 0.0, "sss": 0.0, "rwi": 0.602, "pop_density": 2549.0, "sss_t": 0, "rwi_t": 1, "cls": 1, "color": "#ace4e4", "crowd_t": 1, "color_crowd": "#ace4e4"}}, {"type": "Feature", "geometry": {"type": "Polygon", "coordinates": [[[125.0755, 6.9946], [125.0905, 6.9946], [125.0905, 7.0096], [125.0755, 7.0096], [125.0755, 6.9946]]]}, "properties": {"gap": 2.0, "sss": 3.5, "rwi": 0.943, "pop_density": 11805.0, "sss_t": 2, "rwi_t": 2, "cls": 8, "color": "#3b4994", "crowd_t": 8, "color_crowd": "#3b4994"}}, {"type": "Feature", "geometry": {"type": "Polygon", "coordinates": [[[125.0755, 7.0096], [125.0905, 7.0096], [125.0905, 7.0245999999999995], [125.0755, 7.0245999999999995], [125.0755, 7.0096]]]}, "properties": {"gap": 2.0, "sss": 4.0, "rwi": 1.393, "pop_density": 16033.0, "sss_t": 1, "rwi_t": 2, "cls": 5, "color": "#5698b9", "crowd_t": 5, "color_crowd": "#5698b9"}}, {"type": "Feature", "geometry": {"type": "Polygon", "coordinates": [[[125.0905, 7.0096], [125.1055, 7.0096], [125.1055, 7.0245999999999995], [125.0905, 7.0245999999999995], [125.0905, 7.0096]]]}, "properties": {"gap": 0.0, "sss": 0.0, "rwi": 1.105, "pop_density": 11044.0, "sss_t": 0, "rwi_t": 2, "cls": 2, "color": "#5ac8c8", "crowd_t": 2, "color_crowd": "#5ac8c8"}}, {"type": "Feature", "geometry": {"type": "Polygon", "coordinates": [[[125.0905, 6.9946], [125.1055, 6.9946], [125.1055, 7.0096], [125.0905, 7.0096], [125.0905, 6.9946]]]}, "properties": {"gap": 2.7, "sss": 4.3, "rwi": 0.883, "pop_density": 3332.0, "sss_t": 2, "rwi_t": 2, "cls": 8, "color": "#3b4994", "crowd_t": 7, "color_crowd": "#8c62aa"}}, {"type": "Feature", "geometry": {"type": "Polygon", "coordinates": [[[125.1055, 7.0096], [125.1205, 7.0096], [125.1205, 7.0245999999999995], [125.1055, 7.0245999999999995], [125.1055, 7.0096]]]}, "properties": {"gap": 0.0, "sss": 0.0, "rwi": 0.928, "pop_density": 712.0, "sss_t": 0, "rwi_t": 2, "cls": 2, "color": "#5ac8c8", "crowd_t": 0, "color_crowd": "#e8e8e8"}}, {"type": "Feature", "geometry": {"type": "Polygon", "coordinates": [[[125.0605, 7.0245999999999995], [125.0755, 7.0245999999999995], [125.0755, 7.039599999999999], [125.0605, 7.039599999999999], [125.0605, 7.0245999999999995]]]}, "properties": {"gap": 0.0, "sss": 0.0, "rwi": 0.602, "pop_density": 6432.0, "sss_t": 0, "rwi_t": 1, "cls": 1, "color": "#ace4e4", "crowd_t": 2, "color_crowd": "#5ac8c8"}}]}