{"type": "FeatureCollection", "features": [{"type": "Feature", "geometry": {"type": "Polygon", "coordinates": [[[120.3038, 15.998], [120.3188, 15.998], [120.3188, 16.012999999999998], [120.3038, 16.012999999999998], [120.3038, 15.998]]]}, "properties": {"gap": 0.0, "sss": 0.0, "rwi": 0.318, "pop_density": 6483.0, "sss_t": 0, "rwi_t": 0, "cls": 0, "color": "#e8e8e8", "crowd_t": 0, "color_crowd": "#e8e8e8"}}, {"type": "Feature", "geometry": {"type": "Polygon", "coordinates": [[[120.2888, 15.998], [120.3038, 15.998], [120.3038, 16.012999999999998], [120.2888, 16.012999999999998], [120.2888, 15.998]]]}, "properties": {"gap": 12.8, "sss": 17.8, "rwi": 0.712, "pop_density": 1503.0, "sss_t": 2, "rwi_t": 1, "cls": 7, "color": "#8c62aa", "crowd_t": 6, "color_crowd": "#be64ac"}}, {"type": "Feature", "geometry": {"type": "Polygon", "coordinates": [[[120.3038, 16.012999999999998], [120.3188, 16.012999999999998], [120.3188, 16.028], [120.3038, 16.028], [120.3038, 16.012999999999998]]]}, "properties": {"gap": 3.8, "sss": 6.9, "rwi": 0.318, "pop_density": 7429.0, "sss_t": 0, "rwi_t": 0, "cls": 0, "color": "#e8e8e8", "crowd_t": 0, "color_crowd": "#e8e8e8"}}, {"type": "Feature", "geometry": {"type": "Polygon", "coordinates": [[[120.3188, 16.012999999999998], [120.3338, 16.012999999999998], [120.3338, 16.028], [120.3188, 16.028], [120.3188, 16.012999999999998]]]}, "properties": {"gap": 5.0, "sss": 8.9, "rwi": 1.154, "pop_density": 10275.0, "sss_t": 0, "rwi_t": 2, "cls": 2, "color": "#5ac8c8", "crowd_t": 1, "color_crowd": "#ace4e4"}}, {"type": "Feature", "geometry": {"type": "Polygon", "coordinates": [[[120.3488, 16.012999999999998], [120.3638, 16.012999999999998], [120.3638, 16.028], [120.3488, 16.028], [120.3488, 16.012999999999998]]]}, "properties": {"gap": 7.5, "sss": 13.1, "rwi": 0.893, "pop_density": 8477.0, "sss_t": 1, "rwi_t": 1, "cls": 4, "color": "#a5add3", "crowd_t": 4, "color_crowd": "#a5add3"}}, {"type": "Feature", "geometry": {"type": "Polygon", "coordinates": [[[120.3188, 16.028], [120.3338, 16.028], [120.3338, 16.043], [120.3188, 16.043], [120.3188, 16.028]]]}, "properties": {"gap": 6.8, "sss": 10.7, "rwi": 1.186, "pop_density": 9115.0, "sss_t": 1, "rwi_t": 2, "cls": 5, "color": "#5698b9", "crowd_t": 4, "color_crowd": "#a5add3"}}, {"type": "Feature", "geometry": {"type": "Polygon", "coordinates": [[[120.3338, 16.012999999999998], [120.3488, 16.012999999999998], [120.3488, 16.028], [120.3338, 16.028], [120.3338, 16.012999999999998]]]}, "properties": {"gap": 10.0, "sss": 15.7, "rwi": 1.154, "pop_density": 5850.0, "sss_t": 2, "rwi_t": 2, "cls": 8, "color": "#3b4994", "crowd_t": 6, "color_crowd": "#be64ac"}}, {"type": "Feature", "geometry": {"type": "Polygon", "coordinates": [[[120.3638, 16.012999999999998], [120.3788, 16.012999999999998], [120.3788, 16.028], [120.3638, 16.028], [120.3638, 16.012999999999998]]]}, "properties": {"gap": 5.8, "sss": 10.3, "rwi": 0.985, "pop_density": 10438.0, "sss_t": 0, "rwi_t": 1, "cls": 1, "color": "#ace4e4", "crowd_t": 2, "color_crowd": "#5ac8c8"}}, {"type": "Feature", "geometry": {"type": "Polygon", "coordinates": [[[120.3488, 15.998], [120.3638, 15.998], [120.3638, 16.012999999999998], [120.3488, 16.012999999999998], [120.3488, 15.998]]]}, "properties": {"gap": 9.6, "sss": 16.5, "rwi": 0.893, "pop_density": 4733.0, "sss_t": 1, "rwi_t": 1, "cls": 4, "color": "#a5add3", "crowd_t": 3, "color_crowd": "#dfb0d6"}}, {"type": "Feature", "geometry": {"type": "Polygon", "coordinates": [[[120.3338, 16.028], [120.3488, 16.028], [120.3488, 16.043], [120.3338, 16.043], [120.3338, 16.028]]]}, "properties": {"gap": 6.6, "sss": 12.0, "rwi": 1.186, "pop_density": 14351.0, "sss_t": 1, "rwi_t": 2, "cls": 5, "color": "#5698b9", "crowd_t": 5, "color_crowd": "#5698b9"}}, {"type": "Feature", "geometry": {"type": "Polygon", "coordinates": [[[120.3788, 16.012999999999998], [120.3938, 16.012999999999998], [120.3938, 16.028], [120.3788, 16.028], [120.3788, 16.012999999999998]]]}, "properties": {"gap": 10.0, "sss": 16.7, "rwi": 0.985, "pop_density": 10740.0, "sss_t": 2, "rwi_t": 1, "cls": 7, "color": "#8c62aa", "crowd_t": 8, "color_crowd": "#3b4994"}}, {"type": "Feature", "geometry": {"type": "Polygon", "coordinates": [[[120.3338, 16.043], [120.3488, 16.043], [120.3488, 16.058], [120.3338, 16.058], [120.3338, 16.043]]]}, "properties": {"gap": 4.6, "sss": 10.1, "rwi": 0.701, "pop_density": 24774.0, "sss_t": 0, "rwi_t": 0, "cls": 0, "color": "#e8e8e8", "crowd_t": 2, "color_crowd": "#5ac8c8"}}, {"type": "Feature", "geometry": {"type": "Polygon", "coordinates": [[[120.3188, 16.043], [120.3338, 16.043], [120.3338, 16.058], [120.3188, 16.058], [120.3188, 16.043]]]}, "properties": {"gap": 6.3, "sss": 11.1, "rwi": 0.701, "pop_density": 15388.0, "sss_t": 1, "rwi_t": 0, "cls": 3, "color": "#dfb0d6", "crowd_t": 5, "color_crowd": "#5698b9"}}, {"type": "Feature", "geometry": {"type": "Polygon", "coordinates": [[[120.3338, 16.058], [120.3488, 16.058], [120.3488, 16.073], [120.3338, 16.073], [120.3338, 16.058]]]}, "properties": {"gap": 10.0, "sss": 17.2, "rwi": 0.701, "pop_density": 12259.0, "sss_t": 2, "rwi_t": 0, "cls": 6, "color": "#be64ac", "crowd_t": 8, "color_crowd": "#3b4994"}}, {"type": "Feature", "geometry": {"type": "Polygon", "coordinates": [[[120.3488, 16.043], [120.3638, 16.043], [120.3638, 16.058], [120.3488, 16.058], [120.3488, 16.043]]]}, "properties": {"gap": 0.0, "sss": 0.0, "rwi": 0.945, "pop_density": 9696.0, "sss_t": 0, "rwi_t": 1, "cls": 1, "color": "#ace4e4", "crowd_t": 1, "color_crowd": "#ace4e4"}}, {"type": "Feature", "geometry": {"type": "Polygon", "coordinates": [[[120.3788, 16.043], [120.3938, 16.043], [120.3938, 16.058], [120.3788, 16.058], [120.3788, 16.043]]]}, "properties": {"gap": 0.0, "sss": 0.0, "rwi": 1.069, "pop_density": 4287.0, "sss_t": 0, "rwi_t": 2, "cls": 2, "color": "#5ac8c8", "crowd_t": 0, "color_crowd": "#e8e8e8"}}, {"type": "Feature", "geometry": {"type": "Polygon", "coordinates": [[[120.3638, 16.043], [120.3788, 16.043], [120.3788, 16.058], [120.3638, 16.058], [120.3638, 16.043]]]}, "properties": {"gap": 7.7, "sss": 11.9, "rwi": 1.069, "pop_density": 8684.0, "sss_t": 1, "rwi_t": 2, "cls": 5, "color": "#5698b9", "crowd_t": 4, "color_crowd": "#a5add3"}}, {"type": "Feature", "geometry": {"type": "Polygon", "coordinates": [[[120.3638, 16.088], [120.3788, 16.088], [120.3788, 16.103], [120.3638, 16.103], [120.3638, 16.088]]]}, "properties": {"gap": 10.0, "sss": 15.0, "rwi": 0.585, "pop_density": 6346.0, "sss_t": 2, "rwi_t": 0, "cls": 6, "color": "#be64ac", "crowd_t": 6, "color_crowd": "#be64ac"}}, {"type": "Feature", "geometry": {"type": "Polygon", "coordinates": [[[120.3488, 16.073], [120.3638, 16.073], [120.3638, 16.088], [120.3488, 16.088], [120.3488, 16.073]]]}, "properties": {"gap": 10.0, "sss": 17.4, "rwi": 0.687, "pop_density": 7677.0, "sss_t": 2, "rwi_t": 0, "cls": 6, "color": "#be64ac", "crowd_t": 7, "color_crowd": "#8c62aa"}}]}