{"type": "FeatureCollection", "features": [{"type": "Feature", "geometry": {"type": "Polygon", "coordinates": [[[124.2043, 8.1905], [124.2193, 8.1905], [124.2193, 8.2055], [124.2043, 8.2055], [124.2043, 8.1905]]]}, "properties": {"gap": 0.0, "sss": 0.0, "rwi": 1.174, "pop_density": 3765.0, "sss_t": 0, "rwi_t": 2, "cls": 2, "color": "#5ac8c8", "crowd_t": 1, "color_crowd": "#ace4e4"}}, {"type": "Feature", "geometry": {"type": "Polygon", "coordinates": [[[124.2043, 8.2055], [124.2193, 8.2055], [124.2193, 8.220500000000001], [124.2043, 8.220500000000001], [124.2043, 8.2055]]]}, "properties": {"gap": 0.0, "sss": 0.0, "rwi": 1.002, "pop_density": 7014.0, "sss_t": 0, "rwi_t": 1, "cls": 1, "color": "#ace4e4", "crowd_t": 1, "color_crowd": "#ace4e4"}}, {"type": "Feature", "geometry": {"type": "Polygon", "coordinates": [[[124.2193, 8.2055], [124.2343, 8.2055], [124.2343, 8.220500000000001], [124.2193, 8.220500000000001], [124.2193, 8.2055]]]}, "properties": {"gap": 0.0, "sss": 0.0, "rwi": 1.002, "pop_density": 11450.0, "sss_t": 0, "rwi_t": 1, "cls": 1, "color": "#ace4e4", "crowd_t": 2, "color_crowd": "#5ac8c8"}}, {"type": "Feature", "geometry": {"type": "Polygon", "coordinates": [[[124.2343, 8.2055], [124.2493, 8.2055], [124.2493, 8.220500000000001], [124.2343, 8.220500000000001], [124.2343, 8.2055]]]}, "properties": {"gap": 17.0, "sss": 26.0, "rwi": 1.247, "pop_density": 10837.0, "sss_t": 1, "rwi_t": 2, "cls": 5, "color": "#5698b9", "crowd_t": 5, "color_crowd": "#5698b9"}}, {"type": "Feature", "geometry": {"type": "Polygon", "coordinates": [[[124.2193, 8.1905], [124.2343, 8.1905], [124.2343, 8.2055], [124.2193, 8.2055], [124.2193, 8.1905]]]}, "properties": {"gap": 16.5, "sss": 23.9, "rwi": 1.174, "pop_density": 4627.0, "sss_t": 1, "rwi_t": 2, "cls": 5, "color": "#5698b9", "crowd_t": 4, "color_crowd": "#a5add3"}}, {"type": "Feature", "geometry": {"type": "Polygon", "coordinates": [[[124.2343, 8.2205], [124.2493, 8.2205], [124.2493, 8.2355], [124.2343, 8.2355], [124.2343, 8.2205]]]}, "properties": {"gap": 0.0, "sss": 0.0, "rwi": 1.247, "pop_density": 6156.0, "sss_t": 0, "rwi_t": 2, "cls": 2, "color": "#5ac8c8", "crowd_t": 1, "color_crowd": "#ace4e4"}}, {"type": "Feature", "geometry": {"type": "Polygon", "coordinates": [[[124.2493, 8.2205], [124.2643, 8.2205], [124.2643, 8.2355], [124.2493, 8.2355], [124.2493, 8.2205]]]}, "properties": {"gap": 12.0, "sss": 17.1, "rwi": 1.071, "pop_density": 5850.0, "sss_t": 1, "rwi_t": 1, "cls": 4, "color": "#a5add3", "crowd_t": 4, "color_crowd": "#a5add3"}}, {"type": "Feature", "geometry": {"type": "Polygon", "coordinates": [[[124.2493, 8.1905], [124.2643, 8.1905], [124.2643, 8.2055], [124.2493, 8.2055], [124.2493, 8.1905]]]}, "properties": {"gap": 0.0, "sss": 0.0, "rwi": 0.074, "pop_density": 14784.0, "sss_t": 0, "rwi_t": 0, "cls": 0, "color": "#e8e8e8", "crowd_t": 2, "color_crowd": "#5ac8c8"}}, {"type": "Feature", "geometry": {"type": "Polygon", "coordinates": [[[124.2493, 8.2055], [124.2643, 8.2055], [124.2643, 8.220500000000001], [124.2493, 8.220500000000001], [124.2493, 8.2055]]]}, "properties": {"gap": 30.0, "sss": 57.8, "rwi": 1.071, "pop_density": 13775.0, "sss_t": 2, "rwi_t": 1, "cls": 7, "color": "#8c62aa", "crowd_t": 8, "color_crowd": "#3b4994"}}, {"type": "Feature", "geometry": {"type": "Polygon", "coordinates": [[[124.2643, 8.2205], [124.2793, 8.2205], [124.2793, 8.2355], [124.2643, 8.2355], [124.2643, 8.2205]]]}, "properties": {"gap": 30.0, "sss": 41.5, "rwi": 1.071, "pop_density": 3470.0, "sss_t": 2, "rwi_t": 1, "cls": 7, "color": "#8c62aa", "crowd_t": 7, "color_crowd": "#8c62aa"}}, {"type": "Feature", "geometry": {"type": "Polygon", "coordinates": [[[124.2493, 8.2505], [124.2643, 8.2505], [124.2643, 8.265500000000001], [124.2493, 8.265500000000001], [124.2493, 8.2505]]]}, "properties": {"gap": 9.8, "sss": 17.1, "rwi": 1.026, "pop_density": 4820.0, "sss_t": 1, "rwi_t": 1, "cls": 4, "color": "#a5add3", "crowd_t": 4, "color_crowd": "#a5add3"}}, {"type": "Feature", "geometry": {"type": "Polygon", "coordinates": [[[124.2493, 8.2355], [124.2643, 8.2355], [124.2643, 8.2505], [124.2493, 8.2505], [124.2493, 8.2355]]]}, "properties": {"gap": 0.0, "sss": 0.0, "rwi": 1.444, "pop_density": 9365.0, "sss_t": 0, "rwi_t": 2, "cls": 2, "color": "#5ac8c8", "crowd_t": 1, "color_crowd": "#ace4e4"}}, {"type": "Feature", "geometry": {"type": "Polygon", "coordinates": [[[124.2343, 8.2355], [124.2493, 8.2355], [124.2493, 8.2505], [124.2343, 8.2505], [124.2343, 8.2355]]]}, "properties": {"gap": 0.0, "sss": 0.0, "rwi": 1.582, "pop_density": 23618.0, "sss_t": 0, "rwi_t": 2, "cls": 2, "color": "#5ac8c8", "crowd_t": 2, "color_crowd": "#5ac8c8"}}, {"type": "Feature", "geometry": {"type": "Polygon", "coordinates": [[[124.2643, 8.2505], [124.2793, 8.2505], [124.2793, 8.265500000000001], [124.2643, 8.265500000000001], [124.2643, 8.2505]]]}, "properties": {"gap": 16.2, "sss": 22.5, "rwi": 1.026, "pop_density": 1641.0, "sss_t": 1, "rwi_t": 1, "cls": 4, "color": "#a5add3", "crowd_t": 3, "color_crowd": "#dfb0d6"}}, {"type": "Feature", "geometry": {"type": "Polygon", "coordinates": [[[124.2493, 8.2655], [124.2643, 8.2655], [124.2643, 8.2805], [124.2493, 8.2805], [124.2493, 8.2655]]]}, "properties": {"gap": 12.4, "sss": 16.1, "rwi": 1.026, "pop_density": 2795.0, "sss_t": 1, "rwi_t": 1, "cls": 4, "color": "#a5add3", "crowd_t": 3, "color_crowd": "#dfb0d6"}}, {"type": "Feature", "geometry": {"type": "Polygon", "coordinates": [[[124.2793, 8.2655], [124.2943, 8.2655], [124.2943, 8.2805], [124.2793, 8.2805], [124.2793, 8.2655]]]}, "properties": {"gap": 30.0, "sss": 37.6, "rwi": 0.474, "pop_density": 73.0, "sss_t": 2, "rwi_t": 0, "cls": 6, "color": "#be64ac", "crowd_t": 6, "color_crowd": "#be64ac"}}, {"type": "Feature", "geometry": {"type": "Polygon", "coordinates": [[[124.2793, 8.2205], [124.2943, 8.2205], [124.2943, 8.2355], [124.2793, 8.2355], [124.2793, 8.2205]]]}, "properties": {"gap": 30.0, "sss": 54.4, "rwi": 0.352, "pop_density": 14562.0, "sss_t": 2, "rwi_t": 0, "cls": 6, "color": "#be64ac", "crowd_t": 8, "color_crowd": "#3b4994"}}, {"type": "Feature", "geometry": {"type": "Polygon", "coordinates": [[[124.2793, 8.2505], [124.2943, 8.2505], [124.2943, 8.265500000000001], [124.2793, 8.265500000000001], [124.2793, 8.2505]]]}, "properties": {"gap": 17.3, "sss": 22.0, "rwi": 0.474, "pop_density": 406.0, "sss_t": 2, "rwi_t": 0, "cls": 6, "color": "#be64ac", "crowd_t": 6, "color_crowd": "#be64ac"}}, {"type": "Feature", "geometry": {"type": "Polygon", "coordinates": [[[124.2793, 8.2355], [124.2943, 8.2355], [124.2943, 8.2505], [124.2793, 8.2505], [124.2793, 8.2355]]]}, "properties": {"gap": 30.0, "sss": 37.5, "rwi": -0.572, "pop_density": 0.0, "sss_t": 2, "rwi_t": 0, "cls": 6, "color": "#be64ac", "crowd_t": 6, "color_crowd": "#be64ac"}}, {"type": "Feature", "geometry": {"type": "Polygon", "coordinates": [[[124.2943, 8.2505], [124.30930000000001, 8.2505], [124.30930000000001, 8.265500000000001], [124.2943, 8.265500000000001], [124.2943, 8.2505]]]}, "properties": {"gap": 30.0, "sss": 38.5, "rwi": 0.474, "pop_density": 825.0, "sss_t": 2, "rwi_t": 0, "cls": 6, "color": "#be64ac", "crowd_t": 6, "color_crowd": "#be64ac"}}, {"type": "Feature", "geometry": {"type": "Polygon", "coordinates": [[[124.30930000000001, 8.2355], [124.32430000000001, 8.2355], [124.32430000000001, 8.2505], [124.30930000000001, 8.2505], [124.30930000000001, 8.2355]]]}, "properties": {"gap": 30.0, "sss": 38.1, "rwi": -0.572, "pop_density": 511.0, "sss_t": 2, "rwi_t": 0, "cls": 6, "color": "#be64ac", "crowd_t": 6, "color_crowd": "#be64ac"}}, {"type": "Feature", "geometry": {"type": "Polygon", "coordinates": [[[124.2943, 8.2355], [124.30930000000001, 8.2355], [124.30930000000001, 8.2505], [124.2943, 8.2505], [124.2943, 8.2355]]]}, "properties": {"gap": 0.0, "sss": 0.0, "rwi": -0.572, "pop_density": 0.0, "sss_t": 0, "rwi_t": 0, "cls": 0, "color": "#e8e8e8", "crowd_t": 0, "color_crowd": "#e8e8e8"}}, {"type": "Feature", "geometry": {"type": "Polygon", "coordinates": [[[124.2493, 8.2805], [124.2643, 8.2805], [124.2643, 8.2955], [124.2493, 8.2955], [124.2493, 8.2805]]]}, "properties": {"gap": 0.0, "sss": 0.0, "rwi": 0.938, "pop_density": 9687.0, "sss_t": 0, "rwi_t": 0, "cls": 0, "color": "#e8e8e8", "crowd_t": 2, "color_crowd": "#5ac8c8"}}, {"type": "Feature", "geometry": {"type": "Polygon", "coordinates": [[[124.2643, 8.2655], [124.2793, 8.2655], [124.2793, 8.2805], [124.2643, 8.2805], [124.2643, 8.2655]]]}, "properties": {"gap": 0.0, "sss": 0.0, "rwi": 1.026, "pop_density": 9551.0, "sss_t": 0, "rwi_t": 1, "cls": 1, "color": "#ace4e4", "crowd_t": 2, "color_crowd": "#5ac8c8"}}, {"type": "Feature", "geometry": {"type": "Polygon", "coordinates": [[[124.2493, 8.3105], [124.2643, 8.3105], [124.2643, 8.3255], [124.2493, 8.3255], [124.2493, 8.3105]]]}, "properties": {"gap": 0.0, "sss": 0.0, "rwi": 0.938, "pop_density": 2658.0, "sss_t": 0, "rwi_t": 0, "cls": 0, "color": "#e8e8e8", "crowd_t": 0, "color_crowd": "#e8e8e8"}}]}