{"type": "FeatureCollection", "features": [{"type": "Feature", "geometry": {"type": "Polygon", "coordinates": [[[120.8871, 14.2721], [120.9021, 14.2721], [120.9021, 14.2871], [120.8871, 14.2871], [120.8871, 14.2721]]]}, "properties": {"gap": 3.5, "sss": 4.5, "rwi": 1.205, "pop_density": 1832.0, "sss_t": 2, "rwi_t": 2, "cls": 8, "color": "#3b4994", "crowd_t": 6, "color_crowd": "#be64ac"}}, {"type": "Feature", "geometry": {"type": "Polygon", "coordinates": [[[120.8871, 14.2871], [120.9021, 14.2871], [120.9021, 14.302100000000001], [120.8871, 14.302100000000001], [120.8871, 14.2871]]]}, "properties": {"gap": 0.0, "sss": 0.0, "rwi": 1.091, "pop_density": 1656.0, "sss_t": 0, "rwi_t": 1, "cls": 1, "color": "#ace4e4", "crowd_t": 0, "color_crowd": "#e8e8e8"}}, {"type": "Feature", "geometry": {"type": "Polygon", "coordinates": [[[120.9021, 14.2871], [120.9171, 14.2871], [120.9171, 14.302100000000001], [120.9021, 14.302100000000001], [120.9021, 14.2871]]]}, "properties": {"gap": 0.2, "sss": 0.4, "rwi": 1.091, "pop_density": 4378.0, "sss_t": 2, "rwi_t": 1, "cls": 7, "color": "#8c62aa", "crowd_t": 7, "color_crowd": "#8c62aa"}}, {"type": "Feature", "geometry": {"type": "Polygon", "coordinates": [[[120.9021, 14.2721], [120.9171, 14.2721], [120.9171, 14.2871], [120.9021, 14.2871], [120.9021, 14.2721]]]}, "properties": {"gap": 0.0, "sss": 0.0, "rwi": 1.205, "pop_density": 533.0, "sss_t": 0, "rwi_t": 2, "cls": 2, "color": "#5ac8c8", "crowd_t": 0, "color_crowd": "#e8e8e8"}}, {"type": "Feature", "geometry": {"type": "Polygon", "coordinates": [[[120.9171, 14.2871], [120.9321, 14.2871], [120.9321, 14.302100000000001], [120.9171, 14.302100000000001], [120.9171, 14.2871]]]}, "properties": {"gap": 0.3, "sss": 0.5, "rwi": 1.184, "pop_density": 6761.0, "sss_t": 2, "rwi_t": 2, "cls": 8, "color": "#3b4994", "crowd_t": 7, "color_crowd": "#8c62aa"}}, {"type": "Feature", "geometry": {"type": "Polygon", "coordinates": [[[120.9021, 14.3021], [120.9171, 14.3021], [120.9171, 14.3171], [120.9021, 14.3171], [120.9021, 14.3021]]]}, "properties": {"gap": 3.6, "sss": 8.9, "rwi": 1.137, "pop_density": 12808.0, "sss_t": 2, "rwi_t": 1, "cls": 7, "color": "#8c62aa", "crowd_t": 8, "color_crowd": "#3b4994"}}, {"type": "Feature", "geometry": {"type": "Polygon", "coordinates": [[[120.8871, 14.3021], [120.9021, 14.3021], [120.9021, 14.3171], [120.8871, 14.3171], [120.8871, 14.3021]]]}, "properties": {"gap": 0.0, "sss": 0.0, "rwi": 1.137, "pop_density": 1093.0, "sss_t": 0, "rwi_t": 1, "cls": 1, "color": "#ace4e4", "crowd_t": 0, "color_crowd": "#e8e8e8"}}, {"type": "Feature", "geometry": {"type": "Polygon", "coordinates": [[[120.9321, 14.2721], [120.9471, 14.2721], [120.9471, 14.2871], [120.9321, 14.2871], [120.9321, 14.2721]]]}, "properties": {"gap": 5.0, "sss": 6.9, "rwi": 1.072, "pop_density": 4756.0, "sss_t": 2, "rwi_t": 0, "cls": 6, "color": "#be64ac", "crowd_t": 7, "color_crowd": "#8c62aa"}}, {"type": "Feature", "geometry": {"type": "Polygon", "coordinates": [[[120.9471, 14.2871], [120.9621, 14.2871], [120.9621, 14.302100000000001], [120.9471, 14.302100000000001], [120.9471, 14.2871]]]}, "properties": {"gap": 0.0, "sss": 0.0, "rwi": 1.541, "pop_density": 3966.0, "sss_t": 0, "rwi_t": 2, "cls": 2, "color": "#5ac8c8", "crowd_t": 1, "color_crowd": "#ace4e4"}}, {"type": "Feature", "geometry": {"type": "Polygon", "coordinates": [[[120.9321, 14.2871], [120.9471, 14.2871], [120.9471, 14.302100000000001], [120.9321, 14.302100000000001], [120.9321, 14.2871]]]}, "properties": {"gap": 0.5, "sss": 0.7, "rwi": 1.541, "pop_density": 4042.0, "sss_t": 2, "rwi_t": 2, "cls": 8, "color": "#3b4994", "crowd_t": 7, "color_crowd": "#8c62aa"}}, {"type": "Feature", "geometry": {"type": "Polygon", "coordinates": [[[120.9471, 14.3021], [120.9621, 14.3021], [120.9621, 14.3171], [120.9471, 14.3171], [120.9471, 14.3021]]]}, "properties": {"gap": 0.0, "sss": 0.0, "rwi": 0.955, "pop_density": 4498.0, "sss_t": 0, "rwi_t": 0, "cls": 0, "color": "#e8e8e8", "crowd_t": 1, "color_crowd": "#ace4e4"}}, {"type": "Feature", "geometry": {"type": "Polygon", "coordinates": [[[120.9321, 14.3021], [120.9471, 14.3021], [120.9471, 14.3171], [120.9321, 14.3171], [120.9321, 14.3021]]]}, "properties": {"gap": 0.5, "sss": 0.8, "rwi": 0.955, "pop_density": 3004.0, "sss_t": 2, "rwi_t": 0, "cls": 6, "color": "#be64ac", "crowd_t": 7, "color_crowd": "#8c62aa"}}, {"type": "Feature", "geometry": {"type": "Polygon", "coordinates": [[[120.9471, 14.2721], [120.9621, 14.2721], [120.9621, 14.2871], [120.9471, 14.2871], [120.9471, 14.2721]]]}, "properties": {"gap": 0.0, "sss": 0.0, "rwi": 1.072, "pop_density": 5464.0, "sss_t": 0, "rwi_t": 0, "cls": 0, "color": "#e8e8e8", "crowd_t": 1, "color_crowd": "#ace4e4"}}, {"type": "Feature", "geometry": {"type": "Polygon", "coordinates": [[[120.9171, 14.3021], [120.9321, 14.3021], [120.9321, 14.3171], [120.9171, 14.3171], [120.9171, 14.3021]]]}, "properties": {"gap": 0.0, "sss": 0.1, "rwi": 0.958, "pop_density": 2657.0, "sss_t": 2, "rwi_t": 0, "cls": 6, "color": "#be64ac", "crowd_t": 6, "color_crowd": "#be64ac"}}, {"type": "Feature", "geometry": {"type": "Polygon", "coordinates": [[[120.9171, 14.2721], [120.9321, 14.2721], [120.9321, 14.2871], [120.9171, 14.2871], [120.9171, 14.2721]]]}, "properties": {"gap": 0.0, "sss": 0.0, "rwi": 0.866, "pop_density": 1121.0, "sss_t": 0, "rwi_t": 0, "cls": 0, "color": "#e8e8e8", "crowd_t": 0, "color_crowd": "#e8e8e8"}}, {"type": "Feature", "geometry": {"type": "Polygon", "coordinates": [[[120.9621, 14.2871], [120.97710000000001, 14.2871], [120.97710000000001, 14.302100000000001], [120.9621, 14.302100000000001], [120.9621, 14.2871]]]}, "properties": {"gap": 0.0, "sss": 0.0, "rwi": 0.983, "pop_density": 9347.0, "sss_t": 0, "rwi_t": 0, "cls": 0, "color": "#e8e8e8", "crowd_t": 2, "color_crowd": "#5ac8c8"}}, {"type": "Feature", "geometry": {"type": "Polygon", "coordinates": [[[120.9621, 14.3021], [120.97710000000001, 14.3021], [120.97710000000001, 14.3171], [120.9621, 14.3171], [120.9621, 14.3021]]]}, "properties": {"gap": 0.0, "sss": 0.0, "rwi": 1.366, "pop_density": 16539.0, "sss_t": 0, "rwi_t": 2, "cls": 2, "color": "#5ac8c8", "crowd_t": 2, "color_crowd": "#5ac8c8"}}, {"type": "Feature", "geometry": {"type": "Polygon", "coordinates": [[[120.9621, 14.2721], [120.97710000000001, 14.2721], [120.97710000000001, 14.2871], [120.9621, 14.2871], [120.9621, 14.2721]]]}, "properties": {"gap": 0.0, "sss": 0.0, "rwi": 1.091, "pop_density": 2999.0, "sss_t": 0, "rwi_t": 1, "cls": 1, "color": "#ace4e4", "crowd_t": 0, "color_crowd": "#e8e8e8"}}, {"type": "Feature", "geometry": {"type": "Polygon", "coordinates": [[[120.97710000000001, 14.2721], [120.99210000000001, 14.2721], [120.99210000000001, 14.2871], [120.97710000000001, 14.2871], [120.97710000000001, 14.2721]]]}, "properties": {"gap": 0.0, "sss": 0.0, "rwi": 1.091, "pop_density": 2749.0, "sss_t": 0, "rwi_t": 1, "cls": 1, "color": "#ace4e4", "crowd_t": 0, "color_crowd": "#e8e8e8"}}, {"type": "Feature", "geometry": {"type": "Polygon", "coordinates": [[[120.97710000000001, 14.2871], [120.99210000000001, 14.2871], [120.99210000000001, 14.302100000000001], [120.97710000000001, 14.302100000000001], [120.97710000000001, 14.2871]]]}, "properties": {"gap": 0.0, "sss": 0.0, "rwi": 0.983, "pop_density": 2478.0, "sss_t": 0, "rwi_t": 0, "cls": 0, "color": "#e8e8e8", "crowd_t": 0, "color_crowd": "#e8e8e8"}}, {"type": "Feature", "geometry": {"type": "Polygon", "coordinates": [[[120.97710000000001, 14.3021], [120.99210000000001, 14.3021], [120.99210000000001, 14.3171], [120.97710000000001, 14.3171], [120.97710000000001, 14.3021]]]}, "properties": {"gap": 0.0, "sss": 0.0, "rwi": 1.366, "pop_density": 20969.0, "sss_t": 0, "rwi_t": 2, "cls": 2, "color": "#5ac8c8", "crowd_t": 2, "color_crowd": "#5ac8c8"}}, {"type": "Feature", "geometry": {"type": "Polygon", "coordinates": [[[120.8871, 14.3171], [120.9021, 14.3171], [120.9021, 14.3321], [120.8871, 14.3321], [120.8871, 14.3171]]]}, "properties": {"gap": 0.0, "sss": 0.0, "rwi": 1.137, "pop_density": 2894.0, "sss_t": 0, "rwi_t": 1, "cls": 1, "color": "#ace4e4", "crowd_t": 0, "color_crowd": "#e8e8e8"}}, {"type": "Feature", "geometry": {"type": "Polygon", "coordinates": [[[120.9021, 14.3321], [120.9171, 14.3321], [120.9171, 14.347100000000001], [120.9021, 14.347100000000001], [120.9021, 14.3321]]]}, "properties": {"gap": 0.0, "sss": 0.0, "rwi": 0.736, "pop_density": 2763.0, "sss_t": 0, "rwi_t": 0, "cls": 0, "color": "#e8e8e8", "crowd_t": 0, "color_crowd": "#e8e8e8"}}, {"type": "Feature", "geometry": {"type": "Polygon", "coordinates": [[[120.9021, 14.3471], [120.9171, 14.3471], [120.9171, 14.3621], [120.9021, 14.3621], [120.9021, 14.3471]]]}, "properties": {"gap": 0.0, "sss": 0.0, "rwi": 1.146, "pop_density": 5872.0, "sss_t": 0, "rwi_t": 1, "cls": 1, "color": "#ace4e4", "crowd_t": 1, "color_crowd": "#ace4e4"}}, {"type": "Feature", "geometry": {"type": "Polygon", "coordinates": [[[120.9021, 14.3171], [120.9171, 14.3171], [120.9171, 14.3321], [120.9021, 14.3321], [120.9021, 14.3171]]]}, "properties": {"gap": 0.0, "sss": 0.0, "rwi": 1.137, "pop_density": 1890.0, "sss_t": 0, "rwi_t": 1, "cls": 1, "color": "#ace4e4", "crowd_t": 0, "color_crowd": "#e8e8e8"}}, {"type": "Feature", "geometry": {"type": "Polygon", "coordinates": [[[120.8871, 14.3321], [120.9021, 14.3321], [120.9021, 14.347100000000001], [120.8871, 14.347100000000001], [120.8871, 14.3321]]]}, "properties": {"gap": 0.0, "sss": 0.0, "rwi": 0.736, "pop_density": 791.0, "sss_t": 0, "rwi_t": 0, "cls": 0, "color": "#e8e8e8", "crowd_t": 0, "color_crowd": "#e8e8e8"}}, {"type": "Feature", "geometry": {"type": "Polygon", "coordinates": [[[120.9321, 14.3171], [120.9471, 14.3171], [120.9471, 14.3321], [120.9321, 14.3321], [120.9321, 14.3171]]]}, "properties": {"gap": 0.0, "sss": 0.0, "rwi": 0.955, "pop_density": 7468.0, "sss_t": 0, "rwi_t": 0, "cls": 0, "color": "#e8e8e8", "crowd_t": 1, "color_crowd": "#ace4e4"}}, {"type": "Feature", "geometry": {"type": "Polygon", "coordinates": [[[120.9471, 14.3171], [120.9621, 14.3171], [120.9621, 14.3321], [120.9471, 14.3321], [120.9471, 14.3171]]]}, "properties": {"gap": 0.0, "sss": 0.0, "rwi": 0.955, "pop_density": 21090.0, "sss_t": 0, "rwi_t": 0, "cls": 0, "color": "#e8e8e8", "crowd_t": 2, "color_crowd": "#5ac8c8"}}, {"type": "Feature", "geometry": {"type": "Polygon", "coordinates": [[[120.9471, 14.3321], [120.9621, 14.3321], [120.9621, 14.347100000000001], [120.9471, 14.347100000000001], [120.9471, 14.3321]]]}, "properties": {"gap": 0.0, "sss": 0.0, "rwi": 1.488, "pop_density": 9163.0, "sss_t": 0, "rwi_t": 2, "cls": 2, "color": "#5ac8c8", "crowd_t": 2, "color_crowd": "#5ac8c8"}}, {"type": "Feature", "geometry": {"type": "Polygon", "coordinates": [[[120.9321, 14.3321], [120.9471, 14.3321], [120.9471, 14.347100000000001], [120.9321, 14.347100000000001], [120.9321, 14.3321]]]}, "properties": {"gap": 0.0, "sss": 0.0, "rwi": 1.488, "pop_density": 7785.0, "sss_t": 0, "rwi_t": 2, "cls": 2, "color": "#5ac8c8", "crowd_t": 2, "color_crowd": "#5ac8c8"}}, {"type": "Feature", "geometry": {"type": "Polygon", "coordinates": [[[120.9171, 14.3321], [120.9321, 14.3321], [120.9321, 14.347100000000001], [120.9171, 14.347100000000001], [120.9171, 14.3321]]]}, "properties": {"gap": 0.0, "sss": 0.0, "rwi": 1.098, "pop_density": 3274.0, "sss_t": 0, "rwi_t": 1, "cls": 1, "color": "#ace4e4", "crowd_t": 1, "color_crowd": "#ace4e4"}}, {"type": "Feature", "geometry": {"type": "Polygon", "coordinates": [[[120.9171, 14.3171], [120.9321, 14.3171], [120.9321, 14.3321], [120.9171, 14.3321], [120.9171, 14.3171]]]}, "properties": {"gap": 0.0, "sss": 0.0, "rwi": 0.958, "pop_density": 5373.0, "sss_t": 0, "rwi_t": 0, "cls": 0, "color": "#e8e8e8", "crowd_t": 1, "color_crowd": "#ace4e4"}}, {"type": "Feature", "geometry": {"type": "Polygon", "coordinates": [[[120.9621, 14.3171], [120.97710000000001, 14.3171], [120.97710000000001, 14.3321], [120.9621, 14.3321], [120.9621, 14.3171]]]}, "properties": {"gap": 0.0, "sss": 0.0, "rwi": 1.366, "pop_density": 36940.0, "sss_t": 0, "rwi_t": 2, "cls": 2, "color": "#5ac8c8", "crowd_t": 2, "color_crowd": "#5ac8c8"}}, {"type": "Feature", "geometry": {"type": "Polygon", "coordinates": [[[120.9621, 14.3321], [120.97710000000001, 14.3321], [120.97710000000001, 14.347100000000001], [120.9621, 14.347100000000001], [120.9621, 14.3321]]]}, "properties": {"gap": 0.0, "sss": 0.0, "rwi": 1.2, "pop_density": 2279.0, "sss_t": 0, "rwi_t": 2, "cls": 2, "color": "#5ac8c8", "crowd_t": 0, "color_crowd": "#e8e8e8"}}, {"type": "Feature", "geometry": {"type": "Polygon", "coordinates": [[[120.97710000000001, 14.3171], [120.99210000000001, 14.3171], [120.99210000000001, 14.3321], [120.97710000000001, 14.3321], [120.97710000000001, 14.3171]]]}, "properties": {"gap": 0.0, "sss": 0.0, "rwi": 1.366, "pop_density": 18861.0, "sss_t": 0, "rwi_t": 2, "cls": 2, "color": "#5ac8c8", "crowd_t": 2, "color_crowd": "#5ac8c8"}}, {"type": "Feature", "geometry": {"type": "Polygon", "coordinates": [[[120.97710000000001, 14.3321], [120.99210000000001, 14.3321], [120.99210000000001, 14.347100000000001], [120.97710000000001, 14.347100000000001], [120.97710000000001, 14.3321]]]}, "properties": {"gap": 0.0, "sss": 0.0, "rwi": 1.2, "pop_density": 6665.0, "sss_t": 0, "rwi_t": 2, "cls": 2, "color": "#5ac8c8", "crowd_t": 1, "color_crowd": "#ace4e4"}}, {"type": "Feature", "geometry": {"type": "Polygon", "coordinates": [[[120.8871, 14.3621], [120.9021, 14.3621], [120.9021, 14.3771], [120.8871, 14.3771], [120.8871, 14.3621]]]}, "properties": {"gap": 0.0, "sss": 0.0, "rwi": 1.146, "pop_density": 7656.0, "sss_t": 0, "rwi_t": 1, "cls": 1, "color": "#ace4e4", "crowd_t": 1, "color_crowd": "#ace4e4"}}, {"type": "Feature", "geometry": {"type": "Polygon", "coordinates": [[[120.9021, 14.3621], [120.9171, 14.3621], [120.9171, 14.3771], [120.9021, 14.3771], [120.9021, 14.3621]]]}, "properties": {"gap": 0.0, "sss": 0.0, "rwi": 1.146, "pop_density": 863.0, "sss_t": 0, "rwi_t": 1, "cls": 1, "color": "#ace4e4", "crowd_t": 0, "color_crowd": "#e8e8e8"}}, {"type": "Feature", "geometry": {"type": "Polygon", "coordinates": [[[120.8871, 14.3471], [120.9021, 14.3471], [120.9021, 14.3621], [120.8871, 14.3621], [120.8871, 14.3471]]]}, "properties": {"gap": 0.0, "sss": 0.0, "rwi": 1.146, "pop_density": 3814.0, "sss_t": 0, "rwi_t": 1, "cls": 1, "color": "#ace4e4", "crowd_t": 1, "color_crowd": "#ace4e4"}}, {"type": "Feature", "geometry": {"type": "Polygon", "coordinates": [[[120.9321, 14.3771], [120.9471, 14.3771], [120.9471, 14.392100000000001], [120.9321, 14.392100000000001], [120.9321, 14.3771]]]}, "properties": {"gap": 0.0, "sss": 0.0, "rwi": 0.655, "pop_density": 1838.0, "sss_t": 0, "rwi_t": 0, "cls": 0, "color": "#e8e8e8", "crowd_t": 0, "color_crowd": "#e8e8e8"}}, {"type": "Feature", "geometry": {"type": "Polygon", "coordinates": [[[120.9321, 14.3471], [120.9471, 14.3471], [120.9471, 14.3621], [120.9321, 14.3621], [120.9321, 14.3471]]]}, "properties": {"gap": 0.0, "sss": 0.0, "rwi": 1.246, "pop_density": 12616.0, "sss_t": 0, "rwi_t": 2, "cls": 2, "color": "#5ac8c8", "crowd_t": 2, "color_crowd": "#5ac8c8"}}, {"type": "Feature", "geometry": {"type": "Polygon", "coordinates": [[[120.9171, 14.3471], [120.9321, 14.3471], [120.9321, 14.3621], [120.9171, 14.3621], [120.9171, 14.3471]]]}, "properties": {"gap": 0.0, "sss": 0.0, "rwi": 1.081, "pop_density": 6493.0, "sss_t": 0, "rwi_t": 0, "cls": 0, "color": "#e8e8e8", "crowd_t": 1, "color_crowd": "#ace4e4"}}, {"type": "Feature", "geometry": {"type": "Polygon", "coordinates": [[[120.9321, 14.3621], [120.9471, 14.3621], [120.9471, 14.3771], [120.9321, 14.3771], [120.9321, 14.3621]]]}, "properties": {"gap": 0.0, "sss": 0.0, "rwi": 1.246, "pop_density": 11725.0, "sss_t": 0, "rwi_t": 2, "cls": 2, "color": "#5ac8c8", "crowd_t": 2, "color_crowd": "#5ac8c8"}}, {"type": "Feature", "geometry": {"type": "Polygon", "coordinates": [[[120.9171, 14.3621], [120.9321, 14.3621], [120.9321, 14.3771], [120.9171, 14.3771], [120.9171, 14.3621]]]}, "properties": {"gap": 0.0, "sss": 0.0, "rwi": 1.081, "pop_density": 9132.0, "sss_t": 0, "rwi_t": 0, "cls": 0, "color": "#e8e8e8", "crowd_t": 2, "color_crowd": "#5ac8c8"}}, {"type": "Feature", "geometry": {"type": "Polygon", "coordinates": [[[120.9171, 14.3771], [120.9321, 14.3771], [120.9321, 14.392100000000001], [120.9171, 14.392100000000001], [120.9171, 14.3771]]]}, "properties": {"gap": 0.0, "sss": 0.0, "rwi": 0.937, "pop_density": 13481.0, "sss_t": 0, "rwi_t": 0, "cls": 0, "color": "#e8e8e8", "crowd_t": 2, "color_crowd": "#5ac8c8"}}, {"type": "Feature", "geometry": {"type": "Polygon", "coordinates": [[[120.9621, 14.3621], [120.97710000000001, 14.3621], [120.97710000000001, 14.3771], [120.9621, 14.3771], [120.9621, 14.3621]]]}, "properties": {"gap": 0.0, "sss": 0.0, "rwi": 1.094, "pop_density": 6751.0, "sss_t": 0, "rwi_t": 1, "cls": 1, "color": "#ace4e4", "crowd_t": 1, "color_crowd": "#ace4e4"}}, {"type": "Feature", "geometry": {"type": "Polygon", "coordinates": [[[120.9621, 14.3471], [120.97710000000001, 14.3471], [120.97710000000001, 14.3621], [120.9621, 14.3621], [120.9621, 14.3471]]]}, "properties": {"gap": 0.0, "sss": 0.0, "rwi": 1.094, "pop_density": 10824.0, "sss_t": 0, "rwi_t": 1, "cls": 1, "color": "#ace4e4", "crowd_t": 2, "color_crowd": "#5ac8c8"}}, {"type": "Feature", "geometry": {"type": "Polygon", "coordinates": [[[120.97710000000001, 14.3471], [120.99210000000001, 14.3471], [120.99210000000001, 14.3621], [120.97710000000001, 14.3621], [120.97710000000001, 14.3471]]]}, "properties": {"gap": 0.0, "sss": 0.0, "rwi": 1.094, "pop_density": 8826.0, "sss_t": 0, "rwi_t": 1, "cls": 1, "color": "#ace4e4", "crowd_t": 2, "color_crowd": "#5ac8c8"}}, {"type": "Feature", "geometry": {"type": "Polygon", "coordinates": [[[120.97710000000001, 14.3621], [120.99210000000001, 14.3621], [120.99210000000001, 14.3771], [120.97710000000001, 14.3771], [120.97710000000001, 14.3621]]]}, "properties": {"gap": 0.0, "sss": 0.0, "rwi": 1.094, "pop_density": 25002.0, "sss_t": 0, "rwi_t": 1, "cls": 1, "color": "#ace4e4", "crowd_t": 2, "color_crowd": "#5ac8c8"}}, {"type": "Feature", "geometry": {"type": "Polygon", "coordinates": [[[120.9621, 14.3771], [120.97710000000001, 14.3771], [120.97710000000001, 14.392100000000001], [120.9621, 14.392100000000001], [120.9621, 14.3771]]]}, "properties": {"gap": 0.0, "sss": 0.0, "rwi": 1.283, "pop_density": 1063.0, "sss_t": 0, "rwi_t": 2, "cls": 2, "color": "#5ac8c8", "crowd_t": 0, "color_crowd": "#e8e8e8"}}, {"type": "Feature", "geometry": {"type": "Polygon", "coordinates": [[[120.9471, 14.3771], [120.9621, 14.3771], [120.9621, 14.392100000000001], [120.9471, 14.392100000000001], [120.9471, 14.3771]]]}, "properties": {"gap": 4.6, "sss": 5.9, "rwi": 0.655, "pop_density": 1242.0, "sss_t": 2, "rwi_t": 0, "cls": 6, "color": "#be64ac", "crowd_t": 6, "color_crowd": "#be64ac"}}, {"type": "Feature", "geometry": {"type": "Polygon", "coordinates": [[[120.97710000000001, 14.3771], [120.99210000000001, 14.3771], [120.99210000000001, 14.392100000000001], [120.97710000000001, 14.392100000000001], [120.97710000000001, 14.3771]]]}, "properties": {"gap": 0.0, "sss": 0.0, "rwi": 1.283, "pop_density": 71691.0, "sss_t": 0, "rwi_t": 2, "cls": 2, "color": "#5ac8c8", "crowd_t": 2, "color_crowd": "#5ac8c8"}}]}