{"type": "FeatureCollection", "features": [{"type": "Feature", "geometry": {"type": "Polygon", "coordinates": [[[121.775, 17.5219], [121.79, 17.5219], [121.79, 17.5369], [121.775, 17.5369], [121.775, 17.5219]]]}, "properties": {"gap": 0.0, "sss": 0.0, "rwi": 0.045, "pop_density": 2165.0, "sss_t": 0, "rwi_t": 0, "cls": 0, "color": "#e8e8e8", "crowd_t": 0, "color_crowd": "#e8e8e8"}}, {"type": "Feature", "geometry": {"type": "Polygon", "coordinates": [[[121.7, 17.5819], [121.715, 17.5819], [121.715, 17.5969], [121.7, 17.5969], [121.7, 17.5819]]]}, "properties": {"gap": 0.0, "sss": 0.0, "rwi": 0.326, "pop_density": 5810.0, "sss_t": 0, "rwi_t": 0, "cls": 0, "color": "#e8e8e8", "crowd_t": 1, "color_crowd": "#ace4e4"}}, {"type": "Feature", "geometry": {"type": "Polygon", "coordinates": [[[121.685, 17.5969], [121.7, 17.5969], [121.7, 17.611900000000002], [121.685, 17.611900000000002], [121.685, 17.5969]]]}, "properties": {"gap": 0.0, "sss": 0.0, "rwi": 0.81, "pop_density": 4365.0, "sss_t": 0, "rwi_t": 0, "cls": 0, "color": "#e8e8e8", "crowd_t": 1, "color_crowd": "#ace4e4"}}, {"type": "Feature", "geometry": {"type": "Polygon", "coordinates": [[[121.685, 17.611900000000002], [121.7, 17.611900000000002], [121.7, 17.626900000000003], [121.685, 17.626900000000003], [121.685, 17.611900000000002]]]}, "properties": {"gap": 0.0, "sss": 0.0, "rwi": 0.81, "pop_density": 4119.0, "sss_t": 0, "rwi_t": 0, "cls": 0, "color": "#e8e8e8", "crowd_t": 0, "color_crowd": "#e8e8e8"}}, {"type": "Feature", "geometry": {"type": "Polygon", "coordinates": [[[121.7, 17.611900000000002], [121.715, 17.611900000000002], [121.715, 17.626900000000003], [121.7, 17.626900000000003], [121.7, 17.611900000000002]]]}, "properties": {"gap": 0.0, "sss": 0.0, "rwi": 1.136, "pop_density": 12064.0, "sss_t": 0, "rwi_t": 2, "cls": 2, "color": "#5ac8c8", "crowd_t": 2, "color_crowd": "#5ac8c8"}}, {"type": "Feature", "geometry": {"type": "Polygon", "coordinates": [[[121.7, 17.5969], [121.715, 17.5969], [121.715, 17.611900000000002], [121.7, 17.611900000000002], [121.7, 17.5969]]]}, "properties": {"gap": 0.0, "sss": 0.0, "rwi": 1.136, "pop_density": 4812.0, "sss_t": 0, "rwi_t": 2, "cls": 2, "color": "#5ac8c8", "crowd_t": 1, "color_crowd": "#ace4e4"}}, {"type": "Feature", "geometry": {"type": "Polygon", "coordinates": [[[121.715, 17.5969], [121.73, 17.5969], [121.73, 17.611900000000002], [121.715, 17.611900000000002], [121.715, 17.5969]]]}, "properties": {"gap": 0.0, "sss": 0.0, "rwi": 1.136, "pop_density": 7759.0, "sss_t": 0, "rwi_t": 2, "cls": 2, "color": "#5ac8c8", "crowd_t": 2, "color_crowd": "#5ac8c8"}}, {"type": "Feature", "geometry": {"type": "Polygon", "coordinates": [[[121.715, 17.611900000000002], [121.73, 17.611900000000002], [121.73, 17.626900000000003], [121.715, 17.626900000000003], [121.715, 17.611900000000002]]]}, "properties": {"gap": 0.3, "sss": 0.5, "rwi": 1.136, "pop_density": 11359.0, "sss_t": 2, "rwi_t": 2, "cls": 8, "color": "#3b4994", "crowd_t": 8, "color_crowd": "#3b4994"}}, {"type": "Feature", "geometry": {"type": "Polygon", "coordinates": [[[121.745, 17.5969], [121.76, 17.5969], [121.76, 17.611900000000002], [121.745, 17.611900000000002], [121.745, 17.5969]]]}, "properties": {"gap": 0.0, "sss": 0.0, "rwi": 0.607, "pop_density": 2042.0, "sss_t": 0, "rwi_t": 0, "cls": 0, "color": "#e8e8e8", "crowd_t": 0, "color_crowd": "#e8e8e8"}}, {"type": "Feature", "geometry": {"type": "Polygon", "coordinates": [[[121.73, 17.611900000000002], [121.745, 17.611900000000002], [121.745, 17.626900000000003], [121.73, 17.626900000000003], [121.73, 17.611900000000002]]]}, "properties": {"gap": 0.5, "sss": 0.9, "rwi": 0.804, "pop_density": 6249.0, "sss_t": 2, "rwi_t": 0, "cls": 6, "color": "#be64ac", "crowd_t": 7, "color_crowd": "#8c62aa"}}, {"type": "Feature", "geometry": {"type": "Polygon", "coordinates": [[[121.7, 17.6269], [121.715, 17.6269], [121.715, 17.6419], [121.7, 17.6419], [121.7, 17.6269]]]}, "properties": {"gap": 0.0, "sss": 0.0, "rwi": 1.135, "pop_density": 14134.0, "sss_t": 0, "rwi_t": 1, "cls": 1, "color": "#ace4e4", "crowd_t": 2, "color_crowd": "#5ac8c8"}}, {"type": "Feature", "geometry": {"type": "Polygon", "coordinates": [[[121.73, 17.5969], [121.745, 17.5969], [121.745, 17.611900000000002], [121.73, 17.611900000000002], [121.73, 17.5969]]]}, "properties": {"gap": 0.0, "sss": 0.0, "rwi": 0.804, "pop_density": 7092.0, "sss_t": 0, "rwi_t": 0, "cls": 0, "color": "#e8e8e8", "crowd_t": 2, "color_crowd": "#5ac8c8"}}, {"type": "Feature", "geometry": {"type": "Polygon", "coordinates": [[[121.745, 17.6269], [121.76, 17.6269], [121.76, 17.6419], [121.745, 17.6419], [121.745, 17.6269]]]}, "properties": {"gap": 0.0, "sss": 0.0, "rwi": 1.17, "pop_density": 7000.0, "sss_t": 0, "rwi_t": 2, "cls": 2, "color": "#5ac8c8", "crowd_t": 2, "color_crowd": "#5ac8c8"}}, {"type": "Feature", "geometry": {"type": "Polygon", "coordinates": [[[121.715, 17.6269], [121.73, 17.6269], [121.73, 17.6419], [121.715, 17.6419], [121.715, 17.6269]]]}, "properties": {"gap": 0.0, "sss": 0.0, "rwi": 1.135, "pop_density": 9970.0, "sss_t": 0, "rwi_t": 1, "cls": 1, "color": "#ace4e4", "crowd_t": 2, "color_crowd": "#5ac8c8"}}, {"type": "Feature", "geometry": {"type": "Polygon", "coordinates": [[[121.73, 17.6269], [121.745, 17.6269], [121.745, 17.6419], [121.73, 17.6419], [121.73, 17.6269]]]}, "properties": {"gap": 0.0, "sss": 0.0, "rwi": 1.287, "pop_density": 5080.0, "sss_t": 0, "rwi_t": 2, "cls": 2, "color": "#5ac8c8", "crowd_t": 1, "color_crowd": "#ace4e4"}}, {"type": "Feature", "geometry": {"type": "Polygon", "coordinates": [[[121.76, 17.611900000000002], [121.775, 17.611900000000002], [121.775, 17.626900000000003], [121.76, 17.626900000000003], [121.76, 17.611900000000002]]]}, "properties": {"gap": 0.0, "sss": 0.0, "rwi": 0.607, "pop_density": 2814.0, "sss_t": 0, "rwi_t": 0, "cls": 0, "color": "#e8e8e8", "crowd_t": 0, "color_crowd": "#e8e8e8"}}, {"type": "Feature", "geometry": {"type": "Polygon", "coordinates": [[[121.76, 17.6269], [121.775, 17.6269], [121.775, 17.6419], [121.76, 17.6419], [121.76, 17.6269]]]}, "properties": {"gap": 0.0, "sss": 0.0, "rwi": 1.17, "pop_density": 5595.0, "sss_t": 0, "rwi_t": 2, "cls": 2, "color": "#5ac8c8", "crowd_t": 1, "color_crowd": "#ace4e4"}}, {"type": "Feature", "geometry": {"type": "Polygon", "coordinates": [[[121.745, 17.611900000000002], [121.76, 17.611900000000002], [121.76, 17.626900000000003], [121.745, 17.626900000000003], [121.745, 17.611900000000002]]]}, "properties": {"gap": 0.0, "sss": 0.0, "rwi": 0.607, "pop_density": 2719.0, "sss_t": 0, "rwi_t": 0, "cls": 0, "color": "#e8e8e8", "crowd_t": 0, "color_crowd": "#e8e8e8"}}, {"type": "Feature", "geometry": {"type": "Polygon", "coordinates": [[[121.745, 17.6419], [121.76, 17.6419], [121.76, 17.6569], [121.745, 17.6569], [121.745, 17.6419]]]}, "properties": {"gap": 0.0, "sss": 0.0, "rwi": 0.86, "pop_density": 4178.0, "sss_t": 0, "rwi_t": 1, "cls": 1, "color": "#ace4e4", "crowd_t": 0, "color_crowd": "#e8e8e8"}}, {"type": "Feature", "geometry": {"type": "Polygon", "coordinates": [[[121.73, 17.6419], [121.745, 17.6419], [121.745, 17.6569], [121.73, 17.6569], [121.73, 17.6419]]]}, "properties": {"gap": 0.0, "sss": 0.0, "rwi": 1.2, "pop_density": 4175.0, "sss_t": 0, "rwi_t": 2, "cls": 2, "color": "#5ac8c8", "crowd_t": 0, "color_crowd": "#e8e8e8"}}, {"type": "Feature", "geometry": {"type": "Polygon", "coordinates": [[[121.715, 17.6419], [121.73, 17.6419], [121.73, 17.6569], [121.715, 17.6569], [121.715, 17.6419]]]}, "properties": {"gap": 0.0, "sss": 0.0, "rwi": 0.872, "pop_density": 5415.0, "sss_t": 0, "rwi_t": 1, "cls": 1, "color": "#ace4e4", "crowd_t": 1, "color_crowd": "#ace4e4"}}, {"type": "Feature", "geometry": {"type": "Polygon", "coordinates": [[[121.745, 17.6569], [121.76, 17.6569], [121.76, 17.6719], [121.745, 17.6719], [121.745, 17.6569]]]}, "properties": {"gap": 0.0, "sss": 0.0, "rwi": 0.86, "pop_density": 1352.0, "sss_t": 0, "rwi_t": 1, "cls": 1, "color": "#ace4e4", "crowd_t": 0, "color_crowd": "#e8e8e8"}}, {"type": "Feature", "geometry": {"type": "Polygon", "coordinates": [[[121.76, 17.6419], [121.775, 17.6419], [121.775, 17.6569], [121.76, 17.6569], [121.76, 17.6419]]]}, "properties": {"gap": 0.0, "sss": 0.0, "rwi": 0.86, "pop_density": 10814.0, "sss_t": 0, "rwi_t": 1, "cls": 1, "color": "#ace4e4", "crowd_t": 2, "color_crowd": "#5ac8c8"}}]}