{"type": "FeatureCollection", "features": [{"type": "Feature", "geometry": {"type": "Polygon", "coordinates": [[[124.21170000000001, 7.1838], [124.22670000000001, 7.1838], [124.22670000000001, 7.198799999999999], [124.21170000000001, 7.198799999999999], [124.21170000000001, 7.1838]]]}, "properties": {"gap": 0.0, "sss": 0.0, "rwi": 0.788, "pop_density": 4024.0, "sss_t": 0, "rwi_t": 2, "cls": 2, "color": "#5ac8c8", "crowd_t": 1, "color_crowd": "#ace4e4"}}, {"type": "Feature", "geometry": {"type": "Polygon", "coordinates": [[[124.22670000000001, 7.1838], [124.24170000000001, 7.1838], [124.24170000000001, 7.198799999999999], [124.22670000000001, 7.198799999999999], [124.22670000000001, 7.1838]]]}, "properties": {"gap": 0.0, "sss": 0.0, "rwi": 1.341, "pop_density": 12563.0, "sss_t": 0, "rwi_t": 2, "cls": 2, "color": "#5ac8c8", "crowd_t": 2, "color_crowd": "#5ac8c8"}}, {"type": "Feature", "geometry": {"type": "Polygon", "coordinates": [[[124.21170000000001, 7.1688], [124.22670000000001, 7.1688], [124.22670000000001, 7.1838], [124.21170000000001, 7.1838], [124.21170000000001, 7.1688]]]}, "properties": {"gap": 0.8, "sss": 1.4, "rwi": 1.498, "pop_density": 1301.0, "sss_t": 1, "rwi_t": 2, "cls": 5, "color": "#5698b9", "crowd_t": 4, "color_crowd": "#a5add3"}}, {"type": "Feature", "geometry": {"type": "Polygon", "coordinates": [[[124.1967, 7.1838], [124.21170000000001, 7.1838], [124.21170000000001, 7.198799999999999], [124.1967, 7.198799999999999], [124.1967, 7.1838]]]}, "properties": {"gap": 0.0, "sss": 0.0, "rwi": 0.198, "pop_density": 1271.0, "sss_t": 0, "rwi_t": 1, "cls": 1, "color": "#ace4e4", "crowd_t": 1, "color_crowd": "#ace4e4"}}, {"type": "Feature", "geometry": {"type": "Polygon", "coordinates": [[[124.24170000000001, 7.1688], [124.25670000000001, 7.1688], [124.25670000000001, 7.1838], [124.24170000000001, 7.1838], [124.24170000000001, 7.1688]]]}, "properties": {"gap": 0.0, "sss": 0.0, "rwi": -0.12, "pop_density": 165.0, "sss_t": 0, "rwi_t": 0, "cls": 0, "color": "#e8e8e8", "crowd_t": 0, "color_crowd": "#e8e8e8"}}, {"type": "Feature", "geometry": {"type": "Polygon", "coordinates": [[[124.25670000000001, 7.1988], [124.27170000000001, 7.1988], [124.27170000000001, 7.2138], [124.25670000000001, 7.2138], [124.25670000000001, 7.1988]]]}, "properties": {"gap": 0.0, "sss": 0.0, "rwi": 0.52, "pop_density": 536.0, "sss_t": 0, "rwi_t": 1, "cls": 1, "color": "#ace4e4", "crowd_t": 1, "color_crowd": "#ace4e4"}}, {"type": "Feature", "geometry": {"type": "Polygon", "coordinates": [[[124.22670000000001, 7.1988], [124.24170000000001, 7.1988], [124.24170000000001, 7.2138], [124.22670000000001, 7.2138], [124.22670000000001, 7.1988]]]}, "properties": {"gap": 0.0, "sss": 0.0, "rwi": 1.341, "pop_density": 17441.0, "sss_t": 0, "rwi_t": 2, "cls": 2, "color": "#5ac8c8", "crowd_t": 2, "color_crowd": "#5ac8c8"}}, {"type": "Feature", "geometry": {"type": "Polygon", "coordinates": [[[124.22670000000001, 7.1688], [124.24170000000001, 7.1688], [124.24170000000001, 7.1838], [124.22670000000001, 7.1838], [124.22670000000001, 7.1688]]]}, "properties": {"gap": 0.0, "sss": 0.0, "rwi": -0.12, "pop_density": 0.0, "sss_t": 0, "rwi_t": 0, "cls": 0, "color": "#e8e8e8", "crowd_t": 0, "color_crowd": "#e8e8e8"}}, {"type": "Feature", "geometry": {"type": "Polygon", "coordinates": [[[124.24170000000001, 7.1838], [124.25670000000001, 7.1838], [124.25670000000001, 7.198799999999999], [124.24170000000001, 7.198799999999999], [124.24170000000001, 7.1838]]]}, "properties": {"gap": 0.0, "sss": 0.0, "rwi": 1.341, "pop_density": 2955.0, "sss_t": 0, "rwi_t": 2, "cls": 2, "color": "#5ac8c8", "crowd_t": 1, "color_crowd": "#ace4e4"}}, {"type": "Feature", "geometry": {"type": "Polygon", "coordinates": [[[124.25670000000001, 7.1688], [124.27170000000001, 7.1688], [124.27170000000001, 7.1838], [124.25670000000001, 7.1838], [124.25670000000001, 7.1688]]]}, "properties": {"gap": 30.0, "sss": 37.5, "rwi": -0.579, "pop_density": 0.0, "sss_t": 2, "rwi_t": 0, "cls": 6, "color": "#be64ac", "crowd_t": 6, "color_crowd": "#be64ac"}}, {"type": "Feature", "geometry": {"type": "Polygon", "coordinates": [[[124.22670000000001, 7.2288], [124.24170000000001, 7.2288], [124.24170000000001, 7.243799999999999], [124.22670000000001, 7.243799999999999], [124.22670000000001, 7.2288]]]}, "properties": {"gap": 3.1, "sss": 5.4, "rwi": 0.061, "pop_density": 5094.0, "sss_t": 2, "rwi_t": 0, "cls": 6, "color": "#be64ac", "crowd_t": 8, "color_crowd": "#3b4994"}}, {"type": "Feature", "geometry": {"type": "Polygon", "coordinates": [[[124.25670000000001, 7.2288], [124.27170000000001, 7.2288], [124.27170000000001, 7.243799999999999], [124.25670000000001, 7.243799999999999], [124.25670000000001, 7.2288]]]}, "properties": {"gap": 21.0, "sss": 26.8, "rwi": 0.561, "pop_density": 699.0, "sss_t": 2, "rwi_t": 1, "cls": 7, "color": "#8c62aa", "crowd_t": 7, "color_crowd": "#8c62aa"}}, {"type": "Feature", "geometry": {"type": "Polygon", "coordinates": [[[124.24170000000001, 7.2138], [124.25670000000001, 7.2138], [124.25670000000001, 7.2288], [124.24170000000001, 7.2288], [124.24170000000001, 7.2138]]]}, "properties": {"gap": 3.6, "sss": 8.1, "rwi": 1.398, "pop_density": 35094.0, "sss_t": 2, "rwi_t": 2, "cls": 8, "color": "#3b4994", "crowd_t": 8, "color_crowd": "#3b4994"}}, {"type": "Feature", "geometry": {"type": "Polygon", "coordinates": [[[124.24170000000001, 7.1988], [124.25670000000001, 7.1988], [124.25670000000001, 7.2138], [124.24170000000001, 7.2138], [124.24170000000001, 7.1988]]]}, "properties": {"gap": 2.3, "sss": 3.7, "rwi": 1.341, "pop_density": 21132.0, "sss_t": 1, "rwi_t": 2, "cls": 5, "color": "#5698b9", "crowd_t": 5, "color_crowd": "#5698b9"}}, {"type": "Feature", "geometry": {"type": "Polygon", "coordinates": [[[124.22670000000001, 7.2138], [124.24170000000001, 7.2138], [124.24170000000001, 7.2288], [124.22670000000001, 7.2288], [124.22670000000001, 7.2138]]]}, "properties": {"gap": 0.0, "sss": 0.0, "rwi": 1.398, "pop_density": 6131.0, "sss_t": 0, "rwi_t": 2, "cls": 2, "color": "#5ac8c8", "crowd_t": 2, "color_crowd": "#5ac8c8"}}, {"type": "Feature", "geometry": {"type": "Polygon", "coordinates": [[[124.25670000000001, 7.2138], [124.27170000000001, 7.2138], [124.27170000000001, 7.2288], [124.25670000000001, 7.2288], [124.25670000000001, 7.2138]]]}, "properties": {"gap": 1.2, "sss": 2.3, "rwi": 0.563, "pop_density": 4932.0, "sss_t": 1, "rwi_t": 1, "cls": 4, "color": "#a5add3", "crowd_t": 5, "color_crowd": "#5698b9"}}, {"type": "Feature", "geometry": {"type": "Polygon", "coordinates": [[[124.31670000000001, 7.2138], [124.33170000000001, 7.2138], [124.33170000000001, 7.2288], [124.31670000000001, 7.2288], [124.31670000000001, 7.2138]]]}, "properties": {"gap": 30.0, "sss": 37.5, "rwi": -0.024, "pop_density": 0.0, "sss_t": 2, "rwi_t": 0, "cls": 6, "color": "#be64ac", "crowd_t": 6, "color_crowd": "#be64ac"}}, {"type": "Feature", "geometry": {"type": "Polygon", "coordinates": [[[124.27170000000001, 7.2288], [124.28670000000001, 7.2288], [124.28670000000001, 7.243799999999999], [124.27170000000001, 7.243799999999999], [124.27170000000001, 7.2288]]]}, "properties": {"gap": 0.0, "sss": 0.0, "rwi": -0.683, "pop_density": 1.0, "sss_t": 0, "rwi_t": 0, "cls": 0, "color": "#e8e8e8", "crowd_t": 0, "color_crowd": "#e8e8e8"}}, {"type": "Feature", "geometry": {"type": "Polygon", "coordinates": [[[124.1967, 7.2438], [124.21170000000001, 7.2438], [124.21170000000001, 7.2588], [124.1967, 7.2588], [124.1967, 7.2438]]]}, "properties": {"gap": 11.6, "sss": 14.8, "rwi": 0.141, "pop_density": 5758.0, "sss_t": 2, "rwi_t": 1, "cls": 7, "color": "#8c62aa", "crowd_t": 8, "color_crowd": "#3b4994"}}, {"type": "Feature", "geometry": {"type": "Polygon", "coordinates": [[[124.25670000000001, 7.2588], [124.27170000000001, 7.2588], [124.27170000000001, 7.2738], [124.25670000000001, 7.2738], [124.25670000000001, 7.2588]]]}, "properties": {"gap": 0.0, "sss": 0.0, "rwi": -0.094, "pop_density": 0.0, "sss_t": 0, "rwi_t": 0, "cls": 0, "color": "#e8e8e8", "crowd_t": 0, "color_crowd": "#e8e8e8"}}, {"type": "Feature", "geometry": {"type": "Polygon", "coordinates": [[[124.28670000000001, 7.2588], [124.30170000000001, 7.2588], [124.30170000000001, 7.2738], [124.28670000000001, 7.2738], [124.28670000000001, 7.2588]]]}, "properties": {"gap": 10.0, "sss": 12.8, "rwi": 0.265, "pop_density": 761.0, "sss_t": 2, "rwi_t": 1, "cls": 7, "color": "#8c62aa", "crowd_t": 7, "color_crowd": "#8c62aa"}}, {"type": "Feature", "geometry": {"type": "Polygon", "coordinates": [[[124.25670000000001, 7.2438], [124.27170000000001, 7.2438], [124.27170000000001, 7.2588], [124.25670000000001, 7.2588], [124.25670000000001, 7.2438]]]}, "properties": {"gap": 1.8, "sss": 2.3, "rwi": 0.561, "pop_density": 0.0, "sss_t": 1, "rwi_t": 1, "cls": 4, "color": "#a5add3", "crowd_t": 3, "color_crowd": "#dfb0d6"}}, {"type": "Feature", "geometry": {"type": "Polygon", "coordinates": [[[124.27170000000001, 7.2438], [124.28670000000001, 7.2438], [124.28670000000001, 7.2588], [124.27170000000001, 7.2588], [124.27170000000001, 7.2438]]]}, "properties": {"gap": 17.4, "sss": 21.8, "rwi": -0.683, "pop_density": 84.0, "sss_t": 2, "rwi_t": 0, "cls": 6, "color": "#be64ac", "crowd_t": 6, "color_crowd": "#be64ac"}}]}