{"type": "FeatureCollection", "features": [{"type": "Feature", "geometry": {"type": "Polygon", "coordinates": [[[122.9164, 10.6213], [122.9314, 10.6213], [122.9314, 10.6363], [122.9164, 10.6363], [122.9164, 10.6213]]]}, "properties": {"gap": 10.0, "sss": 17.1, "rwi": 0.958, "pop_density": 6851.0, "sss_t": 2, "rwi_t": 1, "cls": 7, "color": "#8c62aa", "crowd_t": 7, "color_crowd": "#8c62aa"}}, {"type": "Feature", "geometry": {"type": "Polygon", "coordinates": [[[122.9314, 10.651299999999999], [122.9464, 10.651299999999999], [122.9464, 10.6663], [122.9314, 10.6663], [122.9314, 10.651299999999999]]]}, "properties": {"gap": 1.1, "sss": 2.0, "rwi": 1.129, "pop_density": 7379.0, "sss_t": 0, "rwi_t": 1, "cls": 1, "color": "#ace4e4", "crowd_t": 1, "color_crowd": "#ace4e4"}}, {"type": "Feature", "geometry": {"type": "Polygon", "coordinates": [[[122.9464, 10.651299999999999], [122.9614, 10.651299999999999], [122.9614, 10.6663], [122.9464, 10.6663], [122.9464, 10.651299999999999]]]}, "properties": {"gap": 0.0, "sss": 0.0, "rwi": 1.129, "pop_density": 7779.0, "sss_t": 0, "rwi_t": 1, "cls": 1, "color": "#ace4e4", "crowd_t": 2, "color_crowd": "#5ac8c8"}}, {"type": "Feature", "geometry": {"type": "Polygon", "coordinates": [[[122.9314, 10.6363], [122.9464, 10.6363], [122.9464, 10.6513], [122.9314, 10.6513], [122.9314, 10.6363]]]}, "properties": {"gap": 1.3, "sss": 2.0, "rwi": 1.129, "pop_density": 7334.0, "sss_t": 0, "rwi_t": 1, "cls": 1, "color": "#ace4e4", "crowd_t": 1, "color_crowd": "#ace4e4"}}, {"type": "Feature", "geometry": {"type": "Polygon", "coordinates": [[[122.9464, 10.6363], [122.9614, 10.6363], [122.9614, 10.6513], [122.9464, 10.6513], [122.9464, 10.6363]]]}, "properties": {"gap": 4.4, "sss": 6.7, "rwi": 1.129, "pop_density": 5861.0, "sss_t": 1, "rwi_t": 1, "cls": 4, "color": "#a5add3", "crowd_t": 3, "color_crowd": "#dfb0d6"}}, {"type": "Feature", "geometry": {"type": "Polygon", "coordinates": [[[122.9614, 10.6213], [122.9764, 10.6213], [122.9764, 10.6363], [122.9614, 10.6363], [122.9614, 10.6213]]]}, "properties": {"gap": 1.1, "sss": 1.6, "rwi": 1.151, "pop_density": 3928.0, "sss_t": 0, "rwi_t": 2, "cls": 2, "color": "#5ac8c8", "crowd_t": 0, "color_crowd": "#e8e8e8"}}, {"type": "Feature", "geometry": {"type": "Polygon", "coordinates": [[[122.9614, 10.651299999999999], [122.9764, 10.651299999999999], [122.9764, 10.6663], [122.9614, 10.6663], [122.9614, 10.651299999999999]]]}, "properties": {"gap": 2.6, "sss": 4.5, "rwi": 1.199, "pop_density": 7349.0, "sss_t": 1, "rwi_t": 2, "cls": 5, "color": "#5698b9", "crowd_t": 4, "color_crowd": "#a5add3"}}, {"type": "Feature", "geometry": {"type": "Polygon", "coordinates": [[[122.9464, 10.6213], [122.9614, 10.6213], [122.9614, 10.6363], [122.9464, 10.6363], [122.9464, 10.6213]]]}, "properties": {"gap": 10.0, "sss": 15.3, "rwi": 1.269, "pop_density": 6058.0, "sss_t": 2, "rwi_t": 2, "cls": 8, "color": "#3b4994", "crowd_t": 7, "color_crowd": "#8c62aa"}}, {"type": "Feature", "geometry": {"type": "Polygon", "coordinates": [[[122.9614, 10.6363], [122.9764, 10.6363], [122.9764, 10.6513], [122.9614, 10.6513], [122.9614, 10.6363]]]}, "properties": {"gap": 4.4, "sss": 7.2, "rwi": 1.199, "pop_density": 6366.0, "sss_t": 1, "rwi_t": 2, "cls": 5, "color": "#5698b9", "crowd_t": 4, "color_crowd": "#a5add3"}}, {"type": "Feature", "geometry": {"type": "Polygon", "coordinates": [[[122.9764, 10.6213], [122.9914, 10.6213], [122.9914, 10.6363], [122.9764, 10.6363], [122.9764, 10.6213]]]}, "properties": {"gap": 10.0, "sss": 17.5, "rwi": 0.602, "pop_density": 7943.0, "sss_t": 2, "rwi_t": 0, "cls": 6, "color": "#be64ac", "crowd_t": 8, "color_crowd": "#3b4994"}}, {"type": "Feature", "geometry": {"type": "Polygon", "coordinates": [[[122.9764, 10.651299999999999], [122.9914, 10.651299999999999], [122.9914, 10.6663], [122.9764, 10.6663], [122.9764, 10.651299999999999]]]}, "properties": {"gap": 10.0, "sss": 15.8, "rwi": 0.601, "pop_density": 8582.0, "sss_t": 2, "rwi_t": 0, "cls": 6, "color": "#be64ac", "crowd_t": 8, "color_crowd": "#3b4994"}}, {"type": "Feature", "geometry": {"type": "Polygon", "coordinates": [[[122.9764, 10.6363], [122.9914, 10.6363], [122.9914, 10.6513], [122.9764, 10.6513], [122.9764, 10.6363]]]}, "properties": {"gap": 10.0, "sss": 12.6, "rwi": 0.601, "pop_density": 382.0, "sss_t": 2, "rwi_t": 0, "cls": 6, "color": "#be64ac", "crowd_t": 6, "color_crowd": "#be64ac"}}, {"type": "Feature", "geometry": {"type": "Polygon", "coordinates": [[[122.9464, 10.6663], [122.9614, 10.6663], [122.9614, 10.6813], [122.9464, 10.6813], [122.9464, 10.6663]]]}, "properties": {"gap": 0.8, "sss": 1.5, "rwi": 1.34, "pop_density": 13118.0, "sss_t": 0, "rwi_t": 2, "cls": 2, "color": "#5ac8c8", "crowd_t": 2, "color_crowd": "#5ac8c8"}}, {"type": "Feature", "geometry": {"type": "Polygon", "coordinates": [[[122.9314, 10.6663], [122.9464, 10.6663], [122.9464, 10.6813], [122.9314, 10.6813], [122.9314, 10.6663]]]}, "properties": {"gap": 2.0, "sss": 5.1, "rwi": 1.34, "pop_density": 6463.0, "sss_t": 1, "rwi_t": 2, "cls": 5, "color": "#5698b9", "crowd_t": 4, "color_crowd": "#a5add3"}}, {"type": "Feature", "geometry": {"type": "Polygon", "coordinates": [[[122.9464, 10.6813], [122.9614, 10.6813], [122.9614, 10.6963], [122.9464, 10.6963], [122.9464, 10.6813]]]}, "properties": {"gap": 2.1, "sss": 4.1, "rwi": 0.677, "pop_density": 10439.0, "sss_t": 1, "rwi_t": 0, "cls": 3, "color": "#dfb0d6", "crowd_t": 5, "color_crowd": "#5698b9"}}, {"type": "Feature", "geometry": {"type": "Polygon", "coordinates": [[[122.9614, 10.6663], [122.9764, 10.6663], [122.9764, 10.6813], [122.9614, 10.6813], [122.9614, 10.6663]]]}, "properties": {"gap": 3.6, "sss": 5.7, "rwi": 1.215, "pop_density": 7180.0, "sss_t": 1, "rwi_t": 2, "cls": 5, "color": "#5698b9", "crowd_t": 4, "color_crowd": "#a5add3"}}, {"type": "Feature", "geometry": {"type": "Polygon", "coordinates": [[[122.9464, 10.696299999999999], [122.9614, 10.696299999999999], [122.9614, 10.7113], [122.9464, 10.7113], [122.9464, 10.696299999999999]]]}, "properties": {"gap": 0.0, "sss": 0.0, "rwi": 0.901, "pop_density": 14372.0, "sss_t": 0, "rwi_t": 1, "cls": 1, "color": "#ace4e4", "crowd_t": 2, "color_crowd": "#5ac8c8"}}, {"type": "Feature", "geometry": {"type": "Polygon", "coordinates": [[[122.9614, 10.6813], [122.9764, 10.6813], [122.9764, 10.6963], [122.9614, 10.6963], [122.9614, 10.6813]]]}, "properties": {"gap": 0.0, "sss": 0.0, "rwi": 1.386, "pop_density": 6039.0, "sss_t": 0, "rwi_t": 2, "cls": 2, "color": "#5ac8c8", "crowd_t": 0, "color_crowd": "#e8e8e8"}}, {"type": "Feature", "geometry": {"type": "Polygon", "coordinates": [[[122.9764, 10.6813], [122.9914, 10.6813], [122.9914, 10.6963], [122.9764, 10.6963], [122.9764, 10.6813]]]}, "properties": {"gap": 6.8, "sss": 9.9, "rwi": 0.9, "pop_density": 8510.0, "sss_t": 1, "rwi_t": 0, "cls": 3, "color": "#dfb0d6", "crowd_t": 5, "color_crowd": "#5698b9"}}, {"type": "Feature", "geometry": {"type": "Polygon", "coordinates": [[[122.9764, 10.696299999999999], [122.9914, 10.696299999999999], [122.9914, 10.7113], [122.9764, 10.7113], [122.9764, 10.696299999999999]]]}, "properties": {"gap": 17.4, "sss": 35.8, "rwi": 0.575, "pop_density": 16895.0, "sss_t": 2, "rwi_t": 0, "cls": 6, "color": "#be64ac", "crowd_t": 8, "color_crowd": "#3b4994"}}, {"type": "Feature", "geometry": {"type": "Polygon", "coordinates": [[[123.0064, 10.651299999999999], [123.0214, 10.651299999999999], [123.0214, 10.6663], [123.0064, 10.6663], [123.0064, 10.651299999999999]]]}, "properties": {"gap": 10.0, "sss": 13.7, "rwi": 0.601, "pop_density": 3129.0, "sss_t": 2, "rwi_t": 0, "cls": 6, "color": "#be64ac", "crowd_t": 6, "color_crowd": "#be64ac"}}, {"type": "Feature", "geometry": {"type": "Polygon", "coordinates": [[[122.9914, 10.6663], [123.0064, 10.6663], [123.0064, 10.6813], [122.9914, 10.6813], [122.9914, 10.6663]]]}, "properties": {"gap": 0.0, "sss": 0.0, "rwi": 1.141, "pop_density": 306.0, "sss_t": 0, "rwi_t": 2, "cls": 2, "color": "#5ac8c8", "crowd_t": 0, "color_crowd": "#e8e8e8"}}, {"type": "Feature", "geometry": {"type": "Polygon", "coordinates": [[[122.9614, 10.696299999999999], [122.9764, 10.696299999999999], [122.9764, 10.7113], [122.9614, 10.7113], [122.9614, 10.696299999999999]]]}, "properties": {"gap": 6.3, "sss": 11.8, "rwi": 1.027, "pop_density": 10020.0, "sss_t": 1, "rwi_t": 1, "cls": 4, "color": "#a5add3", "crowd_t": 5, "color_crowd": "#5698b9"}}, {"type": "Feature", "geometry": {"type": "Polygon", "coordinates": [[[122.9614, 10.7263], [122.9764, 10.7263], [122.9764, 10.7413], [122.9614, 10.7413], [122.9614, 10.7263]]]}, "properties": {"gap": 0.0, "sss": 0.0, "rwi": 1.027, "pop_density": 3191.0, "sss_t": 0, "rwi_t": 1, "cls": 1, "color": "#ace4e4", "crowd_t": 0, "color_crowd": "#e8e8e8"}}, {"type": "Feature", "geometry": {"type": "Polygon", "coordinates": [[[122.9464, 10.7113], [122.9614, 10.7113], [122.9614, 10.7263], [122.9464, 10.7263], [122.9464, 10.7113]]]}, "properties": {"gap": 1.4, "sss": 2.6, "rwi": 0.901, "pop_density": 6225.0, "sss_t": 1, "rwi_t": 1, "cls": 4, "color": "#a5add3", "crowd_t": 4, "color_crowd": "#a5add3"}}, {"type": "Feature", "geometry": {"type": "Polygon", "coordinates": [[[122.9614, 10.7113], [122.9764, 10.7113], [122.9764, 10.7263], [122.9614, 10.7263], [122.9614, 10.7113]]]}, "properties": {"gap": 0.0, "sss": 0.0, "rwi": 1.027, "pop_density": 4008.0, "sss_t": 0, "rwi_t": 1, "cls": 1, "color": "#ace4e4", "crowd_t": 0, "color_crowd": "#e8e8e8"}}, {"type": "Feature", "geometry": {"type": "Polygon", "coordinates": [[[122.9914, 10.7263], [123.0064, 10.7263], [123.0064, 10.7413], [122.9914, 10.7413], [122.9914, 10.7263]]]}, "properties": {"gap": 30.0, "sss": 39.5, "rwi": 0.575, "pop_density": 1770.0, "sss_t": 2, "rwi_t": 0, "cls": 6, "color": "#be64ac", "crowd_t": 6, "color_crowd": "#be64ac"}}, {"type": "Feature", "geometry": {"type": "Polygon", "coordinates": [[[122.9914, 10.7113], [123.0064, 10.7113], [123.0064, 10.7263], [122.9914, 10.7263], [122.9914, 10.7113]]]}, "properties": {"gap": 30.0, "sss": 38.5, "rwi": 0.575, "pop_density": 858.0, "sss_t": 2, "rwi_t": 0, "cls": 6, "color": "#be64ac", "crowd_t": 6, "color_crowd": "#be64ac"}}, {"type": "Feature", "geometry": {"type": "Polygon", "coordinates": [[[122.9914, 10.696299999999999], [123.0064, 10.696299999999999], [123.0064, 10.7113], [122.9914, 10.7113], [122.9914, 10.696299999999999]]]}, "properties": {"gap": 17.2, "sss": 32.6, "rwi": 0.575, "pop_density": 11713.0, "sss_t": 2, "rwi_t": 0, "cls": 6, "color": "#be64ac", "crowd_t": 8, "color_crowd": "#3b4994"}}]}