{"type": "FeatureCollection", "features": [{"type": "Feature", "geometry": {"type": "Polygon", "coordinates": [[[120.5485, 18.1673], [120.5635, 18.1673], [120.5635, 18.1823], [120.5485, 18.1823], [120.5485, 18.1673]]]}, "properties": {"gap": 10.0, "sss": 14.1, "rwi": 0.268, "pop_density": 4241.0, "sss_t": 2, "rwi_t": 0, "cls": 6, "color": "#be64ac", "crowd_t": 8, "color_crowd": "#3b4994"}}, {"type": "Feature", "geometry": {"type": "Polygon", "coordinates": [[[120.5485, 18.1523], [120.5635, 18.1523], [120.5635, 18.1673], [120.5485, 18.1673], [120.5485, 18.1523]]]}, "properties": {"gap": 10.0, "sss": 12.9, "rwi": 0.589, "pop_density": 998.0, "sss_t": 2, "rwi_t": 1, "cls": 7, "color": "#8c62aa", "crowd_t": 6, "color_crowd": "#be64ac"}}, {"type": "Feature", "geometry": {"type": "Polygon", "coordinates": [[[120.5635, 18.1523], [120.5785, 18.1523], [120.5785, 18.1673], [120.5635, 18.1673], [120.5635, 18.1523]]]}, "properties": {"gap": 9.7, "sss": 12.1, "rwi": 0.43, "pop_density": 0.0, "sss_t": 2, "rwi_t": 1, "cls": 7, "color": "#8c62aa", "crowd_t": 6, "color_crowd": "#be64ac"}}, {"type": "Feature", "geometry": {"type": "Polygon", "coordinates": [[[120.5785, 18.1673], [120.5935, 18.1673], [120.5935, 18.1823], [120.5785, 18.1823], [120.5785, 18.1673]]]}, "properties": {"gap": 0.0, "sss": 0.0, "rwi": 1.032, "pop_density": 6672.0, "sss_t": 0, "rwi_t": 1, "cls": 1, "color": "#ace4e4", "crowd_t": 2, "color_crowd": "#5ac8c8"}}, {"type": "Feature", "geometry": {"type": "Polygon", "coordinates": [[[120.5935, 18.1673], [120.6085, 18.1673], [120.6085, 18.1823], [120.5935, 18.1823], [120.5935, 18.1673]]]}, "properties": {"gap": 0.1, "sss": 0.1, "rwi": 1.032, "pop_density": 9608.0, "sss_t": 1, "rwi_t": 1, "cls": 4, "color": "#a5add3", "crowd_t": 5, "color_crowd": "#5698b9"}}, {"type": "Feature", "geometry": {"type": "Polygon", "coordinates": [[[120.5785, 18.1823], [120.5935, 18.1823], [120.5935, 18.197300000000002], [120.5785, 18.197300000000002], [120.5785, 18.1823]]]}, "properties": {"gap": 1.5, "sss": 2.2, "rwi": 1.554, "pop_density": 3325.0, "sss_t": 1, "rwi_t": 2, "cls": 5, "color": "#5698b9", "crowd_t": 4, "color_crowd": "#a5add3"}}, {"type": "Feature", "geometry": {"type": "Polygon", "coordinates": [[[120.5785, 18.1523], [120.5935, 18.1523], [120.5935, 18.1673], [120.5785, 18.1673], [120.5785, 18.1523]]]}, "properties": {"gap": 0.0, "sss": 0.0, "rwi": 0.281, "pop_density": 1509.0, "sss_t": 0, "rwi_t": 0, "cls": 0, "color": "#e8e8e8", "crowd_t": 1, "color_crowd": "#ace4e4"}}, {"type": "Feature", "geometry": {"type": "Polygon", "coordinates": [[[120.6085, 18.1523], [120.6235, 18.1523], [120.6235, 18.1673], [120.6085, 18.1673], [120.6085, 18.1523]]]}, "properties": {"gap": 10.0, "sss": 12.9, "rwi": 0.292, "pop_density": 1141.0, "sss_t": 2, "rwi_t": 0, "cls": 6, "color": "#be64ac", "crowd_t": 6, "color_crowd": "#be64ac"}}, {"type": "Feature", "geometry": {"type": "Polygon", "coordinates": [[[120.6085, 18.1673], [120.6235, 18.1673], [120.6235, 18.1823], [120.6085, 18.1823], [120.6085, 18.1673]]]}, "properties": {"gap": 10.0, "sss": 13.4, "rwi": 0.242, "pop_density": 2256.0, "sss_t": 2, "rwi_t": 0, "cls": 6, "color": "#be64ac", "crowd_t": 7, "color_crowd": "#8c62aa"}}, {"type": "Feature", "geometry": {"type": "Polygon", "coordinates": [[[120.63850000000001, 18.1673], [120.65350000000001, 18.1673], [120.65350000000001, 18.1823], [120.63850000000001, 18.1823], [120.63850000000001, 18.1673]]]}, "properties": {"gap": 10.0, "sss": 13.9, "rwi": 0.242, "pop_density": 3527.0, "sss_t": 2, "rwi_t": 0, "cls": 6, "color": "#be64ac", "crowd_t": 7, "color_crowd": "#8c62aa"}}, {"type": "Feature", "geometry": {"type": "Polygon", "coordinates": [[[120.6085, 18.1823], [120.6235, 18.1823], [120.6235, 18.197300000000002], [120.6085, 18.197300000000002], [120.6085, 18.1823]]]}, "properties": {"gap": 7.9, "sss": 11.1, "rwi": 0.215, "pop_density": 4873.0, "sss_t": 1, "rwi_t": 0, "cls": 3, "color": "#dfb0d6", "crowd_t": 5, "color_crowd": "#5698b9"}}, {"type": "Feature", "geometry": {"type": "Polygon", "coordinates": [[[120.5635, 18.197300000000002], [120.5785, 18.197300000000002], [120.5785, 18.212300000000003], [120.5635, 18.212300000000003], [120.5635, 18.197300000000002]]]}, "properties": {"gap": 4.2, "sss": 5.3, "rwi": 0.363, "pop_density": 813.0, "sss_t": 1, "rwi_t": 0, "cls": 3, "color": "#dfb0d6", "crowd_t": 3, "color_crowd": "#dfb0d6"}}, {"type": "Feature", "geometry": {"type": "Polygon", "coordinates": [[[120.5635, 18.1823], [120.5785, 18.1823], [120.5785, 18.197300000000002], [120.5635, 18.197300000000002], [120.5635, 18.1823]]]}, "properties": {"gap": 8.9, "sss": 12.2, "rwi": 0.363, "pop_density": 3214.0, "sss_t": 1, "rwi_t": 0, "cls": 3, "color": "#dfb0d6", "crowd_t": 4, "color_crowd": "#a5add3"}}, {"type": "Feature", "geometry": {"type": "Polygon", "coordinates": [[[120.5785, 18.197300000000002], [120.5935, 18.197300000000002], [120.5935, 18.212300000000003], [120.5785, 18.212300000000003], [120.5785, 18.197300000000002]]]}, "properties": {"gap": 2.4, "sss": 3.1, "rwi": 1.554, "pop_density": 8551.0, "sss_t": 1, "rwi_t": 2, "cls": 5, "color": "#5698b9", "crowd_t": 5, "color_crowd": "#5698b9"}}, {"type": "Feature", "geometry": {"type": "Polygon", "coordinates": [[[120.5935, 18.197300000000002], [120.6085, 18.197300000000002], [120.6085, 18.212300000000003], [120.5935, 18.212300000000003], [120.5935, 18.197300000000002]]]}, "properties": {"gap": 0.0, "sss": 0.0, "rwi": 1.554, "pop_density": 6559.0, "sss_t": 0, "rwi_t": 2, "cls": 2, "color": "#5ac8c8", "crowd_t": 2, "color_crowd": "#5ac8c8"}}, {"type": "Feature", "geometry": {"type": "Polygon", "coordinates": [[[120.5935, 18.1823], [120.6085, 18.1823], [120.6085, 18.197300000000002], [120.5935, 18.197300000000002], [120.5935, 18.1823]]]}, "properties": {"gap": 0.0, "sss": 0.1, "rwi": 1.554, "pop_density": 14054.0, "sss_t": 1, "rwi_t": 2, "cls": 5, "color": "#5698b9", "crowd_t": 5, "color_crowd": "#5698b9"}}, {"type": "Feature", "geometry": {"type": "Polygon", "coordinates": [[[120.5635, 18.2273], [120.5785, 18.2273], [120.5785, 18.2423], [120.5635, 18.2423], [120.5635, 18.2273]]]}, "properties": {"gap": 0.0, "sss": 0.0, "rwi": 0.457, "pop_density": 2974.0, "sss_t": 0, "rwi_t": 1, "cls": 1, "color": "#ace4e4", "crowd_t": 1, "color_crowd": "#ace4e4"}}, {"type": "Feature", "geometry": {"type": "Polygon", "coordinates": [[[120.5935, 18.2123], [120.6085, 18.2123], [120.6085, 18.2273], [120.5935, 18.2273], [120.5935, 18.2123]]]}, "properties": {"gap": 0.0, "sss": 0.0, "rwi": 0.636, "pop_density": 1895.0, "sss_t": 0, "rwi_t": 1, "cls": 1, "color": "#ace4e4", "crowd_t": 1, "color_crowd": "#ace4e4"}}, {"type": "Feature", "geometry": {"type": "Polygon", "coordinates": [[[120.5935, 18.2273], [120.6085, 18.2273], [120.6085, 18.2423], [120.5935, 18.2423], [120.5935, 18.2273]]]}, "properties": {"gap": 0.0, "sss": 0.0, "rwi": 0.024, "pop_density": 1246.0, "sss_t": 0, "rwi_t": 0, "cls": 0, "color": "#e8e8e8", "crowd_t": 0, "color_crowd": "#e8e8e8"}}, {"type": "Feature", "geometry": {"type": "Polygon", "coordinates": [[[120.5785, 18.2123], [120.5935, 18.2123], [120.5935, 18.2273], [120.5785, 18.2273], [120.5785, 18.2123]]]}, "properties": {"gap": 9.8, "sss": 12.3, "rwi": 0.636, "pop_density": 270.0, "sss_t": 2, "rwi_t": 1, "cls": 7, "color": "#8c62aa", "crowd_t": 6, "color_crowd": "#be64ac"}}, {"type": "Feature", "geometry": {"type": "Polygon", "coordinates": [[[120.6085, 18.2273], [120.6235, 18.2273], [120.6235, 18.2423], [120.6085, 18.2423], [120.6085, 18.2273]]]}, "properties": {"gap": 0.0, "sss": 0.0, "rwi": 1.06, "pop_density": 754.0, "sss_t": 0, "rwi_t": 2, "cls": 2, "color": "#5ac8c8", "crowd_t": 0, "color_crowd": "#e8e8e8"}}, {"type": "Feature", "geometry": {"type": "Polygon", "coordinates": [[[120.6235, 18.2273], [120.63850000000001, 18.2273], [120.63850000000001, 18.2423], [120.6235, 18.2423], [120.6235, 18.2273]]]}, "properties": {"gap": 0.0, "sss": 0.0, "rwi": 1.06, "pop_density": 764.0, "sss_t": 0, "rwi_t": 2, "cls": 2, "color": "#5ac8c8", "crowd_t": 0, "color_crowd": "#e8e8e8"}}]}