{"type": "FeatureCollection", "features": [{"type": "Feature", "geometry": {"type": "Polygon", "coordinates": [[[124.9883, 11.2182], [125.0033, 11.2182], [125.0033, 11.2332], [124.9883, 11.2332], [124.9883, 11.2182]]]}, "properties": {"gap": 0.2, "sss": 0.4, "rwi": 1.162, "pop_density": 7215.0, "sss_t": 0, "rwi_t": 1, "cls": 1, "color": "#ace4e4", "crowd_t": 2, "color_crowd": "#5ac8c8"}}, {"type": "Feature", "geometry": {"type": "Polygon", "coordinates": [[[124.9733, 11.2182], [124.9883, 11.2182], [124.9883, 11.2332], [124.9733, 11.2332], [124.9733, 11.2182]]]}, "properties": {"gap": 10.0, "sss": 13.6, "rwi": 1.162, "pop_density": 2743.0, "sss_t": 1, "rwi_t": 1, "cls": 4, "color": "#a5add3", "crowd_t": 4, "color_crowd": "#a5add3"}}, {"type": "Feature", "geometry": {"type": "Polygon", "coordinates": [[[124.9883, 11.1882], [125.0033, 11.1882], [125.0033, 11.2032], [124.9883, 11.2032], [124.9883, 11.1882]]]}, "properties": {"gap": 0.0, "sss": 0.0, "rwi": 0.986, "pop_density": 2602.0, "sss_t": 0, "rwi_t": 1, "cls": 1, "color": "#ace4e4", "crowd_t": 0, "color_crowd": "#e8e8e8"}}, {"type": "Feature", "geometry": {"type": "Polygon", "coordinates": [[[124.9883, 11.2032], [125.0033, 11.2032], [125.0033, 11.218200000000001], [124.9883, 11.218200000000001], [124.9883, 11.2032]]]}, "properties": {"gap": 0.1, "sss": 0.2, "rwi": 0.979, "pop_density": 5590.0, "sss_t": 0, "rwi_t": 1, "cls": 1, "color": "#ace4e4", "crowd_t": 1, "color_crowd": "#ace4e4"}}, {"type": "Feature", "geometry": {"type": "Polygon", "coordinates": [[[125.0183, 11.2182], [125.0333, 11.2182], [125.0333, 11.2332], [125.0183, 11.2332], [125.0183, 11.2182]]]}, "properties": {"gap": 1.9, "sss": 3.2, "rwi": 0.758, "pop_density": 10898.0, "sss_t": 1, "rwi_t": 0, "cls": 3, "color": "#dfb0d6", "crowd_t": 5, "color_crowd": "#5698b9"}}, {"type": "Feature", "geometry": {"type": "Polygon", "coordinates": [[[124.9733, 11.2332], [124.9883, 11.2332], [124.9883, 11.2482], [124.9733, 11.2482], [124.9733, 11.2332]]]}, "properties": {"gap": 7.8, "sss": 16.7, "rwi": 1.162, "pop_density": 5396.0, "sss_t": 1, "rwi_t": 1, "cls": 4, "color": "#a5add3", "crowd_t": 4, "color_crowd": "#a5add3"}}, {"type": "Feature", "geometry": {"type": "Polygon", "coordinates": [[[124.9583, 11.2482], [124.9733, 11.2482], [124.9733, 11.263200000000001], [124.9583, 11.263200000000001], [124.9583, 11.2482]]]}, "properties": {"gap": 16.5, "sss": 31.3, "rwi": 1.392, "pop_density": 2446.0, "sss_t": 2, "rwi_t": 2, "cls": 8, "color": "#3b4994", "crowd_t": 6, "color_crowd": "#be64ac"}}, {"type": "Feature", "geometry": {"type": "Polygon", "coordinates": [[[124.9733, 11.2482], [124.9883, 11.2482], [124.9883, 11.263200000000001], [124.9733, 11.263200000000001], [124.9733, 11.2482]]]}, "properties": {"gap": 10.0, "sss": 21.7, "rwi": 1.425, "pop_density": 11000.0, "sss_t": 1, "rwi_t": 2, "cls": 5, "color": "#5698b9", "crowd_t": 5, "color_crowd": "#5698b9"}}, {"type": "Feature", "geometry": {"type": "Polygon", "coordinates": [[[124.9583, 11.2782], [124.9733, 11.2782], [124.9733, 11.2932], [124.9583, 11.2932], [124.9583, 11.2782]]]}, "properties": {"gap": 25.9, "sss": 42.5, "rwi": 0.693, "pop_density": 3514.0, "sss_t": 2, "rwi_t": 0, "cls": 6, "color": "#be64ac", "crowd_t": 7, "color_crowd": "#8c62aa"}}, {"type": "Feature", "geometry": {"type": "Polygon", "coordinates": [[[124.9583, 11.2632], [124.9733, 11.2632], [124.9733, 11.2782], [124.9583, 11.2782], [124.9583, 11.2632]]]}, "properties": {"gap": 29.8, "sss": 56.1, "rwi": 0.693, "pop_density": 5742.0, "sss_t": 2, "rwi_t": 0, "cls": 6, "color": "#be64ac", "crowd_t": 8, "color_crowd": "#3b4994"}}, {"type": "Feature", "geometry": {"type": "Polygon", "coordinates": [[[124.9583, 11.2932], [124.9733, 11.2932], [124.9733, 11.308200000000001], [124.9583, 11.308200000000001], [124.9583, 11.2932]]]}, "properties": {"gap": 2.5, "sss": 3.4, "rwi": 1.042, "pop_density": 714.0, "sss_t": 1, "rwi_t": 1, "cls": 4, "color": "#a5add3", "crowd_t": 3, "color_crowd": "#dfb0d6"}}, {"type": "Feature", "geometry": {"type": "Polygon", "coordinates": [[[125.0483, 11.2932], [125.0633, 11.2932], [125.0633, 11.308200000000001], [125.0483, 11.308200000000001], [125.0483, 11.2932]]]}, "properties": {"gap": 0.0, "sss": 0.0, "rwi": -0.048, "pop_density": 0.0, "sss_t": 0, "rwi_t": 0, "cls": 0, "color": "#e8e8e8", "crowd_t": 0, "color_crowd": "#e8e8e8"}}]}