{"type": "FeatureCollection", "features": [{"type": "Feature", "geometry": {"type": "Polygon", "coordinates": [[[121.0541, 13.715300000000001], [121.0691, 13.715300000000001], [121.0691, 13.730300000000002], [121.0541, 13.730300000000002], [121.0541, 13.715300000000001]]]}, "properties": {"gap": 0.0, "sss": 0.0, "rwi": 1.034, "pop_density": 3513.0, "sss_t": 0, "rwi_t": 1, "cls": 1, "color": "#ace4e4", "crowd_t": 0, "color_crowd": "#e8e8e8"}}, {"type": "Feature", "geometry": {"type": "Polygon", "coordinates": [[[121.0691, 13.715300000000001], [121.0841, 13.715300000000001], [121.0841, 13.730300000000002], [121.0691, 13.730300000000002], [121.0691, 13.715300000000001]]]}, "properties": {"gap": 1.0, "sss": 1.6, "rwi": 0.804, "pop_density": 4641.0, "sss_t": 2, "rwi_t": 0, "cls": 6, "color": "#be64ac", "crowd_t": 6, "color_crowd": "#be64ac"}}, {"type": "Feature", "geometry": {"type": "Polygon", "coordinates": [[[121.0691, 13.7303], [121.0841, 13.7303], [121.0841, 13.7453], [121.0691, 13.7453], [121.0691, 13.7303]]]}, "properties": {"gap": 0.0, "sss": 0.0, "rwi": 0.762, "pop_density": 8681.0, "sss_t": 0, "rwi_t": 0, "cls": 0, "color": "#e8e8e8", "crowd_t": 2, "color_crowd": "#5ac8c8"}}, {"type": "Feature", "geometry": {"type": "Polygon", "coordinates": [[[121.0541, 13.7003], [121.0691, 13.7003], [121.0691, 13.715300000000001], [121.0541, 13.715300000000001], [121.0541, 13.7003]]]}, "properties": {"gap": 10.0, "sss": 12.5, "rwi": 1.034, "pop_density": 0.0, "sss_t": 2, "rwi_t": 1, "cls": 7, "color": "#8c62aa", "crowd_t": 6, "color_crowd": "#be64ac"}}, {"type": "Feature", "geometry": {"type": "Polygon", "coordinates": [[[121.0391, 13.7453], [121.0541, 13.7453], [121.0541, 13.7603], [121.0391, 13.7603], [121.0391, 13.7453]]]}, "properties": {"gap": 0.4, "sss": 0.7, "rwi": 0.881, "pop_density": 9672.0, "sss_t": 1, "rwi_t": 0, "cls": 3, "color": "#dfb0d6", "crowd_t": 5, "color_crowd": "#5698b9"}}, {"type": "Feature", "geometry": {"type": "Polygon", "coordinates": [[[121.0541, 13.7603], [121.0691, 13.7603], [121.0691, 13.775300000000001], [121.0541, 13.775300000000001], [121.0541, 13.7603]]]}, "properties": {"gap": 0.8, "sss": 1.9, "rwi": 1.465, "pop_density": 9769.0, "sss_t": 2, "rwi_t": 2, "cls": 8, "color": "#3b4994", "crowd_t": 8, "color_crowd": "#3b4994"}}, {"type": "Feature", "geometry": {"type": "Polygon", "coordinates": [[[121.0541, 13.7453], [121.0691, 13.7453], [121.0691, 13.7603], [121.0541, 13.7603], [121.0541, 13.7453]]]}, "properties": {"gap": 0.8, "sss": 1.9, "rwi": 1.465, "pop_density": 15958.0, "sss_t": 1, "rwi_t": 2, "cls": 5, "color": "#5698b9", "crowd_t": 5, "color_crowd": "#5698b9"}}, {"type": "Feature", "geometry": {"type": "Polygon", "coordinates": [[[121.0691, 13.7453], [121.0841, 13.7453], [121.0841, 13.7603], [121.0691, 13.7603], [121.0691, 13.7453]]]}, "properties": {"gap": 4.4, "sss": 8.1, "rwi": 1.326, "pop_density": 7242.0, "sss_t": 2, "rwi_t": 2, "cls": 8, "color": "#3b4994", "crowd_t": 7, "color_crowd": "#8c62aa"}}, {"type": "Feature", "geometry": {"type": "Polygon", "coordinates": [[[121.0391, 13.7753], [121.0541, 13.7753], [121.0541, 13.7903], [121.0391, 13.7903], [121.0391, 13.7753]]]}, "properties": {"gap": 5.7, "sss": 12.4, "rwi": 1.037, "pop_density": 13715.0, "sss_t": 2, "rwi_t": 1, "cls": 7, "color": "#8c62aa", "crowd_t": 8, "color_crowd": "#3b4994"}}, {"type": "Feature", "geometry": {"type": "Polygon", "coordinates": [[[121.0691, 13.7603], [121.0841, 13.7603], [121.0841, 13.775300000000001], [121.0691, 13.775300000000001], [121.0691, 13.7603]]]}, "properties": {"gap": 0.0, "sss": 0.0, "rwi": 1.326, "pop_density": 5862.0, "sss_t": 0, "rwi_t": 2, "cls": 2, "color": "#5ac8c8", "crowd_t": 1, "color_crowd": "#ace4e4"}}, {"type": "Feature", "geometry": {"type": "Polygon", "coordinates": [[[121.0391, 13.7603], [121.0541, 13.7603], [121.0541, 13.775300000000001], [121.0391, 13.775300000000001], [121.0391, 13.7603]]]}, "properties": {"gap": 0.2, "sss": 0.4, "rwi": 0.881, "pop_density": 11742.0, "sss_t": 1, "rwi_t": 0, "cls": 3, "color": "#dfb0d6", "crowd_t": 5, "color_crowd": "#5698b9"}}, {"type": "Feature", "geometry": {"type": "Polygon", "coordinates": [[[121.0091, 13.7903], [121.0241, 13.7903], [121.0241, 13.8053], [121.0091, 13.8053], [121.0091, 13.7903]]]}, "properties": {"gap": 2.5, "sss": 5.6, "rwi": 0.831, "pop_density": 7811.0, "sss_t": 2, "rwi_t": 0, "cls": 6, "color": "#be64ac", "crowd_t": 7, "color_crowd": "#8c62aa"}}, {"type": "Feature", "geometry": {"type": "Polygon", "coordinates": [[[121.0091, 13.7753], [121.0241, 13.7753], [121.0241, 13.7903], [121.0091, 13.7903], [121.0091, 13.7753]]]}, "properties": {"gap": 0.0, "sss": 0.0, "rwi": 1.036, "pop_density": 6636.0, "sss_t": 0, "rwi_t": 1, "cls": 1, "color": "#ace4e4", "crowd_t": 1, "color_crowd": "#ace4e4"}}, {"type": "Feature", "geometry": {"type": "Polygon", "coordinates": [[[121.0241, 13.7753], [121.0391, 13.7753], [121.0391, 13.7903], [121.0241, 13.7903], [121.0241, 13.7753]]]}, "properties": {"gap": 9.7, "sss": 24.3, "rwi": 1.037, "pop_density": 9411.0, "sss_t": 2, "rwi_t": 1, "cls": 7, "color": "#8c62aa", "crowd_t": 8, "color_crowd": "#3b4994"}}, {"type": "Feature", "geometry": {"type": "Polygon", "coordinates": [[[121.0691, 13.7903], [121.0841, 13.7903], [121.0841, 13.8053], [121.0691, 13.8053], [121.0691, 13.7903]]]}, "properties": {"gap": 0.0, "sss": 0.0, "rwi": 1.154, "pop_density": 3294.0, "sss_t": 0, "rwi_t": 2, "cls": 2, "color": "#5ac8c8", "crowd_t": 0, "color_crowd": "#e8e8e8"}}, {"type": "Feature", "geometry": {"type": "Polygon", "coordinates": [[[121.0541, 13.7753], [121.0691, 13.7753], [121.0691, 13.7903], [121.0541, 13.7903], [121.0541, 13.7753]]]}, "properties": {"gap": 0.0, "sss": 0.0, "rwi": 0.958, "pop_density": 5221.0, "sss_t": 0, "rwi_t": 1, "cls": 1, "color": "#ace4e4", "crowd_t": 1, "color_crowd": "#ace4e4"}}, {"type": "Feature", "geometry": {"type": "Polygon", "coordinates": [[[121.0541, 13.7903], [121.0691, 13.7903], [121.0691, 13.8053], [121.0541, 13.8053], [121.0541, 13.7903]]]}, "properties": {"gap": 0.0, "sss": 0.0, "rwi": 1.435, "pop_density": 7621.0, "sss_t": 0, "rwi_t": 2, "cls": 2, "color": "#5ac8c8", "crowd_t": 1, "color_crowd": "#ace4e4"}}, {"type": "Feature", "geometry": {"type": "Polygon", "coordinates": [[[121.0991, 13.7903], [121.11410000000001, 13.7903], [121.11410000000001, 13.8053], [121.0991, 13.8053], [121.0991, 13.7903]]]}, "properties": {"gap": 0.0, "sss": 0.0, "rwi": 0.659, "pop_density": 0.0, "sss_t": 0, "rwi_t": 0, "cls": 0, "color": "#e8e8e8", "crowd_t": 0, "color_crowd": "#e8e8e8"}}, {"type": "Feature", "geometry": {"type": "Polygon", "coordinates": [[[121.0841, 13.7903], [121.0991, 13.7903], [121.0991, 13.8053], [121.0841, 13.8053], [121.0841, 13.7903]]]}, "properties": {"gap": 0.0, "sss": 0.0, "rwi": 0.659, "pop_density": 1731.0, "sss_t": 0, "rwi_t": 0, "cls": 0, "color": "#e8e8e8", "crowd_t": 0, "color_crowd": "#e8e8e8"}}, {"type": "Feature", "geometry": {"type": "Polygon", "coordinates": [[[121.0991, 13.8053], [121.11410000000001, 13.8053], [121.11410000000001, 13.820300000000001], [121.0991, 13.820300000000001], [121.0991, 13.8053]]]}, "properties": {"gap": 0.0, "sss": 0.0, "rwi": 0.659, "pop_density": 2191.0, "sss_t": 0, "rwi_t": 0, "cls": 0, "color": "#e8e8e8", "crowd_t": 0, "color_crowd": "#e8e8e8"}}]}