{"type": "FeatureCollection", "features": [{"type": "Feature", "geometry": {"type": "Polygon", "coordinates": [[[120.2878, 14.799999999999999], [120.3028, 14.799999999999999], [120.3028, 14.815], [120.2878, 14.815], [120.2878, 14.799999999999999]]]}, "properties": {"gap": 10.0, "sss": 12.8, "rwi": 1.121, "pop_density": 932.0, "sss_t": 1, "rwi_t": 1, "cls": 4, "color": "#a5add3", "crowd_t": 3, "color_crowd": "#dfb0d6"}}, {"type": "Feature", "geometry": {"type": "Polygon", "coordinates": [[[120.2728, 14.83], [120.2878, 14.83], [120.2878, 14.845], [120.2728, 14.845], [120.2728, 14.83]]]}, "properties": {"gap": 14.4, "sss": 31.2, "rwi": 1.013, "pop_density": 16821.0, "sss_t": 2, "rwi_t": 0, "cls": 6, "color": "#be64ac", "crowd_t": 8, "color_crowd": "#3b4994"}}, {"type": "Feature", "geometry": {"type": "Polygon", "coordinates": [[[120.2878, 14.83], [120.3028, 14.83], [120.3028, 14.845], [120.2878, 14.845], [120.2878, 14.83]]]}, "properties": {"gap": 3.4, "sss": 7.3, "rwi": 1.013, "pop_density": 7839.0, "sss_t": 0, "rwi_t": 0, "cls": 0, "color": "#e8e8e8", "crowd_t": 1, "color_crowd": "#ace4e4"}}, {"type": "Feature", "geometry": {"type": "Polygon", "coordinates": [[[120.2578, 14.83], [120.2728, 14.83], [120.2728, 14.845], [120.2578, 14.845], [120.2578, 14.83]]]}, "properties": {"gap": 30.0, "sss": 44.0, "rwi": 0.85, "pop_density": 5633.0, "sss_t": 2, "rwi_t": 0, "cls": 6, "color": "#be64ac", "crowd_t": 7, "color_crowd": "#8c62aa"}}, {"type": "Feature", "geometry": {"type": "Polygon", "coordinates": [[[120.2578, 14.815], [120.2728, 14.815], [120.2728, 14.83], [120.2578, 14.83], [120.2578, 14.815]]]}, "properties": {"gap": 30.0, "sss": 73.7, "rwi": 0.85, "pop_density": 33885.0, "sss_t": 2, "rwi_t": 0, "cls": 6, "color": "#be64ac", "crowd_t": 8, "color_crowd": "#3b4994"}}, {"type": "Feature", "geometry": {"type": "Polygon", "coordinates": [[[120.3178, 14.815], [120.3328, 14.815], [120.3328, 14.83], [120.3178, 14.83], [120.3178, 14.815]]]}, "properties": {"gap": 0.0, "sss": 0.0, "rwi": 1.111, "pop_density": 217.0, "sss_t": 0, "rwi_t": 1, "cls": 1, "color": "#ace4e4", "crowd_t": 0, "color_crowd": "#e8e8e8"}}, {"type": "Feature", "geometry": {"type": "Polygon", "coordinates": [[[120.3028, 14.83], [120.3178, 14.83], [120.3178, 14.845], [120.3028, 14.845], [120.3028, 14.83]]]}, "properties": {"gap": 1.3, "sss": 1.8, "rwi": 1.111, "pop_density": 3331.0, "sss_t": 0, "rwi_t": 1, "cls": 1, "color": "#ace4e4", "crowd_t": 0, "color_crowd": "#e8e8e8"}}, {"type": "Feature", "geometry": {"type": "Polygon", "coordinates": [[[120.3028, 14.815], [120.3178, 14.815], [120.3178, 14.83], [120.3028, 14.83], [120.3028, 14.815]]]}, "properties": {"gap": 0.0, "sss": 0.0, "rwi": 1.111, "pop_density": 2963.0, "sss_t": 0, "rwi_t": 1, "cls": 1, "color": "#ace4e4", "crowd_t": 0, "color_crowd": "#e8e8e8"}}, {"type": "Feature", "geometry": {"type": "Polygon", "coordinates": [[[120.3178, 14.83], [120.3328, 14.83], [120.3328, 14.845], [120.3178, 14.845], [120.3178, 14.83]]]}, "properties": {"gap": 0.0, "sss": 0.0, "rwi": 1.111, "pop_density": 772.0, "sss_t": 0, "rwi_t": 1, "cls": 1, "color": "#ace4e4", "crowd_t": 0, "color_crowd": "#e8e8e8"}}, {"type": "Feature", "geometry": {"type": "Polygon", "coordinates": [[[120.2878, 14.815], [120.3028, 14.815], [120.3028, 14.83], [120.2878, 14.83], [120.2878, 14.815]]]}, "properties": {"gap": 9.4, "sss": 12.6, "rwi": 1.013, "pop_density": 2600.0, "sss_t": 1, "rwi_t": 0, "cls": 3, "color": "#dfb0d6", "crowd_t": 3, "color_crowd": "#dfb0d6"}}, {"type": "Feature", "geometry": {"type": "Polygon", "coordinates": [[[120.2878, 14.844999999999999], [120.3028, 14.844999999999999], [120.3028, 14.86], [120.2878, 14.86], [120.2878, 14.844999999999999]]]}, "properties": {"gap": 3.6, "sss": 7.0, "rwi": 1.369, "pop_density": 7543.0, "sss_t": 1, "rwi_t": 2, "cls": 5, "color": "#5698b9", "crowd_t": 4, "color_crowd": "#a5add3"}}, {"type": "Feature", "geometry": {"type": "Polygon", "coordinates": [[[120.2428, 14.844999999999999], [120.2578, 14.844999999999999], [120.2578, 14.86], [120.2428, 14.86], [120.2428, 14.844999999999999]]]}, "properties": {"gap": 6.7, "sss": 15.4, "rwi": 1.642, "pop_density": 12461.0, "sss_t": 1, "rwi_t": 2, "cls": 5, "color": "#5698b9", "crowd_t": 5, "color_crowd": "#5698b9"}}, {"type": "Feature", "geometry": {"type": "Polygon", "coordinates": [[[120.2428, 14.86], [120.2578, 14.86], [120.2578, 14.875], [120.2428, 14.875], [120.2428, 14.86]]]}, "properties": {"gap": 10.0, "sss": 22.2, "rwi": 1.192, "pop_density": 14107.0, "sss_t": 1, "rwi_t": 2, "cls": 5, "color": "#5698b9", "crowd_t": 5, "color_crowd": "#5698b9"}}, {"type": "Feature", "geometry": {"type": "Polygon", "coordinates": [[[120.2278, 14.86], [120.2428, 14.86], [120.2428, 14.875], [120.2278, 14.875], [120.2278, 14.86]]]}, "properties": {"gap": 10.0, "sss": 18.7, "rwi": 1.192, "pop_density": 16106.0, "sss_t": 1, "rwi_t": 2, "cls": 5, "color": "#5698b9", "crowd_t": 5, "color_crowd": "#5698b9"}}, {"type": "Feature", "geometry": {"type": "Polygon", "coordinates": [[[120.2578, 14.844999999999999], [120.2728, 14.844999999999999], [120.2728, 14.86], [120.2578, 14.86], [120.2578, 14.844999999999999]]]}, "properties": {"gap": 11.6, "sss": 20.3, "rwi": 0.872, "pop_density": 2926.0, "sss_t": 2, "rwi_t": 0, "cls": 6, "color": "#be64ac", "crowd_t": 6, "color_crowd": "#be64ac"}}, {"type": "Feature", "geometry": {"type": "Polygon", "coordinates": [[[120.2578, 14.86], [120.2728, 14.86], [120.2728, 14.875], [120.2578, 14.875], [120.2578, 14.86]]]}, "properties": {"gap": 0.0, "sss": 0.0, "rwi": 0.667, "pop_density": 11203.0, "sss_t": 0, "rwi_t": 0, "cls": 0, "color": "#e8e8e8", "crowd_t": 1, "color_crowd": "#ace4e4"}}, {"type": "Feature", "geometry": {"type": "Polygon", "coordinates": [[[120.2578, 14.875], [120.2728, 14.875], [120.2728, 14.89], [120.2578, 14.89], [120.2578, 14.875]]]}, "properties": {"gap": 3.1, "sss": 7.0, "rwi": 0.667, "pop_density": 13149.0, "sss_t": 0, "rwi_t": 0, "cls": 0, "color": "#e8e8e8", "crowd_t": 2, "color_crowd": "#5ac8c8"}}, {"type": "Feature", "geometry": {"type": "Polygon", "coordinates": [[[120.3028, 14.844999999999999], [120.3178, 14.844999999999999], [120.3178, 14.86], [120.3028, 14.86], [120.3028, 14.844999999999999]]]}, "properties": {"gap": 19.1, "sss": 32.7, "rwi": 1.188, "pop_density": 11380.0, "sss_t": 2, "rwi_t": 2, "cls": 8, "color": "#3b4994", "crowd_t": 8, "color_crowd": "#3b4994"}}, {"type": "Feature", "geometry": {"type": "Polygon", "coordinates": [[[120.3178, 14.844999999999999], [120.3328, 14.844999999999999], [120.3328, 14.86], [120.3178, 14.86], [120.3178, 14.844999999999999]]]}, "properties": {"gap": 30.0, "sss": 45.1, "rwi": 1.188, "pop_density": 6540.0, "sss_t": 2, "rwi_t": 2, "cls": 8, "color": "#3b4994", "crowd_t": 7, "color_crowd": "#8c62aa"}}, {"type": "Feature", "geometry": {"type": "Polygon", "coordinates": [[[120.3328, 14.844999999999999], [120.3478, 14.844999999999999], [120.3478, 14.86], [120.3328, 14.86], [120.3328, 14.844999999999999]]]}, "properties": {"gap": 30.0, "sss": 46.0, "rwi": 1.188, "pop_density": 7295.0, "sss_t": 2, "rwi_t": 2, "cls": 8, "color": "#3b4994", "crowd_t": 7, "color_crowd": "#8c62aa"}}]}