{"type": "FeatureCollection", "features": [{"type": "Feature", "geometry": {"type": "Polygon", "coordinates": [[[123.6846, 13.0889], [123.6996, 13.0889], [123.6996, 13.103900000000001], [123.6846, 13.103900000000001], [123.6846, 13.0889]]]}, "properties": {"gap": 0.0, "sss": 0.0, "rwi": 0.97, "pop_density": 4047.0, "sss_t": 0, "rwi_t": 1, "cls": 1, "color": "#ace4e4", "crowd_t": 0, "color_crowd": "#e8e8e8"}}, {"type": "Feature", "geometry": {"type": "Polygon", "coordinates": [[[123.6846, 13.103900000000001], [123.6996, 13.103900000000001], [123.6996, 13.118900000000002], [123.6846, 13.118900000000002], [123.6846, 13.103900000000001]]]}, "properties": {"gap": 0.0, "sss": 0.0, "rwi": 0.97, "pop_density": 4219.0, "sss_t": 0, "rwi_t": 1, "cls": 1, "color": "#ace4e4", "crowd_t": 0, "color_crowd": "#e8e8e8"}}, {"type": "Feature", "geometry": {"type": "Polygon", "coordinates": [[[123.6846, 13.1189], [123.6996, 13.1189], [123.6996, 13.1339], [123.6846, 13.1339], [123.6846, 13.1189]]]}, "properties": {"gap": 4.3, "sss": 5.3, "rwi": 0.847, "pop_density": 459.0, "sss_t": 2, "rwi_t": 0, "cls": 6, "color": "#be64ac", "crowd_t": 6, "color_crowd": "#be64ac"}}, {"type": "Feature", "geometry": {"type": "Polygon", "coordinates": [[[123.6996, 13.0739], [123.7146, 13.0739], [123.7146, 13.0889], [123.6996, 13.0889], [123.6996, 13.0739]]]}, "properties": {"gap": 0.0, "sss": 0.0, "rwi": -0.086, "pop_density": 0.0, "sss_t": 0, "rwi_t": 0, "cls": 0, "color": "#e8e8e8", "crowd_t": 0, "color_crowd": "#e8e8e8"}}, {"type": "Feature", "geometry": {"type": "Polygon", "coordinates": [[[123.6996, 13.1189], [123.7146, 13.1189], [123.7146, 13.1339], [123.6996, 13.1339], [123.6996, 13.1189]]]}, "properties": {"gap": 10.0, "sss": 13.8, "rwi": 0.384, "pop_density": 3385.0, "sss_t": 2, "rwi_t": 0, "cls": 6, "color": "#be64ac", "crowd_t": 6, "color_crowd": "#be64ac"}}, {"type": "Feature", "geometry": {"type": "Polygon", "coordinates": [[[123.7146, 13.103900000000001], [123.7296, 13.103900000000001], [123.7296, 13.118900000000002], [123.7146, 13.118900000000002], [123.7146, 13.103900000000001]]]}, "properties": {"gap": 0.0, "sss": 0.0, "rwi": -0.086, "pop_density": 8361.0, "sss_t": 0, "rwi_t": 0, "cls": 0, "color": "#e8e8e8", "crowd_t": 1, "color_crowd": "#ace4e4"}}, {"type": "Feature", "geometry": {"type": "Polygon", "coordinates": [[[123.7296, 13.0889], [123.7446, 13.0889], [123.7446, 13.103900000000001], [123.7296, 13.103900000000001], [123.7296, 13.0889]]]}, "properties": {"gap": 10.0, "sss": 15.5, "rwi": 0.326, "pop_density": 7937.0, "sss_t": 2, "rwi_t": 0, "cls": 6, "color": "#be64ac", "crowd_t": 7, "color_crowd": "#8c62aa"}}, {"type": "Feature", "geometry": {"type": "Polygon", "coordinates": [[[123.7296, 13.1189], [123.7446, 13.1189], [123.7446, 13.1339], [123.7296, 13.1339], [123.7296, 13.1189]]]}, "properties": {"gap": 3.7, "sss": 6.9, "rwi": 0.587, "pop_density": 10044.0, "sss_t": 2, "rwi_t": 0, "cls": 6, "color": "#be64ac", "crowd_t": 8, "color_crowd": "#3b4994"}}, {"type": "Feature", "geometry": {"type": "Polygon", "coordinates": [[[123.6996, 13.1339], [123.7146, 13.1339], [123.7146, 13.148900000000001], [123.6996, 13.148900000000001], [123.6996, 13.1339]]]}, "properties": {"gap": 5.6, "sss": 8.7, "rwi": 1.598, "pop_density": 10527.0, "sss_t": 2, "rwi_t": 2, "cls": 8, "color": "#3b4994", "crowd_t": 8, "color_crowd": "#3b4994"}}, {"type": "Feature", "geometry": {"type": "Polygon", "coordinates": [[[123.7146, 13.148900000000001], [123.7296, 13.148900000000001], [123.7296, 13.163900000000002], [123.7146, 13.163900000000002], [123.7146, 13.148900000000001]]]}, "properties": {"gap": 0.0, "sss": 0.0, "rwi": 0.961, "pop_density": 12824.0, "sss_t": 0, "rwi_t": 1, "cls": 1, "color": "#ace4e4", "crowd_t": 2, "color_crowd": "#5ac8c8"}}, {"type": "Feature", "geometry": {"type": "Polygon", "coordinates": [[[123.7146, 13.1339], [123.7296, 13.1339], [123.7296, 13.148900000000001], [123.7146, 13.148900000000001], [123.7146, 13.1339]]]}, "properties": {"gap": 0.0, "sss": 0.0, "rwi": 1.598, "pop_density": 10917.0, "sss_t": 0, "rwi_t": 2, "cls": 2, "color": "#5ac8c8", "crowd_t": 2, "color_crowd": "#5ac8c8"}}, {"type": "Feature", "geometry": {"type": "Polygon", "coordinates": [[[123.6846, 13.1339], [123.6996, 13.1339], [123.6996, 13.148900000000001], [123.6846, 13.148900000000001], [123.6846, 13.1339]]]}, "properties": {"gap": 5.8, "sss": 7.5, "rwi": 0.15, "pop_density": 608.0, "sss_t": 2, "rwi_t": 0, "cls": 6, "color": "#be64ac", "crowd_t": 6, "color_crowd": "#be64ac"}}, {"type": "Feature", "geometry": {"type": "Polygon", "coordinates": [[[123.6996, 13.148900000000001], [123.7146, 13.148900000000001], [123.7146, 13.163900000000002], [123.6996, 13.163900000000002], [123.6996, 13.148900000000001]]]}, "properties": {"gap": 3.0, "sss": 4.8, "rwi": 0.961, "pop_density": 8763.0, "sss_t": 2, "rwi_t": 1, "cls": 7, "color": "#8c62aa", "crowd_t": 8, "color_crowd": "#3b4994"}}, {"type": "Feature", "geometry": {"type": "Polygon", "coordinates": [[[123.6846, 13.148900000000001], [123.6996, 13.148900000000001], [123.6996, 13.163900000000002], [123.6846, 13.163900000000002], [123.6846, 13.148900000000001]]]}, "properties": {"gap": 1.3, "sss": 1.9, "rwi": 0.945, "pop_density": 701.0, "sss_t": 1, "rwi_t": 1, "cls": 4, "color": "#a5add3", "crowd_t": 3, "color_crowd": "#dfb0d6"}}, {"type": "Feature", "geometry": {"type": "Polygon", "coordinates": [[[123.7296, 13.1339], [123.7446, 13.1339], [123.7446, 13.148900000000001], [123.7296, 13.148900000000001], [123.7296, 13.1339]]]}, "properties": {"gap": 0.4, "sss": 0.8, "rwi": 1.262, "pop_density": 7322.0, "sss_t": 1, "rwi_t": 2, "cls": 5, "color": "#5698b9", "crowd_t": 4, "color_crowd": "#a5add3"}}, {"type": "Feature", "geometry": {"type": "Polygon", "coordinates": [[[123.7446, 13.148900000000001], [123.7596, 13.148900000000001], [123.7596, 13.163900000000002], [123.7446, 13.163900000000002], [123.7446, 13.148900000000001]]]}, "properties": {"gap": 0.0, "sss": 0.0, "rwi": 1.219, "pop_density": 7559.0, "sss_t": 0, "rwi_t": 2, "cls": 2, "color": "#5ac8c8", "crowd_t": 1, "color_crowd": "#ace4e4"}}, {"type": "Feature", "geometry": {"type": "Polygon", "coordinates": [[[123.7446, 13.1339], [123.7596, 13.1339], [123.7596, 13.148900000000001], [123.7446, 13.148900000000001], [123.7446, 13.1339]]]}, "properties": {"gap": 0.0, "sss": 0.0, "rwi": 1.208, "pop_density": 9379.0, "sss_t": 0, "rwi_t": 2, "cls": 2, "color": "#5ac8c8", "crowd_t": 2, "color_crowd": "#5ac8c8"}}, {"type": "Feature", "geometry": {"type": "Polygon", "coordinates": [[[123.7296, 13.148900000000001], [123.7446, 13.148900000000001], [123.7446, 13.163900000000002], [123.7296, 13.163900000000002], [123.7296, 13.148900000000001]]]}, "properties": {"gap": 0.0, "sss": 0.0, "rwi": 1.249, "pop_density": 4830.0, "sss_t": 0, "rwi_t": 2, "cls": 2, "color": "#5ac8c8", "crowd_t": 1, "color_crowd": "#ace4e4"}}, {"type": "Feature", "geometry": {"type": "Polygon", "coordinates": [[[123.6846, 13.1639], [123.6996, 13.1639], [123.6996, 13.1789], [123.6846, 13.1789], [123.6846, 13.1639]]]}, "properties": {"gap": 2.9, "sss": 4.2, "rwi": 0.945, "pop_density": 5588.0, "sss_t": 1, "rwi_t": 1, "cls": 4, "color": "#a5add3", "crowd_t": 4, "color_crowd": "#a5add3"}}, {"type": "Feature", "geometry": {"type": "Polygon", "coordinates": [[[123.7446, 13.1639], [123.7596, 13.1639], [123.7596, 13.1789], [123.7446, 13.1789], [123.7446, 13.1639]]]}, "properties": {"gap": 0.0, "sss": 0.0, "rwi": 1.219, "pop_density": 11330.0, "sss_t": 0, "rwi_t": 2, "cls": 2, "color": "#5ac8c8", "crowd_t": 2, "color_crowd": "#5ac8c8"}}]}