{"type": "FeatureCollection", "features": [{"type": "Feature", "geometry": {"type": "Polygon", "coordinates": [[[121.0124, 14.7552], [121.0274, 14.7552], [121.0274, 14.7702], [121.0124, 14.7702], [121.0124, 14.7552]]]}, "properties": {"gap": 0.0, "sss": 0.0, "rwi": 1.226, "pop_density": 10813.0, "sss_t": 0, "rwi_t": 1, "cls": 1, "color": "#ace4e4", "crowd_t": 1, "color_crowd": "#ace4e4"}}, {"type": "Feature", "geometry": {"type": "Polygon", "coordinates": [[[121.0274, 14.7552], [121.0424, 14.7552], [121.0424, 14.7702], [121.0274, 14.7702], [121.0274, 14.7552]]]}, "properties": {"gap": 0.8, "sss": 1.5, "rwi": 1.713, "pop_density": 24796.0, "sss_t": 1, "rwi_t": 2, "cls": 5, "color": "#5698b9", "crowd_t": 5, "color_crowd": "#5698b9"}}, {"type": "Feature", "geometry": {"type": "Polygon", "coordinates": [[[120.9974, 14.7552], [121.0124, 14.7552], [121.0124, 14.7702], [120.9974, 14.7702], [120.9974, 14.7552]]]}, "properties": {"gap": 1.7, "sss": 2.6, "rwi": 1.226, "pop_density": 8995.0, "sss_t": 2, "rwi_t": 1, "cls": 7, "color": "#8c62aa", "crowd_t": 7, "color_crowd": "#8c62aa"}}, {"type": "Feature", "geometry": {"type": "Polygon", "coordinates": [[[121.0124, 14.7852], [121.0274, 14.7852], [121.0274, 14.8002], [121.0124, 14.8002], [121.0124, 14.7852]]]}, "properties": {"gap": 0.0, "sss": 0.0, "rwi": 1.415, "pop_density": 3217.0, "sss_t": 0, "rwi_t": 1, "cls": 1, "color": "#ace4e4", "crowd_t": 0, "color_crowd": "#e8e8e8"}}, {"type": "Feature", "geometry": {"type": "Polygon", "coordinates": [[[121.0124, 14.7702], [121.0274, 14.7702], [121.0274, 14.785200000000001], [121.0124, 14.785200000000001], [121.0124, 14.7702]]]}, "properties": {"gap": 2.2, "sss": 4.9, "rwi": 1.415, "pop_density": 6649.0, "sss_t": 2, "rwi_t": 1, "cls": 7, "color": "#8c62aa", "crowd_t": 6, "color_crowd": "#be64ac"}}, {"type": "Feature", "geometry": {"type": "Polygon", "coordinates": [[[120.9974, 14.7702], [121.0124, 14.7702], [121.0124, 14.785200000000001], [120.9974, 14.785200000000001], [120.9974, 14.7702]]]}, "properties": {"gap": 0.0, "sss": 0.0, "rwi": 1.415, "pop_density": 20147.0, "sss_t": 0, "rwi_t": 1, "cls": 1, "color": "#ace4e4", "crowd_t": 2, "color_crowd": "#5ac8c8"}}, {"type": "Feature", "geometry": {"type": "Polygon", "coordinates": [[[120.9974, 14.7852], [121.0124, 14.7852], [121.0124, 14.8002], [120.9974, 14.8002], [120.9974, 14.7852]]]}, "properties": {"gap": 0.0, "sss": 0.0, "rwi": 1.415, "pop_density": 5746.0, "sss_t": 0, "rwi_t": 1, "cls": 1, "color": "#ace4e4", "crowd_t": 0, "color_crowd": "#e8e8e8"}}, {"type": "Feature", "geometry": {"type": "Polygon", "coordinates": [[[121.0424, 14.7702], [121.0574, 14.7702], [121.0574, 14.785200000000001], [121.0424, 14.785200000000001], [121.0424, 14.7702]]]}, "properties": {"gap": 0.0, "sss": 0.0, "rwi": 1.533, "pop_density": 91884.0, "sss_t": 0, "rwi_t": 2, "cls": 2, "color": "#5ac8c8", "crowd_t": 2, "color_crowd": "#5ac8c8"}}, {"type": "Feature", "geometry": {"type": "Polygon", "coordinates": [[[121.0574, 14.7552], [121.0724, 14.7552], [121.0724, 14.7702], [121.0574, 14.7702], [121.0574, 14.7552]]]}, "properties": {"gap": 0.8, "sss": 1.9, "rwi": 1.586, "pop_density": 23625.0, "sss_t": 1, "rwi_t": 2, "cls": 5, "color": "#5698b9", "crowd_t": 5, "color_crowd": "#5698b9"}}, {"type": "Feature", "geometry": {"type": "Polygon", "coordinates": [[[121.0574, 14.7702], [121.0724, 14.7702], [121.0724, 14.785200000000001], [121.0574, 14.785200000000001], [121.0574, 14.7702]]]}, "properties": {"gap": 0.0, "sss": 0.0, "rwi": 1.533, "pop_density": 32232.0, "sss_t": 0, "rwi_t": 2, "cls": 2, "color": "#5ac8c8", "crowd_t": 2, "color_crowd": "#5ac8c8"}}, {"type": "Feature", "geometry": {"type": "Polygon", "coordinates": [[[121.0424, 14.7552], [121.0574, 14.7552], [121.0574, 14.7702], [121.0424, 14.7702], [121.0424, 14.7552]]]}, "properties": {"gap": 0.0, "sss": 0.1, "rwi": 1.586, "pop_density": 39386.0, "sss_t": 1, "rwi_t": 2, "cls": 5, "color": "#5698b9", "crowd_t": 5, "color_crowd": "#5698b9"}}, {"type": "Feature", "geometry": {"type": "Polygon", "coordinates": [[[121.0574, 14.7852], [121.0724, 14.7852], [121.0724, 14.8002], [121.0574, 14.8002], [121.0574, 14.7852]]]}, "properties": {"gap": 4.9, "sss": 9.9, "rwi": 1.533, "pop_density": 4705.0, "sss_t": 2, "rwi_t": 2, "cls": 8, "color": "#3b4994", "crowd_t": 6, "color_crowd": "#be64ac"}}, {"type": "Feature", "geometry": {"type": "Polygon", "coordinates": [[[121.0274, 14.7702], [121.0424, 14.7702], [121.0424, 14.785200000000001], [121.0274, 14.785200000000001], [121.0274, 14.7702]]]}, "properties": {"gap": 0.0, "sss": 0.0, "rwi": 1.206, "pop_density": 31615.0, "sss_t": 0, "rwi_t": 1, "cls": 1, "color": "#ace4e4", "crowd_t": 2, "color_crowd": "#5ac8c8"}}, {"type": "Feature", "geometry": {"type": "Polygon", "coordinates": [[[121.0724, 14.7552], [121.0874, 14.7552], [121.0874, 14.7702], [121.0724, 14.7702], [121.0724, 14.7552]]]}, "properties": {"gap": 0.0, "sss": 0.0, "rwi": 1.302, "pop_density": 45598.0, "sss_t": 0, "rwi_t": 1, "cls": 1, "color": "#ace4e4", "crowd_t": 2, "color_crowd": "#5ac8c8"}}, {"type": "Feature", "geometry": {"type": "Polygon", "coordinates": [[[121.0724, 14.7702], [121.0874, 14.7702], [121.0874, 14.785200000000001], [121.0724, 14.785200000000001], [121.0724, 14.7702]]]}, "properties": {"gap": 5.7, "sss": 9.5, "rwi": 1.834, "pop_density": 10821.0, "sss_t": 2, "rwi_t": 2, "cls": 8, "color": "#3b4994", "crowd_t": 7, "color_crowd": "#8c62aa"}}, {"type": "Feature", "geometry": {"type": "Polygon", "coordinates": [[[121.0724, 14.7852], [121.0874, 14.7852], [121.0874, 14.8002], [121.0724, 14.8002], [121.0724, 14.7852]]]}, "properties": {"gap": 10.8, "sss": 22.4, "rwi": 1.834, "pop_density": 6370.0, "sss_t": 2, "rwi_t": 2, "cls": 8, "color": "#3b4994", "crowd_t": 6, "color_crowd": "#be64ac"}}, {"type": "Feature", "geometry": {"type": "Polygon", "coordinates": [[[120.9974, 14.8302], [121.0124, 14.8302], [121.0124, 14.8452], [120.9974, 14.8452], [120.9974, 14.8302]]]}, "properties": {"gap": 0.0, "sss": 0.0, "rwi": 0.993, "pop_density": 8146.0, "sss_t": 0, "rwi_t": 0, "cls": 0, "color": "#e8e8e8", "crowd_t": 1, "color_crowd": "#ace4e4"}}, {"type": "Feature", "geometry": {"type": "Polygon", "coordinates": [[[121.0274, 14.7852], [121.0424, 14.7852], [121.0424, 14.8002], [121.0274, 14.8002], [121.0274, 14.7852]]]}, "properties": {"gap": 0.0, "sss": 0.0, "rwi": 1.206, "pop_density": 19195.0, "sss_t": 0, "rwi_t": 1, "cls": 1, "color": "#ace4e4", "crowd_t": 2, "color_crowd": "#5ac8c8"}}, {"type": "Feature", "geometry": {"type": "Polygon", "coordinates": [[[120.9974, 14.8002], [121.0124, 14.8002], [121.0124, 14.8152], [120.9974, 14.8152], [120.9974, 14.8002]]]}, "properties": {"gap": 0.0, "sss": 0.0, "rwi": 1.284, "pop_density": 7339.0, "sss_t": 0, "rwi_t": 1, "cls": 1, "color": "#ace4e4", "crowd_t": 1, "color_crowd": "#ace4e4"}}, {"type": "Feature", "geometry": {"type": "Polygon", "coordinates": [[[121.0424, 14.8002], [121.0574, 14.8002], [121.0574, 14.8152], [121.0424, 14.8152], [121.0424, 14.8002]]]}, "properties": {"gap": 1.3, "sss": 3.0, "rwi": 1.238, "pop_density": 9969.0, "sss_t": 1, "rwi_t": 1, "cls": 4, "color": "#a5add3", "crowd_t": 4, "color_crowd": "#a5add3"}}, {"type": "Feature", "geometry": {"type": "Polygon", "coordinates": [[[121.0424, 14.8152], [121.0574, 14.8152], [121.0574, 14.830200000000001], [121.0424, 14.830200000000001], [121.0424, 14.8152]]]}, "properties": {"gap": 0.0, "sss": 0.0, "rwi": 0.861, "pop_density": 3786.0, "sss_t": 0, "rwi_t": 0, "cls": 0, "color": "#e8e8e8", "crowd_t": 0, "color_crowd": "#e8e8e8"}}, {"type": "Feature", "geometry": {"type": "Polygon", "coordinates": [[[121.0574, 14.8152], [121.0724, 14.8152], [121.0724, 14.830200000000001], [121.0574, 14.830200000000001], [121.0574, 14.8152]]]}, "properties": {"gap": 0.0, "sss": 0.0, "rwi": 0.861, "pop_density": 7644.0, "sss_t": 0, "rwi_t": 0, "cls": 0, "color": "#e8e8e8", "crowd_t": 1, "color_crowd": "#ace4e4"}}, {"type": "Feature", "geometry": {"type": "Polygon", "coordinates": [[[121.0424, 14.7852], [121.0574, 14.7852], [121.0574, 14.8002], [121.0424, 14.8002], [121.0424, 14.7852]]]}, "properties": {"gap": 0.0, "sss": 0.0, "rwi": 1.533, "pop_density": 19709.0, "sss_t": 0, "rwi_t": 2, "cls": 2, "color": "#5ac8c8", "crowd_t": 2, "color_crowd": "#5ac8c8"}}, {"type": "Feature", "geometry": {"type": "Polygon", "coordinates": [[[121.0274, 14.8002], [121.0424, 14.8002], [121.0424, 14.8152], [121.0274, 14.8152], [121.0274, 14.8002]]]}, "properties": {"gap": 1.3, "sss": 3.4, "rwi": 1.576, "pop_density": 30820.0, "sss_t": 1, "rwi_t": 2, "cls": 5, "color": "#5698b9", "crowd_t": 5, "color_crowd": "#5698b9"}}, {"type": "Feature", "geometry": {"type": "Polygon", "coordinates": [[[121.0724, 14.8002], [121.0874, 14.8002], [121.0874, 14.8152], [121.0724, 14.8152], [121.0724, 14.8002]]]}, "properties": {"gap": 18.0, "sss": 35.0, "rwi": 1.38, "pop_density": 13084.0, "sss_t": 2, "rwi_t": 1, "cls": 7, "color": "#8c62aa", "crowd_t": 7, "color_crowd": "#8c62aa"}}, {"type": "Feature", "geometry": {"type": "Polygon", "coordinates": [[[121.0874, 14.8152], [121.1024, 14.8152], [121.1024, 14.830200000000001], [121.0874, 14.830200000000001], [121.0874, 14.8152]]]}, "properties": {"gap": 30.0, "sss": 52.5, "rwi": 0.936, "pop_density": 12929.0, "sss_t": 2, "rwi_t": 0, "cls": 6, "color": "#be64ac", "crowd_t": 7, "color_crowd": "#8c62aa"}}, {"type": "Feature", "geometry": {"type": "Polygon", "coordinates": [[[121.0724, 14.8152], [121.0874, 14.8152], [121.0874, 14.830200000000001], [121.0724, 14.830200000000001], [121.0724, 14.8152]]]}, "properties": {"gap": 10.0, "sss": 17.3, "rwi": 0.936, "pop_density": 7529.0, "sss_t": 2, "rwi_t": 0, "cls": 6, "color": "#be64ac", "crowd_t": 7, "color_crowd": "#8c62aa"}}, {"type": "Feature", "geometry": {"type": "Polygon", "coordinates": [[[121.0574, 14.8002], [121.0724, 14.8002], [121.0724, 14.8152], [121.0574, 14.8152], [121.0574, 14.8002]]]}, "properties": {"gap": 12.2, "sss": 24.4, "rwi": 1.238, "pop_density": 4767.0, "sss_t": 2, "rwi_t": 1, "cls": 7, "color": "#8c62aa", "crowd_t": 6, "color_crowd": "#be64ac"}}, {"type": "Feature", "geometry": {"type": "Polygon", "coordinates": [[[121.0124, 14.8452], [121.0274, 14.8452], [121.0274, 14.8602], [121.0124, 14.8602], [121.0124, 14.8452]]]}, "properties": {"gap": 0.0, "sss": 0.0, "rwi": 1.109, "pop_density": 5008.0, "sss_t": 0, "rwi_t": 1, "cls": 1, "color": "#ace4e4", "crowd_t": 0, "color_crowd": "#e8e8e8"}}, {"type": "Feature", "geometry": {"type": "Polygon", "coordinates": [[[121.0274, 14.8302], [121.0424, 14.8302], [121.0424, 14.8452], [121.0274, 14.8452], [121.0274, 14.8302]]]}, "properties": {"gap": 0.0, "sss": 0.0, "rwi": 0.977, "pop_density": 4628.0, "sss_t": 0, "rwi_t": 0, "cls": 0, "color": "#e8e8e8", "crowd_t": 0, "color_crowd": "#e8e8e8"}}, {"type": "Feature", "geometry": {"type": "Polygon", "coordinates": [[[121.0424, 14.8302], [121.0574, 14.8302], [121.0574, 14.8452], [121.0424, 14.8452], [121.0424, 14.8302]]]}, "properties": {"gap": 0.0, "sss": 0.0, "rwi": 0.861, "pop_density": 4310.0, "sss_t": 0, "rwi_t": 0, "cls": 0, "color": "#e8e8e8", "crowd_t": 0, "color_crowd": "#e8e8e8"}}, {"type": "Feature", "geometry": {"type": "Polygon", "coordinates": [[[121.0424, 14.8452], [121.0574, 14.8452], [121.0574, 14.8602], [121.0424, 14.8602], [121.0424, 14.8452]]]}, "properties": {"gap": 1.6, "sss": 2.7, "rwi": 1.057, "pop_density": 4815.0, "sss_t": 2, "rwi_t": 0, "cls": 6, "color": "#be64ac", "crowd_t": 6, "color_crowd": "#be64ac"}}, {"type": "Feature", "geometry": {"type": "Polygon", "coordinates": [[[121.0274, 14.8752], [121.0424, 14.8752], [121.0424, 14.8902], [121.0274, 14.8902], [121.0274, 14.8752]]]}, "properties": {"gap": 0.0, "sss": 0.0, "rwi": 1.073, "pop_density": 10527.0, "sss_t": 0, "rwi_t": 0, "cls": 0, "color": "#e8e8e8", "crowd_t": 1, "color_crowd": "#ace4e4"}}, {"type": "Feature", "geometry": {"type": "Polygon", "coordinates": [[[121.0274, 14.8602], [121.0424, 14.8602], [121.0424, 14.875200000000001], [121.0274, 14.875200000000001], [121.0274, 14.8602]]]}, "properties": {"gap": 0.0, "sss": 0.0, "rwi": 1.073, "pop_density": 11412.0, "sss_t": 0, "rwi_t": 0, "cls": 0, "color": "#e8e8e8", "crowd_t": 1, "color_crowd": "#ace4e4"}}, {"type": "Feature", "geometry": {"type": "Polygon", "coordinates": [[[121.0574, 14.8602], [121.0724, 14.8602], [121.0724, 14.875200000000001], [121.0574, 14.875200000000001], [121.0574, 14.8602]]]}, "properties": {"gap": 0.0, "sss": 0.0, "rwi": 1.057, "pop_density": 6539.0, "sss_t": 0, "rwi_t": 0, "cls": 0, "color": "#e8e8e8", "crowd_t": 0, "color_crowd": "#e8e8e8"}}, {"type": "Feature", "geometry": {"type": "Polygon", "coordinates": [[[121.0274, 14.8452], [121.0424, 14.8452], [121.0424, 14.8602], [121.0274, 14.8602], [121.0274, 14.8452]]]}, "properties": {"gap": 0.0, "sss": 0.0, "rwi": 1.073, "pop_density": 2882.0, "sss_t": 0, "rwi_t": 0, "cls": 0, "color": "#e8e8e8", "crowd_t": 0, "color_crowd": "#e8e8e8"}}, {"type": "Feature", "geometry": {"type": "Polygon", "coordinates": [[[121.0724, 14.8302], [121.0874, 14.8302], [121.0874, 14.8452], [121.0724, 14.8452], [121.0724, 14.8302]]]}, "properties": {"gap": 10.0, "sss": 19.9, "rwi": 0.936, "pop_density": 19012.0, "sss_t": 2, "rwi_t": 0, "cls": 6, "color": "#be64ac", "crowd_t": 8, "color_crowd": "#3b4994"}}, {"type": "Feature", "geometry": {"type": "Polygon", "coordinates": [[[121.0574, 14.8452], [121.0724, 14.8452], [121.0724, 14.8602], [121.0574, 14.8602], [121.0574, 14.8452]]]}, "properties": {"gap": 0.0, "sss": 0.0, "rwi": 1.057, "pop_density": 12807.0, "sss_t": 0, "rwi_t": 0, "cls": 0, "color": "#e8e8e8", "crowd_t": 1, "color_crowd": "#ace4e4"}}, {"type": "Feature", "geometry": {"type": "Polygon", "coordinates": [[[121.0724, 14.8752], [121.0874, 14.8752], [121.0874, 14.8902], [121.0724, 14.8902], [121.0724, 14.8752]]]}, "properties": {"gap": 10.0, "sss": 14.6, "rwi": 1.05, "pop_density": 5377.0, "sss_t": 2, "rwi_t": 0, "cls": 6, "color": "#be64ac", "crowd_t": 6, "color_crowd": "#be64ac"}}, {"type": "Feature", "geometry": {"type": "Polygon", "coordinates": [[[121.0724, 14.8452], [121.0874, 14.8452], [121.0874, 14.8602], [121.0724, 14.8602], [121.0724, 14.8452]]]}, "properties": {"gap": 10.0, "sss": 19.2, "rwi": 1.05, "pop_density": 17352.0, "sss_t": 2, "rwi_t": 0, "cls": 6, "color": "#be64ac", "crowd_t": 8, "color_crowd": "#3b4994"}}]}