{"type": "FeatureCollection", "features": [{"type": "Feature", "geometry": {"type": "Polygon", "coordinates": [[[123.263, 9.275500000000001], [123.278, 9.275500000000001], [123.278, 9.290500000000002], [123.263, 9.290500000000002], [123.263, 9.275500000000001]]]}, "properties": {"gap": 0.0, "sss": 0.0, "rwi": 0.822, "pop_density": 2947.0, "sss_t": 0, "rwi_t": 0, "cls": 0, "color": "#e8e8e8", "crowd_t": 0, "color_crowd": "#e8e8e8"}}, {"type": "Feature", "geometry": {"type": "Polygon", "coordinates": [[[123.263, 9.2605], [123.278, 9.2605], [123.278, 9.275500000000001], [123.263, 9.275500000000001], [123.263, 9.2605]]]}, "properties": {"gap": 0.0, "sss": 0.0, "rwi": 0.331, "pop_density": 1954.0, "sss_t": 0, "rwi_t": 0, "cls": 0, "color": "#e8e8e8", "crowd_t": 0, "color_crowd": "#e8e8e8"}}, {"type": "Feature", "geometry": {"type": "Polygon", "coordinates": [[[123.263, 9.2905], [123.278, 9.2905], [123.278, 9.3055], [123.263, 9.3055], [123.263, 9.2905]]]}, "properties": {"gap": 0.0, "sss": 0.0, "rwi": 1.134, "pop_density": 7654.0, "sss_t": 0, "rwi_t": 1, "cls": 1, "color": "#ace4e4", "crowd_t": 1, "color_crowd": "#ace4e4"}}, {"type": "Feature", "geometry": {"type": "Polygon", "coordinates": [[[123.293, 9.2605], [123.308, 9.2605], [123.308, 9.275500000000001], [123.293, 9.275500000000001], [123.293, 9.2605]]]}, "properties": {"gap": 0.0, "sss": 0.0, "rwi": 0.94, "pop_density": 8903.0, "sss_t": 0, "rwi_t": 1, "cls": 1, "color": "#ace4e4", "crowd_t": 2, "color_crowd": "#5ac8c8"}}, {"type": "Feature", "geometry": {"type": "Polygon", "coordinates": [[[123.278, 9.275500000000001], [123.293, 9.275500000000001], [123.293, 9.290500000000002], [123.278, 9.290500000000002], [123.278, 9.275500000000001]]]}, "properties": {"gap": 10.0, "sss": 20.5, "rwi": 0.822, "pop_density": 17915.0, "sss_t": 2, "rwi_t": 0, "cls": 6, "color": "#be64ac", "crowd_t": 8, "color_crowd": "#3b4994"}}, {"type": "Feature", "geometry": {"type": "Polygon", "coordinates": [[[123.293, 9.275500000000001], [123.308, 9.275500000000001], [123.308, 9.290500000000002], [123.293, 9.290500000000002], [123.293, 9.275500000000001]]]}, "properties": {"gap": 0.0, "sss": 0.0, "rwi": 1.221, "pop_density": 14266.0, "sss_t": 0, "rwi_t": 2, "cls": 2, "color": "#5ac8c8", "crowd_t": 2, "color_crowd": "#5ac8c8"}}, {"type": "Feature", "geometry": {"type": "Polygon", "coordinates": [[[123.278, 9.2905], [123.293, 9.2905], [123.293, 9.3055], [123.278, 9.3055], [123.278, 9.2905]]]}, "properties": {"gap": 0.0, "sss": 0.0, "rwi": 1.134, "pop_density": 9715.0, "sss_t": 0, "rwi_t": 1, "cls": 1, "color": "#ace4e4", "crowd_t": 2, "color_crowd": "#5ac8c8"}}, {"type": "Feature", "geometry": {"type": "Polygon", "coordinates": [[[123.263, 9.3055], [123.278, 9.3055], [123.278, 9.320500000000001], [123.263, 9.320500000000001], [123.263, 9.3055]]]}, "properties": {"gap": 0.0, "sss": 0.0, "rwi": 1.134, "pop_density": 3220.0, "sss_t": 0, "rwi_t": 1, "cls": 1, "color": "#ace4e4", "crowd_t": 0, "color_crowd": "#e8e8e8"}}, {"type": "Feature", "geometry": {"type": "Polygon", "coordinates": [[[123.293, 9.3055], [123.308, 9.3055], [123.308, 9.320500000000001], [123.293, 9.320500000000001], [123.293, 9.3055]]]}, "properties": {"gap": 0.0, "sss": 0.0, "rwi": 1.333, "pop_density": 7649.0, "sss_t": 0, "rwi_t": 2, "cls": 2, "color": "#5ac8c8", "crowd_t": 1, "color_crowd": "#ace4e4"}}, {"type": "Feature", "geometry": {"type": "Polygon", "coordinates": [[[123.308, 9.3055], [123.32300000000001, 9.3055], [123.32300000000001, 9.320500000000001], [123.308, 9.320500000000001], [123.308, 9.3055]]]}, "properties": {"gap": 0.2, "sss": 0.2, "rwi": 0.647, "pop_density": 10087.0, "sss_t": 1, "rwi_t": 0, "cls": 3, "color": "#dfb0d6", "crowd_t": 5, "color_crowd": "#5698b9"}}, {"type": "Feature", "geometry": {"type": "Polygon", "coordinates": [[[123.293, 9.2905], [123.308, 9.2905], [123.308, 9.3055], [123.293, 9.3055], [123.293, 9.2905]]]}, "properties": {"gap": 0.0, "sss": 0.0, "rwi": 1.333, "pop_density": 8912.0, "sss_t": 0, "rwi_t": 2, "cls": 2, "color": "#5ac8c8", "crowd_t": 2, "color_crowd": "#5ac8c8"}}, {"type": "Feature", "geometry": {"type": "Polygon", "coordinates": [[[123.308, 9.2905], [123.32300000000001, 9.2905], [123.32300000000001, 9.3055], [123.308, 9.3055], [123.308, 9.2905]]]}, "properties": {"gap": 0.0, "sss": 0.0, "rwi": 0.647, "pop_density": 4347.0, "sss_t": 0, "rwi_t": 0, "cls": 0, "color": "#e8e8e8", "crowd_t": 1, "color_crowd": "#ace4e4"}}, {"type": "Feature", "geometry": {"type": "Polygon", "coordinates": [[[123.278, 9.3355], [123.293, 9.3355], [123.293, 9.3505], [123.278, 9.3505], [123.278, 9.3355]]]}, "properties": {"gap": 5.8, "sss": 8.2, "rwi": 0.909, "pop_density": 4130.0, "sss_t": 2, "rwi_t": 0, "cls": 6, "color": "#be64ac", "crowd_t": 7, "color_crowd": "#8c62aa"}}, {"type": "Feature", "geometry": {"type": "Polygon", "coordinates": [[[123.278, 9.320500000000001], [123.293, 9.320500000000001], [123.293, 9.335500000000001], [123.278, 9.335500000000001], [123.278, 9.320500000000001]]]}, "properties": {"gap": 6.4, "sss": 8.8, "rwi": 0.909, "pop_density": 3452.0, "sss_t": 2, "rwi_t": 0, "cls": 6, "color": "#be64ac", "crowd_t": 6, "color_crowd": "#be64ac"}}, {"type": "Feature", "geometry": {"type": "Polygon", "coordinates": [[[123.263, 9.3355], [123.278, 9.3355], [123.278, 9.3505], [123.263, 9.3505], [123.263, 9.3355]]]}, "properties": {"gap": 1.3, "sss": 1.6, "rwi": 0.909, "pop_density": 417.0, "sss_t": 1, "rwi_t": 0, "cls": 3, "color": "#dfb0d6", "crowd_t": 3, "color_crowd": "#dfb0d6"}}, {"type": "Feature", "geometry": {"type": "Polygon", "coordinates": [[[123.263, 9.3505], [123.278, 9.3505], [123.278, 9.3655], [123.263, 9.3655], [123.263, 9.3505]]]}, "properties": {"gap": 10.0, "sss": 13.9, "rwi": 0.909, "pop_density": 3620.0, "sss_t": 2, "rwi_t": 0, "cls": 6, "color": "#be64ac", "crowd_t": 6, "color_crowd": "#be64ac"}}, {"type": "Feature", "geometry": {"type": "Polygon", "coordinates": [[[123.293, 9.320500000000001], [123.308, 9.320500000000001], [123.308, 9.335500000000001], [123.293, 9.335500000000001], [123.293, 9.320500000000001]]]}, "properties": {"gap": 1.3, "sss": 1.8, "rwi": 1.228, "pop_density": 6217.0, "sss_t": 2, "rwi_t": 2, "cls": 8, "color": "#3b4994", "crowd_t": 7, "color_crowd": "#8c62aa"}}, {"type": "Feature", "geometry": {"type": "Polygon", "coordinates": [[[123.263, 9.320500000000001], [123.278, 9.320500000000001], [123.278, 9.335500000000001], [123.263, 9.335500000000001], [123.263, 9.320500000000001]]]}, "properties": {"gap": 2.6, "sss": 5.3, "rwi": 0.909, "pop_density": 2446.0, "sss_t": 2, "rwi_t": 0, "cls": 6, "color": "#be64ac", "crowd_t": 6, "color_crowd": "#be64ac"}}, {"type": "Feature", "geometry": {"type": "Polygon", "coordinates": [[[123.308, 9.320500000000001], [123.32300000000001, 9.320500000000001], [123.32300000000001, 9.335500000000001], [123.308, 9.335500000000001], [123.308, 9.320500000000001]]]}, "properties": {"gap": 0.0, "sss": 0.0, "rwi": 0.004, "pop_density": 6564.0, "sss_t": 0, "rwi_t": 0, "cls": 0, "color": "#e8e8e8", "crowd_t": 1, "color_crowd": "#ace4e4"}}]}