{"type": "FeatureCollection", "features": [{"type": "Feature", "geometry": {"type": "Point", "coordinates": [121.0465919, 14.765951]}, "properties": {"kind": "place_of_worship"}}, {"type": "Feature", "geometry": {"type": "Point", "coordinates": [121.0386399, 14.800083]}, "properties": {"kind": "school"}}, {"type": "Feature", "geometry": {"type": "Point", "coordinates": [121.0188291, 14.7754011]}, "properties": {"kind": "bus_stop"}}, {"type": "Feature", "geometry": {"type": "Point", "coordinates": [121.0471516, 14.7747673]}, "properties": {"kind": "place_of_worship"}}, {"type": "Feature", "geometry": {"type": "Point", "coordinates": [121.0308352, 14.7613697]}, "properties": {"kind": "place_of_worship"}}, {"type": "Feature", "geometry": {"type": "Point", "coordinates": [121.0307681, 14.7613262]}, "properties": {"kind": "school"}}, {"type": "Feature", "geometry": {"type": "Point", "coordinates": [121.0435943, 14.7583945]}, "properties": {"kind": "place_of_worship"}}, {"type": "Feature", "geometry": {"type": "Point", "coordinates": [121.0435463, 14.7582443]}, "properties": {"kind": "place_of_worship"}}, {"type": "Feature", "geometry": {"type": "Point", "coordinates": [121.0316811, 14.7698861]}, "properties": {"kind": "place_of_worship"}}, {"type": "Feature", "geometry": {"type": "Point", "coordinates": [121.0106141, 14.7604658]}, "properties": {"kind": "place_of_worship"}}, {"type": "Feature", "geometry": {"type": "Point", "coordinates": [121.0106141, 14.7604658]}, "properties": {"kind": "place_of_worship"}}, {"type": "Feature", "geometry": {"type": "Point", "coordinates": [121.0298508, 14.7764015]}, "properties": {"kind": "bus_stop"}}, {"type": "Feature", "geometry": {"type": "Point", "coordinates": [121.0352035, 14.7785352]}, "properties": {"kind": "bus_stop"}}, {"type": "Feature", "geometry": {"type": "Point", "coordinates": [121.0352119, 14.7785827]}, "properties": {"kind": "bus_stop"}}, {"type": "Feature", "geometry": {"type": "Point", "coordinates": [121.045068, 14.7649465]}, "properties": {"kind": "school"}}, {"type": "Feature", "geometry": {"type": "Point", "coordinates": [121.0406574, 14.7699319]}, "properties": {"kind": "place_of_worship"}}, {"type": "Feature", "geometry": {"type": "Point", "coordinates": [121.0446771, 14.774692]}, "properties": {"kind": "bus_stop"}}, {"type": "Feature", "geometry": {"type": "Point", "coordinates": [121.0437647, 14.7570748]}, "properties": {"kind": "bus_stop"}}, {"type": "Feature", "geometry": {"type": "Point", "coordinates": [121.0438711, 14.7680669]}, "properties": {"kind": "bus_stop"}}, {"type": "Feature", "geometry": {"type": "Point", "coordinates": [121.044821, 14.7748454]}, "properties": {"kind": "bus_stop"}}, {"type": "Feature", "geometry": {"type": "Point", "coordinates": [121.0437756, 14.7679131]}, "properties": {"kind": "bus_stop"}}, {"type": "Feature", "geometry": {"type": "Point", "coordinates": [121.0281071, 14.7962714]}, "properties": {"kind": "bus_stop"}}, {"type": "Feature", "geometry": {"type": "Point", "coordinates": [121.034935, 14.802405]}, "properties": {"kind": "bus_stop"}}, {"type": "Feature", "geometry": {"type": "Point", "coordinates": [121.0473705, 14.8101188]}, "properties": {"kind": "bus_stop"}}, {"type": "Feature", "geometry": {"type": "Point", "coordinates": [121.0347768, 14.802337]}, "properties": {"kind": "bus_stop"}}, {"type": "Feature", "geometry": {"type": "Point", "coordinates": [121.028693, 14.796392]}, "properties": {"kind": "bus_stop"}}, {"type": "Feature", "geometry": {"type": "Point", "coordinates": [121.0356501, 14.7805571]}, "properties": {"kind": "school"}}, {"type": "Feature", "geometry": {"type": "Point", "coordinates": [121.0336716, 14.7808208]}, "properties": {"kind": "marketplace"}}, {"type": "Feature", "geometry": {"type": "Point", "coordinates": [121.0337597, 14.8052287]}, "properties": {"kind": "place_of_worship"}}, {"type": "Feature", "geometry": {"type": "Point", "coordinates": [121.0350554, 14.8084518]}, "properties": {"kind": "school"}}, {"type": "Feature", "geometry": {"type": "Point", "coordinates": [121.0284062, 14.7616979]}, "properties": {"kind": "place_of_worship"}}, {"type": "Feature", "geometry": {"type": "Point", "coordinates": [121.0350866, 14.8087844]}, "properties": {"kind": "school"}}, {"type": "Feature", "geometry": {"type": "Point", "coordinates": [121.0338117, 14.8011588]}, "properties": {"kind": "bus_stop"}}, {"type": "Feature", "geometry": {"type": "Point", "coordinates": [121.0083846, 14.7908125]}, "properties": {"kind": "place_of_worship"}}, {"type": "Feature", "geometry": {"type": "Point", "coordinates": [121.0324744, 14.7886422]}, "properties": {"kind": "place_of_worship"}}, {"type": "Feature", "geometry": {"type": "Point", "coordinates": [121.0401712, 14.7696229]}, "properties": {"kind": "place_of_worship"}}, {"type": "Feature", "geometry": {"type": "Point", "coordinates": [121.0276906, 14.8065847]}, "properties": {"kind": "place_of_worship"}}, {"type": "Feature", "geometry": {"type": "Point", "coordinates": [121.0043772, 14.8077053]}, "properties": {"kind": "school"}}, {"type": "Feature", "geometry": {"type": "Point", "coordinates": [121.0187227, 14.7723583]}, "properties": {"kind": "school"}}, {"type": "Feature", "geometry": {"type": "Point", "coordinates": [121.0421384, 14.7686648]}, "properties": {"kind": "bus_stop"}}, {"type": "Feature", "geometry": {"type": "Point", "coordinates": [121.0425175, 14.7683188]}, "properties": {"kind": "bus_stop"}}, {"type": "Feature", "geometry": {"type": "Point", "coordinates": [121.0444198, 14.7613076]}, "properties": {"kind": "bus_stop"}}, {"type": "Feature", "geometry": {"type": "Point", "coordinates": [121.0434483, 14.7677187]}, "properties": {"kind": "bus_stop"}}, {"type": "Feature", "geometry": {"type": "Point", "coordinates": [121.0443119, 14.7636798]}, "properties": {"kind": "bus_stop"}}, {"type": "Feature", "geometry": {"type": "Point", "coordinates": [121.0397072, 14.7791932]}, "properties": {"kind": "bus_stop"}}, {"type": "Feature", "geometry": {"type": "Point", "coordinates": [121.0444439, 14.7621041]}, "properties": {"kind": "bus_stop"}}, {"type": "Feature", "geometry": {"type": "Point", "coordinates": [121.0396361, 14.7771645]}, "properties": {"kind": "bus_stop"}}, {"type": "Feature", "geometry": {"type": "Point", "coordinates": [121.0412981, 14.7705866]}, "properties": {"kind": "bus_stop"}}, {"type": "Feature", "geometry": {"type": "Point", "coordinates": [121.0437921, 14.7589344]}, "properties": {"kind": "bus_stop"}}, {"type": "Feature", "geometry": {"type": "Point", "coordinates": [121.0398381, 14.7786781]}, "properties": {"kind": "bus_stop"}}, {"type": "Feature", "geometry": {"type": "Point", "coordinates": [121.0374301, 14.7798923]}, "properties": {"kind": "bus_stop"}}, {"type": "Feature", "geometry": {"type": "Point", "coordinates": [121.0412977, 14.7704162]}, "properties": {"kind": "bus_stop"}}, {"type": "Feature", "geometry": {"type": "Point", "coordinates": [121.0440221, 14.7605477]}, "properties": {"kind": "bus_stop"}}, {"type": "Feature", "geometry": {"type": "Point", "coordinates": [121.0369814, 14.77997]}, "properties": {"kind": "bus_stop"}}, {"type": "Feature", "geometry": {"type": "Point", "coordinates": [121.0434528, 14.7675811]}, "properties": {"kind": "bus_stop"}}, {"type": "Feature", "geometry": {"type": "Point", "coordinates": [121.0441062, 14.7608578]}, "properties": {"kind": "bus_stop"}}, {"type": "Feature", "geometry": {"type": "Point", "coordinates": [121.043698, 14.7586423]}, "properties": {"kind": "bus_stop"}}, {"type": "Feature", "geometry": {"type": "Point", "coordinates": [121.0397469, 14.7727392]}, "properties": {"kind": "bus_stop"}}, {"type": "Feature", "geometry": {"type": "Point", "coordinates": [121.0397591, 14.7776917]}, "properties": {"kind": "bus_stop"}}, {"type": "Feature", "geometry": {"type": "Point", "coordinates": [121.0396952, 14.7732732]}, "properties": {"kind": "bus_stop"}}, {"type": "Feature", "geometry": {"type": "Point", "coordinates": [121.0444116, 14.7638245]}, "properties": {"kind": "bus_stop"}}, {"type": "Feature", "geometry": {"type": "Point", "coordinates": [121.0270404, 14.7603189]}, "properties": {"kind": "school"}}, {"type": "Feature", "geometry": {"type": "Point", "coordinates": [121.0011547, 14.7642507]}, "properties": {"kind": "school"}}, {"type": "Feature", "geometry": {"type": "Point", "coordinates": [121.0338331, 14.8009993]}, "properties": {"kind": "marketplace"}}, {"type": "Feature", "geometry": {"type": "Point", "coordinates": [121.0174833, 14.7747811]}, "properties": {"kind": "place_of_worship"}}, {"type": "Feature", "geometry": {"type": "Point", "coordinates": [121.0451506, 14.7753949]}, "properties": {"kind": "place_of_worship"}}, {"type": "Feature", "geometry": {"type": "Point", "coordinates": [121.0471021, 14.8099425]}, "properties": {"kind": "marketplace"}}, {"type": "Feature", "geometry": {"type": "Point", "coordinates": [121.0446266, 14.8077768]}, "properties": {"kind": "school"}}, {"type": "Feature", "geometry": {"type": "Point", "coordinates": [121.0226412, 14.7713583]}, "properties": {"kind": "place_of_worship"}}, {"type": "Feature", "geometry": {"type": "Point", "coordinates": [121.0015332, 14.7657637]}, "properties": {"kind": "school"}}, {"type": "Feature", "geometry": {"type": "Point", "coordinates": [121.0031178, 14.7672175]}, "properties": {"kind": "school"}}, {"type": "Feature", "geometry": {"type": "Point", "coordinates": [121.016289, 14.784578]}, "properties": {"kind": "school"}}, {"type": "Feature", "geometry": {"type": "Point", "coordinates": [121.0162543, 14.7847363]}, "properties": {"kind": "school"}}, {"type": "Feature", "geometry": {"type": "Point", "coordinates": [121.0283986, 14.7955111]}, "properties": {"kind": "place_of_worship"}}, {"type": "Feature", "geometry": {"type": "Point", "coordinates": [120.997465, 14.7633538]}, "properties": {"kind": "place_of_worship"}}, {"type": "Feature", "geometry": {"type": "Point", "coordinates": [120.9975764, 14.7625572]}, "properties": {"kind": "place_of_worship"}}, {"type": "Feature", "geometry": {"type": "Point", "coordinates": [121.0017646, 14.7676256]}, "properties": {"kind": "place_of_worship"}}, {"type": "Feature", "geometry": {"type": "Point", "coordinates": [121.0010908, 14.7663442]}, "properties": {"kind": "place_of_worship"}}, {"type": "Feature", "geometry": {"type": "Point", "coordinates": [121.0435199, 14.7832479]}, "properties": {"kind": "place_of_worship"}}, {"type": "Feature", "geometry": {"type": "Point", "coordinates": [121.0432366, 14.7829244]}, "properties": {"kind": "place_of_worship"}}, {"type": "Feature", "geometry": {"type": "Point", "coordinates": [121.0447027, 14.7830509]}, "properties": {"kind": "school"}}, {"type": "Feature", "geometry": {"type": "Point", "coordinates": [121.0423234, 14.7816503]}, "properties": {"kind": "place_of_worship"}}, {"type": "Feature", "geometry": {"type": "Point", "coordinates": [121.0457785, 14.7835034]}, "properties": {"kind": "school"}}, {"type": "Feature", "geometry": {"type": "Point", "coordinates": [121.043418, 14.7618095]}, "properties": {"kind": "school"}}, {"type": "Feature", "geometry": {"type": "Point", "coordinates": [121.0440578, 14.7633043]}, "properties": {"kind": "hospital"}}, {"type": "Feature", "geometry": {"type": "Point", "coordinates": [121.0452531, 14.7597015]}, "properties": {"kind": "school"}}, {"type": "Feature", "geometry": {"type": "Point", "coordinates": [121.0467349, 14.756049]}, "properties": {"kind": "school"}}, {"type": "Feature", "geometry": {"type": "Point", "coordinates": [121.0359943, 14.7603929]}, "properties": {"kind": "place_of_worship"}}, {"type": "Feature", "geometry": {"type": "Point", "coordinates": [121.043062, 14.7685928]}, "properties": {"kind": "hospital"}}, {"type": "Feature", "geometry": {"type": "Point", "coordinates": [121.0319525, 14.780694]}, "properties": {"kind": "school"}}, {"type": "Feature", "geometry": {"type": "Point", "coordinates": [121.0253567, 14.7845773]}, "properties": {"kind": "place_of_worship"}}, {"type": "Feature", "geometry": {"type": "Point", "coordinates": [121.0243426, 14.7846024]}, "properties": {"kind": "marketplace"}}, {"type": "Feature", "geometry": {"type": "Point", "coordinates": [121.0249591, 14.7847711]}, "properties": {"kind": "school"}}, {"type": "Feature", "geometry": {"type": "Point", "coordinates": [121.0245392, 14.7851089]}, "properties": {"kind": "school"}}, {"type": "Feature", "geometry": {"type": "Point", "coordinates": [121.0441539, 14.7557185]}, "properties": {"kind": "school"}}, {"type": "Feature", "geometry": {"type": "Point", "coordinates": [121.0061111, 14.7576557]}, "properties": {"kind": "place_of_worship"}}, {"type": "Feature", "geometry": {"type": "Point", "coordinates": [121.004627, 14.7666093]}, "properties": {"kind": "place_of_worship"}}, {"type": "Feature", "geometry": {"type": "Point", "coordinates": [121.0038643, 14.7667697]}, "properties": {"kind": "place_of_worship"}}, {"type": "Feature", "geometry": {"type": "Point", "coordinates": [121.0032576, 14.7748958]}, "properties": {"kind": "school"}}, {"type": "Feature", "geometry": {"type": "Point", "coordinates": [121.0212534, 14.7633767]}, "properties": {"kind": "place_of_worship"}}, {"type": "Feature", "geometry": {"type": "Point", "coordinates": [121.0332096, 14.8029443]}, "properties": {"kind": "place_of_worship"}}, {"type": "Feature", "geometry": {"type": "Point", "coordinates": [121.0348525, 14.8030262]}, "properties": {"kind": "hospital"}}, {"type": "Feature", "geometry": {"type": "Point", "coordinates": [121.0420864, 14.7653358]}, "properties": {"kind": "place_of_worship"}}, {"type": "Feature", "geometry": {"type": "Point", "coordinates": [121.0460188, 14.8094708]}, "properties": {"kind": "school"}}, {"type": "Feature", "geometry": {"type": "Point", "coordinates": [121.0435724, 14.7804409]}, "properties": {"kind": "place_of_worship"}}, {"type": "Feature", "geometry": {"type": "Point", "coordinates": [121.0471483, 14.8039986]}, "properties": {"kind": "school"}}, {"type": "Feature", "geometry": {"type": "Point", "coordinates": [121.0472891, 14.8100247]}, "properties": {"kind": "marketplace"}}, {"type": "Feature", "geometry": {"type": "Point", "coordinates": [121.0356045, 14.8013945]}, "properties": {"kind": "place_of_worship"}}, {"type": "Feature", "geometry": {"type": "Point", "coordinates": [121.0299785, 14.7884401]}, "properties": {"kind": "school"}}, {"type": "Feature", "geometry": {"type": "Point", "coordinates": [121.0039766, 14.756752]}, "properties": {"kind": "school"}}, {"type": "Feature", "geometry": {"type": "Point", "coordinates": [121.0105912, 14.7672467]}, "properties": {"kind": "school"}}, {"type": "Feature", "geometry": {"type": "Point", "coordinates": [121.0277399, 14.8037675]}, "properties": {"kind": "school"}}, {"type": "Feature", "geometry": {"type": "Point", "coordinates": [121.0300893, 14.7901479]}, "properties": {"kind": "school"}}, {"type": "Feature", "geometry": {"type": "Point", "coordinates": [121.0373025, 14.8054067]}, "properties": {"kind": "school"}}, {"type": "Feature", "geometry": {"type": "Point", "coordinates": [121.0395108, 14.8081014]}, "properties": {"kind": "school"}}, {"type": "Feature", "geometry": {"type": "Point", "coordinates": [121.0313475, 14.7807597]}, "properties": {"kind": "school"}}, {"type": "Feature", "geometry": {"type": "Point", "coordinates": [121.0025703, 14.7786779]}, "properties": {"kind": "place_of_worship"}}, {"type": "Feature", "geometry": {"type": "Point", "coordinates": [121.0026271, 14.8078284]}, "properties": {"kind": "place_of_worship"}}, {"type": "Feature", "geometry": {"type": "Point", "coordinates": [121.0128682, 14.8096802]}, "properties": {"kind": "school"}}, {"type": "Feature", "geometry": {"type": "Point", "coordinates": [121.0019253, 14.8066218]}, "properties": {"kind": "school"}}, {"type": "Feature", "geometry": {"type": "Point", "coordinates": [121.0307282, 14.7551121]}, "properties": {"kind": "school"}}, {"type": "Feature", "geometry": {"type": "Point", "coordinates": [121.0332223, 14.791776]}, "properties": {"kind": "marketplace"}}, {"type": "Feature", "geometry": {"type": "Point", "coordinates": [121.0333811, 14.7916229]}, "properties": {"kind": "marketplace"}}, {"type": "Feature", "geometry": {"type": "Point", "coordinates": [120.9997273, 14.7562057]}, "properties": {"kind": "place_of_worship"}}, {"type": "Feature", "geometry": {"type": "Point", "coordinates": [121.0006871, 14.7551294]}, "properties": {"kind": "place_of_worship"}}, {"type": "Feature", "geometry": {"type": "Point", "coordinates": [121.0260572, 14.7671213]}, "properties": {"kind": "place_of_worship"}}, {"type": "Feature", "geometry": {"type": "Point", "coordinates": [121.0406635, 14.7699406]}, "properties": {"kind": "place_of_worship"}}, {"type": "Feature", "geometry": {"type": "Point", "coordinates": [121.0423476, 14.7637538]}, "properties": {"kind": "school"}}, {"type": "Feature", "geometry": {"type": "Point", "coordinates": [121.0438616, 14.7559037]}, "properties": {"kind": "marketplace"}}, {"type": "Feature", "geometry": {"type": "Point", "coordinates": [121.0438095, 14.7557031]}, "properties": {"kind": "marketplace"}}, {"type": "Feature", "geometry": {"type": "Point", "coordinates": [121.0435571, 14.757197]}, "properties": {"kind": "place_of_worship"}}, {"type": "Feature", "geometry": {"type": "Point", "coordinates": [121.0450644, 14.7649439]}, "properties": {"kind": "school"}}, {"type": "Feature", "geometry": {"type": "Point", "coordinates": [121.0457868, 14.7769914]}, "properties": {"kind": "marketplace"}}, {"type": "Feature", "geometry": {"type": "Point", "coordinates": [121.0460421, 14.7770055]}, "properties": {"kind": "marketplace"}}, {"type": "Feature", "geometry": {"type": "Point", "coordinates": [121.0441352, 14.767038]}, "properties": {"kind": "place_of_worship"}}, {"type": "Feature", "geometry": {"type": "Point", "coordinates": [121.040017, 14.764457]}, "properties": {"kind": "place_of_worship"}}, {"type": "Feature", "geometry": {"type": "Point", "coordinates": [121.0412848, 14.766236]}, "properties": {"kind": "place_of_worship"}}, {"type": "Feature", "geometry": {"type": "Point", "coordinates": [121.0439462, 14.7586596]}, "properties": {"kind": "school"}}, {"type": "Feature", "geometry": {"type": "Point", "coordinates": [121.038889, 14.7683756]}, "properties": {"kind": "marketplace"}}, {"type": "Feature", "geometry": {"type": "Point", "coordinates": [121.0388823, 14.7682345]}, "properties": {"kind": "marketplace"}}, {"type": "Feature", "geometry": {"type": "Point", "coordinates": [121.0389514, 14.7679598]}, "properties": {"kind": "marketplace"}}, {"type": "Feature", "geometry": {"type": "Point", "coordinates": [121.0389561, 14.7676071]}, "properties": {"kind": "marketplace"}}, {"type": "Feature", "geometry": {"type": "Point", "coordinates": [121.0280753, 14.7965248]}, "properties": {"kind": "marketplace"}}, {"type": "Feature", "geometry": {"type": "Point", "coordinates": [121.0429118, 14.7807017]}, "properties": {"kind": "marketplace"}}, {"type": "Feature", "geometry": {"type": "Point", "coordinates": [121.0256989, 14.7551614]}, "properties": {"kind": "place_of_worship"}}, {"type": "Feature", "geometry": {"type": "Point", "coordinates": [121.0026219, 14.7786969]}, "properties": {"kind": "place_of_worship"}}, {"type": "Feature", "geometry": {"type": "Point", "coordinates": [121.0076461, 14.7904628]}, "properties": {"kind": "school"}}, {"type": "Feature", "geometry": {"type": "Point", "coordinates": [121.0339125, 14.7807261]}, "properties": {"kind": "marketplace"}}, {"type": "Feature", "geometry": {"type": "Point", "coordinates": [121.027297, 14.7960965]}, "properties": {"kind": "school"}}, {"type": "Feature", "geometry": {"type": "Point", "coordinates": [121.0155107, 14.7933282]}, "properties": {"kind": "school"}}, {"type": "Feature", "geometry": {"type": "Point", "coordinates": [121.0076916, 14.8006598]}, "properties": {"kind": "place_of_worship"}}, {"type": "Feature", "geometry": {"type": "Point", "coordinates": [121.0247456, 14.8054593]}, "properties": {"kind": "school"}}, {"type": "Feature", "geometry": {"type": "Point", "coordinates": [121.025987, 14.8046755]}, "properties": {"kind": "place_of_worship"}}, {"type": "Feature", "geometry": {"type": "Point", "coordinates": [121.0053149, 14.8081614]}, "properties": {"kind": "place_of_worship"}}, {"type": "Feature", "geometry": {"type": "Point", "coordinates": [121.0217921, 14.7916613]}, "properties": {"kind": "place_of_worship"}}, {"type": "Feature", "geometry": {"type": "Point", "coordinates": [121.0343352, 14.8003827]}, "properties": {"kind": "hospital"}}, {"type": "Feature", "geometry": {"type": "Point", "coordinates": [121.0439852, 14.7550629]}, "properties": {"kind": "place_of_worship"}}, {"type": "Feature", "geometry": {"type": "Point", "coordinates": [121.027572, 14.7581665]}, "properties": {"kind": "place_of_worship"}}, {"type": "Feature", "geometry": {"type": "Point", "coordinates": [121.0083452, 14.7576987]}, "properties": {"kind": "place_of_worship"}}, {"type": "Feature", "geometry": {"type": "Point", "coordinates": [121.0292921, 14.7616528]}, "properties": {"kind": "place_of_worship"}}, {"type": "Feature", "geometry": {"type": "Point", "coordinates": [121.0356726, 14.7601176]}, "properties": {"kind": "place_of_worship"}}, {"type": "Feature", "geometry": {"type": "Point", "coordinates": [121.0282285, 14.7898389]}, "properties": {"kind": "school"}}, {"type": "Feature", "geometry": {"type": "Point", "coordinates": [121.0280946, 14.7900021]}, "properties": {"kind": "school"}}, {"type": "Feature", "geometry": {"type": "Point", "coordinates": [121.0386122, 14.8002634]}, "properties": {"kind": "school"}}, {"type": "Feature", "geometry": {"type": "Point", "coordinates": [121.0315526, 14.7851046]}, "properties": {"kind": "place_of_worship"}}, {"type": "Feature", "geometry": {"type": "Point", "coordinates": [121.0362571, 14.7923971]}, "properties": {"kind": "place_of_worship"}}, {"type": "Feature", "geometry": {"type": "Point", "coordinates": [121.0324763, 14.7886404]}, "properties": {"kind": "place_of_worship"}}, {"type": "Feature", "geometry": {"type": "Point", "coordinates": [121.0368302, 14.8022304]}, "properties": {"kind": "school"}}, {"type": "Feature", "geometry": {"type": "Point", "coordinates": [121.0393787, 14.8075231]}, "properties": {"kind": "school"}}, {"type": "Feature", "geometry": {"type": "Point", "coordinates": [121.0440531, 14.775727]}, "properties": {"kind": "marketplace"}}, {"type": "Feature", "geometry": {"type": "Point", "coordinates": [121.0366988, 14.7811263]}, "properties": {"kind": "school"}}, {"type": "Feature", "geometry": {"type": "Point", "coordinates": [121.0437819, 14.7734095]}, "properties": {"kind": "place_of_worship"}}, {"type": "Feature", "geometry": {"type": "Point", "coordinates": [121.0416249, 14.7984668]}, "properties": {"kind": "marketplace"}}, {"type": "Feature", "geometry": {"type": "Point", "coordinates": [121.0469904, 14.7975307]}, "properties": {"kind": "marketplace"}}, {"type": "Feature", "geometry": {"type": "Point", "coordinates": [121.0277564, 14.8065746]}, "properties": {"kind": "place_of_worship"}}, {"type": "Feature", "geometry": {"type": "Point", "coordinates": [121.0458528, 14.7758233]}, "properties": {"kind": "school"}}, {"type": "Feature", "geometry": {"type": "Point", "coordinates": [121.0453502, 14.7758893]}, "properties": {"kind": "school"}}, {"type": "Feature", "geometry": {"type": "Point", "coordinates": [121.0455786, 14.7764857]}, "properties": {"kind": "school"}}, {"type": "Feature", "geometry": {"type": "Point", "coordinates": [121.0317629, 14.7693822]}, "properties": {"kind": "school"}}, {"type": "Feature", "geometry": {"type": "Point", "coordinates": [121.030805, 14.7693797]}, "properties": {"kind": "school"}}, {"type": "Feature", "geometry": {"type": "Point", "coordinates": [121.022465, 14.7782726]}, "properties": {"kind": "school"}}, {"type": "Feature", "geometry": {"type": "Point", "coordinates": [121.0269865, 14.7826412]}, "properties": {"kind": "school"}}, {"type": "Feature", "geometry": {"type": "Point", "coordinates": [121.0290599, 14.7952815]}, "properties": {"kind": "school"}}, {"type": "Feature", "geometry": {"type": "Point", "coordinates": [121.073921, 14.758561]}, "properties": {"kind": "place_of_worship"}}, {"type": "Feature", "geometry": {"type": "Point", "coordinates": [121.05944, 14.76656]}, "properties": {"kind": "place_of_worship"}}, {"type": "Feature", "geometry": {"type": "Point", "coordinates": [121.062599, 14.76909]}, "properties": {"kind": "place_of_worship"}}, {"type": "Feature", "geometry": {"type": "Point", "coordinates": [121.0579519, 14.8094472]}, "properties": {"kind": "marketplace"}}, {"type": "Feature", "geometry": {"type": "Point", "coordinates": [121.0636597, 14.810111]}, "properties": {"kind": "marketplace"}}, {"type": "Feature", "geometry": {"type": "Point", "coordinates": [121.0583891, 14.8097806]}, "properties": {"kind": "place_of_worship"}}, {"type": "Feature", "geometry": {"type": "Point", "coordinates": [121.073328, 14.7620312]}, "properties": {"kind": "place_of_worship"}}, {"type": "Feature", "geometry": {"type": "Point", "coordinates": [121.0486455, 14.7720079]}, "properties": {"kind": "place_of_worship"}}, {"type": "Feature", "geometry": {"type": "Point", "coordinates": [121.0808198, 14.7684818]}, "properties": {"kind": "marketplace"}}, {"type": "Feature", "geometry": {"type": "Point", "coordinates": [121.0812814, 14.7680989]}, "properties": {"kind": "marketplace"}}, {"type": "Feature", "geometry": {"type": "Point", "coordinates": [121.0659426, 14.7918511]}, "properties": {"kind": "marketplace"}}, {"type": "Feature", "geometry": {"type": "Point", "coordinates": [121.0659507, 14.8045067]}, "properties": {"kind": "place_of_worship"}}, {"type": "Feature", "geometry": {"type": "Point", "coordinates": [121.0594589, 14.7667777]}, "properties": {"kind": "place_of_worship"}}, {"type": "Feature", "geometry": {"type": "Point", "coordinates": [121.0634777, 14.8101477]}, "properties": {"kind": "marketplace"}}, {"type": "Feature", "geometry": {"type": "Point", "coordinates": [121.0479864, 14.7661063]}, "properties": {"kind": "place_of_worship"}}, {"type": "Feature", "geometry": {"type": "Point", "coordinates": [121.0754169, 14.7710861]}, "properties": {"kind": "school"}}, {"type": "Feature", "geometry": {"type": "Point", "coordinates": [121.0935253, 14.7625271]}, "properties": {"kind": "place_of_worship"}}, {"type": "Feature", "geometry": {"type": "Point", "coordinates": [121.0577575, 14.7691935]}, "properties": {"kind": "place_of_worship"}}, {"type": "Feature", "geometry": {"type": "Point", "coordinates": [121.0595517, 14.7667219]}, "properties": {"kind": "school"}}, {"type": "Feature", "geometry": {"type": "Point", "coordinates": [121.0638502, 14.8088084]}, "properties": {"kind": "place_of_worship"}}, {"type": "Feature", "geometry": {"type": "Point", "coordinates": [121.067651, 14.7770858]}, "properties": {"kind": "school"}}, {"type": "Feature", "geometry": {"type": "Point", "coordinates": [121.0698951, 14.7781484]}, "properties": {"kind": "school"}}, {"type": "Feature", "geometry": {"type": "Point", "coordinates": [121.0698246, 14.7871041]}, "properties": {"kind": "school"}}, {"type": "Feature", "geometry": {"type": "Point", "coordinates": [121.0921892, 14.769745]}, "properties": {"kind": "place_of_worship"}}, {"type": "Feature", "geometry": {"type": "Point", "coordinates": [121.0533781, 14.777353]}, "properties": {"kind": "place_of_worship"}}, {"type": "Feature", "geometry": {"type": "Point", "coordinates": [121.0580968, 14.7895888]}, "properties": {"kind": "place_of_worship"}}, {"type": "Feature", "geometry": {"type": "Point", "coordinates": [121.054864, 14.7732841]}, "properties": {"kind": "place_of_worship"}}, {"type": "Feature", "geometry": {"type": "Point", "coordinates": [121.0675363, 14.7597908]}, "properties": {"kind": "marketplace"}}, {"type": "Feature", "geometry": {"type": "Point", "coordinates": [121.0742874, 14.7870642]}, "properties": {"kind": "place_of_worship"}}, {"type": "Feature", "geometry": {"type": "Point", "coordinates": [121.074613, 14.790161]}, "properties": {"kind": "bus_stop"}}, {"type": "Feature", "geometry": {"type": "Point", "coordinates": [121.0744794, 14.789979]}, "properties": {"kind": "bus_stop"}}, {"type": "Feature", "geometry": {"type": "Point", "coordinates": [121.0747118, 14.7864862]}, "properties": {"kind": "bus_stop"}}, {"type": "Feature", "geometry": {"type": "Point", "coordinates": [121.0748879, 14.7865997]}, "properties": {"kind": "bus_stop"}}, {"type": "Feature", "geometry": {"type": "Point", "coordinates": [121.0493373, 14.7875632]}, "properties": {"kind": "marketplace"}}, {"type": "Feature", "geometry": {"type": "Point", "coordinates": [121.0496499, 14.7881298]}, "properties": {"kind": "marketplace"}}, {"type": "Feature", "geometry": {"type": "Point", "coordinates": [121.0496405, 14.7878056]}, "properties": {"kind": "marketplace"}}, {"type": "Feature", "geometry": {"type": "Point", "coordinates": [121.0584676, 14.7981607]}, "properties": {"kind": "school"}}, {"type": "Feature", "geometry": {"type": "Point", "coordinates": [121.0823058, 14.7676867]}, "properties": {"kind": "place_of_worship"}}, {"type": "Feature", "geometry": {"type": "Point", "coordinates": [121.064913, 14.7659619]}, "properties": {"kind": "place_of_worship"}}, {"type": "Feature", "geometry": {"type": "Point", "coordinates": [121.0687593, 14.7586737]}, "properties": {"kind": "place_of_worship"}}, {"type": "Feature", "geometry": {"type": "Point", "coordinates": [121.0500487, 14.7961308]}, "properties": {"kind": "bus_stop"}}, {"type": "Feature", "geometry": {"type": "Point", "coordinates": [121.079721, 14.7696106]}, "properties": {"kind": "bus_stop"}}, {"type": "Feature", "geometry": {"type": "Point", "coordinates": [121.0671481, 14.7918429]}, "properties": {"kind": "bus_stop"}}, {"type": "Feature", "geometry": {"type": "Point", "coordinates": [121.0685197, 14.8071202]}, "properties": {"kind": "bus_stop"}}, {"type": "Feature", "geometry": {"type": "Point", "coordinates": [121.0500033, 14.7960413]}, "properties": {"kind": "bus_stop"}}, {"type": "Feature", "geometry": {"type": "Point", "coordinates": [121.0686758, 14.8070166]}, "properties": {"kind": "bus_stop"}}, {"type": "Feature", "geometry": {"type": "Point", "coordinates": [121.0474743, 14.8101341]}, "properties": {"kind": "bus_stop"}}, {"type": "Feature", "geometry": {"type": "Point", "coordinates": [121.0797135, 14.7698215]}, "properties": {"kind": "bus_stop"}}, {"type": "Feature", "geometry": {"type": "Point", "coordinates": [121.0670271, 14.7919701]}, "properties": {"kind": "bus_stop"}}, {"type": "Feature", "geometry": {"type": "Point", "coordinates": [121.0799302, 14.7697563]}, "properties": {"kind": "bus_stop"}}, {"type": "Feature", "geometry": {"type": "Point", "coordinates": [121.0495588, 14.7876531]}, "properties": {"kind": "marketplace"}}, {"type": "Feature", "geometry": {"type": "Point", "coordinates": [121.0712633, 14.7744956]}, "properties": {"kind": "place_of_worship"}}, {"type": "Feature", "geometry": {"type": "Point", "coordinates": [121.0662307, 14.8063758]}, "properties": {"kind": "school"}}, {"type": "Feature", "geometry": {"type": "Point", "coordinates": [121.0696218, 14.7974057]}, "properties": {"kind": "school"}}, {"type": "Feature", "geometry": {"type": "Point", "coordinates": [121.0720531, 14.7879306]}, "properties": {"kind": "school"}}, {"type": "Feature", "geometry": {"type": "Point", "coordinates": [121.0579975, 14.756732]}, "properties": {"kind": "marketplace"}}, {"type": "Feature", "geometry": {"type": "Point", "coordinates": [121.0766526, 14.7692387]}, "properties": {"kind": "school"}}, {"type": "Feature", "geometry": {"type": "Point", "coordinates": [121.0765149, 14.7689325]}, "properties": {"kind": "school"}}, {"type": "Feature", "geometry": {"type": "Point", "coordinates": [121.0683455, 14.7664298]}, "properties": {"kind": "school"}}, {"type": "Feature", "geometry": {"type": "Point", "coordinates": [121.0813453, 14.7600978]}, "properties": {"kind": "place_of_worship"}}, {"type": "Feature", "geometry": {"type": "Point", "coordinates": [121.0814926, 14.7627781]}, "properties": {"kind": "school"}}, {"type": "Feature", "geometry": {"type": "Point", "coordinates": [121.0789376, 14.7693275]}, "properties": {"kind": "school"}}, {"type": "Feature", "geometry": {"type": "Point", "coordinates": [121.0795786, 14.769192]}, "properties": {"kind": "place_of_worship"}}, {"type": "Feature", "geometry": {"type": "Point", "coordinates": [121.0764238, 14.7705857]}, "properties": {"kind": "place_of_worship"}}, {"type": "Feature", "geometry": {"type": "Point", "coordinates": [121.051697, 14.7981696]}, "properties": {"kind": "place_of_worship"}}, {"type": "Feature", "geometry": {"type": "Point", "coordinates": [121.0542893, 14.7717236]}, "properties": {"kind": "place_of_worship"}}, {"type": "Feature", "geometry": {"type": "Point", "coordinates": [121.0846894, 14.7660751]}, "properties": {"kind": "hospital"}}, {"type": "Feature", "geometry": {"type": "Point", "coordinates": [121.0742298, 14.7842946]}, "properties": {"kind": "place_of_worship"}}, {"type": "Feature", "geometry": {"type": "Point", "coordinates": [121.0743334, 14.7882559]}, "properties": {"kind": "marketplace"}}, {"type": "Feature", "geometry": {"type": "Point", "coordinates": [121.0735372, 14.788856]}, "properties": {"kind": "place_of_worship"}}, {"type": "Feature", "geometry": {"type": "Point", "coordinates": [121.0783376, 14.7939855]}, "properties": {"kind": "school"}}, {"type": "Feature", "geometry": {"type": "Point", "coordinates": [121.0815816, 14.7678401]}, "properties": {"kind": "marketplace"}}, {"type": "Feature", "geometry": {"type": "Point", "coordinates": [121.0864029, 14.763006]}, "properties": {"kind": "school"}}, {"type": "Feature", "geometry": {"type": "Point", "coordinates": [121.073202, 14.7882357]}, "properties": {"kind": "place_of_worship"}}, {"type": "Feature", "geometry": {"type": "Point", "coordinates": [121.0911291, 14.7644444]}, "properties": {"kind": "place_of_worship"}}, {"type": "Feature", "geometry": {"type": "Point", "coordinates": [121.0727212, 14.7955539]}, "properties": {"kind": "place_of_worship"}}, {"type": "Feature", "geometry": {"type": "Point", "coordinates": [121.0821088, 14.7650815]}, "properties": {"kind": "place_of_worship"}}, {"type": "Feature", "geometry": {"type": "Point", "coordinates": [121.0674309, 14.7913065]}, "properties": {"kind": "school"}}, {"type": "Feature", "geometry": {"type": "Point", "coordinates": [121.0480726, 14.8100134]}, "properties": {"kind": "place_of_worship"}}, {"type": "Feature", "geometry": {"type": "Point", "coordinates": [121.0764086, 14.7741381]}, "properties": {"kind": "place_of_worship"}}, {"type": "Feature", "geometry": {"type": "Point", "coordinates": [121.0517178, 14.8085474]}, "properties": {"kind": "school"}}, {"type": "Feature", "geometry": {"type": "Point", "coordinates": [121.0526775, 14.8083089]}, "properties": {"kind": "school"}}, {"type": "Feature", "geometry": {"type": "Point", "coordinates": [121.0702126, 14.7983784]}, "properties": {"kind": "place_of_worship"}}, {"type": "Feature", "geometry": {"type": "Point", "coordinates": [121.0679885, 14.8050388]}, "properties": {"kind": "place_of_worship"}}, {"type": "Feature", "geometry": {"type": "Point", "coordinates": [121.0750644, 14.7768503]}, "properties": {"kind": "school"}}, {"type": "Feature", "geometry": {"type": "Point", "coordinates": [121.0491282, 14.7620881]}, "properties": {"kind": "school"}}, {"type": "Feature", "geometry": {"type": "Point", "coordinates": [121.0499543, 14.7609303]}, "properties": {"kind": "place_of_worship"}}, {"type": "Feature", "geometry": {"type": "Point", "coordinates": [121.050741, 14.7612389]}, "properties": {"kind": "school"}}, {"type": "Feature", "geometry": {"type": "Point", "coordinates": [121.0508155, 14.7609438]}, "properties": {"kind": "place_of_worship"}}, {"type": "Feature", "geometry": {"type": "Point", "coordinates": [121.0878163, 14.8105256]}, "properties": {"kind": "school"}}, {"type": "Feature", "geometry": {"type": "Point", "coordinates": [121.0705005, 14.7982563]}, "properties": {"kind": "hospital"}}, {"type": "Feature", "geometry": {"type": "Point", "coordinates": [121.0820849, 14.7703388]}, "properties": {"kind": "place_of_worship"}}, {"type": "Feature", "geometry": {"type": "Point", "coordinates": [121.0502049, 14.7561517]}, "properties": {"kind": "hospital"}}, {"type": "Feature", "geometry": {"type": "Point", "coordinates": [121.0611836, 14.760094]}, "properties": {"kind": "school"}}, {"type": "Feature", "geometry": {"type": "Point", "coordinates": [121.0656547, 14.766709]}, "properties": {"kind": "hospital"}}, {"type": "Feature", "geometry": {"type": "Point", "coordinates": [121.0518673, 14.7864172]}, "properties": {"kind": "school"}}, {"type": "Feature", "geometry": {"type": "Point", "coordinates": [121.0554844, 14.7842995]}, "properties": {"kind": "school"}}, {"type": "Feature", "geometry": {"type": "Point", "coordinates": [121.063401, 14.7653852]}, "properties": {"kind": "place_of_worship"}}, {"type": "Feature", "geometry": {"type": "Point", "coordinates": [121.0597353, 14.7686436]}, "properties": {"kind": "place_of_worship"}}, {"type": "Feature", "geometry": {"type": "Point", "coordinates": [121.0607174, 14.7663977]}, "properties": {"kind": "school"}}, {"type": "Feature", "geometry": {"type": "Point", "coordinates": [121.0518201, 14.7777306]}, "properties": {"kind": "school"}}, {"type": "Feature", "geometry": {"type": "Point", "coordinates": [121.0614591, 14.7764584]}, "properties": {"kind": "place_of_worship"}}, {"type": "Feature", "geometry": {"type": "Point", "coordinates": [121.0540889, 14.7698484]}, "properties": {"kind": "place_of_worship"}}, {"type": "Feature", "geometry": {"type": "Point", "coordinates": [121.0523295, 14.7622819]}, "properties": {"kind": "school"}}, {"type": "Feature", "geometry": {"type": "Point", "coordinates": [121.0573022, 14.808819]}, "properties": {"kind": "place_of_worship"}}, {"type": "Feature", "geometry": {"type": "Point", "coordinates": [121.0701548, 14.7760956]}, "properties": {"kind": "place_of_worship"}}, {"type": "Feature", "geometry": {"type": "Point", "coordinates": [121.0498267, 14.7958549]}, "properties": {"kind": "school"}}, {"type": "Feature", "geometry": {"type": "Point", "coordinates": [121.0531462, 14.7948408]}, "properties": {"kind": "place_of_worship"}}, {"type": "Feature", "geometry": {"type": "Point", "coordinates": [121.0493068, 14.7886114]}, "properties": {"kind": "marketplace"}}, {"type": "Feature", "geometry": {"type": "Point", "coordinates": [121.049452, 14.7966581]}, "properties": {"kind": "place_of_worship"}}, {"type": "Feature", "geometry": {"type": "Point", "coordinates": [121.0512057, 14.7963639]}, "properties": {"kind": "school"}}, {"type": "Feature", "geometry": {"type": "Point", "coordinates": [121.053644, 14.7942093]}, "properties": {"kind": "place_of_worship"}}, {"type": "Feature", "geometry": {"type": "Point", "coordinates": [121.0478588, 14.8088758]}, "properties": {"kind": "place_of_worship"}}, {"type": "Feature", "geometry": {"type": "Point", "coordinates": [121.0795632, 14.7859551]}, "properties": {"kind": "place_of_worship"}}, {"type": "Feature", "geometry": {"type": "Point", "coordinates": [121.0742003, 14.7887723]}, "properties": {"kind": "marketplace"}}, {"type": "Feature", "geometry": {"type": "Point", "coordinates": [121.0740006, 14.7882964]}, "properties": {"kind": "marketplace"}}, {"type": "Feature", "geometry": {"type": "Point", "coordinates": [121.0744633, 14.7874285]}, "properties": {"kind": "marketplace"}}, {"type": "Feature", "geometry": {"type": "Point", "coordinates": [121.0814563, 14.7704168]}, "properties": {"kind": "place_of_worship"}}, {"type": "Feature", "geometry": {"type": "Point", "coordinates": [121.0497759, 14.7723173]}, "properties": {"kind": "school"}}, {"type": "Feature", "geometry": {"type": "Point", "coordinates": [121.0576902, 14.810096]}, "properties": {"kind": "school"}}, {"type": "Feature", "geometry": {"type": "Point", "coordinates": [121.0585619, 14.7740908]}, "properties": {"kind": "school"}}, {"type": "Feature", "geometry": {"type": "Point", "coordinates": [121.0557177, 14.7847157]}, "properties": {"kind": "school"}}, {"type": "Feature", "geometry": {"type": "Point", "coordinates": [121.0677075, 14.7763502]}, "properties": {"kind": "school"}}, {"type": "Feature", "geometry": {"type": "Point", "coordinates": [121.0610176, 14.7992896]}, "properties": {"kind": "school"}}, {"type": "Feature", "geometry": {"type": "Point", "coordinates": [121.0867152, 14.7597163]}, "properties": {"kind": "place_of_worship"}}, {"type": "Feature", "geometry": {"type": "Point", "coordinates": [121.0698742, 14.7979192]}, "properties": {"kind": "school"}}, {"type": "Feature", "geometry": {"type": "Point", "coordinates": [121.0562972, 14.7972955]}, "properties": {"kind": "place_of_worship"}}, {"type": "Feature", "geometry": {"type": "Point", "coordinates": [121.0477456, 14.7626442]}, "properties": {"kind": "hospital"}}, {"type": "Feature", "geometry": {"type": "Point", "coordinates": [121.0559149, 14.7589997]}, "properties": {"kind": "place_of_worship"}}, {"type": "Feature", "geometry": {"type": "Point", "coordinates": [121.0680263, 14.8006778]}, "properties": {"kind": "place_of_worship"}}, {"type": "Feature", "geometry": {"type": "Point", "coordinates": [121.0696331, 14.7980331]}, "properties": {"kind": "place_of_worship"}}, {"type": "Feature", "geometry": {"type": "Point", "coordinates": [121.059021, 14.7714767]}, "properties": {"kind": "school"}}, {"type": "Feature", "geometry": {"type": "Point", "coordinates": [121.072194, 14.7835243]}, "properties": {"kind": "school"}}, {"type": "Feature", "geometry": {"type": "Point", "coordinates": [121.0734577, 14.7656342]}, "properties": {"kind": "place_of_worship"}}, {"type": "Feature", "geometry": {"type": "Point", "coordinates": [121.0479699, 14.7803989]}, "properties": {"kind": "place_of_worship"}}, {"type": "Feature", "geometry": {"type": "Point", "coordinates": [121.0854196, 14.758556]}, "properties": {"kind": "place_of_worship"}}, {"type": "Feature", "geometry": {"type": "Point", "coordinates": [121.0615421, 14.7569561]}, "properties": {"kind": "place_of_worship"}}, {"type": "Feature", "geometry": {"type": "Point", "coordinates": [121.0692717, 14.7670496]}, "properties": {"kind": "place_of_worship"}}, {"type": "Feature", "geometry": {"type": "Point", "coordinates": [121.0569971, 14.7695731]}, "properties": {"kind": "place_of_worship"}}, {"type": "Feature", "geometry": {"type": "Point", "coordinates": [121.0828318, 14.755135]}, "properties": {"kind": "place_of_worship"}}, {"type": "Feature", "geometry": {"type": "Point", "coordinates": [121.0782804, 14.7700948]}, "properties": {"kind": "hospital"}}, {"type": "Feature", "geometry": {"type": "Point", "coordinates": [121.0859805, 14.8097006]}, "properties": {"kind": "marketplace"}}, {"type": "Feature", "geometry": {"type": "Point", "coordinates": [121.0662527, 14.7611899]}, "properties": {"kind": "marketplace"}}, {"type": "Feature", "geometry": {"type": "Point", "coordinates": [121.0657039, 14.7617727]}, "properties": {"kind": "place_of_worship"}}, {"type": "Feature", "geometry": {"type": "Point", "coordinates": [121.0574216, 14.7683789]}, "properties": {"kind": "place_of_worship"}}, {"type": "Feature", "geometry": {"type": "Point", "coordinates": [121.0640872, 14.7635261]}, "properties": {"kind": "school"}}, {"type": "Feature", "geometry": {"type": "Point", "coordinates": [121.0675749, 14.7734346]}, "properties": {"kind": "place_of_worship"}}, {"type": "Feature", "geometry": {"type": "Point", "coordinates": [121.0588816, 14.7832568]}, "properties": {"kind": "school"}}, {"type": "Feature", "geometry": {"type": "Point", "coordinates": [121.0809133, 14.7684012]}, "properties": {"kind": "marketplace"}}, {"type": "Feature", "geometry": {"type": "Point", "coordinates": [121.0802592, 14.7677099]}, "properties": {"kind": "place_of_worship"}}, {"type": "Feature", "geometry": {"type": "Point", "coordinates": [121.0568445, 14.7866492]}, "properties": {"kind": "marketplace"}}, {"type": "Feature", "geometry": {"type": "Point", "coordinates": [121.0581045, 14.7855283]}, "properties": {"kind": "place_of_worship"}}, {"type": "Feature", "geometry": {"type": "Point", "coordinates": [121.0637457, 14.7811066]}, "properties": {"kind": "school"}}, {"type": "Feature", "geometry": {"type": "Point", "coordinates": [121.0697606, 14.7871142]}, "properties": {"kind": "school"}}, {"type": "Feature", "geometry": {"type": "Point", "coordinates": [121.0604679, 14.8005283]}, "properties": {"kind": "place_of_worship"}}, {"type": "Feature", "geometry": {"type": "Point", "coordinates": [121.064466, 14.8104099]}, "properties": {"kind": "school"}}, {"type": "Feature", "geometry": {"type": "Point", "coordinates": [121.0605139, 14.7603936]}, "properties": {"kind": "school"}}, {"type": "Feature", "geometry": {"type": "Point", "coordinates": [121.0612326, 14.7870229]}, "properties": {"kind": "school"}}, {"type": "Feature", "geometry": {"type": "Point", "coordinates": [121.0739358, 14.7890555]}, "properties": {"kind": "place_of_worship"}}, {"type": "Feature", "geometry": {"type": "Point", "coordinates": [121.0560007, 14.756674]}, "properties": {"kind": "school"}}, {"type": "Feature", "geometry": {"type": "Point", "coordinates": [121.0567553, 14.75664]}, "properties": {"kind": "school"}}, {"type": "Feature", "geometry": {"type": "Point", "coordinates": [121.0496644, 14.7704673]}, "properties": {"kind": "school"}}, {"type": "Feature", "geometry": {"type": "Point", "coordinates": [121.0496238, 14.7709283]}, "properties": {"kind": "school"}}, {"type": "Feature", "geometry": {"type": "Point", "coordinates": [121.0487819, 14.7709212]}, "properties": {"kind": "school"}}, {"type": "Feature", "geometry": {"type": "Point", "coordinates": [121.0523114, 14.7804811]}, "properties": {"kind": "school"}}, {"type": "Feature", "geometry": {"type": "Point", "coordinates": [121.0916288, 14.7635614]}, "properties": {"kind": "school"}}, {"type": "Feature", "geometry": {"type": "Point", "coordinates": [121.0914274, 14.7641197]}, "properties": {"kind": "school"}}, {"type": "Feature", "geometry": {"type": "Point", "coordinates": [121.0698824, 14.7726819]}, "properties": {"kind": "school"}}, {"type": "Feature", "geometry": {"type": "Point", "coordinates": [121.0697401, 14.7733701]}, "properties": {"kind": "school"}}, {"type": "Feature", "geometry": {"type": "Point", "coordinates": [121.0618894, 14.8069552]}, "properties": {"kind": "school"}}, {"type": "Feature", "geometry": {"type": "Point", "coordinates": [121.0679258, 14.8058493]}, "properties": {"kind": "hospital"}}, {"type": "Feature", "geometry": {"type": "Point", "coordinates": [121.0455314, 14.8141687]}, "properties": {"kind": "school"}}, {"type": "Feature", "geometry": {"type": "Point", "coordinates": [121.0453184, 14.8110328]}, "properties": {"kind": "school"}}, {"type": "Feature", "geometry": {"type": "Point", "coordinates": [121.0438606, 14.8476348]}, "properties": {"kind": "school"}}, {"type": "Feature", "geometry": {"type": "Point", "coordinates": [121.044672, 14.854427]}, "properties": {"kind": "bus_stop"}}, {"type": "Feature", "geometry": {"type": "Point", "coordinates": [121.0426763, 14.8468618]}, "properties": {"kind": "place_of_worship"}}, {"type": "Feature", "geometry": {"type": "Point", "coordinates": [121.0472676, 14.8484898]}, "properties": {"kind": "school"}}, {"type": "Feature", "geometry": {"type": "Point", "coordinates": [121.0467533, 14.8557181]}, "properties": {"kind": "place_of_worship"}}, {"type": "Feature", "geometry": {"type": "Point", "coordinates": [121.0220831, 14.8380075]}, "properties": {"kind": "place_of_worship"}}, {"type": "Feature", "geometry": {"type": "Point", "coordinates": [121.028335, 14.8104095]}, "properties": {"kind": "school"}}, {"type": "Feature", "geometry": {"type": "Point", "coordinates": [121.0265901, 14.812085]}, "properties": {"kind": "school"}}, {"type": "Feature", "geometry": {"type": "Point", "coordinates": [121.0252833, 14.8126683]}, "properties": {"kind": "place_of_worship"}}, {"type": "Feature", "geometry": {"type": "Point", "coordinates": [121.0254358, 14.8155241]}, "properties": {"kind": "school"}}, {"type": "Feature", "geometry": {"type": "Point", "coordinates": [121.0294145, 14.8138879]}, "properties": {"kind": "school"}}, {"type": "Feature", "geometry": {"type": "Point", "coordinates": [121.0250426, 14.8153255]}, "properties": {"kind": "school"}}, {"type": "Feature", "geometry": {"type": "Point", "coordinates": [121.04301, 14.850498]}, "properties": {"kind": "place_of_worship"}}, {"type": "Feature", "geometry": {"type": "Point", "coordinates": [121.0415645, 14.8478917]}, "properties": {"kind": "place_of_worship"}}, {"type": "Feature", "geometry": {"type": "Point", "coordinates": [121.0364664, 14.8411994]}, "properties": {"kind": "place_of_worship"}}, {"type": "Feature", "geometry": {"type": "Point", "coordinates": [121.0365308, 14.8410646]}, "properties": {"kind": "school"}}, {"type": "Feature", "geometry": {"type": "Point", "coordinates": [121.0040711, 14.850184]}, "properties": {"kind": "place_of_worship"}}, {"type": "Feature", "geometry": {"type": "Point", "coordinates": [121.036412, 14.8421825]}, "properties": {"kind": "bus_stop"}}, {"type": "Feature", "geometry": {"type": "Point", "coordinates": [121.0012765, 14.828501]}, "properties": {"kind": "bus_stop"}}, {"type": "Feature", "geometry": {"type": "Point", "coordinates": [121.0425271, 14.8469203]}, "properties": {"kind": "bus_stop"}}, {"type": "Feature", "geometry": {"type": "Point", "coordinates": [121.0234579, 14.8381481]}, "properties": {"kind": "bus_stop"}}, {"type": "Feature", "geometry": {"type": "Point", "coordinates": [121.0236341, 14.8380908]}, "properties": {"kind": "bus_stop"}}, {"type": "Feature", "geometry": {"type": "Point", "coordinates": [121.0015888, 14.8285731]}, "properties": {"kind": "bus_stop"}}, {"type": "Feature", "geometry": {"type": "Point", "coordinates": [121.0363489, 14.8423219]}, "properties": {"kind": "bus_stop"}}, {"type": "Feature", "geometry": {"type": "Point", "coordinates": [121.0424615, 14.8468253]}, "properties": {"kind": "bus_stop"}}, {"type": "Feature", "geometry": {"type": "Point", "coordinates": [121.0429498, 14.8380551]}, "properties": {"kind": "bus_stop"}}, {"type": "Feature", "geometry": {"type": "Point", "coordinates": [121.042863, 14.8378988]}, "properties": {"kind": "bus_stop"}}, {"type": "Feature", "geometry": {"type": "Point", "coordinates": [121.0414772, 14.8583338]}, "properties": {"kind": "bus_stop"}}, {"type": "Feature", "geometry": {"type": "Point", "coordinates": [121.041854, 14.8583779]}, "properties": {"kind": "bus_stop"}}, {"type": "Feature", "geometry": {"type": "Point", "coordinates": [121.0262422, 14.8385882]}, "properties": {"kind": "school"}}, {"type": "Feature", "geometry": {"type": "Point", "coordinates": [120.9982909, 14.8533146]}, "properties": {"kind": "place_of_worship"}}, {"type": "Feature", "geometry": {"type": "Point", "coordinates": [121.0468973, 14.8104308]}, "properties": {"kind": "place_of_worship"}}, {"type": "Feature", "geometry": {"type": "Point", "coordinates": [121.0448963, 14.853676]}, "properties": {"kind": "place_of_worship"}}, {"type": "Feature", "geometry": {"type": "Point", "coordinates": [121.0455414, 14.8123399]}, "properties": {"kind": "school"}}, {"type": "Feature", "geometry": {"type": "Point", "coordinates": [121.0038163, 14.82921]}, "properties": {"kind": "place_of_worship"}}, {"type": "Feature", "geometry": {"type": "Point", "coordinates": [121.047401, 14.810481]}, "properties": {"kind": "marketplace"}}, {"type": "Feature", "geometry": {"type": "Point", "coordinates": [121.0455576, 14.8111069]}, "properties": {"kind": "place_of_worship"}}, {"type": "Feature", "geometry": {"type": "Point", "coordinates": [120.9976875, 14.8640546]}, "properties": {"kind": "school"}}, {"type": "Feature", "geometry": {"type": "Point", "coordinates": [121.0467885, 14.8605931]}, "properties": {"kind": "school"}}, {"type": "Feature", "geometry": {"type": "Point", "coordinates": [121.045715, 14.8629302]}, "properties": {"kind": "school"}}, {"type": "Feature", "geometry": {"type": "Point", "coordinates": [121.0021265, 14.8506232]}, "properties": {"kind": "school"}}, {"type": "Feature", "geometry": {"type": "Point", "coordinates": [121.0452186, 14.8267909]}, "properties": {"kind": "school"}}, {"type": "Feature", "geometry": {"type": "Point", "coordinates": [121.0433168, 14.8388232]}, "properties": {"kind": "school"}}, {"type": "Feature", "geometry": {"type": "Point", "coordinates": [121.0456419, 14.8533562]}, "properties": {"kind": "school"}}, {"type": "Feature", "geometry": {"type": "Point", "coordinates": [121.047439, 14.8594597]}, "properties": {"kind": "school"}}, {"type": "Feature", "geometry": {"type": "Point", "coordinates": [121.0016514, 14.8292251]}, "properties": {"kind": "school"}}, {"type": "Feature", "geometry": {"type": "Point", "coordinates": [121.0233475, 14.8367486]}, "properties": {"kind": "school"}}, {"type": "Feature", "geometry": {"type": "Point", "coordinates": [121.0086068, 14.8298236]}, "properties": {"kind": "school"}}, {"type": "Feature", "geometry": {"type": "Point", "coordinates": [121.0011336, 14.8286303]}, "properties": {"kind": "place_of_worship"}}, {"type": "Feature", "geometry": {"type": "Point", "coordinates": [121.00987, 14.8244115]}, "properties": {"kind": "school"}}, {"type": "Feature", "geometry": {"type": "Point", "coordinates": [121.0278505, 14.830506]}, "properties": {"kind": "place_of_worship"}}, {"type": "Feature", "geometry": {"type": "Point", "coordinates": [121.0209576, 14.8585983]}, "properties": {"kind": "school"}}, {"type": "Feature", "geometry": {"type": "Point", "coordinates": [121.0390884, 14.811379]}, "properties": {"kind": "school"}}, {"type": "Feature", "geometry": {"type": "Point", "coordinates": [121.0201553, 14.8377724]}, "properties": {"kind": "place_of_worship"}}, {"type": "Feature", "geometry": {"type": "Point", "coordinates": [121.028734, 14.8140613]}, "properties": {"kind": "school"}}, {"type": "Feature", "geometry": {"type": "Point", "coordinates": [121.0235895, 14.8379724]}, "properties": {"kind": "place_of_worship"}}, {"type": "Feature", "geometry": {"type": "Point", "coordinates": [121.0404559, 14.839591]}, "properties": {"kind": "place_of_worship"}}, {"type": "Feature", "geometry": {"type": "Point", "coordinates": [121.081257, 14.835781]}, "properties": {"kind": "school"}}, {"type": "Feature", "geometry": {"type": "Point", "coordinates": [121.091648, 14.841714]}, "properties": {"kind": "school"}}, {"type": "Feature", "geometry": {"type": "Point", "coordinates": [121.085951, 14.837083]}, "properties": {"kind": "school"}}, {"type": "Feature", "geometry": {"type": "Point", "coordinates": [121.093099, 14.844028]}, "properties": {"kind": "hospital"}}, {"type": "Feature", "geometry": {"type": "Point", "coordinates": [121.079153, 14.836346]}, "properties": {"kind": "marketplace"}}, {"type": "Feature", "geometry": {"type": "Point", "coordinates": [121.093141, 14.841271]}, "properties": {"kind": "place_of_worship"}}, {"type": "Feature", "geometry": {"type": "Point", "coordinates": [121.08375, 14.838992]}, "properties": {"kind": "place_of_worship"}}, {"type": "Feature", "geometry": {"type": "Point", "coordinates": [121.082333, 14.835495]}, "properties": {"kind": "place_of_worship"}}, {"type": "Feature", "geometry": {"type": "Point", "coordinates": [121.090018, 14.839531]}, "properties": {"kind": "place_of_worship"}}, {"type": "Feature", "geometry": {"type": "Point", "coordinates": [121.080587, 14.835966]}, "properties": {"kind": "place_of_worship"}}, {"type": "Feature", "geometry": {"type": "Point", "coordinates": [121.084348, 14.837657]}, "properties": {"kind": "place_of_worship"}}, {"type": "Feature", "geometry": {"type": "Point", "coordinates": [121.0489316, 14.8473224]}, "properties": {"kind": "school"}}, {"type": "Feature", "geometry": {"type": "Point", "coordinates": [121.0548, 14.8622668]}, "properties": {"kind": "place_of_worship"}}, {"type": "Feature", "geometry": {"type": "Point", "coordinates": [121.0550697, 14.8632999]}, "properties": {"kind": "place_of_worship"}}, {"type": "Feature", "geometry": {"type": "Point", "coordinates": [121.0521178, 14.8625779]}, "properties": {"kind": "place_of_worship"}}, {"type": "Feature", "geometry": {"type": "Point", "coordinates": [121.057441, 14.8585029]}, "properties": {"kind": "bus_stop"}}, {"type": "Feature", "geometry": {"type": "Point", "coordinates": [121.0514732, 14.8499401]}, "properties": {"kind": "place_of_worship"}}, {"type": "Feature", "geometry": {"type": "Point", "coordinates": [121.0640218, 14.8104237]}, "properties": {"kind": "place_of_worship"}}, {"type": "Feature", "geometry": {"type": "Point", "coordinates": [121.0616534, 14.8109097]}, "properties": {"kind": "school"}}, {"type": "Feature", "geometry": {"type": "Point", "coordinates": [121.0665804, 14.8512557]}, "properties": {"kind": "place_of_worship"}}, {"type": "Feature", "geometry": {"type": "Point", "coordinates": [121.0846347, 14.8563861]}, "properties": {"kind": "school"}}, {"type": "Feature", "geometry": {"type": "Point", "coordinates": [121.0833983, 14.8576722]}, "properties": {"kind": "place_of_worship"}}, {"type": "Feature", "geometry": {"type": "Point", "coordinates": [121.0774112, 14.8324821]}, "properties": {"kind": "school"}}, {"type": "Feature", "geometry": {"type": "Point", "coordinates": [121.079654, 14.847077]}, "properties": {"kind": "school"}}, {"type": "Feature", "geometry": {"type": "Point", "coordinates": [121.0521412, 14.8504998]}, "properties": {"kind": "place_of_worship"}}, {"type": "Feature", "geometry": {"type": "Point", "coordinates": [121.0646277, 14.8456792]}, "properties": {"kind": "place_of_worship"}}, {"type": "Feature", "geometry": {"type": "Point", "coordinates": [121.0531616, 14.8608017]}, "properties": {"kind": "place_of_worship"}}, {"type": "Feature", "geometry": {"type": "Point", "coordinates": [121.0721996, 14.8140509]}, "properties": {"kind": "bus_stop"}}, {"type": "Feature", "geometry": {"type": "Point", "coordinates": [121.061376, 14.810922]}, "properties": {"kind": "place_of_worship"}}, {"type": "Feature", "geometry": {"type": "Point", "coordinates": [121.0474435, 14.8578935]}, "properties": {"kind": "school"}}, {"type": "Feature", "geometry": {"type": "Point", "coordinates": [121.0605338, 14.828771]}, "properties": {"kind": "place_of_worship"}}, {"type": "Feature", "geometry": {"type": "Point", "coordinates": [121.0692998, 14.8189859]}, "properties": {"kind": "school"}}, {"type": "Feature", "geometry": {"type": "Point", "coordinates": [121.0612792, 14.8625998]}, "properties": {"kind": "school"}}, {"type": "Feature", "geometry": {"type": "Point", "coordinates": [121.06952, 14.8317245]}, "properties": {"kind": "place_of_worship"}}, {"type": "Feature", "geometry": {"type": "Point", "coordinates": [121.0538792, 14.8585634]}, "properties": {"kind": "place_of_worship"}}, {"type": "Feature", "geometry": {"type": "Point", "coordinates": [121.0852406, 14.8564004]}, "properties": {"kind": "marketplace"}}, {"type": "Feature", "geometry": {"type": "Point", "coordinates": [121.0845389, 14.858226]}, "properties": {"kind": "hospital"}}, {"type": "Feature", "geometry": {"type": "Point", "coordinates": [121.0845597, 14.8536778]}, "properties": {"kind": "place_of_worship"}}, {"type": "Feature", "geometry": {"type": "Point", "coordinates": [121.0841161, 14.8535398]}, "properties": {"kind": "school"}}, {"type": "Feature", "geometry": {"type": "Point", "coordinates": [121.0629542, 14.8484431]}, "properties": {"kind": "place_of_worship"}}, {"type": "Feature", "geometry": {"type": "Point", "coordinates": [121.0583361, 14.8220298]}, "properties": {"kind": "school"}}, {"type": "Feature", "geometry": {"type": "Point", "coordinates": [121.0515427, 14.8220925]}, "properties": {"kind": "school"}}, {"type": "Feature", "geometry": {"type": "Point", "coordinates": [121.0557408, 14.8541431]}, "properties": {"kind": "hospital"}}, {"type": "Feature", "geometry": {"type": "Point", "coordinates": [121.0514724, 14.8561172]}, "properties": {"kind": "school"}}, {"type": "Feature", "geometry": {"type": "Point", "coordinates": [121.0499503, 14.8484677]}, "properties": {"kind": "school"}}, {"type": "Feature", "geometry": {"type": "Point", "coordinates": [121.0496817, 14.8460287]}, "properties": {"kind": "school"}}, {"type": "Feature", "geometry": {"type": "Point", "coordinates": [121.0481979, 14.8454298]}, "properties": {"kind": "school"}}, {"type": "Feature", "geometry": {"type": "Point", "coordinates": [121.0710607, 14.8559852]}, "properties": {"kind": "school"}}, {"type": "Feature", "geometry": {"type": "Point", "coordinates": [121.0643903, 14.8484716]}, "properties": {"kind": "school"}}, {"type": "Feature", "geometry": {"type": "Point", "coordinates": [121.0641227, 14.8479368]}, "properties": {"kind": "school"}}, {"type": "Feature", "geometry": {"type": "Point", "coordinates": [121.0744416, 14.8475141]}, "properties": {"kind": "school"}}, {"type": "Feature", "geometry": {"type": "Point", "coordinates": [121.0802217, 14.844663]}, "properties": {"kind": "school"}}, {"type": "Feature", "geometry": {"type": "Point", "coordinates": [121.0912077, 14.8454761]}, "properties": {"kind": "school"}}, {"type": "Feature", "geometry": {"type": "Point", "coordinates": [121.0950869, 14.8618466]}, "properties": {"kind": "school"}}, {"type": "Feature", "geometry": {"type": "Point", "coordinates": [121.0896946, 14.8386989]}, "properties": {"kind": "school"}}, {"type": "Feature", "geometry": {"type": "Point", "coordinates": [121.0826218, 14.8357254]}, "properties": {"kind": "school"}}, {"type": "Feature", "geometry": {"type": "Point", "coordinates": [121.0764239, 14.830582]}, "properties": {"kind": "school"}}, {"type": "Feature", "geometry": {"type": "Point", "coordinates": [121.0758828, 14.8208172]}, "properties": {"kind": "school"}}, {"type": "Feature", "geometry": {"type": "Point", "coordinates": [121.0572469, 14.8496553]}, "properties": {"kind": "school"}}, {"type": "Feature", "geometry": {"type": "Point", "coordinates": [121.0846521, 14.8603358]}, "properties": {"kind": "school"}}, {"type": "Feature", "geometry": {"type": "Point", "coordinates": [121.0764781, 14.8428206]}, "properties": {"kind": "marketplace"}}, {"type": "Feature", "geometry": {"type": "Point", "coordinates": [121.075037, 14.8462421]}, "properties": {"kind": "place_of_worship"}}, {"type": "Feature", "geometry": {"type": "Point", "coordinates": [121.0693504, 14.8192688]}, "properties": {"kind": "school"}}, {"type": "Feature", "geometry": {"type": "Point", "coordinates": [121.0565879, 14.8579745]}, "properties": {"kind": "place_of_worship"}}, {"type": "Feature", "geometry": {"type": "Point", "coordinates": [121.0604268, 14.811171]}, "properties": {"kind": "place_of_worship"}}, {"type": "Feature", "geometry": {"type": "Point", "coordinates": [121.050214, 14.8594492]}, "properties": {"kind": "place_of_worship"}}, {"type": "Feature", "geometry": {"type": "Point", "coordinates": [121.0547663, 14.8535767]}, "properties": {"kind": "place_of_worship"}}, {"type": "Feature", "geometry": {"type": "Point", "coordinates": [121.0532353, 14.8248689]}, "properties": {"kind": "place_of_worship"}}, {"type": "Feature", "geometry": {"type": "Point", "coordinates": [121.0717846, 14.8571921]}, "properties": {"kind": "place_of_worship"}}, {"type": "Feature", "geometry": {"type": "Point", "coordinates": [121.0752436, 14.8142631]}, "properties": {"kind": "school"}}, {"type": "Feature", "geometry": {"type": "Point", "coordinates": [121.0762458, 14.8327427]}, "properties": {"kind": "school"}}, {"type": "Feature", "geometry": {"type": "Point", "coordinates": [121.0616888, 14.8145043]}, "properties": {"kind": "school"}}, {"type": "Feature", "geometry": {"type": "Point", "coordinates": [121.0548, 14.8603093]}, "properties": {"kind": "school"}}, {"type": "Feature", "geometry": {"type": "Point", "coordinates": [121.0554743, 14.8602872]}, "properties": {"kind": "school"}}, {"type": "Feature", "geometry": {"type": "Point", "coordinates": [121.057384, 14.8541494]}, "properties": {"kind": "hospital"}}, {"type": "Feature", "geometry": {"type": "Point", "coordinates": [121.0576623, 14.8553457]}, "properties": {"kind": "school"}}]}