{"type": "FeatureCollection", "features": [{"type": "Feature", "geometry": {"type": "Point", "coordinates": [124.6300935, 8.4637118]}, "properties": {"kind": "school"}}, {"type": "Feature", "geometry": {"type": "Point", "coordinates": [124.6230198, 8.4750036]}, "properties": {"kind": "place_of_worship"}}, {"type": "Feature", "geometry": {"type": "Point", "coordinates": [124.6061711, 8.424918]}, "properties": {"kind": "school"}}, {"type": "Feature", "geometry": {"type": "Point", "coordinates": [124.6390257, 8.4365855]}, "properties": {"kind": "place_of_worship"}}, {"type": "Feature", "geometry": {"type": "Point", "coordinates": [124.6315124, 8.4746356]}, "properties": {"kind": "place_of_worship"}}, {"type": "Feature", "geometry": {"type": "Point", "coordinates": [124.6344671, 8.473072]}, "properties": {"kind": "place_of_worship"}}, {"type": "Feature", "geometry": {"type": "Point", "coordinates": [124.6314296, 8.4747626]}, "properties": {"kind": "school"}}, {"type": "Feature", "geometry": {"type": "Point", "coordinates": [124.63153, 8.4746613]}, "properties": {"kind": "place_of_worship"}}, {"type": "Feature", "geometry": {"type": "Point", "coordinates": [124.6313812, 8.4747485]}, "properties": {"kind": "school"}}, {"type": "Feature", "geometry": {"type": "Point", "coordinates": [124.6379613, 8.4732409]}, "properties": {"kind": "school"}}, {"type": "Feature", "geometry": {"type": "Point", "coordinates": [124.627975, 8.4700729]}, "properties": {"kind": "place_of_worship"}}, {"type": "Feature", "geometry": {"type": "Point", "coordinates": [124.6318438, 8.4382348]}, "properties": {"kind": "school"}}, {"type": "Feature", "geometry": {"type": "Point", "coordinates": [124.6350465, 8.443362]}, "properties": {"kind": "school"}}, {"type": "Feature", "geometry": {"type": "Point", "coordinates": [124.6052165, 8.4628122]}, "properties": {"kind": "place_of_worship"}}, {"type": "Feature", "geometry": {"type": "Point", "coordinates": [124.6067206, 8.4650526]}, "properties": {"kind": "place_of_worship"}}, {"type": "Feature", "geometry": {"type": "Point", "coordinates": [124.6021837, 8.4643554]}, "properties": {"kind": "place_of_worship"}}, {"type": "Feature", "geometry": {"type": "Point", "coordinates": [124.6243184, 8.4747674]}, "properties": {"kind": "bus_stop"}}, {"type": "Feature", "geometry": {"type": "Point", "coordinates": [124.6204172, 8.4742526]}, "properties": {"kind": "bus_stop"}}, {"type": "Feature", "geometry": {"type": "Point", "coordinates": [124.6003091, 8.4732871]}, "properties": {"kind": "bus_stop"}}, {"type": "Feature", "geometry": {"type": "Point", "coordinates": [124.6247688, 8.4746732]}, "properties": {"kind": "bus_stop"}}, {"type": "Feature", "geometry": {"type": "Point", "coordinates": [124.6228648, 8.474744]}, "properties": {"kind": "bus_stop"}}, {"type": "Feature", "geometry": {"type": "Point", "coordinates": [124.6038159, 8.4727788]}, "properties": {"kind": "bus_stop"}}, {"type": "Feature", "geometry": {"type": "Point", "coordinates": [124.6307223, 8.4754226]}, "properties": {"kind": "bus_stop"}}, {"type": "Feature", "geometry": {"type": "Point", "coordinates": [124.5969685, 8.4747265]}, "properties": {"kind": "bus_stop"}}, {"type": "Feature", "geometry": {"type": "Point", "coordinates": [124.6181691, 8.4722423]}, "properties": {"kind": "bus_stop"}}, {"type": "Feature", "geometry": {"type": "Point", "coordinates": [124.6051862, 8.4731195]}, "properties": {"kind": "bus_stop"}}, {"type": "Feature", "geometry": {"type": "Point", "coordinates": [124.6059945, 8.4731693]}, "properties": {"kind": "bus_stop"}}, {"type": "Feature", "geometry": {"type": "Point", "coordinates": [124.6185619, 8.4723852]}, "properties": {"kind": "bus_stop"}}, {"type": "Feature", "geometry": {"type": "Point", "coordinates": [124.5970757, 8.4745159]}, "properties": {"kind": "bus_stop"}}, {"type": "Feature", "geometry": {"type": "Point", "coordinates": [124.6101697, 8.4744744]}, "properties": {"kind": "bus_stop"}}, {"type": "Feature", "geometry": {"type": "Point", "coordinates": [124.6107544, 8.4747913]}, "properties": {"kind": "bus_stop"}}, {"type": "Feature", "geometry": {"type": "Point", "coordinates": [124.6034929, 8.4728678]}, "properties": {"kind": "bus_stop"}}, {"type": "Feature", "geometry": {"type": "Point", "coordinates": [124.6010559, 8.4730747]}, "properties": {"kind": "bus_stop"}}, {"type": "Feature", "geometry": {"type": "Point", "coordinates": [124.6225587, 8.4746757]}, "properties": {"kind": "bus_stop"}}, {"type": "Feature", "geometry": {"type": "Point", "coordinates": [124.6202238, 8.4741687]}, "properties": {"kind": "bus_stop"}}, {"type": "Feature", "geometry": {"type": "Point", "coordinates": [124.6279843, 8.470087]}, "properties": {"kind": "place_of_worship"}}, {"type": "Feature", "geometry": {"type": "Point", "coordinates": [124.6269731, 8.4686873]}, "properties": {"kind": "school"}}, {"type": "Feature", "geometry": {"type": "Point", "coordinates": [124.6392719, 8.4460695]}, "properties": {"kind": "place_of_worship"}}, {"type": "Feature", "geometry": {"type": "Point", "coordinates": [124.6193019, 8.4442304]}, "properties": {"kind": "school"}}, {"type": "Feature", "geometry": {"type": "Point", "coordinates": [124.6318692, 8.4663556]}, "properties": {"kind": "place_of_worship"}}, {"type": "Feature", "geometry": {"type": "Point", "coordinates": [124.6313531, 8.4682392]}, "properties": {"kind": "school"}}, {"type": "Feature", "geometry": {"type": "Point", "coordinates": [124.6323414, 8.4695042]}, "properties": {"kind": "school"}}, {"type": "Feature", "geometry": {"type": "Point", "coordinates": [124.6324646, 8.4626412]}, "properties": {"kind": "place_of_worship"}}, {"type": "Feature", "geometry": {"type": "Point", "coordinates": [124.6368456, 8.4734251]}, "properties": {"kind": "school"}}, {"type": "Feature", "geometry": {"type": "Point", "coordinates": [124.6209791, 8.4380111]}, "properties": {"kind": "school"}}, {"type": "Feature", "geometry": {"type": "Point", "coordinates": [124.6414698, 8.4748621]}, "properties": {"kind": "place_of_worship"}}, {"type": "Feature", "geometry": {"type": "Point", "coordinates": [124.6168031, 8.4235964]}, "properties": {"kind": "place_of_worship"}}, {"type": "Feature", "geometry": {"type": "Point", "coordinates": [124.6203373, 8.442707]}, "properties": {"kind": "school"}}, {"type": "Feature", "geometry": {"type": "Point", "coordinates": [124.6070741, 8.4609796]}, "properties": {"kind": "school"}}, {"type": "Feature", "geometry": {"type": "Point", "coordinates": [124.625298, 8.4607598]}, "properties": {"kind": "school"}}, {"type": "Feature", "geometry": {"type": "Point", "coordinates": [124.6338534, 8.4439279]}, "properties": {"kind": "place_of_worship"}}, {"type": "Feature", "geometry": {"type": "Point", "coordinates": [124.6244794, 8.4751728]}, "properties": {"kind": "place_of_worship"}}, {"type": "Feature", "geometry": {"type": "Point", "coordinates": [124.6050734, 8.4242657]}, "properties": {"kind": "place_of_worship"}}, {"type": "Feature", "geometry": {"type": "Point", "coordinates": [124.6199763, 8.4487728]}, "properties": {"kind": "school"}}, {"type": "Feature", "geometry": {"type": "Point", "coordinates": [124.6331529, 8.4685003]}, "properties": {"kind": "place_of_worship"}}, {"type": "Feature", "geometry": {"type": "Point", "coordinates": [124.6228447, 8.4752441]}, "properties": {"kind": "school"}}, {"type": "Feature", "geometry": {"type": "Point", "coordinates": [124.6229995, 8.4749937]}, "properties": {"kind": "place_of_worship"}}, {"type": "Feature", "geometry": {"type": "Point", "coordinates": [124.641605, 8.4678183]}, "properties": {"kind": "place_of_worship"}}, {"type": "Feature", "geometry": {"type": "Point", "coordinates": [124.638313, 8.4588554]}, "properties": {"kind": "place_of_worship"}}, {"type": "Feature", "geometry": {"type": "Point", "coordinates": [124.6314866, 8.4746649]}, "properties": {"kind": "place_of_worship"}}, {"type": "Feature", "geometry": {"type": "Point", "coordinates": [124.625049, 8.4732968]}, "properties": {"kind": "school"}}, {"type": "Feature", "geometry": {"type": "Point", "coordinates": [124.5942915, 8.4730303]}, "properties": {"kind": "place_of_worship"}}, {"type": "Feature", "geometry": {"type": "Point", "coordinates": [124.6037683, 8.4731295]}, "properties": {"kind": "place_of_worship"}}, {"type": "Feature", "geometry": {"type": "Point", "coordinates": [124.6397338, 8.452729]}, "properties": {"kind": "place_of_worship"}}, {"type": "Feature", "geometry": {"type": "Point", "coordinates": [124.594227, 8.4407432]}, "properties": {"kind": "school"}}, {"type": "Feature", "geometry": {"type": "Point", "coordinates": [124.6422549, 8.4456563]}, "properties": {"kind": "school"}}, {"type": "Feature", "geometry": {"type": "Point", "coordinates": [124.5929301, 8.4727778]}, "properties": {"kind": "school"}}, {"type": "Feature", "geometry": {"type": "Point", "coordinates": [124.6345065, 8.4434384]}, "properties": {"kind": "school"}}, {"type": "Feature", "geometry": {"type": "Point", "coordinates": [124.6070741, 8.4601418]}, "properties": {"kind": "school"}}, {"type": "Feature", "geometry": {"type": "Point", "coordinates": [124.6186014, 8.455376]}, "properties": {"kind": "place_of_worship"}}, {"type": "Feature", "geometry": {"type": "Point", "coordinates": [124.6203764, 8.4339393]}, "properties": {"kind": "school"}}, {"type": "Feature", "geometry": {"type": "Point", "coordinates": [124.6466414, 8.4754844]}, "properties": {"kind": "bus_stop"}}, {"type": "Feature", "geometry": {"type": "Point", "coordinates": [124.6438042, 8.4746214]}, "properties": {"kind": "bus_stop"}}, {"type": "Feature", "geometry": {"type": "Point", "coordinates": [124.6456388, 8.4700545]}, "properties": {"kind": "school"}}, {"type": "Feature", "geometry": {"type": "Point", "coordinates": [124.6823261, 8.4749738]}, "properties": {"kind": "bus_stop"}}, {"type": "Feature", "geometry": {"type": "Point", "coordinates": [124.6492408, 8.4754757]}, "properties": {"kind": "bus_stop"}}, {"type": "Feature", "geometry": {"type": "Point", "coordinates": [124.6483328, 8.4753986]}, "properties": {"kind": "bus_stop"}}, {"type": "Feature", "geometry": {"type": "Point", "coordinates": [124.6502741, 8.4704141]}, "properties": {"kind": "place_of_worship"}}, {"type": "Feature", "geometry": {"type": "Point", "coordinates": [124.6494063, 8.4740339]}, "properties": {"kind": "school"}}, {"type": "Feature", "geometry": {"type": "Point", "coordinates": [124.6481403, 8.4726781]}, "properties": {"kind": "school"}}, {"type": "Feature", "geometry": {"type": "Point", "coordinates": [124.6436232, 8.4665776]}, "properties": {"kind": "school"}}, {"type": "Feature", "geometry": {"type": "Point", "coordinates": [124.6439157, 8.4648459]}, "properties": {"kind": "school"}}, {"type": "Feature", "geometry": {"type": "Point", "coordinates": [124.6429029, 8.4601491]}, "properties": {"kind": "school"}}, {"type": "Feature", "geometry": {"type": "Point", "coordinates": [124.6448426, 8.47113]}, "properties": {"kind": "school"}}, {"type": "Feature", "geometry": {"type": "Point", "coordinates": [124.6465667, 8.4672354]}, "properties": {"kind": "school"}}, {"type": "Feature", "geometry": {"type": "Point", "coordinates": [124.6454524, 8.469809]}, "properties": {"kind": "place_of_worship"}}, {"type": "Feature", "geometry": {"type": "Point", "coordinates": [124.6589045, 8.4728481]}, "properties": {"kind": "school"}}, {"type": "Feature", "geometry": {"type": "Point", "coordinates": [124.6601527, 8.47339]}, "properties": {"kind": "place_of_worship"}}, {"type": "Feature", "geometry": {"type": "Point", "coordinates": [124.6608164, 8.4589081]}, "properties": {"kind": "school"}}, {"type": "Feature", "geometry": {"type": "Point", "coordinates": [124.6494783, 8.4714694]}, "properties": {"kind": "place_of_worship"}}, {"type": "Feature", "geometry": {"type": "Point", "coordinates": [124.646486, 8.4568956]}, "properties": {"kind": "place_of_worship"}}, {"type": "Feature", "geometry": {"type": "Point", "coordinates": [124.6744894, 8.4683442]}, "properties": {"kind": "place_of_worship"}}, {"type": "Feature", "geometry": {"type": "Point", "coordinates": [124.6632041, 8.472336]}, "properties": {"kind": "place_of_worship"}}, {"type": "Feature", "geometry": {"type": "Point", "coordinates": [124.647308, 8.4667233]}, "properties": {"kind": "school"}}, {"type": "Feature", "geometry": {"type": "Point", "coordinates": [124.6455382, 8.4701786]}, "properties": {"kind": "place_of_worship"}}, {"type": "Feature", "geometry": {"type": "Point", "coordinates": [124.643753, 8.4659275]}, "properties": {"kind": "school"}}, {"type": "Feature", "geometry": {"type": "Point", "coordinates": [124.6818753, 8.4748496]}, "properties": {"kind": "place_of_worship"}}, {"type": "Feature", "geometry": {"type": "Point", "coordinates": [124.6796249, 8.470675]}, "properties": {"kind": "school"}}, {"type": "Feature", "geometry": {"type": "Point", "coordinates": [124.667453, 8.4221837]}, "properties": {"kind": "school"}}, {"type": "Feature", "geometry": {"type": "Point", "coordinates": [124.6662513, 8.4355509]}, "properties": {"kind": "school"}}, {"type": "Feature", "geometry": {"type": "Point", "coordinates": [124.6702632, 8.4315327]}, "properties": {"kind": "school"}}, {"type": "Feature", "geometry": {"type": "Point", "coordinates": [124.6508213, 8.4697282]}, "properties": {"kind": "school"}}, {"type": "Feature", "geometry": {"type": "Point", "coordinates": [124.6773092, 8.4729743]}, "properties": {"kind": "school"}}, {"type": "Feature", "geometry": {"type": "Point", "coordinates": [124.6550155, 8.4758156]}, "properties": {"kind": "hospital"}}, {"type": "Feature", "geometry": {"type": "Point", "coordinates": [124.6437383, 8.4637975]}, "properties": {"kind": "school"}}, {"type": "Feature", "geometry": {"type": "Point", "coordinates": [124.6059654, 8.4973115]}, "properties": {"kind": "place_of_worship"}}, {"type": "Feature", "geometry": {"type": "Point", "coordinates": [124.6188635, 8.5028265]}, "properties": {"kind": "place_of_worship"}}, {"type": "Feature", "geometry": {"type": "Point", "coordinates": [124.6203027, 8.4936445]}, "properties": {"kind": "place_of_worship"}}, {"type": "Feature", "geometry": {"type": "Point", "coordinates": [124.6420301, 8.4770005]}, "properties": {"kind": "bus_stop"}}, {"type": "Feature", "geometry": {"type": "Point", "coordinates": [124.6419416, 8.4764224]}, "properties": {"kind": "bus_stop"}}, {"type": "Feature", "geometry": {"type": "Point", "coordinates": [124.6379021, 8.4772861]}, "properties": {"kind": "bus_stop"}}, {"type": "Feature", "geometry": {"type": "Point", "coordinates": [124.6377742, 8.4769293]}, "properties": {"kind": "bus_stop"}}, {"type": "Feature", "geometry": {"type": "Point", "coordinates": [124.6372584, 8.4816477]}, "properties": {"kind": "bus_stop"}}, {"type": "Feature", "geometry": {"type": "Point", "coordinates": [124.6388889, 8.4862673]}, "properties": {"kind": "bus_stop"}}, {"type": "Feature", "geometry": {"type": "Point", "coordinates": [124.638606, 8.4855994]}, "properties": {"kind": "bus_stop"}}, {"type": "Feature", "geometry": {"type": "Point", "coordinates": [124.6378442, 8.4850529]}, "properties": {"kind": "bus_stop"}}, {"type": "Feature", "geometry": {"type": "Point", "coordinates": [124.6393973, 8.4883498]}, "properties": {"kind": "bus_stop"}}, {"type": "Feature", "geometry": {"type": "Point", "coordinates": [124.6392592, 8.4892488]}, "properties": {"kind": "bus_stop"}}, {"type": "Feature", "geometry": {"type": "Point", "coordinates": [124.6400912, 8.4899735]}, "properties": {"kind": "bus_stop"}}, {"type": "Feature", "geometry": {"type": "Point", "coordinates": [124.6406702, 8.4925166]}, "properties": {"kind": "bus_stop"}}, {"type": "Feature", "geometry": {"type": "Point", "coordinates": [124.6404385, 8.4915787]}, "properties": {"kind": "bus_stop"}}, {"type": "Feature", "geometry": {"type": "Point", "coordinates": [124.6406701, 8.4921378]}, "properties": {"kind": "bus_stop"}}, {"type": "Feature", "geometry": {"type": "Point", "coordinates": [124.6405509, 8.4915787]}, "properties": {"kind": "bus_stop"}}, {"type": "Feature", "geometry": {"type": "Point", "coordinates": [124.641821, 8.477034]}, "properties": {"kind": "place_of_worship"}}, {"type": "Feature", "geometry": {"type": "Point", "coordinates": [124.6403062, 8.4980706]}, "properties": {"kind": "place_of_worship"}}, {"type": "Feature", "geometry": {"type": "Point", "coordinates": [124.6054199, 8.4959825]}, "properties": {"kind": "place_of_worship"}}, {"type": "Feature", "geometry": {"type": "Point", "coordinates": [124.639318, 8.4885064]}, "properties": {"kind": "place_of_worship"}}, {"type": "Feature", "geometry": {"type": "Point", "coordinates": [124.6366235, 8.4953949]}, "properties": {"kind": "marketplace"}}, {"type": "Feature", "geometry": {"type": "Point", "coordinates": [124.6324026, 8.5009541]}, "properties": {"kind": "bus_stop"}}, {"type": "Feature", "geometry": {"type": "Point", "coordinates": [124.6324544, 8.5008248]}, "properties": {"kind": "bus_stop"}}, {"type": "Feature", "geometry": {"type": "Point", "coordinates": [124.6359546, 8.4807037]}, "properties": {"kind": "place_of_worship"}}, {"type": "Feature", "geometry": {"type": "Point", "coordinates": [124.6038069, 8.5109919]}, "properties": {"kind": "school"}}, {"type": "Feature", "geometry": {"type": "Point", "coordinates": [124.6013403, 8.5041168]}, "properties": {"kind": "place_of_worship"}}, {"type": "Feature", "geometry": {"type": "Point", "coordinates": [124.6084664, 8.5095698]}, "properties": {"kind": "place_of_worship"}}, {"type": "Feature", "geometry": {"type": "Point", "coordinates": [124.6049657, 8.4955602]}, "properties": {"kind": "place_of_worship"}}, {"type": "Feature", "geometry": {"type": "Point", "coordinates": [124.5999792, 8.5024772]}, "properties": {"kind": "school"}}, {"type": "Feature", "geometry": {"type": "Point", "coordinates": [124.6420728, 8.4761243]}, "properties": {"kind": "school"}}, {"type": "Feature", "geometry": {"type": "Point", "coordinates": [124.6235216, 8.4989837]}, "properties": {"kind": "school"}}, {"type": "Feature", "geometry": {"type": "Point", "coordinates": [124.6231868, 8.5001721]}, "properties": {"kind": "place_of_worship"}}, {"type": "Feature", "geometry": {"type": "Point", "coordinates": [124.6158367, 8.5033732]}, "properties": {"kind": "place_of_worship"}}, {"type": "Feature", "geometry": {"type": "Point", "coordinates": [124.6237495, 8.4982388]}, "properties": {"kind": "place_of_worship"}}, {"type": "Feature", "geometry": {"type": "Point", "coordinates": [124.6276162, 8.4918707]}, "properties": {"kind": "school"}}, {"type": "Feature", "geometry": {"type": "Point", "coordinates": [124.6268524, 8.4928356]}, "properties": {"kind": "place_of_worship"}}, {"type": "Feature", "geometry": {"type": "Point", "coordinates": [124.626012, 8.4941663]}, "properties": {"kind": "place_of_worship"}}, {"type": "Feature", "geometry": {"type": "Point", "coordinates": [124.6301823, 8.4872375]}, "properties": {"kind": "place_of_worship"}}, {"type": "Feature", "geometry": {"type": "Point", "coordinates": [124.6335775, 8.4798316]}, "properties": {"kind": "place_of_worship"}}, {"type": "Feature", "geometry": {"type": "Point", "coordinates": [124.6136546, 8.5040332]}, "properties": {"kind": "place_of_worship"}}, {"type": "Feature", "geometry": {"type": "Point", "coordinates": [124.6102439, 8.4828095]}, "properties": {"kind": "school"}}, {"type": "Feature", "geometry": {"type": "Point", "coordinates": [124.6145968, 8.5002414]}, "properties": {"kind": "place_of_worship"}}, {"type": "Feature", "geometry": {"type": "Point", "coordinates": [124.6171719, 8.5043137]}, "properties": {"kind": "bus_stop"}}, {"type": "Feature", "geometry": {"type": "Point", "coordinates": [124.602896, 8.5034943]}, "properties": {"kind": "bus_stop"}}, {"type": "Feature", "geometry": {"type": "Point", "coordinates": [124.5991435, 8.5033673]}, "properties": {"kind": "bus_stop"}}, {"type": "Feature", "geometry": {"type": "Point", "coordinates": [124.6223677, 8.5046315]}, "properties": {"kind": "bus_stop"}}, {"type": "Feature", "geometry": {"type": "Point", "coordinates": [124.6339323, 8.4766982]}, "properties": {"kind": "place_of_worship"}}, {"type": "Feature", "geometry": {"type": "Point", "coordinates": [124.6117417, 8.476024]}, "properties": {"kind": "bus_stop"}}, {"type": "Feature", "geometry": {"type": "Point", "coordinates": [124.6312855, 8.4831838]}, "properties": {"kind": "bus_stop"}}, {"type": "Feature", "geometry": {"type": "Point", "coordinates": [124.6279118, 8.4783439]}, "properties": {"kind": "bus_stop"}}, {"type": "Feature", "geometry": {"type": "Point", "coordinates": [124.6363789, 8.4797832]}, "properties": {"kind": "bus_stop"}}, {"type": "Feature", "geometry": {"type": "Point", "coordinates": [124.6285665, 8.4800315]}, "properties": {"kind": "bus_stop"}}, {"type": "Feature", "geometry": {"type": "Point", "coordinates": [124.6122684, 8.4758727]}, "properties": {"kind": "bus_stop"}}, {"type": "Feature", "geometry": {"type": "Point", "coordinates": [124.6282045, 8.4780841]}, "properties": {"kind": "bus_stop"}}, {"type": "Feature", "geometry": {"type": "Point", "coordinates": [124.6366897, 8.4815759]}, "properties": {"kind": "bus_stop"}}, {"type": "Feature", "geometry": {"type": "Point", "coordinates": [124.635153, 8.4760114]}, "properties": {"kind": "bus_stop"}}, {"type": "Feature", "geometry": {"type": "Point", "coordinates": [124.6348612, 8.4821857]}, "properties": {"kind": "bus_stop"}}, {"type": "Feature", "geometry": {"type": "Point", "coordinates": [124.6295654, 8.481823]}, "properties": {"kind": "bus_stop"}}, {"type": "Feature", "geometry": {"type": "Point", "coordinates": [124.6377854, 8.4787675]}, "properties": {"kind": "bus_stop"}}, {"type": "Feature", "geometry": {"type": "Point", "coordinates": [124.6319165, 8.4770483]}, "properties": {"kind": "bus_stop"}}, {"type": "Feature", "geometry": {"type": "Point", "coordinates": [124.6330723, 8.4827105]}, "properties": {"kind": "bus_stop"}}, {"type": "Feature", "geometry": {"type": "Point", "coordinates": [124.6415222, 8.4974502]}, "properties": {"kind": "bus_stop"}}, {"type": "Feature", "geometry": {"type": "Point", "coordinates": [124.6416371, 8.4975138]}, "properties": {"kind": "bus_stop"}}, {"type": "Feature", "geometry": {"type": "Point", "coordinates": [124.6390951, 8.4883352]}, "properties": {"kind": "place_of_worship"}}, {"type": "Feature", "geometry": {"type": "Point", "coordinates": [124.6348825, 8.4827591]}, "properties": {"kind": "school"}}, {"type": "Feature", "geometry": {"type": "Point", "coordinates": [124.6368826, 8.4801827]}, "properties": {"kind": "marketplace"}}, {"type": "Feature", "geometry": {"type": "Point", "coordinates": [124.6294264, 8.4807544]}, "properties": {"kind": "place_of_worship"}}, {"type": "Feature", "geometry": {"type": "Point", "coordinates": [124.6383993, 8.4864188]}, "properties": {"kind": "place_of_worship"}}, {"type": "Feature", "geometry": {"type": "Point", "coordinates": [124.6396211, 8.492064]}, "properties": {"kind": "school"}}, {"type": "Feature", "geometry": {"type": "Point", "coordinates": [124.6421726, 8.476175]}, "properties": {"kind": "hospital"}}, {"type": "Feature", "geometry": {"type": "Point", "coordinates": [124.6307629, 8.4814192]}, "properties": {"kind": "school"}}, {"type": "Feature", "geometry": {"type": "Point", "coordinates": [124.6368477, 8.4845783]}, "properties": {"kind": "school"}}, {"type": "Feature", "geometry": {"type": "Point", "coordinates": [124.6358222, 8.4848701]}, "properties": {"kind": "school"}}, {"type": "Feature", "geometry": {"type": "Point", "coordinates": [124.6235523, 8.511258]}, "properties": {"kind": "marketplace"}}, {"type": "Feature", "geometry": {"type": "Point", "coordinates": [124.6372875, 8.4821685]}, "properties": {"kind": "place_of_worship"}}, {"type": "Feature", "geometry": {"type": "Point", "coordinates": [124.6358704, 8.4999731]}, "properties": {"kind": "school"}}, {"type": "Feature", "geometry": {"type": "Point", "coordinates": [124.6311728, 8.500183]}, "properties": {"kind": "place_of_worship"}}, {"type": "Feature", "geometry": {"type": "Point", "coordinates": [124.6309907, 8.5012069]}, "properties": {"kind": "school"}}, {"type": "Feature", "geometry": {"type": "Point", "coordinates": [124.6421127, 8.5022396]}, "properties": {"kind": "marketplace"}}, {"type": "Feature", "geometry": {"type": "Point", "coordinates": [124.6367294, 8.509673]}, "properties": {"kind": "place_of_worship"}}, {"type": "Feature", "geometry": {"type": "Point", "coordinates": [124.6295355, 8.5126446]}, "properties": {"kind": "place_of_worship"}}, {"type": "Feature", "geometry": {"type": "Point", "coordinates": [124.6391179, 8.5049467]}, "properties": {"kind": "place_of_worship"}}, {"type": "Feature", "geometry": {"type": "Point", "coordinates": [124.6383292, 8.4982648]}, "properties": {"kind": "place_of_worship"}}, {"type": "Feature", "geometry": {"type": "Point", "coordinates": [124.6195607, 8.4951963]}, "properties": {"kind": "place_of_worship"}}, {"type": "Feature", "geometry": {"type": "Point", "coordinates": [124.6221522, 8.5126655]}, "properties": {"kind": "marketplace"}}, {"type": "Feature", "geometry": {"type": "Point", "coordinates": [124.6407, 8.4978376]}, "properties": {"kind": "place_of_worship"}}, {"type": "Feature", "geometry": {"type": "Point", "coordinates": [124.6412859, 8.4974815]}, "properties": {"kind": "school"}}, {"type": "Feature", "geometry": {"type": "Point", "coordinates": [124.6168735, 8.5047629]}, "properties": {"kind": "place_of_worship"}}, {"type": "Feature", "geometry": {"type": "Point", "coordinates": [124.6333138, 8.5119496]}, "properties": {"kind": "school"}}, {"type": "Feature", "geometry": {"type": "Point", "coordinates": [124.6314647, 8.5021865]}, "properties": {"kind": "marketplace"}}, {"type": "Feature", "geometry": {"type": "Point", "coordinates": [124.6071145, 8.5051999]}, "properties": {"kind": "school"}}, {"type": "Feature", "geometry": {"type": "Point", "coordinates": [124.6303529, 8.4982796]}, "properties": {"kind": "hospital"}}, {"type": "Feature", "geometry": {"type": "Point", "coordinates": [124.6280917, 8.4817067]}, "properties": {"kind": "hospital"}}, {"type": "Feature", "geometry": {"type": "Point", "coordinates": [124.6167741, 8.5029247]}, "properties": {"kind": "school"}}, {"type": "Feature", "geometry": {"type": "Point", "coordinates": [124.6387606, 8.5132922]}, "properties": {"kind": "school"}}, {"type": "Feature", "geometry": {"type": "Point", "coordinates": [124.6225453, 8.4864086]}, "properties": {"kind": "school"}}, {"type": "Feature", "geometry": {"type": "Point", "coordinates": [124.6076688, 8.514058]}, "properties": {"kind": "school"}}, {"type": "Feature", "geometry": {"type": "Point", "coordinates": [124.6336275, 8.4829578]}, "properties": {"kind": "place_of_worship"}}, {"type": "Feature", "geometry": {"type": "Point", "coordinates": [124.6235135, 8.4938905]}, "properties": {"kind": "hospital"}}, {"type": "Feature", "geometry": {"type": "Point", "coordinates": [124.6371559, 8.4801066]}, "properties": {"kind": "marketplace"}}, {"type": "Feature", "geometry": {"type": "Point", "coordinates": [124.6353743, 8.477283]}, "properties": {"kind": "hospital"}}, {"type": "Feature", "geometry": {"type": "Point", "coordinates": [124.6025042, 8.4954393]}, "properties": {"kind": "school"}}, {"type": "Feature", "geometry": {"type": "Point", "coordinates": [124.6026196, 8.494743]}, "properties": {"kind": "school"}}, {"type": "Feature", "geometry": {"type": "Point", "coordinates": [124.6458627, 8.4768253]}, "properties": {"kind": "school"}}, {"type": "Feature", "geometry": {"type": "Point", "coordinates": [124.6443566, 8.4787869]}, "properties": {"kind": "bus_stop"}}, {"type": "Feature", "geometry": {"type": "Point", "coordinates": [124.6488718, 8.4793499]}, "properties": {"kind": "place_of_worship"}}, {"type": "Feature", "geometry": {"type": "Point", "coordinates": [124.6491255, 8.4794933]}, "properties": {"kind": "place_of_worship"}}, {"type": "Feature", "geometry": {"type": "Point", "coordinates": [124.6438602, 8.4822723]}, "properties": {"kind": "place_of_worship"}}, {"type": "Feature", "geometry": {"type": "Point", "coordinates": [124.6480669, 8.4795226]}, "properties": {"kind": "school"}}, {"type": "Feature", "geometry": {"type": "Point", "coordinates": [124.662493, 8.504223]}, "properties": {"kind": "place_of_worship"}}, {"type": "Feature", "geometry": {"type": "Point", "coordinates": [124.6513539, 8.4856441]}, "properties": {"kind": "bus_stop"}}, {"type": "Feature", "geometry": {"type": "Point", "coordinates": [124.6510921, 8.4859508]}, "properties": {"kind": "bus_stop"}}, {"type": "Feature", "geometry": {"type": "Point", "coordinates": [124.6500302, 8.486161]}, "properties": {"kind": "bus_stop"}}, {"type": "Feature", "geometry": {"type": "Point", "coordinates": [124.6476421, 8.4852848]}, "properties": {"kind": "bus_stop"}}, {"type": "Feature", "geometry": {"type": "Point", "coordinates": [124.6473961, 8.4864853]}, "properties": {"kind": "bus_stop"}}, {"type": "Feature", "geometry": {"type": "Point", "coordinates": [124.6424408, 8.4774496]}, "properties": {"kind": "bus_stop"}}, {"type": "Feature", "geometry": {"type": "Point", "coordinates": [124.6425543, 8.476431]}, "properties": {"kind": "bus_stop"}}, {"type": "Feature", "geometry": {"type": "Point", "coordinates": [124.6422942, 8.4759065]}, "properties": {"kind": "bus_stop"}}, {"type": "Feature", "geometry": {"type": "Point", "coordinates": [124.6460761, 8.4770442]}, "properties": {"kind": "bus_stop"}}, {"type": "Feature", "geometry": {"type": "Point", "coordinates": [124.6449302, 8.4756434]}, "properties": {"kind": "bus_stop"}}, {"type": "Feature", "geometry": {"type": "Point", "coordinates": [124.6427967, 8.4772504]}, "properties": {"kind": "bus_stop"}}, {"type": "Feature", "geometry": {"type": "Point", "coordinates": [124.6438544, 8.4769492]}, "properties": {"kind": "bus_stop"}}, {"type": "Feature", "geometry": {"type": "Point", "coordinates": [124.645744, 8.478763]}, "properties": {"kind": "bus_stop"}}, {"type": "Feature", "geometry": {"type": "Point", "coordinates": [124.642668, 8.4788145]}, "properties": {"kind": "bus_stop"}}, {"type": "Feature", "geometry": {"type": "Point", "coordinates": [124.6560795, 8.4829102]}, "properties": {"kind": "bus_stop"}}, {"type": "Feature", "geometry": {"type": "Point", "coordinates": [124.6575104, 8.4816065]}, "properties": {"kind": "bus_stop"}}, {"type": "Feature", "geometry": {"type": "Point", "coordinates": [124.6563628, 8.4800251]}, "properties": {"kind": "bus_stop"}}, {"type": "Feature", "geometry": {"type": "Point", "coordinates": [124.6581062, 8.4815351]}, "properties": {"kind": "place_of_worship"}}, {"type": "Feature", "geometry": {"type": "Point", "coordinates": [124.6465999, 8.5050351]}, "properties": {"kind": "place_of_worship"}}, {"type": "Feature", "geometry": {"type": "Point", "coordinates": [124.6508088, 8.4827813]}, "properties": {"kind": "school"}}, {"type": "Feature", "geometry": {"type": "Point", "coordinates": [124.6554478, 8.4935866]}, "properties": {"kind": "place_of_worship"}}, {"type": "Feature", "geometry": {"type": "Point", "coordinates": [124.6829869, 8.4763452]}, "properties": {"kind": "school"}}, {"type": "Feature", "geometry": {"type": "Point", "coordinates": [124.6826156, 8.476481]}, "properties": {"kind": "school"}}, {"type": "Feature", "geometry": {"type": "Point", "coordinates": [124.6511585, 8.492019]}, "properties": {"kind": "place_of_worship"}}, {"type": "Feature", "geometry": {"type": "Point", "coordinates": [124.6522361, 8.4757163]}, "properties": {"kind": "marketplace"}}, {"type": "Feature", "geometry": {"type": "Point", "coordinates": [124.6591414, 8.4884196]}, "properties": {"kind": "marketplace"}}, {"type": "Feature", "geometry": {"type": "Point", "coordinates": [124.6494866, 8.4862393]}, "properties": {"kind": "bus_stop"}}, {"type": "Feature", "geometry": {"type": "Point", "coordinates": [124.6565931, 8.4836856]}, "properties": {"kind": "place_of_worship"}}, {"type": "Feature", "geometry": {"type": "Point", "coordinates": [124.6604695, 8.4858438]}, "properties": {"kind": "place_of_worship"}}, {"type": "Feature", "geometry": {"type": "Point", "coordinates": [124.6635074, 8.487493]}, "properties": {"kind": "place_of_worship"}}, {"type": "Feature", "geometry": {"type": "Point", "coordinates": [124.6663602, 8.4808013]}, "properties": {"kind": "place_of_worship"}}, {"type": "Feature", "geometry": {"type": "Point", "coordinates": [124.6484947, 8.5089321]}, "properties": {"kind": "place_of_worship"}}, {"type": "Feature", "geometry": {"type": "Point", "coordinates": [124.6476205, 8.4867156]}, "properties": {"kind": "bus_stop"}}, {"type": "Feature", "geometry": {"type": "Point", "coordinates": [124.6774316, 8.4774051]}, "properties": {"kind": "place_of_worship"}}, {"type": "Feature", "geometry": {"type": "Point", "coordinates": [124.6459026, 8.4825169]}, "properties": {"kind": "bus_stop"}}, {"type": "Feature", "geometry": {"type": "Point", "coordinates": [124.6446663, 8.4767052]}, "properties": {"kind": "bus_stop"}}, {"type": "Feature", "geometry": {"type": "Point", "coordinates": [124.6450299, 8.4810318]}, "properties": {"kind": "bus_stop"}}, {"type": "Feature", "geometry": {"type": "Point", "coordinates": [124.6452848, 8.4816247]}, "properties": {"kind": "bus_stop"}}, {"type": "Feature", "geometry": {"type": "Point", "coordinates": [124.6466085, 8.4836053]}, "properties": {"kind": "bus_stop"}}, {"type": "Feature", "geometry": {"type": "Point", "coordinates": [124.6449086, 8.4790078]}, "properties": {"kind": "bus_stop"}}, {"type": "Feature", "geometry": {"type": "Point", "coordinates": [124.6500989, 8.4769049]}, "properties": {"kind": "bus_stop"}}, {"type": "Feature", "geometry": {"type": "Point", "coordinates": [124.6425573, 8.5021798]}, "properties": {"kind": "bus_stop"}}, {"type": "Feature", "geometry": {"type": "Point", "coordinates": [124.6423376, 8.501789]}, "properties": {"kind": "bus_stop"}}, {"type": "Feature", "geometry": {"type": "Point", "coordinates": [124.647315, 8.4850635]}, "properties": {"kind": "bus_stop"}}, {"type": "Feature", "geometry": {"type": "Point", "coordinates": [124.6452985, 8.4813662]}, "properties": {"kind": "bus_stop"}}, {"type": "Feature", "geometry": {"type": "Point", "coordinates": [124.6449442, 8.4841909]}, "properties": {"kind": "bus_stop"}}, {"type": "Feature", "geometry": {"type": "Point", "coordinates": [124.6466982, 8.4862386]}, "properties": {"kind": "bus_stop"}}, {"type": "Feature", "geometry": {"type": "Point", "coordinates": [124.6462747, 8.4833029]}, "properties": {"kind": "bus_stop"}}, {"type": "Feature", "geometry": {"type": "Point", "coordinates": [124.6470793, 8.4763736]}, "properties": {"kind": "place_of_worship"}}, {"type": "Feature", "geometry": {"type": "Point", "coordinates": [124.6515306, 8.47743]}, "properties": {"kind": "marketplace"}}, {"type": "Feature", "geometry": {"type": "Point", "coordinates": [124.6461528, 8.4805365]}, "properties": {"kind": "school"}}, {"type": "Feature", "geometry": {"type": "Point", "coordinates": [124.6636713, 8.4815868]}, "properties": {"kind": "school"}}, {"type": "Feature", "geometry": {"type": "Point", "coordinates": [124.649614, 8.4854376]}, "properties": {"kind": "hospital"}}, {"type": "Feature", "geometry": {"type": "Point", "coordinates": [124.6499761, 8.4848841]}, "properties": {"kind": "place_of_worship"}}, {"type": "Feature", "geometry": {"type": "Point", "coordinates": [124.6460409, 8.4783732]}, "properties": {"kind": "school"}}, {"type": "Feature", "geometry": {"type": "Point", "coordinates": [124.6488715, 8.4818884]}, "properties": {"kind": "place_of_worship"}}, {"type": "Feature", "geometry": {"type": "Point", "coordinates": [124.6423382, 8.4825799]}, "properties": {"kind": "place_of_worship"}}, {"type": "Feature", "geometry": {"type": "Point", "coordinates": [124.6433899, 8.5100638]}, "properties": {"kind": "place_of_worship"}}, {"type": "Feature", "geometry": {"type": "Point", "coordinates": [124.6535143, 8.4805565]}, "properties": {"kind": "school"}}, {"type": "Feature", "geometry": {"type": "Point", "coordinates": [124.644888, 8.5078044]}, "properties": {"kind": "place_of_worship"}}, {"type": "Feature", "geometry": {"type": "Point", "coordinates": [124.647203, 8.4831078]}, "properties": {"kind": "school"}}, {"type": "Feature", "geometry": {"type": "Point", "coordinates": [124.6653623, 8.4818116]}, "properties": {"kind": "place_of_worship"}}, {"type": "Feature", "geometry": {"type": "Point", "coordinates": [124.6478758, 8.5064008]}, "properties": {"kind": "place_of_worship"}}, {"type": "Feature", "geometry": {"type": "Point", "coordinates": [124.6517892, 8.4860148]}, "properties": {"kind": "place_of_worship"}}, {"type": "Feature", "geometry": {"type": "Point", "coordinates": [124.6484101, 8.507996]}, "properties": {"kind": "school"}}, {"type": "Feature", "geometry": {"type": "Point", "coordinates": [124.6445898, 8.4986752]}, "properties": {"kind": "place_of_worship"}}, {"type": "Feature", "geometry": {"type": "Point", "coordinates": [124.6430358, 8.495381]}, "properties": {"kind": "place_of_worship"}}, {"type": "Feature", "geometry": {"type": "Point", "coordinates": [124.6572582, 8.4997964]}, "properties": {"kind": "school"}}, {"type": "Feature", "geometry": {"type": "Point", "coordinates": [124.6636936, 8.4801851]}, "properties": {"kind": "school"}}, {"type": "Feature", "geometry": {"type": "Point", "coordinates": [124.6538488, 8.4904331]}, "properties": {"kind": "school"}}, {"type": "Feature", "geometry": {"type": "Point", "coordinates": [124.6726897, 8.4789794]}, "properties": {"kind": "hospital"}}, {"type": "Feature", "geometry": {"type": "Point", "coordinates": [124.6659393, 8.481111]}, "properties": {"kind": "place_of_worship"}}, {"type": "Feature", "geometry": {"type": "Point", "coordinates": [124.656762, 8.4990516]}, "properties": {"kind": "school"}}, {"type": "Feature", "geometry": {"type": "Point", "coordinates": [124.66257, 8.4901824]}, "properties": {"kind": "school"}}, {"type": "Feature", "geometry": {"type": "Point", "coordinates": [124.6592977, 8.4809325]}, "properties": {"kind": "hospital"}}, {"type": "Feature", "geometry": {"type": "Point", "coordinates": [124.6635006, 8.4875]}, "properties": {"kind": "place_of_worship"}}, {"type": "Feature", "geometry": {"type": "Point", "coordinates": [124.6544228, 8.4796951]}, "properties": {"kind": "place_of_worship"}}, {"type": "Feature", "geometry": {"type": "Point", "coordinates": [124.6496185, 8.4758887]}, "properties": {"kind": "place_of_worship"}}, {"type": "Feature", "geometry": {"type": "Point", "coordinates": [124.6467359, 8.5058537]}, "properties": {"kind": "place_of_worship"}}, {"type": "Feature", "geometry": {"type": "Point", "coordinates": [124.6442587, 8.5045874]}, "properties": {"kind": "school"}}, {"type": "Feature", "geometry": {"type": "Point", "coordinates": [124.6611014, 8.4995211]}, "properties": {"kind": "place_of_worship"}}, {"type": "Feature", "geometry": {"type": "Point", "coordinates": [124.6512642, 8.4924613]}, "properties": {"kind": "place_of_worship"}}, {"type": "Feature", "geometry": {"type": "Point", "coordinates": [124.6478755, 8.486151]}, "properties": {"kind": "hospital"}}, {"type": "Feature", "geometry": {"type": "Point", "coordinates": [124.6477745, 8.4869701]}, "properties": {"kind": "place_of_worship"}}, {"type": "Feature", "geometry": {"type": "Point", "coordinates": [124.6487435, 8.4802495]}, "properties": {"kind": "place_of_worship"}}, {"type": "Feature", "geometry": {"type": "Point", "coordinates": [124.6457803, 8.4908569]}, "properties": {"kind": "school"}}, {"type": "Feature", "geometry": {"type": "Point", "coordinates": [124.6458179, 8.4912337]}, "properties": {"kind": "school"}}, {"type": "Feature", "geometry": {"type": "Point", "coordinates": [124.6622665, 8.5030631]}, "properties": {"kind": "school"}}, {"type": "Feature", "geometry": {"type": "Point", "coordinates": [124.6618211, 8.5039754]}, "properties": {"kind": "school"}}, {"type": "Feature", "geometry": {"type": "Point", "coordinates": [124.6496705, 8.5088491]}, "properties": {"kind": "school"}}]}