{"type": "FeatureCollection", "features": [{"type": "Feature", "geometry": {"type": "Point", "coordinates": [120.5882633, 15.4720479]}, "properties": {"kind": "place_of_worship"}}, {"type": "Feature", "geometry": {"type": "Point", "coordinates": [120.5878786, 15.4859443]}, "properties": {"kind": "school"}}, {"type": "Feature", "geometry": {"type": "Point", "coordinates": [120.58597, 15.4640489]}, "properties": {"kind": "place_of_worship"}}, {"type": "Feature", "geometry": {"type": "Point", "coordinates": [120.5868806, 15.4782957]}, "properties": {"kind": "hospital"}}, {"type": "Feature", "geometry": {"type": "Point", "coordinates": [120.5867249, 15.4748634]}, "properties": {"kind": "hospital"}}, {"type": "Feature", "geometry": {"type": "Point", "coordinates": [120.5896886, 15.4841214]}, "properties": {"kind": "school"}}, {"type": "Feature", "geometry": {"type": "Point", "coordinates": [120.5867355, 15.4772201]}, "properties": {"kind": "school"}}, {"type": "Feature", "geometry": {"type": "Point", "coordinates": [120.5844212, 15.4777204]}, "properties": {"kind": "place_of_worship"}}, {"type": "Feature", "geometry": {"type": "Point", "coordinates": [120.5714981, 15.4790885]}, "properties": {"kind": "school"}}, {"type": "Feature", "geometry": {"type": "Point", "coordinates": [120.586993, 15.4836652]}, "properties": {"kind": "place_of_worship"}}, {"type": "Feature", "geometry": {"type": "Point", "coordinates": [120.5504088, 15.464319]}, "properties": {"kind": "school"}}, {"type": "Feature", "geometry": {"type": "Point", "coordinates": [120.5701835, 15.4590307]}, "properties": {"kind": "school"}}, {"type": "Feature", "geometry": {"type": "Point", "coordinates": [120.5806498, 15.4664032]}, "properties": {"kind": "school"}}, {"type": "Feature", "geometry": {"type": "Point", "coordinates": [120.5891515, 15.4824432]}, "properties": {"kind": "school"}}, {"type": "Feature", "geometry": {"type": "Point", "coordinates": [120.5622727, 15.434791]}, "properties": {"kind": "school"}}, {"type": "Feature", "geometry": {"type": "Point", "coordinates": [120.5862272, 15.4838335]}, "properties": {"kind": "school"}}, {"type": "Feature", "geometry": {"type": "Point", "coordinates": [120.5848344, 15.4610763]}, "properties": {"kind": "school"}}, {"type": "Feature", "geometry": {"type": "Point", "coordinates": [120.5705282, 15.4813146]}, "properties": {"kind": "school"}}, {"type": "Feature", "geometry": {"type": "Point", "coordinates": [120.5711292, 15.4705554]}, "properties": {"kind": "school"}}, {"type": "Feature", "geometry": {"type": "Point", "coordinates": [120.571954, 15.445609]}, "properties": {"kind": "school"}}, {"type": "Feature", "geometry": {"type": "Point", "coordinates": [120.575295, 15.4825376]}, "properties": {"kind": "place_of_worship"}}, {"type": "Feature", "geometry": {"type": "Point", "coordinates": [120.5877195, 15.4633198]}, "properties": {"kind": "place_of_worship"}}, {"type": "Feature", "geometry": {"type": "Point", "coordinates": [120.583398, 15.4687326]}, "properties": {"kind": "place_of_worship"}}, {"type": "Feature", "geometry": {"type": "Point", "coordinates": [120.584448, 15.4727497]}, "properties": {"kind": "place_of_worship"}}, {"type": "Feature", "geometry": {"type": "Point", "coordinates": [120.5751422, 15.4775425]}, "properties": {"kind": "place_of_worship"}}, {"type": "Feature", "geometry": {"type": "Point", "coordinates": [120.5861963, 15.4353344]}, "properties": {"kind": "school"}}, {"type": "Feature", "geometry": {"type": "Point", "coordinates": [120.5862613, 15.4783222]}, "properties": {"kind": "place_of_worship"}}, {"type": "Feature", "geometry": {"type": "Point", "coordinates": [120.5744306, 15.4758469]}, "properties": {"kind": "school"}}, {"type": "Feature", "geometry": {"type": "Point", "coordinates": [120.5515208, 15.4640164]}, "properties": {"kind": "school"}}, {"type": "Feature", "geometry": {"type": "Point", "coordinates": [120.5957978, 15.4856662]}, "properties": {"kind": "bus_stop"}}, {"type": "Feature", "geometry": {"type": "Point", "coordinates": [120.5948156, 15.4805547]}, "properties": {"kind": "bus_stop"}}, {"type": "Feature", "geometry": {"type": "Point", "coordinates": [120.5948522, 15.4816936]}, "properties": {"kind": "bus_stop"}}, {"type": "Feature", "geometry": {"type": "Point", "coordinates": [120.5949326, 15.4813925]}, "properties": {"kind": "bus_stop"}}, {"type": "Feature", "geometry": {"type": "Point", "coordinates": [120.5951142, 15.481534]}, "properties": {"kind": "bus_stop"}}, {"type": "Feature", "geometry": {"type": "Point", "coordinates": [120.5906989, 15.4846781]}, "properties": {"kind": "place_of_worship"}}, {"type": "Feature", "geometry": {"type": "Point", "coordinates": [120.5995386, 15.4685746]}, "properties": {"kind": "school"}}, {"type": "Feature", "geometry": {"type": "Point", "coordinates": [120.5945416, 15.4693612]}, "properties": {"kind": "place_of_worship"}}, {"type": "Feature", "geometry": {"type": "Point", "coordinates": [120.5941725, 15.4548801]}, "properties": {"kind": "school"}}, {"type": "Feature", "geometry": {"type": "Point", "coordinates": [120.5939896, 15.4549979]}, "properties": {"kind": "place_of_worship"}}, {"type": "Feature", "geometry": {"type": "Point", "coordinates": [120.6192694, 15.4824517]}, "properties": {"kind": "school"}}, {"type": "Feature", "geometry": {"type": "Point", "coordinates": [120.5930866, 15.4850304]}, "properties": {"kind": "hospital"}}, {"type": "Feature", "geometry": {"type": "Point", "coordinates": [120.5982446, 15.4613943]}, "properties": {"kind": "place_of_worship"}}, {"type": "Feature", "geometry": {"type": "Point", "coordinates": [120.5996219, 15.4593898]}, "properties": {"kind": "place_of_worship"}}, {"type": "Feature", "geometry": {"type": "Point", "coordinates": [120.5979541, 15.4328236]}, "properties": {"kind": "school"}}, {"type": "Feature", "geometry": {"type": "Point", "coordinates": [120.5982961, 15.4375584]}, "properties": {"kind": "school"}}, {"type": "Feature", "geometry": {"type": "Point", "coordinates": [120.5983539, 15.4363672]}, "properties": {"kind": "school"}}, {"type": "Feature", "geometry": {"type": "Point", "coordinates": [120.5918166, 15.4826583]}, "properties": {"kind": "place_of_worship"}}, {"type": "Feature", "geometry": {"type": "Point", "coordinates": [120.6051475, 15.4643777]}, "properties": {"kind": "school"}}, {"type": "Feature", "geometry": {"type": "Point", "coordinates": [120.5986471, 15.4797184]}, "properties": {"kind": "school"}}, {"type": "Feature", "geometry": {"type": "Point", "coordinates": [120.598157, 15.4746376]}, "properties": {"kind": "school"}}, {"type": "Feature", "geometry": {"type": "Point", "coordinates": [120.6299726, 15.4403857]}, "properties": {"kind": "school"}}, {"type": "Feature", "geometry": {"type": "Point", "coordinates": [120.6304812, 15.4402169]}, "properties": {"kind": "school"}}, {"type": "Feature", "geometry": {"type": "Point", "coordinates": [120.5906934, 15.4846638]}, "properties": {"kind": "place_of_worship"}}, {"type": "Feature", "geometry": {"type": "Point", "coordinates": [120.6129166, 15.473976]}, "properties": {"kind": "school"}}, {"type": "Feature", "geometry": {"type": "Point", "coordinates": [120.5982287, 15.4629578]}, "properties": {"kind": "school"}}, {"type": "Feature", "geometry": {"type": "Point", "coordinates": [120.5989527, 15.4430017]}, "properties": {"kind": "school"}}, {"type": "Feature", "geometry": {"type": "Point", "coordinates": [120.5992959, 15.4405671]}, "properties": {"kind": "school"}}, {"type": "Feature", "geometry": {"type": "Point", "coordinates": [120.5976486, 15.4546074]}, "properties": {"kind": "school"}}, {"type": "Feature", "geometry": {"type": "Point", "coordinates": [120.6049762, 15.4612381]}, "properties": {"kind": "school"}}, {"type": "Feature", "geometry": {"type": "Point", "coordinates": [120.6137811, 15.4605559]}, "properties": {"kind": "school"}}, {"type": "Feature", "geometry": {"type": "Point", "coordinates": [120.5967308, 15.4657316]}, "properties": {"kind": "school"}}, {"type": "Feature", "geometry": {"type": "Point", "coordinates": [120.6043696, 15.4768416]}, "properties": {"kind": "school"}}, {"type": "Feature", "geometry": {"type": "Point", "coordinates": [120.6199428, 15.4805531]}, "properties": {"kind": "school"}}, {"type": "Feature", "geometry": {"type": "Point", "coordinates": [120.6190943, 15.4832336]}, "properties": {"kind": "place_of_worship"}}, {"type": "Feature", "geometry": {"type": "Point", "coordinates": [120.6014846, 15.4332367]}, "properties": {"kind": "school"}}, {"type": "Feature", "geometry": {"type": "Point", "coordinates": [120.603724, 15.4631992]}, "properties": {"kind": "place_of_worship"}}, {"type": "Feature", "geometry": {"type": "Point", "coordinates": [120.6048682, 15.4650094]}, "properties": {"kind": "place_of_worship"}}, {"type": "Feature", "geometry": {"type": "Point", "coordinates": [120.6001026, 15.4606099]}, "properties": {"kind": "marketplace"}}, {"type": "Feature", "geometry": {"type": "Point", "coordinates": [120.5916668, 15.4647138]}, "properties": {"kind": "place_of_worship"}}, {"type": "Feature", "geometry": {"type": "Point", "coordinates": [120.5925319, 15.4643887]}, "properties": {"kind": "place_of_worship"}}, {"type": "Feature", "geometry": {"type": "Point", "coordinates": [120.5987198, 15.4392568]}, "properties": {"kind": "place_of_worship"}}, {"type": "Feature", "geometry": {"type": "Point", "coordinates": [120.5992094, 15.4363846]}, "properties": {"kind": "place_of_worship"}}, {"type": "Feature", "geometry": {"type": "Point", "coordinates": [120.5979568, 15.4453336]}, "properties": {"kind": "place_of_worship"}}, {"type": "Feature", "geometry": {"type": "Point", "coordinates": [120.5985991, 15.4408342]}, "properties": {"kind": "marketplace"}}, {"type": "Feature", "geometry": {"type": "Point", "coordinates": [120.5978603, 15.4402334]}, "properties": {"kind": "place_of_worship"}}, {"type": "Feature", "geometry": {"type": "Point", "coordinates": [120.6006945, 15.4360564]}, "properties": {"kind": "place_of_worship"}}, {"type": "Feature", "geometry": {"type": "Point", "coordinates": [120.6081619, 15.4844572]}, "properties": {"kind": "place_of_worship"}}, {"type": "Feature", "geometry": {"type": "Point", "coordinates": [120.615887, 15.4824155]}, "properties": {"kind": "place_of_worship"}}, {"type": "Feature", "geometry": {"type": "Point", "coordinates": [120.5898411, 15.4745197]}, "properties": {"kind": "school"}}, {"type": "Feature", "geometry": {"type": "Point", "coordinates": [120.5910324, 15.4701371]}, "properties": {"kind": "hospital"}}, {"type": "Feature", "geometry": {"type": "Point", "coordinates": [120.5942101, 15.4548305]}, "properties": {"kind": "school"}}, {"type": "Feature", "geometry": {"type": "Point", "coordinates": [120.6369905, 15.4325085]}, "properties": {"kind": "school"}}, {"type": "Feature", "geometry": {"type": "Point", "coordinates": [120.5877007, 15.4866224]}, "properties": {"kind": "marketplace"}}, {"type": "Feature", "geometry": {"type": "Point", "coordinates": [120.587986, 15.5028404]}, "properties": {"kind": "place_of_worship"}}, {"type": "Feature", "geometry": {"type": "Point", "coordinates": [120.5812168, 15.4888067]}, "properties": {"kind": "place_of_worship"}}, {"type": "Feature", "geometry": {"type": "Point", "coordinates": [120.5881006, 15.4877327]}, "properties": {"kind": "place_of_worship"}}, {"type": "Feature", "geometry": {"type": "Point", "coordinates": [120.5898564, 15.4913391]}, "properties": {"kind": "marketplace"}}, {"type": "Feature", "geometry": {"type": "Point", "coordinates": [120.5701242, 15.5096576]}, "properties": {"kind": "place_of_worship"}}, {"type": "Feature", "geometry": {"type": "Point", "coordinates": [120.5861593, 15.5376959]}, "properties": {"kind": "school"}}, {"type": "Feature", "geometry": {"type": "Point", "coordinates": [120.5495029, 15.503763]}, "properties": {"kind": "school"}}, {"type": "Feature", "geometry": {"type": "Point", "coordinates": [120.5584046, 15.5374405]}, "properties": {"kind": "school"}}, {"type": "Feature", "geometry": {"type": "Point", "coordinates": [120.5870953, 15.4872791]}, "properties": {"kind": "school"}}, {"type": "Feature", "geometry": {"type": "Point", "coordinates": [120.5681542, 15.4897586]}, "properties": {"kind": "school"}}, {"type": "Feature", "geometry": {"type": "Point", "coordinates": [120.5761859, 15.5379098]}, "properties": {"kind": "school"}}, {"type": "Feature", "geometry": {"type": "Point", "coordinates": [120.5791867, 15.5239276]}, "properties": {"kind": "school"}}, {"type": "Feature", "geometry": {"type": "Point", "coordinates": [120.5655181, 15.5182655]}, "properties": {"kind": "school"}}, {"type": "Feature", "geometry": {"type": "Point", "coordinates": [120.5651342, 15.5174941]}, "properties": {"kind": "school"}}, {"type": "Feature", "geometry": {"type": "Point", "coordinates": [120.5830018, 15.492102]}, "properties": {"kind": "place_of_worship"}}, {"type": "Feature", "geometry": {"type": "Point", "coordinates": [120.570319, 15.5074358]}, "properties": {"kind": "school"}}, {"type": "Feature", "geometry": {"type": "Point", "coordinates": [120.5580224, 15.5192715]}, "properties": {"kind": "place_of_worship"}}, {"type": "Feature", "geometry": {"type": "Point", "coordinates": [120.5452413, 15.5233323]}, "properties": {"kind": "school"}}, {"type": "Feature", "geometry": {"type": "Point", "coordinates": [120.580723, 15.5240686]}, "properties": {"kind": "place_of_worship"}}, {"type": "Feature", "geometry": {"type": "Point", "coordinates": [120.5794685, 15.5233526]}, "properties": {"kind": "place_of_worship"}}, {"type": "Feature", "geometry": {"type": "Point", "coordinates": [120.549718, 15.5032406]}, "properties": {"kind": "place_of_worship"}}, {"type": "Feature", "geometry": {"type": "Point", "coordinates": [120.5865189, 15.4950605]}, "properties": {"kind": "school"}}, {"type": "Feature", "geometry": {"type": "Point", "coordinates": [120.5722157, 15.4877064]}, "properties": {"kind": "school"}}, {"type": "Feature", "geometry": {"type": "Point", "coordinates": [120.5726301, 15.487539]}, "properties": {"kind": "school"}}, {"type": "Feature", "geometry": {"type": "Point", "coordinates": [120.592526, 15.4919437]}, "properties": {"kind": "school"}}, {"type": "Feature", "geometry": {"type": "Point", "coordinates": [120.5895632, 15.4867331]}, "properties": {"kind": "hospital"}}, {"type": "Feature", "geometry": {"type": "Point", "coordinates": [120.5965607, 15.4882525]}, "properties": {"kind": "bus_stop"}}, {"type": "Feature", "geometry": {"type": "Point", "coordinates": [120.5898956, 15.4901062]}, "properties": {"kind": "school"}}, {"type": "Feature", "geometry": {"type": "Point", "coordinates": [120.5914398, 15.4873221]}, "properties": {"kind": "place_of_worship"}}, {"type": "Feature", "geometry": {"type": "Point", "coordinates": [120.5945243, 15.4949227]}, "properties": {"kind": "place_of_worship"}}, {"type": "Feature", "geometry": {"type": "Point", "coordinates": [120.6171903, 15.4992725]}, "properties": {"kind": "school"}}, {"type": "Feature", "geometry": {"type": "Point", "coordinates": [120.593912, 15.4960957]}, "properties": {"kind": "bus_stop"}}, {"type": "Feature", "geometry": {"type": "Point", "coordinates": [120.5960627, 15.4862807]}, "properties": {"kind": "bus_stop"}}, {"type": "Feature", "geometry": {"type": "Point", "coordinates": [120.5942581, 15.4967891]}, "properties": {"kind": "bus_stop"}}, {"type": "Feature", "geometry": {"type": "Point", "coordinates": [120.5965239, 15.49679]}, "properties": {"kind": "bus_stop"}}, {"type": "Feature", "geometry": {"type": "Point", "coordinates": [120.5964325, 15.5074901]}, "properties": {"kind": "bus_stop"}}, {"type": "Feature", "geometry": {"type": "Point", "coordinates": [120.5966283, 15.5081597]}, "properties": {"kind": "bus_stop"}}, {"type": "Feature", "geometry": {"type": "Point", "coordinates": [120.5941825, 15.4966091]}, "properties": {"kind": "bus_stop"}}, {"type": "Feature", "geometry": {"type": "Point", "coordinates": [120.594313, 15.4965152]}, "properties": {"kind": "bus_stop"}}, {"type": "Feature", "geometry": {"type": "Point", "coordinates": [120.5963326, 15.4968077]}, "properties": {"kind": "bus_stop"}}, {"type": "Feature", "geometry": {"type": "Point", "coordinates": [120.594022, 15.4964455]}, "properties": {"kind": "bus_stop"}}, {"type": "Feature", "geometry": {"type": "Point", "coordinates": [120.5935396, 15.4956252]}, "properties": {"kind": "bus_stop"}}, {"type": "Feature", "geometry": {"type": "Point", "coordinates": [120.6013092, 15.4978068]}, "properties": {"kind": "school"}}, {"type": "Feature", "geometry": {"type": "Point", "coordinates": [120.5917872, 15.4894545]}, "properties": {"kind": "marketplace"}}, {"type": "Feature", "geometry": {"type": "Point", "coordinates": [120.5937598, 15.4866358]}, "properties": {"kind": "school"}}, {"type": "Feature", "geometry": {"type": "Point", "coordinates": [120.6064998, 15.5172486]}, "properties": {"kind": "place_of_worship"}}, {"type": "Feature", "geometry": {"type": "Point", "coordinates": [120.5904737, 15.491964]}, "properties": {"kind": "marketplace"}}, {"type": "Feature", "geometry": {"type": "Point", "coordinates": [120.5906568, 15.4912932]}, "properties": {"kind": "marketplace"}}, {"type": "Feature", "geometry": {"type": "Point", "coordinates": [120.6009358, 15.4978404]}, "properties": {"kind": "place_of_worship"}}, {"type": "Feature", "geometry": {"type": "Point", "coordinates": [120.597531, 15.4910737]}, "properties": {"kind": "hospital"}}, {"type": "Feature", "geometry": {"type": "Point", "coordinates": [120.6068367, 15.4910191]}, "properties": {"kind": "school"}}, {"type": "Feature", "geometry": {"type": "Point", "coordinates": [120.5932559, 15.4931144]}, "properties": {"kind": "hospital"}}, {"type": "Feature", "geometry": {"type": "Point", "coordinates": [120.5901913, 15.4870099]}, "properties": {"kind": "school"}}, {"type": "Feature", "geometry": {"type": "Point", "coordinates": [120.6041119, 15.4907215]}, "properties": {"kind": "school"}}, {"type": "Feature", "geometry": {"type": "Point", "coordinates": [120.605917, 15.4923484]}, "properties": {"kind": "place_of_worship"}}, {"type": "Feature", "geometry": {"type": "Point", "coordinates": [120.5994391, 15.4867434]}, "properties": {"kind": "school"}}, {"type": "Feature", "geometry": {"type": "Point", "coordinates": [120.6038823, 15.5001345]}, "properties": {"kind": "school"}}, {"type": "Feature", "geometry": {"type": "Point", "coordinates": [120.6044784, 15.5006019]}, "properties": {"kind": "school"}}, {"type": "Feature", "geometry": {"type": "Point", "coordinates": [120.6092338, 15.5351249]}, "properties": {"kind": "place_of_worship"}}, {"type": "Feature", "geometry": {"type": "Point", "coordinates": [120.6009083, 15.4890218]}, "properties": {"kind": "school"}}, {"type": "Feature", "geometry": {"type": "Point", "coordinates": [120.6043633, 15.5294789]}, "properties": {"kind": "school"}}, {"type": "Feature", "geometry": {"type": "Point", "coordinates": [120.6140698, 15.5138111]}, "properties": {"kind": "school"}}, {"type": "Feature", "geometry": {"type": "Point", "coordinates": [120.5944823, 15.4882038]}, "properties": {"kind": "school"}}, {"type": "Feature", "geometry": {"type": "Point", "coordinates": [120.5968355, 15.537174]}, "properties": {"kind": "school"}}, {"type": "Feature", "geometry": {"type": "Point", "coordinates": [120.6223669, 15.4880647]}, "properties": {"kind": "school"}}, {"type": "Feature", "geometry": {"type": "Point", "coordinates": [120.6309538, 15.4982075]}, "properties": {"kind": "school"}}, {"type": "Feature", "geometry": {"type": "Point", "coordinates": [120.6370458, 15.5322786]}, "properties": {"kind": "school"}}, {"type": "Feature", "geometry": {"type": "Point", "coordinates": [120.6280378, 15.5183689]}, "properties": {"kind": "school"}}, {"type": "Feature", "geometry": {"type": "Point", "coordinates": [120.6070668, 15.5169284]}, "properties": {"kind": "school"}}, {"type": "Feature", "geometry": {"type": "Point", "coordinates": [120.5914983, 15.4909449]}, "properties": {"kind": "hospital"}}, {"type": "Feature", "geometry": {"type": "Point", "coordinates": [120.5970701, 15.4901616]}, "properties": {"kind": "school"}}, {"type": "Feature", "geometry": {"type": "Point", "coordinates": [120.6380953, 15.5361713]}, "properties": {"kind": "place_of_worship"}}, {"type": "Feature", "geometry": {"type": "Point", "coordinates": [120.5949588, 15.5321545]}, "properties": {"kind": "school"}}, {"type": "Feature", "geometry": {"type": "Point", "coordinates": [120.5943823, 15.5321732]}, "properties": {"kind": "school"}}, {"type": "Feature", "geometry": {"type": "Point", "coordinates": [120.6238632, 15.50261]}, "properties": {"kind": "school"}}, {"type": "Feature", "geometry": {"type": "Point", "coordinates": [120.589716, 15.4881064]}, "properties": {"kind": "place_of_worship"}}, {"type": "Feature", "geometry": {"type": "Point", "coordinates": [120.6207732, 15.5227944]}, "properties": {"kind": "place_of_worship"}}, {"type": "Feature", "geometry": {"type": "Point", "coordinates": [120.6217394, 15.5228409]}, "properties": {"kind": "place_of_worship"}}, {"type": "Feature", "geometry": {"type": "Point", "coordinates": [120.6309576, 15.5275421]}, "properties": {"kind": "place_of_worship"}}, {"type": "Feature", "geometry": {"type": "Point", "coordinates": [120.5939379, 15.5390707]}, "properties": {"kind": "place_of_worship"}}, {"type": "Feature", "geometry": {"type": "Point", "coordinates": [120.6040165, 15.4937315]}, "properties": {"kind": "place_of_worship"}}, {"type": "Feature", "geometry": {"type": "Point", "coordinates": [120.599059, 15.5119589]}, "properties": {"kind": "school"}}, {"type": "Feature", "geometry": {"type": "Point", "coordinates": [120.5948288, 15.5282078]}, "properties": {"kind": "place_of_worship"}}, {"type": "Feature", "geometry": {"type": "Point", "coordinates": [120.5966784, 15.5069246]}, "properties": {"kind": "place_of_worship"}}, {"type": "Feature", "geometry": {"type": "Point", "coordinates": [120.5981159, 15.4861911]}, "properties": {"kind": "place_of_worship"}}, {"type": "Feature", "geometry": {"type": "Point", "coordinates": [120.6000677, 15.496527]}, "properties": {"kind": "school"}}, {"type": "Feature", "geometry": {"type": "Point", "coordinates": [120.5947353, 15.4926482]}, "properties": {"kind": "school"}}, {"type": "Feature", "geometry": {"type": "Point", "coordinates": [120.6014427, 15.503674]}, "properties": {"kind": "school"}}, {"type": "Feature", "geometry": {"type": "Point", "coordinates": [120.607372, 15.5084341]}, "properties": {"kind": "place_of_worship"}}, {"type": "Feature", "geometry": {"type": "Point", "coordinates": [120.6234515, 15.5237271]}, "properties": {"kind": "school"}}, {"type": "Feature", "geometry": {"type": "Point", "coordinates": [120.6230955, 15.5234525]}, "properties": {"kind": "school"}}, {"type": "Feature", "geometry": {"type": "Point", "coordinates": [120.5919428, 15.4944446]}, "properties": {"kind": "marketplace"}}]}