{"type": "FeatureCollection", "features": [{"type": "Feature", "geometry": {"type": "Point", "coordinates": [126.1840658, 6.9164022]}, "properties": {"kind": "place_of_worship"}}, {"type": "Feature", "geometry": {"type": "Point", "coordinates": [126.1838048, 6.9385003]}, "properties": {"kind": "school"}}, {"type": "Feature", "geometry": {"type": "Point", "coordinates": [126.2150985, 6.9521505]}, "properties": {"kind": "school"}}, {"type": "Feature", "geometry": {"type": "Point", "coordinates": [126.1929794, 6.9483345]}, "properties": {"kind": "school"}}, {"type": "Feature", "geometry": {"type": "Point", "coordinates": [126.1785645, 6.9260228]}, "properties": {"kind": "school"}}, {"type": "Feature", "geometry": {"type": "Point", "coordinates": [126.182843, 6.9117279]}, "properties": {"kind": "school"}}, {"type": "Feature", "geometry": {"type": "Point", "coordinates": [126.2296355, 6.9461959]}, "properties": {"kind": "place_of_worship"}}, {"type": "Feature", "geometry": {"type": "Point", "coordinates": [126.2447755, 6.9416591]}, "properties": {"kind": "school"}}, {"type": "Feature", "geometry": {"type": "Point", "coordinates": [126.2317427, 6.9457949]}, "properties": {"kind": "school"}}, {"type": "Feature", "geometry": {"type": "Point", "coordinates": [126.2428778, 6.9445637]}, "properties": {"kind": "hospital"}}, {"type": "Feature", "geometry": {"type": "Point", "coordinates": [126.231285, 6.9491376]}, "properties": {"kind": "school"}}, {"type": "Feature", "geometry": {"type": "Point", "coordinates": [126.2343988, 6.9481678]}, "properties": {"kind": "school"}}, {"type": "Feature", "geometry": {"type": "Point", "coordinates": [126.2272597, 6.9459024]}, "properties": {"kind": "place_of_worship"}}, {"type": "Feature", "geometry": {"type": "Point", "coordinates": [126.232324, 6.9395584]}, "properties": {"kind": "school"}}, {"type": "Feature", "geometry": {"type": "Point", "coordinates": [126.2242771, 6.9466183]}, "properties": {"kind": "school"}}, {"type": "Feature", "geometry": {"type": "Point", "coordinates": [126.2189295, 6.9506026]}, "properties": {"kind": "place_of_worship"}}, {"type": "Feature", "geometry": {"type": "Point", "coordinates": [126.2261946, 6.9516797]}, "properties": {"kind": "place_of_worship"}}, {"type": "Feature", "geometry": {"type": "Point", "coordinates": [126.2261338, 6.9487572]}, "properties": {"kind": "place_of_worship"}}, {"type": "Feature", "geometry": {"type": "Point", "coordinates": [126.2598472, 6.9345804]}, "properties": {"kind": "school"}}, {"type": "Feature", "geometry": {"type": "Point", "coordinates": [126.2322221, 6.9446091]}, "properties": {"kind": "marketplace"}}, {"type": "Feature", "geometry": {"type": "Point", "coordinates": [126.2581182, 6.9429078]}, "properties": {"kind": "school"}}, {"type": "Feature", "geometry": {"type": "Point", "coordinates": [126.2015299, 6.9568011]}, "properties": {"kind": "place_of_worship"}}, {"type": "Feature", "geometry": {"type": "Point", "coordinates": [126.2031067, 6.9606844]}, "properties": {"kind": "hospital"}}, {"type": "Feature", "geometry": {"type": "Point", "coordinates": [126.2075526, 6.9567992]}, "properties": {"kind": "marketplace"}}, {"type": "Feature", "geometry": {"type": "Point", "coordinates": [126.2077031, 6.9586909]}, "properties": {"kind": "school"}}, {"type": "Feature", "geometry": {"type": "Point", "coordinates": [126.2080936, 6.9662412]}, "properties": {"kind": "school"}}, {"type": "Feature", "geometry": {"type": "Point", "coordinates": [126.1906231, 6.9877287]}, "properties": {"kind": "school"}}, {"type": "Feature", "geometry": {"type": "Point", "coordinates": [126.2039731, 6.9609488]}, "properties": {"kind": "place_of_worship"}}, {"type": "Feature", "geometry": {"type": "Point", "coordinates": [126.2147427, 6.9544492]}, "properties": {"kind": "place_of_worship"}}, {"type": "Feature", "geometry": {"type": "Point", "coordinates": [126.1736506, 6.9530319]}, "properties": {"kind": "place_of_worship"}}, {"type": "Feature", "geometry": {"type": "Point", "coordinates": [126.2189546, 6.9569317]}, "properties": {"kind": "school"}}, {"type": "Feature", "geometry": {"type": "Point", "coordinates": [126.2420392, 6.9568572]}, "properties": {"kind": "place_of_worship"}}, {"type": "Feature", "geometry": {"type": "Point", "coordinates": [126.2320348, 6.9835091]}, "properties": {"kind": "place_of_worship"}}, {"type": "Feature", "geometry": {"type": "Point", "coordinates": [126.2214535, 6.9615143]}, "properties": {"kind": "school"}}, {"type": "Feature", "geometry": {"type": "Point", "coordinates": [126.222372, 6.9561702]}, "properties": {"kind": "school"}}, {"type": "Feature", "geometry": {"type": "Point", "coordinates": [126.22437, 6.9601815]}, "properties": {"kind": "school"}}, {"type": "Feature", "geometry": {"type": "Point", "coordinates": [126.2541569, 6.9865383]}, "properties": {"kind": "school"}}, {"type": "Feature", "geometry": {"type": "Point", "coordinates": [126.2436232, 6.9688178]}, "properties": {"kind": "school"}}, {"type": "Feature", "geometry": {"type": "Point", "coordinates": [126.2207947, 6.9580759]}, "properties": {"kind": "place_of_worship"}}, {"type": "Feature", "geometry": {"type": "Point", "coordinates": [126.2213193, 6.9573691]}, "properties": {"kind": "school"}}, {"type": "Feature", "geometry": {"type": "Point", "coordinates": [126.2189034, 6.9564267]}, "properties": {"kind": "school"}}, {"type": "Feature", "geometry": {"type": "Point", "coordinates": [126.219081, 6.9546212]}, "properties": {"kind": "school"}}]}