{"type": "FeatureCollection", "features": [{"type": "Feature", "geometry": {"type": "LineString", "coordinates": [[124.0496633, 12.9721389], [124.049655, 12.9719834], [124.0496604, 12.9718234], [124.0496672, 12.9717387], [124.0496808, 12.9715689], [124.0497124, 12.9713292], [124.0497562, 12.9710482], [124.0498559, 12.9704919], [124.0499006, 12.9699321], [124.0498728, 12.9696334], [124.0496519, 12.9686188], [124.049364, 12.9672798], [124.0489417, 12.9655528], [124.0488768, 12.9652551], [124.0487028, 12.9644697], [124.0486055, 12.9640307], [124.0482676, 12.9625059], [124.0481159, 12.9618283], [124.0472845, 12.9581147], [124.0472295, 12.9577878], [124.0471198, 12.9571355], [124.0471019, 12.9570291], [124.0471066, 12.9566753], [124.0471102, 12.9564063], [124.0471106, 12.9563746], [124.0471792, 12.9557401], [124.0471884, 12.9556552], [124.0476876, 12.9528891], [124.0479974, 12.9520284], [124.048041, 12.9519454], [124.0487449, 12.950515], [124.0497056, 12.9485646], [124.0500515, 12.9479882], [124.0503974, 12.9476711], [124.0514727, 12.9468016], [124.0514987, 12.9467799], [124.0517039, 12.9466084], [124.0517534, 12.9465671]]}, "properties": {"city": "sorsogon", "name": "Maharlika Highway", "highway": "trunk", "v_posted": 80, "posted_imputed": false, "v_safe": 50, "gap": 30, "R": 6.55, "exposure": 0.117, "vru_150m": 0, "sss": 41.9, "recommended": 50, "fatal_reduction_pct": 84.7, "why": "undivided arterial, side-impact intersections", "pop_density": 3796.4, "pop_density_peak": 11235.9, "v_design": 70, "design_gap": 20}}, {"type": "Feature", "geometry": {"type": "LineString", "coordinates": [[124.0355443, 12.9015838], [124.0357061, 12.9019062], [124.0358526, 12.902198], [124.0366886, 12.9038836], [124.0373819, 12.905286], [124.0385888, 12.907713], [124.0392451, 12.9090355], [124.0393232, 12.9091929], [124.0395559, 12.9096618], [124.0396707, 12.909893], [124.0397568, 12.9100666], [124.0404239, 12.9114108], [124.0408068, 12.9121757], [124.0413725, 12.9132659], [124.041859, 12.9142891], [124.042801, 12.9162258], [124.0428223, 12.9162741], [124.0431639, 12.9169523], [124.0431775, 12.9169803], [124.0436383, 12.9179287], [124.0446011, 12.9198875], [124.0446924, 12.9200733], [124.0450175, 12.9207319], [124.0451643, 12.9210293], [124.0454603, 12.9216482], [124.0455717, 12.9219369], [124.0456632, 12.9222334], [124.0463322, 12.9248079], [124.0467943, 12.9265704], [124.0471691, 12.9280853], [124.0472388, 12.928335]]}, "properties": {"city": "sorsogon", "name": "Maharlika Highway", "highway": "trunk", "v_posted": 80, "posted_imputed": false, "v_safe": 50, "gap": 30, "R": 6.55, "exposure": 0.011, "vru_150m": 0, "sss": 37.9, "recommended": 50, "fatal_reduction_pct": 84.7, "why": "undivided arterial, side-impact intersections", "pop_density": 349.3, "pop_density_peak": 2118.4, "v_design": 70, "design_gap": 20}}, {"type": "Feature", "geometry": {"type": "LineString", "coordinates": [[124.0472818, 12.9284954], [124.0473518, 12.9287704], [124.0474238, 12.929041], [124.0483837, 12.9327398], [124.0485017, 12.9331463], [124.0489834, 12.9349977], [124.0491621, 12.9356809], [124.0497368, 12.9379226], [124.0498881, 12.938481], [124.0500984, 12.9392951], [124.0501632, 12.9395378], [124.0501949, 12.9396587], [124.050249, 12.9398396], [124.0513662, 12.9441094], [124.0514115, 12.9443176], [124.0515398, 12.9448441], [124.0516362, 12.9451942], [124.051645, 12.9452184], [124.0517241, 12.9455061]]}, "properties": {"city": "sorsogon", "name": "Maharlika Highway", "highway": "trunk", "v_posted": 80, "posted_imputed": false, "v_safe": 50, "gap": 30, "R": 6.55, "exposure": 0.084, "vru_150m": 0, "sss": 40.6, "recommended": 50, "fatal_reduction_pct": 84.7, "why": "undivided arterial, side-impact intersections", "pop_density": 2704.3, "pop_density_peak": 10161.6, "v_design": 70, "design_gap": 20}}, {"type": "Feature", "geometry": {"type": "LineString", "coordinates": [[124.0472388, 12.928335], [124.0472818, 12.9284954]]}, "properties": {"city": "sorsogon", "name": "Maharlika Highway", "highway": "trunk", "v_posted": 80, "posted_imputed": false, "v_safe": 50, "gap": 30, "R": 6.55, "exposure": 0.226, "vru_150m": 1, "sss": 46.0, "recommended": 50, "fatal_reduction_pct": 84.7, "why": "undivided arterial, side-impact intersections", "pop_density": 1036.4, "pop_density_peak": 1036.4, "v_design": 70, "design_gap": 20}}, {"type": "Feature", "geometry": {"type": "LineString", "coordinates": [[123.9929834, 12.971073], [123.9929783, 12.9710731], [123.9929261, 12.9710741], [123.9923932, 12.9711808], [123.9919142, 12.9713514], [123.9912328, 12.9716945], [123.9911024, 12.9717634], [123.9909685, 12.9718466], [123.9906331, 12.9720897], [123.9904719, 12.972255], [123.9903368, 12.972439], [123.9902176, 12.9726483], [123.990116, 12.9728514], [123.9900241, 12.9730047], [123.9899236, 12.9731249], [123.9896394, 12.9734078], [123.989239, 12.9738061], [123.9888487, 12.9741978], [123.9887957, 12.9742494], [123.9886234, 12.9744082], [123.9884772, 12.9745454], [123.9883759, 12.9746931], [123.9883103, 12.9747944], [123.9882444, 12.9749139], [123.9882015, 12.975021], [123.9881413, 12.9752932], [123.9881142, 12.9754117], [123.9880808, 12.9755165], [123.9880141, 12.9756432], [123.9879053, 12.9757844], [123.9871353, 12.9765432], [123.9863248, 12.9773431], [123.985895, 12.9777724], [123.9847602, 12.9788935]]}, "properties": {"city": "sorsogon", "name": "Rizal Street", "highway": "primary", "v_posted": 60, "posted_imputed": false, "v_safe": 50, "gap": 10, "R": 2.07, "exposure": 0.137, "vru_150m": 0, "sss": 14.2, "recommended": 50, "fatal_reduction_pct": 51.8, "why": "undivided arterial, side-impact intersections", "pop_density": 4443.8, "pop_density_peak": 6366.5, "v_design": 60, "design_gap": 10}}, {"type": "Feature", "geometry": {"type": "LineString", "coordinates": [[124.0013521, 12.985912], [124.000792, 12.9857957], [123.9998344, 12.9855588], [123.999715, 12.9855157], [123.9995018, 12.9854425], [123.9993663, 12.9853889], [123.9988476, 12.9851569], [123.9987527, 12.9851436], [123.998674, 12.9851408], [123.9981945, 12.9851274], [123.9979347, 12.9850979], [123.9978233, 12.98506], [123.9975742, 12.9849705], [123.9973534, 12.9848875], [123.9968759, 12.9847329], [123.9967418, 12.9846963], [123.9953913, 12.984327], [123.9953406, 12.9843169], [123.9950336, 12.9842457], [123.9942336, 12.9840717], [123.9935073, 12.9839791], [123.9929507, 12.9839082], [123.9925729, 12.98386], [123.9919258, 12.9837914], [123.9915879, 12.9837519], [123.9914231, 12.983738], [123.9910769, 12.9837082], [123.9910344, 12.9837035], [123.9907498, 12.983672], [123.9905888, 12.9836208], [123.990446, 12.9835443], [123.9902011, 12.9833915], [123.9896235, 12.9830159], [123.9889875, 12.9826545], [123.9888746, 12.9825872], [123.9886986, 12.9824823], [123.9882492, 12.9822144], [123.9881401, 12.9821494], [123.9875901, 12.9818099], [123.9870104, 12.9814438], [123.9865268, 12.981057], [123.9853719, 12.9800878], [123.9852407, 12.9799742], [123.9851093, 12.9798424], [123.9850311, 12.9797307], [123.9849206, 12.9795149], [123.9848119, 12.9792937], [123.984762, 12.9792018]]}, "properties": {"city": "sorsogon", "name": "Salvador H. Escudero III Diversion Road", "highway": "trunk", "v_posted": 60, "posted_imputed": false, "v_safe": 30, "gap": 30, "R": 16.0, "exposure": 0.553, "vru_150m": 2, "sss": 58.2, "recommended": 30, "fatal_reduction_pct": 93.8, "why": "pedestrian activity (1 VRU site<=50m)", "pop_density": 8245.6, "pop_density_peak": 16712.5, "v_design": 70, "design_gap": 40}}, {"type": "Feature", "geometry": {"type": "LineString", "coordinates": [[123.9609661, 12.987352], [123.961963, 12.9872181], [123.9624241, 12.987146], [123.9631831, 12.9870411], [123.9642557, 12.9868951], [123.9646001, 12.9868334], [123.9648265, 12.986773], [123.965068, 12.9866758], [123.9652068, 12.9866192], [123.9655695, 12.9864499], [123.9657449, 12.9863696], [123.9662327, 12.986136], [123.9669235, 12.9858051], [123.967344, 12.9856036], [123.9679407, 12.9853178], [123.96806, 12.9852699], [123.9697472, 12.9845918], [123.970537, 12.9842843], [123.9708462, 12.9841718], [123.9713709, 12.9840053], [123.9715776, 12.9839397], [123.971954, 12.9838319], [123.9721376, 12.9837745], [123.972284, 12.9837214], [123.9723986, 12.9836694], [123.9724678, 12.9836377], [123.9726325, 12.9835364], [123.9728901, 12.9833483], [123.9730642, 12.9832151], [123.9732866, 12.9830349], [123.9734095, 12.9829353], [123.9739758, 12.9824765], [123.9745572, 12.9821087], [123.9752533, 12.9818644], [123.9758053, 12.9817169], [123.9760252, 12.9816581], [123.9763672, 12.9815173], [123.9764071, 12.9815009], [123.9767039, 12.9813787], [123.9772761, 12.9810526], [123.9775861, 12.9808653], [123.9781411, 12.9805203], [123.9791592, 12.9800745], [123.9793615, 12.9799999], [123.9804038, 12.9796154], [123.980559, 12.9795581], [123.9807827, 12.9794756], [123.9816322, 12.9792625], [123.9819722, 12.9792076], [123.9824764, 12.9791593], [123.9827231, 12.9791462], [123.9829967, 12.9791436], [123.9830717, 12.9791425], [123.983446, 12.9791949], [123.9836167, 12.9792085], [123.9840322, 12.9792115], [123.9842644, 12.9791549], [123.9845436, 12.9790494]]}, "properties": {"city": "sorsogon", "name": "Maharlika Highway", "highway": "trunk", "v_posted": 60, "posted_imputed": false, "v_safe": 50, "gap": 10, "R": 2.07, "exposure": 0.21, "vru_150m": 0, "sss": 15.1, "recommended": 50, "fatal_reduction_pct": 51.8, "why": "undivided arterial, side-impact intersections", "pop_density": 6806.7, "pop_density_peak": 19493.4, "v_design": 70, "design_gap": 20}}, {"type": "Feature", "geometry": {"type": "LineString", "coordinates": [[123.9845436, 12.9790494], [123.9846516, 12.9789767], [123.9847602, 12.9788935]]}, "properties": {"city": "sorsogon", "name": "Maharlika Highway", "highway": "trunk", "v_posted": 60, "posted_imputed": false, "v_safe": 50, "gap": 10, "R": 2.07, "exposure": 0.133, "vru_150m": 0, "sss": 14.2, "recommended": 50, "fatal_reduction_pct": 51.8, "why": "undivided arterial, side-impact intersections", "pop_density": 4312.8, "pop_density_peak": 4312.9, "v_design": 70, "design_gap": 20}}, {"type": "Feature", "geometry": {"type": "LineString", "coordinates": [[123.9847602, 12.9788935], [123.9847523, 12.979009], [123.984762, 12.9792018]]}, "properties": {"city": "sorsogon", "name": "Salvador H. Escudero III Diversion Road", "highway": "trunk", "v_posted": 60, "posted_imputed": false, "v_safe": 50, "gap": 10, "R": 2.07, "exposure": 0.133, "vru_150m": 0, "sss": 14.2, "recommended": 50, "fatal_reduction_pct": 51.8, "why": "undivided arterial, side-impact intersections", "pop_density": 4312.9, "pop_density_peak": 4312.9, "v_design": 70, "design_gap": 20}}, {"type": "Feature", "geometry": {"type": "LineString", "coordinates": [[123.984762, 12.9792018], [123.9846528, 12.9791131], [123.9845436, 12.9790494]]}, "properties": {"city": "sorsogon", "name": "Salvador H. Escudero III Diversion Road", "highway": "trunk", "v_posted": 60, "posted_imputed": false, "v_safe": 50, "gap": 10, "R": 2.07, "exposure": 0.133, "vru_150m": 0, "sss": 14.2, "recommended": 50, "fatal_reduction_pct": 51.8, "why": "undivided arterial, side-impact intersections", "pop_density": 4312.9, "pop_density_peak": 4312.9, "v_design": 70, "design_gap": 20}}, {"type": "Feature", "geometry": {"type": "LineString", "coordinates": [[123.9847602, 12.9788935], [123.9847952, 12.9785529], [123.9847979, 12.9784451], [123.9847892, 12.9783405], [123.9847684, 12.9782262], [123.9838149, 12.9755811], [123.9837895, 12.9754772], [123.9837806, 12.9753799], [123.9837864, 12.9752933], [123.9838082, 12.9751982], [123.9838395, 12.9751282], [123.9839007, 12.9750139], [123.9839717, 12.9749021], [123.9853611, 12.973034], [123.9854062, 12.9729487], [123.9854458, 12.9728437], [123.9854671, 12.9727583], [123.9861283, 12.9696636], [123.9862677, 12.9693761], [123.9869973, 12.9681267], [123.9870998, 12.967959], [123.9871448, 12.9679097], [123.9872052, 12.9678614], [123.9872966, 12.9678082]]}, "properties": {"city": "sorsogon", "name": "Sorsogon Coastal Road", "highway": "trunk", "v_posted": 60, "posted_imputed": false, "v_safe": 50, "gap": 10, "R": 2.07, "exposure": 0.156, "vru_150m": 0, "sss": 14.4, "recommended": 50, "fatal_reduction_pct": 51.8, "why": "undivided arterial, side-impact intersections", "pop_density": 5043.2, "pop_density_peak": 13939.0, "v_design": 70, "design_gap": 20}}, {"type": "Feature", "geometry": {"type": "LineString", "coordinates": [[123.9872966, 12.9678082], [123.9872394, 12.9678744], [123.9872038, 12.9679313], [123.9871667, 12.9679976], [123.9870724, 12.9681515], [123.9863147, 12.9694048], [123.9861846, 12.9696818], [123.9855409, 12.97277], [123.9855136, 12.9728671], [123.9854678, 12.9729747], [123.9854121, 12.9730746], [123.9840159, 12.9749345], [123.9839556, 12.9750309], [123.9838949, 12.9751509], [123.9838685, 12.9752151], [123.9838466, 12.9753012], [123.9838404, 12.9753799], [123.9838517, 12.9754666], [123.9838779, 12.9755654], [123.9848556, 12.9782079], [123.9848743, 12.9783307], [123.9848824, 12.9784516], [123.9848784, 12.9785581], [123.9848643, 12.9786274], [123.9848452, 12.9786861], [123.9847602, 12.9788935]]}, "properties": {"city": "sorsogon", "name": "Sorsogon Coastal Road", "highway": "trunk", "v_posted": 60, "posted_imputed": false, "v_safe": 50, "gap": 10, "R": 2.07, "exposure": 0.122, "vru_150m": 0, "sss": 14.0, "recommended": 50, "fatal_reduction_pct": 51.8, "why": "undivided arterial, side-impact intersections", "pop_density": 3956.4, "pop_density_peak": 13939.0, "v_design": 70, "design_gap": 20}}, {"type": "Feature", "geometry": {"type": "LineString", "coordinates": [[124.0081897, 12.9746607], [124.0082193, 12.9747586], [124.0082864, 12.9749777], [124.0083546, 12.9751763], [124.0084957, 12.9755569], [124.0086592, 12.9759617], [124.008729, 12.9761482], [124.0087745, 12.9762699], [124.0087926, 12.9763183], [124.0088586, 12.976488], [124.0090415, 12.9770939], [124.0091092, 12.9773181], [124.0091456, 12.9774225], [124.0092507, 12.9778234], [124.009267, 12.9778742], [124.0093763, 12.9783535], [124.0094206, 12.9788156], [124.0094219, 12.9789345], [124.0094256, 12.9791751], [124.0094262, 12.9792642], [124.0094139, 12.9796686], [124.0093813, 12.9801318], [124.0092198, 12.9816313], [124.00921, 12.9820121], [124.0092113, 12.9823141], [124.0092285, 12.9827123], [124.0092503, 12.9832287], [124.0092677, 12.9845976], [124.0092711, 12.9846618], [124.0092724, 12.9847166], [124.0092824, 12.9851295], [124.0093445, 12.9855531], [124.0093589, 12.9859765], [124.0093748, 12.9860634], [124.0093863, 12.9861697], [124.0094262, 12.9863559], [124.0095053, 12.9865427], [124.0096995, 12.9868682], [124.0097827, 12.9869628], [124.0101694, 12.9875888], [124.0102349, 12.9876948], [124.0104309, 12.987998], [124.0107357, 12.9883251], [124.0108333, 12.988504], [124.0111924, 12.9890424], [124.0114273, 12.9893891], [124.0115475, 12.9895262], [124.0120321, 12.9899539], [124.0124105, 12.9902122], [124.0125388, 12.9903202], [124.0128045, 12.990564], [124.0131339, 12.9908893], [124.0134063, 12.9912108], [124.01345, 12.9912624], [124.0137056, 12.9916072], [124.0141557, 12.9922019], [124.0143146, 12.9923973], [124.0144527, 12.9925538], [124.0145977, 12.9927021], [124.0146599, 12.9927663], [124.0148057, 12.9929072], [124.0149792, 12.9930727], [124.0154048, 12.9934632], [124.0159567, 12.9939304], [124.0161668, 12.994097], [124.0163109, 12.9942053], [124.016506, 12.9943503], [124.0169978, 12.9947327], [124.017285, 12.9949481], [124.0175585, 12.9951413], [124.0177568, 12.9952612], [124.0179414, 12.9953279], [124.0180759, 12.9953612], [124.0182061, 12.9953791], [124.0184393, 12.9953912], [124.018605, 12.9954037], [124.0187742, 12.9954219], [124.0189108, 12.9954469], [124.01904, 12.9954821], [124.0191372, 12.995514], [124.0192352, 12.9955527], [124.0194044, 12.9956357], [124.0195374, 12.9957084], [124.0196451, 12.9957681], [124.0197504, 12.9958552], [124.0198686, 12.9959497], [124.0200105, 12.9960834], [124.0201341, 12.9962203], [124.0202246, 12.9963361], [124.0202894, 12.9964333], [124.0203489, 12.9965293], [124.0204575, 12.9967053]]}, "properties": {"city": "sorsogon", "name": "Sorsogon-Bacon-Manito Road", "highway": "primary", "v_posted": 60, "posted_imputed": false, "v_safe": 50, "gap": 10, "R": 2.07, "exposure": 0.303, "vru_150m": 0, "sss": 16.3, "recommended": 50, "fatal_reduction_pct": 51.8, "why": "undivided arterial, side-impact intersections", "pop_density": 9802.8, "pop_density_peak": 22080.0, "v_design": 60, "design_gap": 10}}, {"type": "Feature", "geometry": {"type": "LineString", "coordinates": [[124.02018, 12.9761963], [124.0198666, 12.9763125], [124.0193853, 12.9765421], [124.0182808, 12.9770742], [124.0180452, 12.9771363], [124.0178373, 12.9771747], [124.0175432, 12.9771907], [124.0159364, 12.9770915], [124.0158353, 12.9770845], [124.0153241, 12.9770284], [124.0152331, 12.9770198], [124.0145106, 12.9769508], [124.0139569, 12.9768747], [124.0137145, 12.9768344], [124.0133649, 12.9767724], [124.0131306, 12.976713], [124.0126147, 12.976558], [124.0124814, 12.976497], [124.0121864, 12.9763238], [124.0121295, 12.9762833], [124.0118124, 12.9760577], [124.0113974, 12.9758221], [124.0102728, 12.9752747], [124.0101922, 12.9752362], [124.0100822, 12.9751918], [124.0098384, 12.9750973], [124.0091329, 12.9747947], [124.008971, 12.9747315]]}, "properties": {"city": "sorsogon", "name": "Maharlika Highway", "highway": "primary", "v_posted": 60, "posted_imputed": false, "v_safe": 50, "gap": 10, "R": 2.07, "exposure": 0.616, "vru_150m": 1, "sss": 20.2, "recommended": 50, "fatal_reduction_pct": 51.8, "why": "undivided arterial, side-impact intersections", "pop_density": 16804.2, "pop_density_peak": 26029.3, "v_design": 60, "design_gap": 10}}, {"type": "Feature", "geometry": {"type": "LineString", "coordinates": [[124.0138127, 12.9796406], [124.0137741, 12.9796324], [124.0136974, 12.9796015], [124.0135964, 12.9795563], [124.0134688, 12.979499], [124.0133509, 12.9794508], [124.013205, 12.9793806], [124.0131307, 12.9793232], [124.0130954, 12.9792609], [124.0130438, 12.979138], [124.013017, 12.9783777], [124.0130228, 12.9781582], [124.0130402, 12.9780811], [124.0130845, 12.9779962], [124.0131475, 12.9779125], [124.0133393, 12.9776682], [124.0133732, 12.9774899], [124.0133649, 12.9767724]]}, "properties": {"city": "sorsogon", "name": "Street Road", "highway": "service", "v_posted": 40, "posted_imputed": false, "v_safe": 30, "gap": 10, "R": 3.16, "exposure": 0.185, "vru_150m": 0, "sss": 14.8, "recommended": 30, "fatal_reduction_pct": 68.4, "why": "local road, frontage/pedestrian mixing", "pop_density": 5997.3, "pop_density_peak": 14368.6, "v_design": 20, "design_gap": -10}}, {"type": "Feature", "geometry": {"type": "LineString", "coordinates": [[124.02018, 12.9761963], [124.020298, 12.9748322], [124.0204137, 12.9737302], [124.0204497, 12.9732787], [124.0204582, 12.9731839], [124.0204506, 12.9730878], [124.0204307, 12.9729904], [124.0204005, 12.9729094], [124.0202309, 12.9724225]]}, "properties": {"city": "sorsogon", "name": "Sorsogon Coastal Road", "highway": "trunk", "v_posted": 60, "posted_imputed": false, "v_safe": 50, "gap": 10, "R": 2.07, "exposure": 0.089, "vru_150m": 0, "sss": 13.6, "recommended": 50, "fatal_reduction_pct": 51.8, "why": "undivided arterial, side-impact intersections", "pop_density": 2886.4, "pop_density_peak": 8733.3, "v_design": 70, "design_gap": 20}}, {"type": "Feature", "geometry": {"type": "LineString", "coordinates": [[124.0041122, 12.9668868], [124.0032745, 12.9667437], [124.0028097, 12.9666235], [123.9998601, 12.9654675], [123.9995858, 12.9653522], [123.9991798, 12.9652041], [123.9990346, 12.9652664], [123.9984049, 12.9657729], [123.9978112, 12.9659708], [123.9964798, 12.9662315], [123.9958409, 12.966324]]}, "properties": {"city": "sorsogon", "name": "Sorsogon Coastal Road", "highway": "trunk", "v_posted": 60, "posted_imputed": false, "v_safe": 50, "gap": 10, "R": 2.07, "exposure": 0.615, "vru_150m": 0, "sss": 20.2, "recommended": 50, "fatal_reduction_pct": 51.8, "why": "undivided arterial, side-impact intersections", "pop_density": 19898.4, "pop_density_peak": 27857.5, "v_design": 70, "design_gap": 20}}, {"type": "Feature", "geometry": {"type": "LineString", "coordinates": [[124.0202721, 12.9761755], [124.0207213, 12.9761021], [124.021541, 12.9760707], [124.0222697, 12.9760746], [124.0226477, 12.9760735], [124.0235907, 12.9760743], [124.0237221, 12.9760744], [124.0241772, 12.9760735], [124.0242666, 12.9760733], [124.0242941, 12.9760733], [124.0246606, 12.9760756], [124.0252531, 12.9760754], [124.0257135, 12.9760731]]}, "properties": {"city": "sorsogon", "name": "Maharlika Highway", "highway": "trunk", "v_posted": 60, "posted_imputed": false, "v_safe": 50, "gap": 10, "R": 2.07, "exposure": 0.358, "vru_150m": 0, "sss": 17.0, "recommended": 50, "fatal_reduction_pct": 51.8, "why": "undivided arterial, side-impact intersections", "pop_density": 11565.6, "pop_density_peak": 15617.8, "v_design": 70, "design_gap": 20}}, {"type": "Feature", "geometry": {"type": "LineString", "coordinates": [[123.9998319, 12.9709036], [123.9995312, 12.9708372], [123.9994582, 12.9708224], [123.9989272, 12.970715], [123.9985716, 12.9706431], [123.9981955, 12.9705671], [123.9979905, 12.9705352], [123.9978695, 12.9705245], [123.9977863, 12.9705192], [123.9976848, 12.9705211], [123.9975889, 12.9705213], [123.9974603, 12.9705404]]}, "properties": {"city": "sorsogon", "name": "Rizal Street", "highway": "primary", "v_posted": 60, "posted_imputed": false, "v_safe": 50, "gap": 10, "R": 2.07, "exposure": 0.318, "vru_150m": 0, "sss": 16.5, "recommended": 50, "fatal_reduction_pct": 51.8, "why": "undivided arterial, side-impact intersections", "pop_density": 10291.6, "pop_density_peak": 13477.1, "v_design": 60, "design_gap": 10}}, {"type": "Feature", "geometry": {"type": "LineString", "coordinates": [[123.9974603, 12.9705404], [123.9973481, 12.9705659]]}, "properties": {"city": "sorsogon", "name": "Rizal Street", "highway": "primary", "v_posted": 60, "posted_imputed": false, "v_safe": 50, "gap": 10, "R": 2.07, "exposure": 0.417, "vru_150m": 0, "sss": 17.7, "recommended": 50, "fatal_reduction_pct": 51.8, "why": "undivided arterial, side-impact intersections", "pop_density": 13477.1, "pop_density_peak": 13477.1, "v_design": 60, "design_gap": 10}}, {"type": "Feature", "geometry": {"type": "LineString", "coordinates": [[124.0092092, 12.9683266], [124.012847, 12.9702381], [124.0134452, 12.9705093], [124.0137563, 12.9706337], [124.0140545, 12.9707166], [124.0143623, 12.9707767], [124.0165003, 12.9711744]]}, "properties": {"city": "sorsogon", "name": "Sorsogon Coastal Road", "highway": "trunk", "v_posted": 60, "posted_imputed": false, "v_safe": 50, "gap": 10, "R": 2.07, "exposure": 0.052, "vru_150m": 0, "sss": 13.2, "recommended": 50, "fatal_reduction_pct": 51.8, "why": "undivided arterial, side-impact intersections", "pop_density": 1685.6, "pop_density_peak": 5239.4, "v_design": 70, "design_gap": 20}}, {"type": "Feature", "geometry": {"type": "LineString", "coordinates": [[124.0164886, 12.9712449], [124.0143462, 12.9708447], [124.0140321, 12.9707817], [124.0137381, 12.9706904], [124.0134218, 12.9705722], [124.012826, 12.9702959], [124.0100436, 12.9688397], [124.009177, 12.9683893]]}, "properties": {"city": "sorsogon", "name": "Sorsogon Coastal Road", "highway": "trunk", "v_posted": 60, "posted_imputed": false, "v_safe": 50, "gap": 10, "R": 2.07, "exposure": 0.104, "vru_150m": 0, "sss": 13.8, "recommended": 50, "fatal_reduction_pct": 51.8, "why": "undivided arterial, side-impact intersections", "pop_density": 3370.6, "pop_density_peak": 10110.6, "v_design": 70, "design_gap": 20}}, {"type": "Feature", "geometry": {"type": "LineString", "coordinates": [[124.0086637, 12.9680605], [124.0092092, 12.9683266]]}, "properties": {"city": "sorsogon", "name": "Sorsogon Coastal Road", "highway": "trunk", "v_posted": 60, "posted_imputed": false, "v_safe": 50, "gap": 10, "R": 2.07, "exposure": 0.1, "vru_150m": 0, "sss": 13.7, "recommended": 50, "fatal_reduction_pct": 51.8, "why": "undivided arterial, side-impact intersections", "pop_density": 3219.1, "pop_density_peak": 4935.3, "v_design": 70, "design_gap": 20}}, {"type": "Feature", "geometry": {"type": "LineString", "coordinates": [[124.009177, 12.9683893], [124.0086315, 12.9681232]]}, "properties": {"city": "sorsogon", "name": "Sorsogon Coastal Road", "highway": "trunk", "v_posted": 60, "posted_imputed": false, "v_safe": 50, "gap": 10, "R": 2.07, "exposure": 0.1, "vru_150m": 0, "sss": 13.7, "recommended": 50, "fatal_reduction_pct": 51.8, "why": "undivided arterial, side-impact intersections", "pop_density": 3219.1, "pop_density_peak": 4935.3, "v_design": 70, "design_gap": 20}}, {"type": "Feature", "geometry": {"type": "LineString", "coordinates": [[124.0041255, 12.9667864], [124.0053119, 12.9670039], [124.006841, 12.9672985], [124.0073528, 12.9674412], [124.0078464, 12.9676373], [124.0086637, 12.9680605]]}, "properties": {"city": "sorsogon", "name": "Sorsogon Coastal Road", "highway": "trunk", "v_posted": 60, "posted_imputed": false, "v_safe": 50, "gap": 10, "R": 2.07, "exposure": 0.19, "vru_150m": 0, "sss": 14.9, "recommended": 50, "fatal_reduction_pct": 51.8, "why": "undivided arterial, side-impact intersections", "pop_density": 6147.5, "pop_density_peak": 8606.5, "v_design": 70, "design_gap": 20}}, {"type": "Feature", "geometry": {"type": "LineString", "coordinates": [[124.0086315, 12.9681232], [124.0080733, 12.9678351], [124.0073237, 12.9675186], [124.0068209, 12.9673796], [124.0052959, 12.9671008], [124.0041122, 12.9668868]]}, "properties": {"city": "sorsogon", "name": "Sorsogon Coastal Road", "highway": "trunk", "v_posted": 60, "posted_imputed": false, "v_safe": 50, "gap": 10, "R": 2.07, "exposure": 0.184, "vru_150m": 0, "sss": 14.8, "recommended": 50, "fatal_reduction_pct": 51.8, "why": "undivided arterial, side-impact intersections", "pop_density": 5951.5, "pop_density_peak": 8606.5, "v_design": 70, "design_gap": 20}}, {"type": "Feature", "geometry": {"type": "LineString", "coordinates": [[124.0165003, 12.9711744], [124.0166659, 12.9712005]]}, "properties": {"city": "sorsogon", "name": "Sorsogon Coastal Road", "highway": "trunk", "v_posted": 60, "posted_imputed": false, "v_safe": 50, "gap": 10, "R": 2.07, "exposure": 0.0, "vru_150m": 0, "sss": 12.5, "recommended": 50, "fatal_reduction_pct": 51.8, "why": "undivided arterial, side-impact intersections", "pop_density": 0.0, "pop_density_peak": 0.0, "v_design": 70, "design_gap": 20}}, {"type": "Feature", "geometry": {"type": "LineString", "coordinates": [[124.0166541, 12.971271], [124.0164886, 12.9712449]]}, "properties": {"city": "sorsogon", "name": "Sorsogon Coastal Road", "highway": "trunk", "v_posted": 60, "posted_imputed": false, "v_safe": 50, "gap": 10, "R": 2.07, "exposure": 0.0, "vru_150m": 0, "sss": 12.5, "recommended": 50, "fatal_reduction_pct": 51.8, "why": "undivided arterial, side-impact intersections", "pop_density": 0.0, "pop_density_peak": 0.0, "v_design": 70, "design_gap": 20}}, {"type": "Feature", "geometry": {"type": "LineString", "coordinates": [[124.0166659, 12.9712005], [124.019713, 12.9717602], [124.0198784, 12.9717855], [124.0199413, 12.9717936], [124.0199786, 12.9718013], [124.0200228, 12.9718166], [124.0200728, 12.9718432], [124.0200946, 12.9718597], [124.0201167, 12.9718965], [124.0201522, 12.9719784], [124.0203018, 12.9723945]]}, "properties": {"city": "sorsogon", "name": "Sorsogon Coastal Road", "highway": "trunk", "v_posted": 60, "posted_imputed": false, "v_safe": 50, "gap": 10, "R": 2.07, "exposure": 0.0, "vru_150m": 0, "sss": 12.5, "recommended": 50, "fatal_reduction_pct": 51.8, "why": "undivided arterial, side-impact intersections", "pop_density": 0.0, "pop_density_peak": 0.0, "v_design": 70, "design_gap": 20}}, {"type": "Feature", "geometry": {"type": "LineString", "coordinates": [[124.0199129, 12.9718712], [124.0197408, 12.9718379], [124.0166541, 12.971271]]}, "properties": {"city": "sorsogon", "name": "Sorsogon Coastal Road", "highway": "trunk", "v_posted": 60, "posted_imputed": false, "v_safe": 50, "gap": 10, "R": 2.07, "exposure": 0.0, "vru_150m": 0, "sss": 12.5, "recommended": 50, "fatal_reduction_pct": 51.8, "why": "undivided arterial, side-impact intersections", "pop_density": 0.0, "pop_density_peak": 0.0, "v_design": 70, "design_gap": 20}}, {"type": "Feature", "geometry": {"type": "LineString", "coordinates": [[124.0202721, 12.9761755], [124.02018, 12.9761963]]}, "properties": {"city": "sorsogon", "name": "Maharlika Highway", "highway": "trunk", "v_posted": 60, "posted_imputed": false, "v_safe": 50, "gap": 10, "R": 2.07, "exposure": 0.27, "vru_150m": 0, "sss": 15.9, "recommended": 50, "fatal_reduction_pct": 51.8, "why": "undivided arterial, side-impact intersections", "pop_density": 8733.3, "pop_density_peak": 8733.3, "v_design": 70, "design_gap": 20}}, {"type": "Feature", "geometry": {"type": "LineString", "coordinates": [[124.0204032, 12.9746545], [124.0203796, 12.9749372], [124.0203583, 12.9751461], [124.0203517, 12.9752365], [124.0202844, 12.9758072]]}, "properties": {"city": "sorsogon", "name": "Sorsogon Coastal Road", "highway": "trunk", "v_posted": 60, "posted_imputed": false, "v_safe": 50, "gap": 10, "R": 2.07, "exposure": 0.178, "vru_150m": 0, "sss": 14.7, "recommended": 50, "fatal_reduction_pct": 51.8, "why": "undivided arterial, side-impact intersections", "pop_density": 5772.8, "pop_density_peak": 8733.3, "v_design": 70, "design_gap": 20}}, {"type": "Feature", "geometry": {"type": "LineString", "coordinates": [[124.0202844, 12.9758072], [124.0202721, 12.9761755]]}, "properties": {"city": "sorsogon", "name": "Sorsogon Coastal Road", "highway": "trunk", "v_posted": 60, "posted_imputed": false, "v_safe": 50, "gap": 10, "R": 2.07, "exposure": 0.27, "vru_150m": 0, "sss": 15.9, "recommended": 50, "fatal_reduction_pct": 51.8, "why": "undivided arterial, side-impact intersections", "pop_density": 8733.3, "pop_density_peak": 8733.3, "v_design": 70, "design_gap": 20}}, {"type": "Feature", "geometry": {"type": "LineString", "coordinates": [[124.0202309, 12.9724225], [124.0200672, 12.9719797], [124.020033, 12.9719133], [124.0200101, 12.9718925], [124.0199767, 12.9718801], [124.0199129, 12.9718712]]}, "properties": {"city": "sorsogon", "name": "Sorsogon Coastal Road", "highway": "trunk", "v_posted": 60, "posted_imputed": false, "v_safe": 50, "gap": 10, "R": 2.07, "exposure": 0.0, "vru_150m": 0, "sss": 12.5, "recommended": 50, "fatal_reduction_pct": 51.8, "why": "undivided arterial, side-impact intersections", "pop_density": 0.0, "pop_density_peak": 0.0, "v_design": 70, "design_gap": 20}}, {"type": "Feature", "geometry": {"type": "LineString", "coordinates": [[124.0079783, 12.9739002], [124.0080443, 12.9740091], [124.0081531, 12.9743431], [124.0081856, 12.9744632]]}, "properties": {"city": "sorsogon", "name": "Magsaysay Avenue", "highway": "primary", "v_posted": 40, "posted_imputed": false, "v_safe": 30, "gap": 10, "R": 3.16, "exposure": 0.928, "vru_150m": 4, "sss": 24.1, "recommended": 30, "fatal_reduction_pct": 68.4, "why": "pedestrian activity (1 VRU site<=50m)", "pop_density": 20655.1, "pop_density_peak": 21793.9, "v_design": 60, "design_gap": 30}}, {"type": "Feature", "geometry": {"type": "LineString", "coordinates": [[124.0080974, 12.9745496], [124.0080769, 12.9744478], [124.0079802, 12.9740259], [124.0079783, 12.9739002]]}, "properties": {"city": "sorsogon", "name": "Magsaysay Avenue", "highway": "primary", "v_posted": 40, "posted_imputed": false, "v_safe": 30, "gap": 10, "R": 3.16, "exposure": 0.921, "vru_150m": 4, "sss": 24.0, "recommended": 30, "fatal_reduction_pct": 68.4, "why": "pedestrian activity (1 VRU site<=50m)", "pop_density": 19516.4, "pop_density_peak": 19516.5, "v_design": 60, "design_gap": 30}}, {"type": "Feature", "geometry": {"type": "LineString", "coordinates": [[124.008971, 12.9747315], [124.0087287, 12.9747022], [124.0086998, 12.9746942], [124.0084738, 12.974634], [124.0084141, 12.9746185], [124.0081981, 12.97457], [124.0080974, 12.9745496]]}, "properties": {"city": "sorsogon", "name": "Maharlika Highway", "highway": "primary", "v_posted": 40, "posted_imputed": false, "v_safe": 30, "gap": 10, "R": 3.16, "exposure": 0.923, "vru_150m": 4, "sss": 24.0, "recommended": 30, "fatal_reduction_pct": 68.4, "why": "pedestrian activity (2 VRU site<=50m)", "pop_density": 19941.0, "pop_density_peak": 20365.5, "v_design": 60, "design_gap": 30}}, {"type": "Feature", "geometry": {"type": "LineString", "coordinates": [[124.0081856, 12.9744632], [124.0084438, 12.9745364], [124.00874, 12.9746242], [124.008971, 12.9747315]]}, "properties": {"city": "sorsogon", "name": "Maharlika Highway", "highway": "primary", "v_posted": 40, "posted_imputed": false, "v_safe": 30, "gap": 10, "R": 3.16, "exposure": 0.93, "vru_150m": 4, "sss": 24.1, "recommended": 30, "fatal_reduction_pct": 68.4, "why": "pedestrian activity (1 VRU site<=50m)", "pop_density": 21079.7, "pop_density_peak": 21793.9, "v_design": 60, "design_gap": 30}}, {"type": "Feature", "geometry": {"type": "LineString", "coordinates": [[123.9958231, 12.9662411], [123.9964377, 12.966173], [123.9977872, 12.9659075], [123.9983533, 12.9657091], [123.9989771, 12.9652078], [123.9991593, 12.9651355], [123.999615, 12.9652797], [123.9998627, 12.9653741], [124.0028393, 12.9665258], [124.0032958, 12.9666404], [124.0041255, 12.9667864]]}, "properties": {"city": "sorsogon", "name": "Sorsogon Coastal Road", "highway": "trunk", "v_posted": 60, "posted_imputed": false, "v_safe": 50, "gap": 10, "R": 2.07, "exposure": 0.393, "vru_150m": 0, "sss": 17.4, "recommended": 50, "fatal_reduction_pct": 51.8, "why": "undivided arterial, side-impact intersections", "pop_density": 12719.7, "pop_density_peak": 24387.3, "v_design": 70, "design_gap": 20}}, {"type": "Feature", "geometry": {"type": "LineString", "coordinates": [[123.9958409, 12.966324], [123.9949392, 12.9665077]]}, "properties": {"city": "sorsogon", "name": "Sorsogon Coastal Road", "highway": "trunk", "v_posted": 60, "posted_imputed": false, "v_safe": 50, "gap": 10, "R": 2.07, "exposure": 0.89, "vru_150m": 0, "sss": 23.6, "recommended": 50, "fatal_reduction_pct": 51.8, "why": "undivided arterial, side-impact intersections", "pop_density": 28791.9, "pop_density_peak": 29726.3, "v_design": 70, "design_gap": 20}}, {"type": "Feature", "geometry": {"type": "LineString", "coordinates": [[123.9949214, 12.9664248], [123.9958231, 12.9662411]]}, "properties": {"city": "sorsogon", "name": "Sorsogon Coastal Road", "highway": "trunk", "v_posted": 60, "posted_imputed": false, "v_safe": 50, "gap": 10, "R": 2.07, "exposure": 0.837, "vru_150m": 0, "sss": 23.0, "recommended": 50, "fatal_reduction_pct": 51.8, "why": "undivided arterial, side-impact intersections", "pop_density": 27056.8, "pop_density_peak": 29726.3, "v_design": 70, "design_gap": 20}}, {"type": "Feature", "geometry": {"type": "LineString", "coordinates": [[123.9923295, 12.9669897], [123.9924221, 12.9669341], [123.9949214, 12.9664248]]}, "properties": {"city": "sorsogon", "name": "Sorsogon Coastal Road", "highway": "trunk", "v_posted": 60, "posted_imputed": false, "v_safe": 50, "gap": 10, "R": 2.07, "exposure": 0.46, "vru_150m": 0, "sss": 18.2, "recommended": 50, "fatal_reduction_pct": 51.8, "why": "undivided arterial, side-impact intersections", "pop_density": 14863.1, "pop_density_peak": 29726.3, "v_design": 70, "design_gap": 20}}, {"type": "Feature", "geometry": {"type": "LineString", "coordinates": [[123.9949392, 12.9665077], [123.9924391, 12.9670112], [123.9923295, 12.9669897]]}, "properties": {"city": "sorsogon", "name": "Sorsogon Coastal Road", "highway": "trunk", "v_posted": 60, "posted_imputed": false, "v_safe": 50, "gap": 10, "R": 2.07, "exposure": 0.306, "vru_150m": 0, "sss": 16.3, "recommended": 50, "fatal_reduction_pct": 51.8, "why": "undivided arterial, side-impact intersections", "pop_density": 9908.8, "pop_density_peak": 29726.3, "v_design": 70, "design_gap": 20}}, {"type": "Feature", "geometry": {"type": "LineString", "coordinates": [[123.9973481, 12.9705659], [123.9967819, 12.9706951], [123.9962384, 12.9708445], [123.9956682, 12.9709564], [123.9954342, 12.9709857], [123.9952273, 12.9710117], [123.9951191, 12.9710252], [123.9949576, 12.9710455], [123.9944715, 12.9710699], [123.9941236, 12.9710652], [123.9940221, 12.9710638], [123.9939845, 12.9710633], [123.9934855, 12.9710639], [123.9930869, 12.9710712], [123.9930818, 12.9710713]]}, "properties": {"city": "sorsogon", "name": "Rizal Street", "highway": "primary", "v_posted": 60, "posted_imputed": false, "v_safe": 50, "gap": 10, "R": 2.07, "exposure": 0.595, "vru_150m": 1, "sss": 19.9, "recommended": 50, "fatal_reduction_pct": 51.8, "why": "undivided arterial, side-impact intersections", "pop_density": 15983.5, "pop_density_peak": 23254.7, "v_design": 60, "design_gap": 10}}, {"type": "Feature", "geometry": {"type": "LineString", "coordinates": [[123.9930767, 12.9710714], [123.9929885, 12.9710729]]}, "properties": {"city": "sorsogon", "name": "Rizal Street", "highway": "primary", "v_posted": 60, "posted_imputed": false, "v_safe": 50, "gap": 10, "R": 2.07, "exposure": 0.357, "vru_150m": 1, "sss": 17.0, "recommended": 50, "fatal_reduction_pct": 51.8, "why": "undivided arterial, side-impact intersections", "pop_density": 6366.5, "pop_density_peak": 6366.5, "v_design": 60, "design_gap": 10}}, {"type": "Feature", "geometry": {"type": "LineString", "coordinates": [[123.9929885, 12.9710729], [123.9929834, 12.971073]]}, "properties": {"city": "sorsogon", "name": "Rizal Street", "highway": "primary", "v_posted": 60, "posted_imputed": false, "v_safe": 50, "gap": 10, "R": 2.07, "exposure": 0.357, "vru_150m": 1, "sss": 17.0, "recommended": 50, "fatal_reduction_pct": 51.8, "why": "undivided arterial, side-impact intersections", "pop_density": 6366.5, "pop_density_peak": 6366.5, "v_design": 60, "design_gap": 10}}, {"type": "Feature", "geometry": {"type": "LineString", "coordinates": [[123.9930818, 12.9710713], [123.9930767, 12.9710714]]}, "properties": {"city": "sorsogon", "name": "Rizal Street", "highway": "primary", "v_posted": 60, "posted_imputed": false, "v_safe": 50, "gap": 10, "R": 2.07, "exposure": 0.357, "vru_150m": 1, "sss": 17.0, "recommended": 50, "fatal_reduction_pct": 51.8, "why": "undivided arterial, side-impact intersections", "pop_density": 6366.5, "pop_density_peak": 6366.5, "v_design": 60, "design_gap": 10}}, {"type": "Feature", "geometry": {"type": "LineString", "coordinates": [[124.0081981, 12.97457], [124.0081897, 12.9746607]]}, "properties": {"city": "sorsogon", "name": "Sorsogon-Bacon-Manito Road", "highway": "primary", "v_posted": 60, "posted_imputed": false, "v_safe": 30, "gap": 30, "R": 16.0, "exposure": 0.936, "vru_150m": 4, "sss": 72.6, "recommended": 30, "fatal_reduction_pct": 93.8, "why": "pedestrian activity (3 VRU site<=50m)", "pop_density": 21936.9, "pop_density_peak": 22080.0, "v_design": 60, "design_gap": 30}}, {"type": "Feature", "geometry": {"type": "LineString", "coordinates": [[124.0080769, 12.9744478], [124.0081856, 12.9744632]]}, "properties": {"city": "sorsogon", "name": "Maharlika Highway", "highway": "primary", "v_posted": 40, "posted_imputed": false, "v_safe": 30, "gap": 10, "R": 3.16, "exposure": 0.928, "vru_150m": 4, "sss": 24.1, "recommended": 30, "fatal_reduction_pct": 68.4, "why": "pedestrian activity (1 VRU site<=50m)", "pop_density": 20655.2, "pop_density_peak": 21793.9, "v_design": 60, "design_gap": 30}}, {"type": "Feature", "geometry": {"type": "LineString", "coordinates": [[124.0081897, 12.9746607], [124.0080974, 12.9745496]]}, "properties": {"city": "sorsogon", "name": "Sorsogon-Bacon-Manito Road", "highway": "primary", "v_posted": 60, "posted_imputed": false, "v_safe": 50, "gap": 10, "R": 2.07, "exposure": 0.929, "vru_150m": 4, "sss": 24.1, "recommended": 50, "fatal_reduction_pct": 51.8, "why": "undivided arterial, side-impact intersections", "pop_density": 20798.2, "pop_density_peak": 22080.0, "v_design": 60, "design_gap": 10}}, {"type": "Feature", "geometry": {"type": "LineString", "coordinates": [[124.0081856, 12.9744632], [124.0081981, 12.97457]]}, "properties": {"city": "sorsogon", "name": "Magsaysay Avenue", "highway": "primary", "v_posted": 40, "posted_imputed": false, "v_safe": 30, "gap": 10, "R": 3.16, "exposure": 0.935, "vru_150m": 4, "sss": 24.2, "recommended": 30, "fatal_reduction_pct": 68.4, "why": "pedestrian activity (2 VRU site<=50m)", "pop_density": 21793.9, "pop_density_peak": 21793.9, "v_design": 60, "design_gap": 30}}, {"type": "Feature", "geometry": {"type": "LineString", "coordinates": [[124.0258347, 12.9764793], [124.0258516, 12.9764237], [124.0258604, 12.9763781], [124.025859, 12.9763367], [124.0258502, 12.976294], [124.0258361, 12.9762513], [124.0258092, 12.9761986], [124.0257795, 12.976152], [124.0257135, 12.9760731]]}, "properties": {"city": "sorsogon", "name": "", "highway": "trunk_link", "v_posted": 60, "posted_imputed": false, "v_safe": 50, "gap": 10, "R": 2.07, "exposure": 0.416, "vru_150m": 0, "sss": 17.7, "recommended": 50, "fatal_reduction_pct": 51.8, "why": "undivided arterial, side-impact intersections", "pop_density": 13450.0, "pop_density_peak": 14421.0, "v_design": 55, "design_gap": 5}}, {"type": "Feature", "geometry": {"type": "LineString", "coordinates": [[124.0263586, 12.9760686], [124.0266224, 12.9760623], [124.0268018, 12.976059], [124.0277155, 12.9760459], [124.0278256, 12.9760438], [124.0279378, 12.9760424], [124.0280439, 12.9760417], [124.02831, 12.9760367], [124.0284258, 12.9760361], [124.0285553, 12.9760351], [124.0289349, 12.976028], [124.0302163, 12.9759998], [124.0312454, 12.9758615], [124.0320373, 12.97571], [124.0322193, 12.9756951], [124.0327753, 12.9756607], [124.0335511, 12.9756335], [124.0337844, 12.9756221], [124.0338807, 12.9756174], [124.0339369, 12.9756147], [124.0340594, 12.9756078], [124.0344022, 12.9755887], [124.0349053, 12.9755652], [124.0350809, 12.9755896], [124.0352542, 12.97562], [124.0362175, 12.9758853], [124.036617, 12.9759622], [124.0370803, 12.9760122], [124.0375691, 12.9760732], [124.0381052, 12.9761171], [124.0384639, 12.976147], [124.0386824, 12.9761566], [124.0389074, 12.9761552], [124.0394992, 12.9761348], [124.0399808, 12.9761212], [124.0403064, 12.976116], [124.0405518, 12.9761226], [124.0408116, 12.9761391], [124.0412598, 12.9761725], [124.0413974, 12.9761877], [124.0414823, 12.9762007], [124.0415609, 12.9762159], [124.0416296, 12.9762332], [124.0417476, 12.9762717], [124.0420295, 12.9763757], [124.0422017, 12.9764394], [124.0423203, 12.9764783], [124.0424247, 12.9765099], [124.0425378, 12.9765386], [124.0426613, 12.9765617], [124.0431888, 12.9766395], [124.0436548, 12.9766859], [124.0439544, 12.976696], [124.0441507, 12.9766808], [124.0443923, 12.9766378], [124.0447078, 12.9765544], [124.0450469, 12.9764152], [124.0457669, 12.9759864], [124.0469175, 12.9752803], [124.0470195, 12.9751961], [124.0471081, 12.9751038], [124.0472112, 12.9749403], [124.0473661, 12.9746918], [124.0475149, 12.974421], [124.047638, 12.9741918], [124.0477695, 12.9740166], [124.0478951, 12.9739134], [124.0480314, 12.9738378], [124.0482899, 12.9737873], [124.048436, 12.9737512], [124.0485725, 12.973724], [124.0486713, 12.9737043], [124.0489634, 12.9736534], [124.0491073, 12.9736215], [124.0491909, 12.9735961], [124.0492664, 12.9735514], [124.0493305, 12.9734901], [124.0493833, 12.9734272], [124.0494269, 12.9733555], [124.0494659, 12.9732748], [124.0495217, 12.9731187], [124.0496422, 12.9727623], [124.0496628, 12.9726925], [124.0496791, 12.9726218], [124.049691, 12.9725532], [124.0496955, 12.9725057], [124.0496937, 12.9724682]]}, "properties": {"city": "sorsogon", "name": "Maharlika Highway", "highway": "trunk", "v_posted": 60, "posted_imputed": false, "v_safe": 50, "gap": 10, "R": 2.07, "exposure": 0.191, "vru_150m": 0, "sss": 14.9, "recommended": 50, "fatal_reduction_pct": 51.8, "why": "undivided arterial, side-impact intersections", "pop_density": 6184.7, "pop_density_peak": 14421.0, "v_design": 70, "design_gap": 20}}, {"type": "Feature", "geometry": {"type": "LineString", "coordinates": [[124.0204937, 12.9737359], [124.0204032, 12.9746545]]}, "properties": {"city": "sorsogon", "name": "Sorsogon Coastal Road", "highway": "trunk", "v_posted": 60, "posted_imputed": false, "v_safe": 50, "gap": 10, "R": 2.07, "exposure": 0.043, "vru_150m": 0, "sss": 13.0, "recommended": 50, "fatal_reduction_pct": 51.8, "why": "undivided arterial, side-impact intersections", "pop_density": 1406.2, "pop_density_peak": 2812.3, "v_design": 70, "design_gap": 20}}, {"type": "Feature", "geometry": {"type": "LineString", "coordinates": [[124.0257135, 12.9760731], [124.0263586, 12.9760686]]}, "properties": {"city": "sorsogon", "name": "Maharlika Highway", "highway": "trunk", "v_posted": 60, "posted_imputed": false, "v_safe": 50, "gap": 10, "R": 2.07, "exposure": 0.446, "vru_150m": 0, "sss": 18.1, "recommended": 50, "fatal_reduction_pct": 51.8, "why": "undivided arterial, side-impact intersections", "pop_density": 14421.0, "pop_density_peak": 14421.0, "v_design": 70, "design_gap": 20}}, {"type": "Feature", "geometry": {"type": "LineString", "coordinates": [[124.0263586, 12.9760686], [124.0258347, 12.9764793]]}, "properties": {"city": "sorsogon", "name": "Salvador H. Escudero III Diversion Road", "highway": "trunk", "v_posted": 60, "posted_imputed": false, "v_safe": 50, "gap": 10, "R": 2.07, "exposure": 0.416, "vru_150m": 0, "sss": 17.7, "recommended": 50, "fatal_reduction_pct": 51.8, "why": "undivided arterial, side-impact intersections", "pop_density": 13450.0, "pop_density_peak": 14421.0, "v_design": 70, "design_gap": 20}}, {"type": "Feature", "geometry": {"type": "LineString", "coordinates": [[124.0203018, 12.9723945], [124.0205044, 12.972898], [124.0205381, 12.9729965], [124.0205496, 12.9730759], [124.0205534, 12.9731674], [124.0205508, 12.9732672], [124.0204937, 12.9737359]]}, "properties": {"city": "sorsogon", "name": "Sorsogon Coastal Road", "highway": "trunk", "v_posted": 60, "posted_imputed": false, "v_safe": 50, "gap": 10, "R": 2.07, "exposure": 0.0, "vru_150m": 0, "sss": 12.5, "recommended": 50, "fatal_reduction_pct": 51.8, "why": "undivided arterial, side-impact intersections", "pop_density": 0.0, "pop_density_peak": 0.0, "v_design": 70, "design_gap": 20}}, {"type": "Feature", "geometry": {"type": "LineString", "coordinates": [[124.0258347, 12.9764793], [124.02562, 12.9766236], [124.0255284, 12.9767041], [124.0254809, 12.9767545], [124.0254389, 12.9768147], [124.0254115, 12.9768598], [124.0253956, 12.9768978], [124.0253824, 12.9769491], [124.0253753, 12.9770091], [124.025365, 12.9771377], [124.0253081, 12.9778973], [124.0252723, 12.978436], [124.0252645, 12.9798012], [124.0252626, 12.9798766], [124.02526, 12.98093], [124.0252601, 12.9810563], [124.0252595, 12.981373], [124.0252697, 12.9816021], [124.025315, 12.9819471], [124.0253368, 12.9820755], [124.0253935, 12.9823376], [124.0255883, 12.9831055], [124.0257054, 12.9834775], [124.0258454, 12.9838049], [124.0259073, 12.9839331], [124.0263679, 12.9846647], [124.0265611, 12.9850826], [124.0266108, 12.9852491], [124.0266328, 12.9854402], [124.0266348, 12.9855967], [124.0263755, 12.9874473], [124.026364, 12.9875294], [124.0263315, 12.9877611], [124.0259168, 12.9911819], [124.0258861, 12.9914867], [124.0258499, 12.9916502], [124.0258158, 12.9917871], [124.0257395, 12.9919609], [124.0256285, 12.9921107], [124.0254822, 12.9922565], [124.0243488, 12.9932946], [124.0231633, 12.9943331], [124.0224436, 12.9950067], [124.0213064, 12.9960345], [124.0208649, 12.9964414], [124.0207776, 12.996517], [124.0206832, 12.9965875], [124.020601, 12.9966344], [124.0204575, 12.9967053]]}, "properties": {"city": "sorsogon", "name": "Salvador H. Escudero III Diversion Road", "highway": "trunk", "v_posted": 60, "posted_imputed": false, "v_safe": 50, "gap": 10, "R": 2.07, "exposure": 0.08, "vru_150m": 0, "sss": 13.5, "recommended": 50, "fatal_reduction_pct": 51.8, "why": "undivided arterial, side-impact intersections", "pop_density": 2580.5, "pop_density_peak": 12478.9, "v_design": 60, "design_gap": 10}}, {"type": "Feature", "geometry": {"type": "LineString", "coordinates": [[124.0016512, 12.9860263], [124.0013521, 12.985912]]}, "properties": {"city": "sorsogon", "name": "Salvador H. Escudero III Diversion Road", "highway": "trunk", "v_posted": 60, "posted_imputed": false, "v_safe": 50, "gap": 10, "R": 2.07, "exposure": 0.0, "vru_150m": 0, "sss": 12.5, "recommended": 50, "fatal_reduction_pct": 51.8, "why": "undivided arterial, side-impact intersections", "pop_density": 0.0, "pop_density_peak": 0.0, "v_design": 70, "design_gap": 20}}, {"type": "Feature", "geometry": {"type": "LineString", "coordinates": [[124.0046988, 12.9874522], [124.0044658, 12.9873104], [124.0043063, 12.987212], [124.0042192, 12.9871627], [124.0040763, 12.9870964], [124.0038614, 12.9870203], [124.0037729, 12.9869868], [124.003572, 12.9868878], [124.0032079, 12.9867316], [124.0029598, 12.986614], [124.0028331, 12.9865542], [124.0024179, 12.9863585], [124.002268, 12.9862921], [124.0020667, 12.9862069], [124.0020245, 12.9861852], [124.0016512, 12.9860263]]}, "properties": {"city": "sorsogon", "name": "Salvador H. Escudero III Diversion Road", "highway": "trunk", "v_posted": 60, "posted_imputed": false, "v_safe": 50, "gap": 10, "R": 2.07, "exposure": 0.0, "vru_150m": 0, "sss": 12.5, "recommended": 50, "fatal_reduction_pct": 51.8, "why": "undivided arterial, side-impact intersections", "pop_density": 0.0, "pop_density_peak": 0.0, "v_design": 70, "design_gap": 20}}, {"type": "Feature", "geometry": {"type": "LineString", "coordinates": [[124.0048247, 12.9875316], [124.0046988, 12.9874522]]}, "properties": {"city": "sorsogon", "name": "Salvador H. Escudero III Diversion Road", "highway": "trunk", "v_posted": 60, "posted_imputed": false, "v_safe": 50, "gap": 10, "R": 2.07, "exposure": 0.036, "vru_150m": 0, "sss": 12.9, "recommended": 50, "fatal_reduction_pct": 51.8, "why": "undivided arterial, side-impact intersections", "pop_density": 1153.0, "pop_density_peak": 2306.0, "v_design": 70, "design_gap": 20}}, {"type": "Feature", "geometry": {"type": "LineString", "coordinates": [[124.0204575, 12.9967053], [124.0201503, 12.9968542], [124.019501, 12.9971458], [124.0192071, 12.9972743], [124.0191252, 12.997308], [124.0190295, 12.9973392], [124.0189552, 12.997353], [124.0188407, 12.9973531], [124.0187107, 12.9973374], [124.01796, 12.9972666], [124.0171359, 12.9972142], [124.0165626, 12.9971732], [124.0152222, 12.997061], [124.015061, 12.9970388], [124.0148599, 12.9969943], [124.0146201, 12.9969225], [124.0142512, 12.9967801], [124.0140769, 12.9967095], [124.0137094, 12.9965606], [124.0134121, 12.9964359], [124.0133402, 12.996411], [124.0132742, 12.9963908], [124.0132138, 12.9963772], [124.0131462, 12.9963665], [124.0130673, 12.9963606], [124.0128662, 12.9963582], [124.0124289, 12.9963616], [124.011868, 12.9963585], [124.0115712, 12.996353], [124.0103313, 12.9963495], [124.0098736, 12.996337], [124.0097097, 12.9963184], [124.0095436, 12.9962789], [124.0094045, 12.9961925], [124.0093052, 12.9961109], [124.0092313, 12.9959688], [124.0091881, 12.9958371], [124.0090941, 12.9953263], [124.0089859, 12.9947543], [124.0089209, 12.9945901], [124.0088666, 12.9945033], [124.0087985, 12.9944265], [124.0086601, 12.9943249], [124.0082365, 12.9940718], [124.0081343, 12.9939681], [124.0080002, 12.993769], [124.0075422, 12.9929009], [124.0074331, 12.9926944], [124.0073283, 12.9924672], [124.0072029, 12.9921358], [124.006843, 12.9907455], [124.006733, 12.9903691], [124.0065989, 12.9899875], [124.0064675, 12.9897236], [124.0061069, 12.9891609], [124.0060231, 12.9890302], [124.0059463, 12.9889195], [124.0058389, 12.9887445], [124.0052972, 12.9878625], [124.004971, 12.9876227], [124.0048247, 12.9875316]]}, "properties": {"city": "sorsogon", "name": "Salvador H. Escudero III Diversion Road", "highway": "trunk", "v_posted": 60, "posted_imputed": false, "v_safe": 50, "gap": 10, "R": 2.07, "exposure": 0.136, "vru_150m": 0, "sss": 14.2, "recommended": 50, "fatal_reduction_pct": 51.8, "why": "undivided arterial, side-impact intersections", "pop_density": 4401.0, "pop_density_peak": 17130.2, "v_design": 60, "design_gap": 10}}, {"type": "Feature", "geometry": {"type": "LineString", "coordinates": [[124.0258159, 13.0151598], [124.0258478, 13.0152734]]}, "properties": {"city": "sorsogon", "name": "Sorsogon-Bacon-Manito Road", "highway": "primary", "v_posted": 60, "posted_imputed": false, "v_safe": 50, "gap": 10, "R": 2.07, "exposure": 0.2, "vru_150m": 1, "sss": 15.0, "recommended": 50, "fatal_reduction_pct": 51.8, "why": "undivided arterial, side-impact intersections", "pop_density": 0.0, "pop_density_peak": 0.0, "v_design": 60, "design_gap": 10}}, {"type": "Feature", "geometry": {"type": "LineString", "coordinates": [[124.0258478, 13.0152734], [124.02591, 13.015517], [124.0259841, 13.0158096], [124.026089, 13.0162281], [124.0261748, 13.0165586], [124.0262362, 13.0168104], [124.0264809, 13.0176969], [124.0265277, 13.0178806], [124.0265706, 13.0180863], [124.0266006, 13.0182321], [124.0266873, 13.018776], [124.0266947, 13.0188403], [124.026729, 13.0191382], [124.0267571, 13.0193671], [124.0267681, 13.0194317], [124.0267779, 13.0194889], [124.0268046, 13.0195921], [124.0268398, 13.0197116], [124.0269023, 13.0198568], [124.0270046, 13.0200393], [124.0271647, 13.0202862], [124.0275054, 13.0207803], [124.0276946, 13.0210606], [124.0277421, 13.0211493], [124.0278063, 13.0213018], [124.0278455, 13.0214153], [124.0278827, 13.0215561], [124.0279152, 13.0217429], [124.0279526, 13.0220016], [124.0279823, 13.0222154], [124.0280095, 13.0224899], [124.0280557, 13.0229372], [124.0281104, 13.0234529], [124.0281163, 13.0235128], [124.0281337, 13.0236882], [124.0281677, 13.023913], [124.0281989, 13.0240799], [124.028229, 13.0242016], [124.0283093, 13.0244934], [124.028444, 13.0249085], [124.0285019, 13.0250871], [124.028616, 13.0254207], [124.0286593, 13.0255162], [124.0286949, 13.025572], [124.0288257, 13.0257282], [124.0288947, 13.0258033], [124.0292201, 13.0261448], [124.0294566, 13.0263647], [124.0297916, 13.0266538], [124.0306377, 13.0273707], [124.0312527, 13.0278961], [124.0318606, 13.0284111], [124.0321287, 13.0286525], [124.0323219, 13.0288531], [124.032428, 13.0289737], [124.0324851, 13.0290434], [124.03251, 13.0290739], [124.0325924, 13.0291863], [124.0326803, 13.0293196], [124.032765, 13.0294595], [124.0330341, 13.0299954], [124.0332395, 13.0303841], [124.0333006, 13.0304997], [124.0336875, 13.0311971], [124.0339742, 13.0317371], [124.0342905, 13.0323758], [124.0344169, 13.0326311], [124.0345482, 13.0328652], [124.0349667, 13.0335537], [124.0351226, 13.0338074], [124.0352169, 13.0339609], [124.035285, 13.0340737], [124.0353856, 13.0342456], [124.0355455, 13.0344973], [124.035687, 13.0347408]]}, "properties": {"city": "sorsogon", "name": "Sorsogon-Bacon-Manito Road", "highway": "primary", "v_posted": 60, "posted_imputed": false, "v_safe": 50, "gap": 10, "R": 2.07, "exposure": 0.014, "vru_150m": 0, "sss": 12.7, "recommended": 50, "fatal_reduction_pct": 51.8, "why": "undivided arterial, side-impact intersections", "pop_density": 453.8, "pop_density_peak": 3349.5, "v_design": 60, "design_gap": 10}}, {"type": "Feature", "geometry": {"type": "LineString", "coordinates": [[124.0233637, 13.0005584], [124.0236654, 13.0008238], [124.0237293, 13.0008831], [124.0238286, 13.0009922], [124.023882, 13.0010633], [124.0239368, 13.0011477], [124.0240088, 13.0012762], [124.024056, 13.0013708], [124.024084, 13.0014376], [124.0241108, 13.0015145], [124.0241325, 13.0015941], [124.024146, 13.0016837], [124.0241506, 13.0017459], [124.0241534, 13.0018244], [124.0241549, 13.0019158], [124.024148, 13.0020102], [124.024131, 13.0021199], [124.0240799, 13.0023663], [124.0239876, 13.0027322], [124.0238234, 13.0033347], [124.0236687, 13.0039871], [124.0235876, 13.004383], [124.0235521, 13.0047657], [124.0235511, 13.005052], [124.0235685, 13.0053419], [124.0235748, 13.005423], [124.0236161, 13.0059525], [124.0236849, 13.006749], [124.0237502, 13.0072646], [124.0237862, 13.0074962], [124.0238127, 13.0076117], [124.0238942, 13.0078675], [124.0240145, 13.0082022], [124.0241851, 13.0086859], [124.0242857, 13.0089746], [124.0243733, 13.0092759], [124.0244712, 13.0096983], [124.0245102, 13.0099758], [124.0245247, 13.010121], [124.0245396, 13.0102704], [124.0245516, 13.0104987], [124.0245546, 13.0106885], [124.0245435, 13.0108352], [124.0244958, 13.0113288], [124.0244627, 13.0117105], [124.0244587, 13.0117562], [124.0244409, 13.0120548], [124.0244408, 13.0121321], [124.0244519, 13.0122323], [124.0244706, 13.0123321], [124.0245259, 13.0125092], [124.0246287, 13.0127532], [124.0247931, 13.0130783], [124.0251206, 13.0137224], [124.025209, 13.0138962], [124.0252308, 13.013939], [124.0252437, 13.0139644], [124.0255293, 13.0145189], [124.0256209, 13.0146967], [124.0256687, 13.0147895], [124.0257142, 13.0148884], [124.0257421, 13.0149491], [124.0257748, 13.015036], [124.0258159, 13.0151598]]}, "properties": {"city": "sorsogon", "name": "Sorsogon-Bacon-Manito Road", "highway": "primary", "v_posted": 60, "posted_imputed": false, "v_safe": 50, "gap": 10, "R": 2.07, "exposure": 0.155, "vru_150m": 0, "sss": 14.4, "recommended": 50, "fatal_reduction_pct": 51.8, "why": "undivided arterial, side-impact intersections", "pop_density": 5001.9, "pop_density_peak": 13444.5, "v_design": 60, "design_gap": 10}}, {"type": "Feature", "geometry": {"type": "LineString", "coordinates": [[124.0232499, 13.0004591], [124.0233637, 13.0005584]]}, "properties": {"city": "sorsogon", "name": "Sorsogon-Bacon-Manito Road", "highway": "primary", "v_posted": 60, "posted_imputed": false, "v_safe": 50, "gap": 10, "R": 2.07, "exposure": 0.008, "vru_150m": 0, "sss": 12.6, "recommended": 50, "fatal_reduction_pct": 51.8, "why": "undivided arterial, side-impact intersections", "pop_density": 253.6, "pop_density_peak": 507.1, "v_design": 60, "design_gap": 10}}, {"type": "Feature", "geometry": {"type": "LineString", "coordinates": [[124.0204575, 12.9967053], [124.0206548, 12.9971017], [124.0207723, 12.9973273], [124.0208619, 12.9974993], [124.0208985, 12.9975696], [124.0210286, 12.9978206], [124.0210972, 12.9979544], [124.0213002, 12.9983489], [124.0214277, 12.998586], [124.0215097, 12.9987119], [124.0215362, 12.9987488], [124.0215569, 12.9987776], [124.0216366, 12.9988708], [124.0217895, 12.9990365], [124.0220518, 12.9993], [124.022386, 12.9996606], [124.0224839, 12.9997636], [124.0226231, 12.9999101], [124.0227857, 13.0000723], [124.022905, 13.0001885], [124.0229994, 13.000266], [124.0231764, 13.000395], [124.0232499, 13.0004591]]}, "properties": {"city": "sorsogon", "name": "Sorsogon-Bacon-Manito Road", "highway": "primary", "v_posted": 60, "posted_imputed": false, "v_safe": 50, "gap": 10, "R": 2.07, "exposure": 0.084, "vru_150m": 0, "sss": 13.6, "recommended": 50, "fatal_reduction_pct": 51.8, "why": "undivided arterial, side-impact intersections", "pop_density": 2720.1, "pop_density_peak": 7277.1, "v_design": 60, "design_gap": 10}}]}