{"type": "FeatureCollection", "features": [{"type": "Feature", "geometry": {"type": "LineString", "coordinates": [[123.330292, 8.5436831], [123.3300057, 8.5429656], [123.3297532, 8.5423327], [123.329612, 8.541973], [123.3295296, 8.5417562], [123.3294484, 8.541556], [123.3294108, 8.5414764], [123.3293303, 8.541312], [123.3291667, 8.5410679], [123.3290675, 8.5409459], [123.3289656, 8.5408398], [123.3288636, 8.5407417], [123.3287617, 8.5406541], [123.3284372, 8.5404181], [123.328227, 8.5402634], [123.3277022, 8.539877], [123.3271068, 8.5394154], [123.3266669, 8.5390361], [123.325763, 8.5382218], [123.3254304, 8.5379327], [123.3249476, 8.5375401], [123.3239123, 8.5367179], [123.3237916, 8.5366171], [123.3237084, 8.5365508], [123.3233597, 8.5362378], [123.322958, 8.5358784], [123.3223727, 8.5353333], [123.3217913, 8.5347829], [123.3212576, 8.5342656], [123.3210554, 8.5340743], [123.3208177, 8.5338376], [123.3204006, 8.5334251], [123.3196925, 8.5327447], [123.319436, 8.532517], [123.319151, 8.5322756], [123.3189663, 8.5321189], [123.3186022, 8.5318313], [123.3179524, 8.5312902], [123.3175169, 8.5309079], [123.3173663, 8.530749], [123.3172654, 8.5306174], [123.317188, 8.5304848], [123.3171427, 8.5303687], [123.3171042, 8.5302338], [123.3170688, 8.5300945], [123.3170297, 8.5298946], [123.3169905, 8.52963], [123.3169258, 8.5291144], [123.3168433, 8.5285037], [123.3167595, 8.5278319], [123.3166918, 8.5272861], [123.3166468, 8.5268684], [123.3166006, 8.5265295], [123.3165201, 8.5258776], [123.3163954, 8.5249366], [123.3162291, 8.5238703], [123.3158777, 8.521406], [123.3157315, 8.5205028], [123.3155894, 8.5195996], [123.3154834, 8.5188662], [123.3154459, 8.5183476], [123.3153292, 8.5174868], [123.3152179, 8.5166366], [123.3151147, 8.5159732], [123.3151072, 8.5158774], [123.3150141, 8.515187], [123.3148853, 8.5142228], [123.3148569, 8.5139812], [123.3148471, 8.5138976], [123.3148454, 8.5138832], [123.3148392, 8.5138304], [123.3148223, 8.5136869], [123.3147713, 8.5133156], [123.3146949, 8.5129574], [123.3146076, 8.512667]]}, "properties": {"city": "dipolog", "name": "Dipolog-Oroquieta Road", "highway": "primary", "v_posted": 60, "posted_imputed": false, "v_safe": 50, "gap": 10, "R": 2.07, "exposure": 0.053, "vru_150m": 0, "sss": 13.2, "recommended": 50, "fatal_reduction_pct": 51.8, "why": "undivided arterial, side-impact intersections", "pop_density": 1715.7, "pop_density_peak": 10313.9, "v_design": 60, "design_gap": 10}}, {"type": "Feature", "geometry": {"type": "LineString", "coordinates": [[123.3394715, 8.5689231], [123.3394643, 8.5688119], [123.3394628, 8.568788], [123.339449, 8.5686526], [123.3394343, 8.5685359], [123.3394115, 8.5683847], [123.3393713, 8.5681327], [123.3392794, 8.5677805], [123.3392103, 8.5675356], [123.3390164, 8.5668491], [123.3389532, 8.5666349], [123.338913, 8.5664985], [123.3388871, 8.5664109], [123.3387524, 8.5659544], [123.338691, 8.5657464], [123.3385983, 8.5654373], [123.3383725, 8.5646842], [123.3382554, 8.5642935], [123.3381333, 8.5639526], [123.3380583, 8.5637432], [123.3378182, 8.5631261], [123.3377472, 8.5629435], [123.3372021, 8.5616181], [123.3370889, 8.5613428], [123.3365523, 8.559978], [123.336395, 8.5595896], [123.336312, 8.5593984], [123.3362961, 8.5593615], [123.3362152, 8.559174], [123.3360785, 8.5588572], [123.3360156, 8.5586976], [123.3357707, 8.5580916], [123.3357496, 8.5580393], [123.3356364, 8.5577547], [123.3354558, 8.5573004], [123.3352874, 8.556877], [123.3351406, 8.5565078], [123.335126, 8.5564711], [123.3351104, 8.5564327], [123.335076, 8.5563483], [123.3350358, 8.5562498], [123.3347384, 8.55552], [123.3347131, 8.5554601], [123.334461, 8.554863], [123.3342694, 8.5544093], [123.3342348, 8.5543274], [123.3341649, 8.5541757], [123.3340475, 8.5539207], [123.3339915, 8.5537992], [123.3338454, 8.5534819], [123.3336633, 8.5530865], [123.3334395, 8.5526007], [123.3332577, 8.5521959], [123.3331331, 8.5519303], [123.3330328, 8.5516982], [123.3329955, 8.5516119], [123.3328776, 8.5513494], [123.3324627, 8.5504575], [123.3324336, 8.5503949], [123.332362, 8.550241], [123.3321437, 8.5497716], [123.3317283, 8.5488303], [123.3316827, 8.5486968], [123.3316445, 8.5485848], [123.3315513, 8.5483118], [123.3314067, 8.5477759], [123.3309236, 8.5454962], [123.3308244, 8.545093], [123.330764, 8.5448795], [123.3306581, 8.5445851], [123.3303803, 8.5438761]]}, "properties": {"city": "dipolog", "name": "Dipolog-Oroquieta Road", "highway": "primary", "v_posted": 60, "posted_imputed": false, "v_safe": 50, "gap": 10, "R": 2.07, "exposure": 0.156, "vru_150m": 0, "sss": 14.5, "recommended": 50, "fatal_reduction_pct": 51.8, "why": "undivided arterial, side-impact intersections", "pop_density": 5046.8, "pop_density_peak": 10313.9, "v_design": 60, "design_gap": 10}}, {"type": "Feature", "geometry": {"type": "LineString", "coordinates": [[123.335126, 8.5564711], [123.3351716, 8.5564569], [123.3366881, 8.5559861], [123.3372375, 8.5557623], [123.3378501, 8.555488], [123.3385733, 8.5551642], [123.3389126, 8.5550037], [123.3391593, 8.5548791], [123.3394235, 8.5547199], [123.340319, 8.5542092], [123.3407365, 8.5540038], [123.3408397, 8.5539633], [123.3409417, 8.5539315], [123.3410456, 8.5539096], [123.3411904, 8.5538897], [123.3414835, 8.5538619], [123.3415861, 8.5538526], [123.341682, 8.5538367], [123.3417705, 8.5538095], [123.341859, 8.5537684], [123.3424147, 8.5534883], [123.3427487, 8.5533035], [123.3429888, 8.5531674], [123.3430324, 8.5531424], [123.3432195, 8.5530436], [123.3435769, 8.5528792], [123.3437218, 8.5528049], [123.3438505, 8.5527293], [123.3443722, 8.5524309], [123.3453633, 8.5519124], [123.3454196, 8.5519044], [123.345492, 8.5518985], [123.3455598, 8.5519031], [123.3456261, 8.5519157], [123.3456952, 8.5519376], [123.345767, 8.55198], [123.346235, 8.552358], [123.3466025, 8.5526604], [123.3468546, 8.5528513], [123.3470484, 8.5530058], [123.3471228, 8.5530582], [123.3472019, 8.5531066], [123.3472717, 8.5531431], [123.3473575, 8.5531762], [123.3474688, 8.5532041]]}, "properties": {"city": "dipolog", "name": "Justice Guardson Lood Road", "highway": "unclassified", "v_posted": 40, "posted_imputed": false, "v_safe": 30, "gap": 10, "R": 3.16, "exposure": 0.136, "vru_150m": 0, "sss": 14.2, "recommended": 30, "fatal_reduction_pct": 68.4, "why": "local road, frontage/pedestrian mixing", "pop_density": 4406.4, "pop_density_peak": 7398.4, "v_design": 40, "design_gap": 10}}, {"type": "Feature", "geometry": {"type": "LineString", "coordinates": [[123.3579543, 8.5740727], [123.358053, 8.5738458], [123.3581735, 8.5735685], [123.3586188, 8.5725222], [123.3596742, 8.5699495], [123.3597346, 8.569728], [123.3597483, 8.5696403], [123.3597748, 8.5694708], [123.3596836, 8.5688051], [123.359553, 8.5679911], [123.359516, 8.5677601], [123.3590519, 8.5660865], [123.3588642, 8.5653385], [123.3588016, 8.5650427], [123.3587178, 8.5642934], [123.3586657, 8.5635482], [123.3586121, 8.5627897], [123.3585799, 8.5624687], [123.3585343, 8.5622486], [123.3584847, 8.5621385], [123.3584438, 8.562077], [123.3584176, 8.5620377], [123.3582017, 8.5617897], [123.3579656, 8.5615378], [123.3577739, 8.5613707], [123.3575083, 8.5611585], [123.3571275, 8.5608521], [123.3568928, 8.5606638], [123.3568324, 8.5606141], [123.3567747, 8.5605471], [123.3566782, 8.5604145], [123.3566084, 8.5602832], [123.3565602, 8.5601347], [123.3565186, 8.5599424], [123.3564354, 8.5595485], [123.3563319, 8.5589377], [123.3562289, 8.558282], [123.3561873, 8.5580579], [123.3561471, 8.5578908], [123.3560988, 8.5577449], [123.3560278, 8.5575977], [123.3559419, 8.5574519], [123.3558588, 8.5573033], [123.3557327, 8.5570354], [123.3554685, 8.5564188], [123.3551279, 8.5556788], [123.3547805, 8.5548088], [123.3547162, 8.5546682], [123.3546424, 8.5545409], [123.3545499, 8.5544162], [123.3543929, 8.5542518], [123.3541918, 8.5540582], [123.3540161, 8.5538897], [123.3538565, 8.5537226], [123.3537117, 8.5535356], [123.3535266, 8.5532784], [123.3532678, 8.5529349], [123.352958, 8.5525848], [123.3526911, 8.5522718], [123.3523403, 8.5518072], [123.3520943, 8.551487], [123.3519325, 8.5512576], [123.3516946, 8.5509204], [123.3515418, 8.550736], [123.3511958, 8.5503289], [123.3508068, 8.549874], [123.350497, 8.5494775], [123.3502784, 8.5491778], [123.3501054, 8.5489483], [123.3500089, 8.5487958], [123.3499391, 8.5486499], [123.3498788, 8.5484815], [123.3497688, 8.548142], [123.3496079, 8.5476394], [123.3494885, 8.5472747], [123.3494309, 8.5471248], [123.3493678, 8.5469869], [123.3492565, 8.5467733], [123.3487523, 8.5459471], [123.3484586, 8.545467], [123.3480495, 8.5447403], [123.3479556, 8.5445851], [123.347851, 8.5444259], [123.3477545, 8.5443053], [123.3473414, 8.543861], [123.3471738, 8.5436813], [123.3469136, 8.5434107], [123.3467507, 8.5432377], [123.3464543, 8.5428716], [123.3460989, 8.5423703], [123.3456597, 8.5416528], [123.3450937, 8.5406316], [123.3449187, 8.5402894], [123.3447343, 8.5399692], [123.3445861, 8.5397444], [123.3441067, 8.5392046], [123.3438009, 8.5388352], [123.3435427, 8.5384957], [123.3432738, 8.5381821], [123.342905, 8.5377901], [123.3425986, 8.5374009], [123.3424638, 8.5372185], [123.3424313, 8.5371595], [123.3424075, 8.5370866], [123.3423753, 8.5369778], [123.3423726, 8.5368717], [123.342382, 8.536698], [123.3425322, 8.5359142], [123.3426529, 8.5353068], [123.3426891, 8.5350919], [123.3426972, 8.5349792], [123.3426885, 8.5347079], [123.3425617, 8.5341224], [123.3424512, 8.5337057], [123.3424048, 8.5335309], [123.3423404, 8.533324], [123.3422801, 8.5331781], [123.3422063, 8.5330747], [123.3419582, 8.5328015], [123.3414835, 8.5323399], [123.3404964, 8.5313717], [123.3402483, 8.5311576], [123.3399285, 8.5308963], [123.3395201, 8.5306144], [123.3391499, 8.5303346], [123.3389488, 8.5301595], [123.3388334, 8.5300534], [123.3387208, 8.5299367], [123.3382326, 8.5294142], [123.3380315, 8.529194], [123.3379081, 8.529072], [123.3377632, 8.5289314], [123.3373287, 8.528515], [123.3372617, 8.528438], [123.3371946, 8.5283558], [123.336921, 8.5280322], [123.3368325, 8.5279181], [123.3367708, 8.5278253], [123.3367279, 8.5277563], [123.3366904, 8.5276714], [123.3365536, 8.5273346], [123.3364704, 8.5271701], [123.3363712, 8.5270163], [123.3363202, 8.52695], [123.3362746, 8.5268943], [123.3362129, 8.5268332], [123.3361298, 8.5267537], [123.3360144, 8.5266449], [123.3359139, 8.5265428], [123.3357798, 8.5263823], [123.3356148, 8.5261542], [123.3352165, 8.5255706], [123.3350918, 8.525381], [123.334963, 8.5251581], [123.3342898, 8.5238982], [123.3338928, 8.5231647], [123.3337507, 8.5228783], [123.3336796, 8.5227443], [123.3336085, 8.5226276], [123.3335026, 8.522495], [123.3329031, 8.5218106], [123.3327663, 8.5216196], [123.3326671, 8.5214498], [123.3325987, 8.5213039], [123.3324364, 8.52091], [123.3322406, 8.5204113], [123.3320944, 8.5200731], [123.331963, 8.51978], [123.3317799, 8.5193901], [123.3317417, 8.5193039], [123.3316988, 8.5192163], [123.3316559, 8.5191248], [123.3316143, 8.5190399], [123.3315285, 8.5188808], [123.3314332, 8.5187322], [123.331338, 8.5185916], [123.3312643, 8.5184855], [123.3311999, 8.51839], [123.3311529, 8.5183224], [123.3311114, 8.5182495], [123.3310604, 8.518154], [123.3310269, 8.5180518], [123.3310175, 8.5179471], [123.331043, 8.5178449], [123.3311489, 8.5176155], [123.3313045, 8.5173409], [123.3313756, 8.517195], [123.3314185, 8.5170438], [123.3314466, 8.5168436], [123.3314641, 8.5163462], [123.3314654, 8.5157586], [123.3314761, 8.5152679], [123.3314761, 8.5150743], [123.3314896, 8.5149416], [123.3315124, 8.5148488], [123.3315553, 8.5147626], [123.3316679, 8.5145941], [123.3317645, 8.5144641], [123.3318114, 8.5143939], [123.3318315, 8.5143514], [123.331849, 8.5143076], [123.3318691, 8.5142042], [123.3318812, 8.514053], [123.3318879, 8.5138872], [123.331916, 8.5137851], [123.3319831, 8.5136816], [123.3320823, 8.5135702], [123.3321762, 8.5134774], [123.332321, 8.5133288], [123.3324176, 8.513236], [123.3325168, 8.5131458], [123.3326349, 8.5130503], [123.3328682, 8.5128938], [123.3331016, 8.5127399], [123.3334315, 8.512533], [123.3335334, 8.5124654], [123.3335777, 8.5124163], [123.3336052, 8.5123646], [123.3336226, 8.5123155], [123.3336286, 8.5122697], [123.333634, 8.5121882], [123.3336246, 8.5121033], [123.3336179, 8.5119985], [123.3336166, 8.5117346], [123.3336233, 8.5115104], [123.3336461, 8.5113818], [123.3336595, 8.5112902], [123.3336849, 8.5111616], [123.3337198, 8.511017], [123.333756, 8.5108539], [123.3337842, 8.5106921], [123.3338124, 8.5105183], [123.3338512, 8.5103114], [123.3338673, 8.5101748], [123.3338727, 8.5099904], [123.3338781, 8.5099016], [123.3338875, 8.5097941], [123.3338942, 8.5096111], [123.333917, 8.5094281], [123.3339545, 8.5092808], [123.3339961, 8.5091721], [123.3340564, 8.5090302], [123.3341677, 8.5088299], [123.3342589, 8.508676], [123.3346143, 8.5081455], [123.3347833, 8.5079333], [123.3349174, 8.5077264], [123.335014, 8.5075752], [123.3350837, 8.5074372], [123.335124, 8.5072913], [123.3351293, 8.5071587], [123.3351079, 8.5070154], [123.3350757, 8.5068616], [123.3350033, 8.5066971], [123.3349228, 8.5065433], [123.3348343, 8.5063284], [123.3347484, 8.5061878], [123.3347163, 8.5060392], [123.3347028, 8.5058721], [123.3347484, 8.5053867], [123.3348155, 8.5049039], [123.3348423, 8.5047713], [123.3348933, 8.5046439], [123.3350086, 8.5045431], [123.3350944, 8.5044874], [123.3353627, 8.504368], [123.3355102, 8.5042964], [123.3356577, 8.5042036], [123.3356953, 8.5041505], [123.3357435, 8.5040736], [123.3357704, 8.5040073], [123.3358106, 8.5038959], [123.3358186, 8.5037897], [123.3358133, 8.5036704], [123.3357891, 8.5035775], [123.3357301, 8.5034263], [123.3356604, 8.5032619], [123.3355558, 8.5030735], [123.3352151, 8.5025138], [123.3350891, 8.5023201], [123.3349684, 8.5021477], [123.3346036, 8.5015933], [123.334491, 8.5014474], [123.3343917, 8.5013466], [123.3342348, 8.5011901]]}, "properties": {"city": "dipolog", "name": "General John J. Pershing Highway", "highway": "trunk", "v_posted": 60, "posted_imputed": false, "v_safe": 50, "gap": 10, "R": 2.07, "exposure": 0.041, "vru_150m": 0, "sss": 13.0, "recommended": 50, "fatal_reduction_pct": 51.8, "why": "undivided arterial, side-impact intersections", "pop_density": 1319.0, "pop_density_peak": 9524.4, "v_design": 60, "design_gap": 10}}, {"type": "Feature", "geometry": {"type": "LineString", "coordinates": [[123.3303803, 8.5438761], [123.330292, 8.5436831]]}, "properties": {"city": "dipolog", "name": "Dipolog-Oroquieta Road", "highway": "primary", "v_posted": 60, "posted_imputed": false, "v_safe": 50, "gap": 10, "R": 2.07, "exposure": 0.319, "vru_150m": 0, "sss": 16.5, "recommended": 50, "fatal_reduction_pct": 51.8, "why": "undivided arterial, side-impact intersections", "pop_density": 10313.9, "pop_density_peak": 10313.9, "v_design": 60, "design_gap": 10}}, {"type": "Feature", "geometry": {"type": "LineString", "coordinates": [[123.3609084, 8.5340218], [123.36087, 8.5341747], [123.3608384, 8.5343301], [123.3607687, 8.5347799], [123.3606476, 8.5355534], [123.3605294, 8.5369006], [123.3605875, 8.538312], [123.3606197, 8.5390308], [123.3606063, 8.5393107], [123.360558, 8.5395773], [123.3604256, 8.5400369], [123.3603865, 8.5404005], [123.3604161, 8.5408193], [123.3604681, 8.5412125], [123.3605982, 8.5415746], [123.3614005, 8.5435167], [123.3618116, 8.5444332], [123.3618468, 8.5445115], [123.362048, 8.5450161], [123.3621683, 8.5453054], [123.3622223, 8.5454352], [123.3624221, 8.5458649], [123.3626206, 8.5462893], [123.3629653, 8.5470054], [123.3630685, 8.5472057], [123.3635221, 8.5480716], [123.363668, 8.5484059], [123.3637445, 8.5486155], [123.3637954, 8.5487746], [123.3638424, 8.548951], [123.3639772, 8.5495704], [123.3640543, 8.5499248], [123.3642195, 8.5506834], [123.3642809, 8.5509655], [123.3643413, 8.5512506], [123.3644727, 8.5518925], [123.3646484, 8.5527054], [123.3647677, 8.5532439], [123.3649324, 8.5539907], [123.3650373, 8.5544666], [123.3651178, 8.5547982], [123.3651607, 8.5550236], [123.3651942, 8.5553074], [123.3651848, 8.5554891], [123.3651701, 8.5557], [123.365143, 8.5558872], [123.364993, 8.5567317], [123.3648805, 8.5573549], [123.3648589, 8.5574744], [123.3648438, 8.5575674], [123.3647875, 8.5579136], [123.3647235, 8.5583072], [123.364706, 8.5584982], [123.3646967, 8.5586321], [123.3646954, 8.5587058], [123.364694, 8.5587794], [123.3647168, 8.5589823], [123.364757, 8.5592475], [123.3647642, 8.5592853], [123.3648629, 8.5598045], [123.364934, 8.5601029], [123.365052, 8.5604928], [123.3651781, 8.5607686], [123.3653001, 8.5610378], [123.3656273, 8.5617274], [123.3656904, 8.5618919], [123.3657602, 8.562021], [123.3657854, 8.5620676], [123.3659479, 8.5623686], [123.3660371, 8.5624986], [123.366137, 8.5626292], [123.3662966, 8.5627923], [123.3667123, 8.5632485], [123.3669883, 8.5635764], [123.3670228, 8.5636275], [123.3670624, 8.5637186], [123.3678228, 8.5656064], [123.3679077, 8.5658113], [123.3679792, 8.5659839], [123.3683619, 8.5669074], [123.3684058, 8.5670317], [123.3684316, 8.567105], [123.3686234, 8.5677176], [123.3686569, 8.5678489], [123.3686636, 8.5679842], [123.3686529, 8.5680943], [123.3686183, 8.56822], [123.368555, 8.5683383], [123.3684921, 8.5684324], [123.3683868, 8.5685501], [123.3681621, 8.5688011], [123.3678691, 8.5691213], [123.367576, 8.5694416], [123.3674687, 8.5695291], [123.3674015, 8.5695757], [123.3673507, 8.569611], [123.3671401, 8.56974], [123.3666466, 8.5699907], [123.3664012, 8.5701153], [123.3657266, 8.5703699], [123.3656247, 8.5704004], [123.3652002, 8.5704617], [123.3651473, 8.5704693], [123.3647839, 8.5704973], [123.3643426, 8.5705131], [123.3641575, 8.570541], [123.3640248, 8.5705741], [123.3634306, 8.5707518], [123.3628446, 8.5709375], [123.3626206, 8.5710131], [123.3624101, 8.571094], [123.3622961, 8.571147], [123.362166, 8.5712266], [123.3620708, 8.5713048], [123.3619441, 8.5714553], [123.3615873, 8.5718524], [123.3615324, 8.5719135], [123.3614782, 8.5719738], [123.36137, 8.5720925], [123.3610193, 8.5724387], [123.3606685, 8.5728284], [123.3606277, 8.5728736], [123.3591488, 8.5744779], [123.3589039, 8.5747436], [123.3586591, 8.5750092], [123.3585302, 8.575149], [123.3585198, 8.5751603], [123.3583975, 8.5752929], [123.3583381, 8.5753574]]}, "properties": {"city": "dipolog", "name": "Polanco - Pi\u00f1an Road", "highway": "secondary", "v_posted": 60, "posted_imputed": false, "v_safe": 50, "gap": 10, "R": 2.07, "exposure": 0.18, "vru_150m": 0, "sss": 14.8, "recommended": 50, "fatal_reduction_pct": 51.8, "why": "undivided arterial, side-impact intersections", "pop_density": 5834.5, "pop_density_peak": 11855.8, "v_design": 45, "design_gap": -5}}, {"type": "Feature", "geometry": {"type": "LineString", "coordinates": [[123.3503317, 8.5860827], [123.3503362, 8.586045], [123.3503675, 8.5857835], [123.3503987, 8.5855219]]}, "properties": {"city": "dipolog", "name": "Dipolog-Oroquieta Road", "highway": "trunk", "v_posted": 60, "posted_imputed": false, "v_safe": 50, "gap": 10, "R": 2.07, "exposure": 0.317, "vru_150m": 0, "sss": 16.5, "recommended": 50, "fatal_reduction_pct": 51.8, "why": "undivided arterial, side-impact intersections", "pop_density": 10263.4, "pop_density_peak": 11191.7, "v_design": 70, "design_gap": 20}}, {"type": "Feature", "geometry": {"type": "LineString", "coordinates": [[123.3503987, 8.5855219], [123.3504069, 8.585456], [123.3504531, 8.585087], [123.3504813, 8.5848612], [123.3505451, 8.5844194], [123.3505471, 8.5843915], [123.350552, 8.5843225], [123.3505549, 8.5842319], [123.3505542, 8.5841795], [123.3505527, 8.5840689], [123.350544, 8.5838889]]}, "properties": {"city": "dipolog", "name": "Dipolog-Oroquieta Road", "highway": "trunk", "v_posted": 60, "posted_imputed": false, "v_safe": 50, "gap": 10, "R": 2.07, "exposure": 0.133, "vru_150m": 0, "sss": 14.2, "recommended": 50, "fatal_reduction_pct": 51.8, "why": "undivided arterial, side-impact intersections", "pop_density": 4287.3, "pop_density_peak": 9335.0, "v_design": 70, "design_gap": 20}}, {"type": "Feature", "geometry": {"type": "LineString", "coordinates": [[123.3443937, 8.5849425], [123.3445164, 8.5855893], [123.3445539, 8.5857869], [123.3446335, 8.5862292]]}, "properties": {"city": "dipolog", "name": "Felicisimo Herrera Street", "highway": "primary", "v_posted": 40, "posted_imputed": false, "v_safe": 30, "gap": 10, "R": 3.16, "exposure": 0.62, "vru_150m": 3, "sss": 20.2, "recommended": 30, "fatal_reduction_pct": 68.4, "why": "pedestrian activity (1 VRU site<=50m)", "pop_density": 1579.9, "pop_density_peak": 2401.7, "v_design": 60, "design_gap": 30}}, {"type": "Feature", "geometry": {"type": "LineString", "coordinates": [[123.3365938, 8.5851334], [123.3366755, 8.5851173], [123.3370578, 8.5850419], [123.337597, 8.5849199], [123.3384367, 8.5847435], [123.3388384, 8.5846555], [123.3394986, 8.5844889]]}, "properties": {"city": "dipolog", "name": "Tomas Claudio Street", "highway": "unclassified", "v_posted": 40, "posted_imputed": false, "v_safe": 30, "gap": 10, "R": 3.16, "exposure": 0.089, "vru_150m": 0, "sss": 13.6, "recommended": 30, "fatal_reduction_pct": 68.4, "why": "local road, frontage/pedestrian mixing", "pop_density": 2865.7, "pop_density_peak": 3748.8, "v_design": 40, "design_gap": 10}}, {"type": "Feature", "geometry": {"type": "LineString", "coordinates": [[123.3393732, 8.5723201], [123.3397454, 8.572322], [123.3400083, 8.5723113], [123.3401034, 8.5723195], [123.3401933, 8.5723273], [123.3403704, 8.572367], [123.3408787, 8.5724487], [123.3410221, 8.5724718], [123.341905, 8.572607], [123.3419569, 8.572615], [123.3424509, 8.5726581], [123.342626, 8.5726734], [123.3430472, 8.5727145], [123.3434965, 8.5727397], [123.3439649, 8.5727605], [123.3441683, 8.5727695], [123.3444487, 8.5727821], [123.3446592, 8.5727755], [123.3447151, 8.5727646], [123.3448979, 8.5727291], [123.3452768, 8.5725963], [123.3456664, 8.5724598], [123.3458099, 8.5724095], [123.3459953, 8.5723485], [123.3462779, 8.5722556], [123.3463058, 8.5722475], [123.3463416, 8.5722371], [123.3464127, 8.5722265], [123.3464885, 8.5722238], [123.3465556, 8.5722285], [123.3466441, 8.572248], [123.3467138, 8.5722729], [123.3468385, 8.5723246], [123.3469921, 8.5723704], [123.3470724, 8.5723407], [123.3472019, 8.5722928], [123.3474103, 8.5722175], [123.3476371, 8.5721355], [123.3477303, 8.5721018], [123.347777, 8.5720815], [123.3489132, 8.5715873]]}, "properties": {"city": "dipolog", "name": "Father Nicasio Y. Patangan Road", "highway": "unclassified", "v_posted": 40, "posted_imputed": false, "v_safe": 30, "gap": 10, "R": 3.16, "exposure": 0.378, "vru_150m": 1, "sss": 17.2, "recommended": 30, "fatal_reduction_pct": 68.4, "why": "local road, frontage/pedestrian mixing", "pop_density": 7213.3, "pop_density_peak": 20678.5, "v_design": 40, "design_gap": 10}}, {"type": "Feature", "geometry": {"type": "LineString", "coordinates": [[123.3378271, 8.5877129], [123.3383426, 8.5875973], [123.339099, 8.5874262], [123.3392645, 8.5873904], [123.339589, 8.5873202], [123.3403376, 8.5871583]]}, "properties": {"city": "dipolog", "name": "Rizal Avenue", "highway": "unclassified", "v_posted": 40, "posted_imputed": false, "v_safe": 30, "gap": 10, "R": 3.16, "exposure": 0.462, "vru_150m": 2, "sss": 18.3, "recommended": 30, "fatal_reduction_pct": 68.4, "why": "local road, frontage/pedestrian mixing", "pop_density": 3319.2, "pop_density_peak": 5482.2, "v_design": 40, "design_gap": 10}}, {"type": "Feature", "geometry": {"type": "LineString", "coordinates": [[123.3379459, 8.5785403], [123.3375185, 8.5786401], [123.3372008, 8.5787142], [123.3370068, 8.5787595], [123.3359959, 8.5790113], [123.3354212, 8.5791486], [123.3352891, 8.5791802]]}, "properties": {"city": "dipolog", "name": "Matias Velasco Street", "highway": "unclassified", "v_posted": 40, "posted_imputed": false, "v_safe": 30, "gap": 10, "R": 3.16, "exposure": 0.651, "vru_150m": 0, "sss": 20.6, "recommended": 30, "fatal_reduction_pct": 68.4, "why": "local road, frontage/pedestrian mixing", "pop_density": 21046.4, "pop_density_peak": 23604.3, "v_design": 40, "design_gap": 10}}, {"type": "Feature", "geometry": {"type": "LineString", "coordinates": [[123.3383426, 8.5875973], [123.3381557, 8.5869203], [123.3379805, 8.5862858], [123.3377981, 8.5856572], [123.337597, 8.5849199], [123.3372213, 8.5834878], [123.3369291, 8.5823738], [123.3368689, 8.5821722], [123.3366249, 8.5813522], [123.3366187, 8.5813335], [123.3363309, 8.5802309], [123.3363161, 8.5801782], [123.3361539, 8.5796023], [123.3359959, 8.5790113]]}, "properties": {"city": "dipolog", "name": "Magsaysay Street", "highway": "unclassified", "v_posted": 40, "posted_imputed": false, "v_safe": 30, "gap": 10, "R": 3.16, "exposure": 0.433, "vru_150m": 1, "sss": 17.9, "recommended": 30, "fatal_reduction_pct": 68.4, "why": "pedestrian activity (1 VRU site<=50m)", "pop_density": 9419.3, "pop_density_peak": 23604.3, "v_design": 40, "design_gap": 10}}, {"type": "Feature", "geometry": {"type": "LineString", "coordinates": [[123.3373065, 8.5882155], [123.3373743, 8.5882384], [123.3374642, 8.5882637], [123.3375547, 8.5882809], [123.3376338, 8.5882828], [123.3377096, 8.5882749], [123.3379513, 8.588215], [123.3384915, 8.5880813]]}, "properties": {"city": "dipolog", "name": "Matias Ranillo Street", "highway": "unclassified", "v_posted": 40, "posted_imputed": false, "v_safe": 30, "gap": 10, "R": 3.16, "exposure": 0.283, "vru_150m": 0, "sss": 16.0, "recommended": 30, "fatal_reduction_pct": 68.4, "why": "local road, frontage/pedestrian mixing", "pop_density": 9155.1, "pop_density_peak": 9557.3, "v_design": 40, "design_gap": 10}}, {"type": "Feature", "geometry": {"type": "LineString", "coordinates": [[123.3414042, 8.587904], [123.3412968, 8.5874478], [123.341196, 8.5869727]]}, "properties": {"city": "dipolog", "name": "Felipe Lacaya Street", "highway": "secondary", "v_posted": 40, "posted_imputed": false, "v_safe": 30, "gap": 10, "R": 3.16, "exposure": 0.252, "vru_150m": 1, "sss": 15.6, "recommended": 30, "fatal_reduction_pct": 68.4, "why": "pedestrian activity (1 VRU site<=50m)", "pop_density": 2099.9, "pop_density_peak": 2398.2, "v_design": 50, "design_gap": 20}}, {"type": "Feature", "geometry": {"type": "LineString", "coordinates": [[123.3403376, 8.5871583], [123.3404784, 8.5876374], [123.3406118, 8.5880917]]}, "properties": {"city": "dipolog", "name": "Quezon Avenue", "highway": "secondary", "v_posted": 40, "posted_imputed": false, "v_safe": 30, "gap": 10, "R": 3.16, "exposure": 0.247, "vru_150m": 1, "sss": 15.6, "recommended": 30, "fatal_reduction_pct": 68.4, "why": "pedestrian activity (1 VRU site<=50m)", "pop_density": 1884.6, "pop_density_peak": 2168.3, "v_design": 50, "design_gap": 20}}, {"type": "Feature", "geometry": {"type": "LineString", "coordinates": [[123.3445164, 8.5855893], [123.3439778, 8.5857018], [123.3434819, 8.5858054], [123.3427239, 8.5859637], [123.3419511, 8.5861251], [123.3410622, 8.5863107], [123.3401371, 8.5865039]]}, "properties": {"city": "dipolog", "name": "Isabelo Echavez Street", "highway": "unclassified", "v_posted": 40, "posted_imputed": false, "v_safe": 30, "gap": 10, "R": 3.16, "exposure": 0.222, "vru_150m": 1, "sss": 15.3, "recommended": 30, "fatal_reduction_pct": 68.4, "why": "local road, frontage/pedestrian mixing", "pop_density": 879.9, "pop_density_peak": 1057.0, "v_design": 40, "design_gap": 10}}, {"type": "Feature", "geometry": {"type": "LineString", "coordinates": [[123.3508417, 8.5832029], [123.3508565, 8.5831876], [123.3510466, 8.5829915], [123.3511234, 8.5829123], [123.3512722, 8.5827624], [123.3516021, 8.5824401], [123.3516722, 8.5823711], [123.3520831, 8.5819817], [123.3524095, 8.5816723], [123.3527317, 8.5813649], [123.352954, 8.5811459], [123.3533315, 8.5807737], [123.3533946, 8.5807143], [123.3534952, 8.5806156], [123.3535043, 8.5806066], [123.3536854, 8.5804289], [123.3538829, 8.580235], [123.3541396, 8.5799831], [123.3542857, 8.5798397], [123.3545338, 8.5795957], [123.3547484, 8.5793662], [123.354912, 8.5791912], [123.3555208, 8.57851], [123.3559272, 8.5780587], [123.3564234, 8.5775137], [123.3567184, 8.5771914], [123.3568887, 8.5770031], [123.3572032, 8.5766377]]}, "properties": {"city": "dipolog", "name": "Dipolog-Polanco Road", "highway": "trunk", "v_posted": 60, "posted_imputed": false, "v_safe": 30, "gap": 30, "R": 16.0, "exposure": 0.457, "vru_150m": 1, "sss": 54.7, "recommended": 30, "fatal_reduction_pct": 93.8, "why": "pedestrian activity (1 VRU site<=50m)", "pop_density": 10406.8, "pop_density_peak": 14991.4, "v_design": 70, "design_gap": 40}}, {"type": "Feature", "geometry": {"type": "LineString", "coordinates": [[123.3485578, 8.6005433], [123.3487027, 8.6004602], [123.3490634, 8.6002531], [123.3491894, 8.600188], [123.3493718, 8.6001131], [123.349516, 8.6000661], [123.3496267, 8.6000382], [123.3498888, 8.5999852], [123.3503294, 8.5998871], [123.3504394, 8.599838], [123.351059, 8.5994844], [123.351295, 8.599358], [123.3514868, 8.5992744], [123.3516109, 8.5992267], [123.3516819, 8.5991896], [123.3517463, 8.5991491], [123.351816, 8.5990994], [123.35216, 8.5987003], [123.3522485, 8.598626], [123.352337, 8.5985703], [123.352573, 8.5984815], [123.3527608, 8.5984324], [123.3528762, 8.5984165], [123.3529982, 8.5984165], [123.3531336, 8.598443], [123.3534904, 8.5985319], [123.35365, 8.5985584], [123.3539075, 8.5985902], [123.3541059, 8.5985929], [123.3542481, 8.5985836], [123.3543339, 8.5985491], [123.3544023, 8.5985014], [123.3544506, 8.5984523], [123.3545096, 8.5983727], [123.3545525, 8.5982985], [123.3545794, 8.5982189], [123.3545941, 8.5981274], [123.3545995, 8.5979948], [123.3545821, 8.5978503], [123.3545431, 8.5977389], [123.354153, 8.5970447], [123.3540872, 8.5969572], [123.3540155, 8.5968716], [123.3539437, 8.5968014], [123.3538364, 8.5967059], [123.3536567, 8.5965481], [123.3534381, 8.5963678], [123.3533496, 8.5962895], [123.3532798, 8.5962206], [123.3529043, 8.5957379], [123.3528239, 8.5956172], [123.352793, 8.5955363], [123.3527729, 8.5954528], [123.3527715, 8.5953666], [123.3527863, 8.5952685], [123.3528158, 8.5951266], [123.3529553, 8.5947752], [123.3529942, 8.5946505], [123.3530116, 8.5945232], [123.3530264, 8.59438], [123.353029, 8.5941718], [123.3529861, 8.5927676], [123.3529915, 8.5926456], [123.3530103, 8.5925474], [123.3530478, 8.592448], [123.3531041, 8.5923525], [123.3533281, 8.5920369], [123.3536218, 8.5916802], [123.3538364, 8.591411], [123.3544774, 8.5904722], [123.3545378, 8.5903754], [123.3546062, 8.59026], [123.3546732, 8.5901115], [123.3549026, 8.5895068], [123.3549495, 8.58941], [123.3550085, 8.5893198], [123.3551064, 8.589223], [123.3553438, 8.5890175], [123.3554766, 8.5889167], [123.3555812, 8.5888557], [123.3557193, 8.5887881], [123.3559071, 8.5887032], [123.3563242, 8.5885273], [123.3564542, 8.5884725], [123.3565615, 8.5884367], [123.3566527, 8.5884181], [123.3567707, 8.5884128], [123.3570622, 8.5884336], [123.3571972, 8.5884433], [123.3578208, 8.588491], [123.3582225, 8.5885069], [123.3584538, 8.5884963], [123.3586308, 8.5884599], [123.3587059, 8.5883644], [123.3588548, 8.5880746], [123.3591218, 8.5874893], [123.359337, 8.5870391], [123.3596702, 8.5862871], [123.3598177, 8.5860378], [123.3599022, 8.5859781], [123.3600263, 8.5859629], [123.3601657, 8.5859728], [123.360499, 8.5860179], [123.3606841, 8.5859861], [123.3608678, 8.585884], [123.361197, 8.5855611], [123.3613261, 8.5854497], [123.3617355, 8.5852083], [123.3619608, 8.5851228], [123.3621211, 8.5850141], [123.3622424, 8.5848954], [123.3623356, 8.5847071], [123.3624469, 8.584412], [123.3629795, 8.5830265], [123.363035, 8.5828141], [123.3630484, 8.5825197], [123.3630109, 8.581919], [123.3629572, 8.5813514], [123.3628915, 8.5811021], [123.362748, 8.5808614]]}, "properties": {"city": "dipolog", "name": "General John J. Pershing Highway", "highway": "secondary", "v_posted": 60, "posted_imputed": false, "v_safe": 50, "gap": 10, "R": 2.07, "exposure": 0.107, "vru_150m": 0, "sss": 13.8, "recommended": 50, "fatal_reduction_pct": 51.8, "why": "undivided arterial, side-impact intersections", "pop_density": 3446.7, "pop_density_peak": 19553.0, "v_design": 45, "design_gap": -5}}, {"type": "Feature", "geometry": {"type": "LineString", "coordinates": [[123.3616222, 8.5791898], [123.3615397, 8.5790772], [123.3614753, 8.578987], [123.3613747, 8.5788743], [123.3612527, 8.5787536], [123.3610685, 8.5785738], [123.3608396, 8.5783505], [123.3604802, 8.5780269], [123.3601597, 8.5777789], [123.3597855, 8.5775335], [123.3596796, 8.5774606], [123.3595709, 8.5773784], [123.3594851, 8.5772869], [123.3594266, 8.5771851], [123.3593333, 8.577023], [123.3593069, 8.5769771], [123.3589299, 8.5763215], [123.3584731, 8.5755774], [123.3584003, 8.5754587], [123.3583876, 8.575438], [123.3583381, 8.5753574]]}, "properties": {"city": "dipolog", "name": "General John J. Pershing Highway", "highway": "secondary", "v_posted": 60, "posted_imputed": false, "v_safe": 50, "gap": 10, "R": 2.07, "exposure": 0.515, "vru_150m": 1, "sss": 18.9, "recommended": 50, "fatal_reduction_pct": 51.8, "why": "undivided arterial, side-impact intersections", "pop_density": 12724.7, "pop_density_peak": 16432.1, "v_design": 50, "design_gap": 0}}, {"type": "Feature", "geometry": {"type": "LineString", "coordinates": [[123.335368, 8.5757287], [123.3345308, 8.5759573]]}, "properties": {"city": "dipolog", "name": "Surf Road", "highway": "unclassified", "v_posted": 40, "posted_imputed": false, "v_safe": 30, "gap": 10, "R": 3.16, "exposure": 0.179, "vru_150m": 0, "sss": 14.7, "recommended": 30, "fatal_reduction_pct": 68.4, "why": "local road, frontage/pedestrian mixing", "pop_density": 5792.3, "pop_density_peak": 6317.3, "v_design": 40, "design_gap": 10}}, {"type": "Feature", "geometry": {"type": "LineString", "coordinates": [[123.3350812, 8.5749609], [123.3352127, 8.5753041]]}, "properties": {"city": "dipolog", "name": "Magsaysay Street", "highway": "unclassified", "v_posted": 40, "posted_imputed": false, "v_safe": 30, "gap": 10, "R": 3.16, "exposure": 0.175, "vru_150m": 0, "sss": 14.7, "recommended": 30, "fatal_reduction_pct": 68.4, "why": "local road, frontage/pedestrian mixing", "pop_density": 5652.9, "pop_density_peak": 6317.3, "v_design": 40, "design_gap": 10}}, {"type": "Feature", "geometry": {"type": "LineString", "coordinates": [[123.3347505, 8.5740571], [123.335048, 8.5738282], [123.3353374, 8.5736059], [123.3355193, 8.5734661], [123.3356269, 8.5733843]]}, "properties": {"city": "dipolog", "name": "Magsaysay Street Extension", "highway": "unclassified", "v_posted": 40, "posted_imputed": false, "v_safe": 30, "gap": 10, "R": 3.16, "exposure": 0.094, "vru_150m": 0, "sss": 13.7, "recommended": 30, "fatal_reduction_pct": 68.4, "why": "local road, frontage/pedestrian mixing", "pop_density": 3044.6, "pop_density_peak": 3490.5, "v_design": 40, "design_gap": 10}}, {"type": "Feature", "geometry": {"type": "LineString", "coordinates": [[123.3418665, 8.590045], [123.3412501, 8.590195], [123.3405139, 8.5903714], [123.3398915, 8.5905252], [123.3393785, 8.5906637], [123.3393323, 8.5906644], [123.3392995, 8.5906552]]}, "properties": {"city": "dipolog", "name": "Lopez Jaena Street", "highway": "unclassified", "v_posted": 40, "posted_imputed": false, "v_safe": 30, "gap": 10, "R": 3.16, "exposure": 0.164, "vru_150m": 0, "sss": 14.5, "recommended": 30, "fatal_reduction_pct": 68.4, "why": "local road, frontage/pedestrian mixing", "pop_density": 5292.6, "pop_density_peak": 6445.2, "v_design": 40, "design_gap": 10}}, {"type": "Feature", "geometry": {"type": "LineString", "coordinates": [[123.3505929, 8.5834248], [123.3508417, 8.5832029]]}, "properties": {"city": "dipolog", "name": "", "highway": "trunk", "v_posted": 60, "posted_imputed": false, "v_safe": 50, "gap": 10, "R": 2.07, "exposure": 0.073, "vru_150m": 0, "sss": 13.4, "recommended": 50, "fatal_reduction_pct": 51.8, "why": "undivided arterial, side-impact intersections", "pop_density": 2362.3, "pop_density_peak": 2362.3, "v_design": 70, "design_gap": 20}}, {"type": "Feature", "geometry": {"type": "LineString", "coordinates": [[123.350322, 8.583739], [123.3503193, 8.5837065], [123.3503314, 8.5836694], [123.3503509, 8.5836429], [123.3505628, 8.58344], [123.3505929, 8.5834248]]}, "properties": {"city": "dipolog", "name": "Dipolog City Rotunda", "highway": "trunk", "v_posted": 60, "posted_imputed": false, "v_safe": 50, "gap": 10, "R": 2.07, "exposure": 0.064, "vru_150m": 0, "sss": 13.3, "recommended": 50, "fatal_reduction_pct": 51.8, "why": "undivided arterial, side-impact intersections", "pop_density": 2062.9, "pop_density_peak": 2362.3, "v_design": 70, "design_gap": 20}}, {"type": "Feature", "geometry": {"type": "LineString", "coordinates": [[123.3508417, 8.5832029], [123.3507277, 8.5835109]]}, "properties": {"city": "dipolog", "name": "", "highway": "trunk", "v_posted": 60, "posted_imputed": false, "v_safe": 50, "gap": 10, "R": 2.07, "exposure": 0.073, "vru_150m": 0, "sss": 13.4, "recommended": 50, "fatal_reduction_pct": 51.8, "why": "undivided arterial, side-impact intersections", "pop_density": 2362.3, "pop_density_peak": 2362.3, "v_design": 70, "design_gap": 20}}, {"type": "Feature", "geometry": {"type": "LineString", "coordinates": [[123.3583381, 8.5753574], [123.3582684, 8.5754355], [123.3578305, 8.5759262], [123.3577611, 8.5760039], [123.3574131, 8.5763945], [123.3573715, 8.5764422], [123.3572032, 8.5766377]]}, "properties": {"city": "dipolog", "name": "Dipolog-Polanco Road", "highway": "trunk", "v_posted": 60, "posted_imputed": false, "v_safe": 50, "gap": 10, "R": 2.07, "exposure": 0.341, "vru_150m": 0, "sss": 16.8, "recommended": 50, "fatal_reduction_pct": 51.8, "why": "undivided arterial, side-impact intersections", "pop_density": 11023.3, "pop_density_peak": 11855.8, "v_design": 70, "design_gap": 20}}, {"type": "Feature", "geometry": {"type": "LineString", "coordinates": [[123.3505929, 8.5834248], [123.3506298, 8.5834221], [123.350662, 8.5834314], [123.3506975, 8.5834546], [123.3507183, 8.5834791], [123.3507277, 8.5835109]]}, "properties": {"city": "dipolog", "name": "Dipolog City Rotunda", "highway": "trunk", "v_posted": 60, "posted_imputed": false, "v_safe": 50, "gap": 10, "R": 2.07, "exposure": 0.073, "vru_150m": 0, "sss": 13.4, "recommended": 50, "fatal_reduction_pct": 51.8, "why": "undivided arterial, side-impact intersections", "pop_density": 2362.3, "pop_density_peak": 2362.3, "v_design": 60, "design_gap": 10}}, {"type": "Feature", "geometry": {"type": "LineString", "coordinates": [[123.3507277, 8.5835109], [123.3507263, 8.5835182], [123.3507223, 8.5835395], [123.3507156, 8.5835666], [123.3506637, 8.5837315], [123.3506305, 8.5838372], [123.35061, 8.5838657], [123.3505788, 8.5838829], [123.350544, 8.5838889]]}, "properties": {"city": "dipolog", "name": "Dipolog City Rotunda", "highway": "trunk", "v_posted": 60, "posted_imputed": false, "v_safe": 50, "gap": 10, "R": 2.07, "exposure": 0.064, "vru_150m": 0, "sss": 13.3, "recommended": 50, "fatal_reduction_pct": 51.8, "why": "undivided arterial, side-impact intersections", "pop_density": 2062.9, "pop_density_peak": 2362.3, "v_design": 70, "design_gap": 20}}, {"type": "Feature", "geometry": {"type": "LineString", "coordinates": [[123.3583381, 8.5753574], [123.3582888, 8.5752767], [123.35815, 8.5750496], [123.3579361, 8.5746997], [123.3579004, 8.5746298], [123.3578718, 8.5745472], [123.3578583, 8.5744729], [123.3578563, 8.574412], [123.3578731, 8.5743124], [123.357912, 8.5741997], [123.3579543, 8.5740727]]}, "properties": {"city": "dipolog", "name": "General John J. Pershing Highway", "highway": "trunk", "v_posted": 60, "posted_imputed": false, "v_safe": 50, "gap": 10, "R": 2.07, "exposure": 0.464, "vru_150m": 1, "sss": 18.3, "recommended": 50, "fatal_reduction_pct": 51.8, "why": "undivided arterial, side-impact intersections", "pop_density": 10690.1, "pop_density_peak": 11855.8, "v_design": 70, "design_gap": 20}}, {"type": "Feature", "geometry": {"type": "LineString", "coordinates": [[123.3350812, 8.5749609], [123.3349889, 8.5747109], [123.3347505, 8.5740571]]}, "properties": {"city": "dipolog", "name": "Magsaysay Street", "highway": "unclassified", "v_posted": 40, "posted_imputed": false, "v_safe": 30, "gap": 10, "R": 3.16, "exposure": 0.131, "vru_150m": 0, "sss": 14.1, "recommended": 30, "fatal_reduction_pct": 68.4, "why": "local road, frontage/pedestrian mixing", "pop_density": 4239.5, "pop_density_peak": 4988.5, "v_design": 40, "design_gap": 10}}, {"type": "Feature", "geometry": {"type": "LineString", "coordinates": [[123.3423017, 8.5920236], [123.3419824, 8.5920687], [123.3417758, 8.5920846], [123.3416082, 8.5920754], [123.3414446, 8.5920568], [123.341299, 8.5920246], [123.3412568, 8.5920144], [123.3411697, 8.5919852], [123.3410516, 8.5919109], [123.340994, 8.5918539], [123.3409484, 8.5917863], [123.3409122, 8.591716], [123.3408585, 8.5915569], [123.3405139, 8.5903714]]}, "properties": {"city": "dipolog", "name": "Doctor Santiago Calo Road", "highway": "unclassified", "v_posted": 40, "posted_imputed": false, "v_safe": 30, "gap": 10, "R": 3.16, "exposure": 0.525, "vru_150m": 2, "sss": 19.1, "recommended": 30, "fatal_reduction_pct": 68.4, "why": "local road, frontage/pedestrian mixing", "pop_density": 6729.6, "pop_density_peak": 7929.5, "v_design": 35, "design_gap": 5}}, {"type": "Feature", "geometry": {"type": "LineString", "coordinates": [[123.3414042, 8.587904], [123.3422689, 8.5876994]]}, "properties": {"city": "dipolog", "name": "Bonifacio Street", "highway": "residential", "v_posted": 40, "posted_imputed": false, "v_safe": 30, "gap": 10, "R": 3.16, "exposure": 0.254, "vru_150m": 1, "sss": 15.7, "recommended": 30, "fatal_reduction_pct": 68.4, "why": "local road, frontage/pedestrian mixing", "pop_density": 2181.7, "pop_density_peak": 2398.2, "v_design": 35, "design_gap": 5}}, {"type": "Feature", "geometry": {"type": "LineString", "coordinates": [[123.335368, 8.5757287], [123.3352127, 8.5753041]]}, "properties": {"city": "dipolog", "name": "Magsaysay Street", "highway": "unclassified", "v_posted": 40, "posted_imputed": false, "v_safe": 30, "gap": 10, "R": 3.16, "exposure": 0.179, "vru_150m": 0, "sss": 14.7, "recommended": 30, "fatal_reduction_pct": 68.4, "why": "local road, frontage/pedestrian mixing", "pop_density": 5792.3, "pop_density_peak": 6317.3, "v_design": 40, "design_gap": 10}}, {"type": "Feature", "geometry": {"type": "LineString", "coordinates": [[123.3359959, 8.5790113], [123.3358611, 8.5784698], [123.3358347, 8.5783637], [123.335647, 8.5775323], [123.3355571, 8.577084], [123.3355209, 8.5768412], [123.3354997, 8.5765708], [123.3354793, 8.5762539], [123.3354525, 8.5760152], [123.3353962, 8.575805], [123.335368, 8.5757287]]}, "properties": {"city": "dipolog", "name": "Magsaysay Street", "highway": "unclassified", "v_posted": 40, "posted_imputed": false, "v_safe": 30, "gap": 10, "R": 3.16, "exposure": 0.375, "vru_150m": 0, "sss": 17.2, "recommended": 30, "fatal_reduction_pct": 68.4, "why": "local road, frontage/pedestrian mixing", "pop_density": 12124.7, "pop_density_peak": 23604.3, "v_design": 40, "design_gap": 10}}, {"type": "Feature", "geometry": {"type": "LineString", "coordinates": [[123.3392995, 8.5906552], [123.3392746, 8.590634], [123.3392572, 8.5906087], [123.3391151, 8.590195], [123.3389676, 8.5896964], [123.338816, 8.5892031], [123.3386303, 8.5885612], [123.3384915, 8.5880813], [123.3383426, 8.5875973]]}, "properties": {"city": "dipolog", "name": "Magsaysay Street", "highway": "unclassified", "v_posted": 40, "posted_imputed": false, "v_safe": 30, "gap": 10, "R": 3.16, "exposure": 0.218, "vru_150m": 0, "sss": 15.2, "recommended": 30, "fatal_reduction_pct": 68.4, "why": "local road, frontage/pedestrian mixing", "pop_density": 7052.6, "pop_density_peak": 9230.4, "v_design": 40, "design_gap": 10}}, {"type": "Feature", "geometry": {"type": "LineString", "coordinates": [[123.3578127, 8.5739001], [123.358053, 8.5738458]]}, "properties": {"city": "dipolog", "name": "Governor Alberto Ubay Road", "highway": "secondary", "v_posted": 40, "posted_imputed": false, "v_safe": 30, "gap": 10, "R": 3.16, "exposure": 0.436, "vru_150m": 1, "sss": 17.9, "recommended": 30, "fatal_reduction_pct": 68.4, "why": "pedestrian activity (1 VRU site<=50m)", "pop_density": 9524.4, "pop_density_peak": 9524.4, "v_design": 50, "design_gap": 20}}, {"type": "Feature", "geometry": {"type": "LineString", "coordinates": [[123.3548637, 8.615681], [123.3545673, 8.6157102], [123.3534193, 8.6158746], [123.3527112, 8.6160152], [123.3521345, 8.6161584], [123.3507096, 8.6167239], [123.3504684, 8.6167651], [123.3502717, 8.6167644], [123.3500853, 8.6167445], [123.3498931, 8.6166963], [123.3497232, 8.6166172], [123.3495516, 8.6165071], [123.3494724, 8.6164383], [123.3492646, 8.6162379], [123.3490446, 8.615933], [123.3489503, 8.6157996], [123.3477065, 8.6140484], [123.3475852, 8.6138057], [123.3474192, 8.6134348], [123.3473253, 8.6131325], [123.3472194, 8.6127904], [123.3471677, 8.6123694], [123.3471644, 8.6121354], [123.3471766, 8.6118976], [123.3471818, 8.611658], [123.3471968, 8.611522], [123.3472395, 8.6112304], [123.3473585, 8.6102513], [123.3475023, 8.6090684], [123.3475866, 8.608279], [123.3476351, 8.6078246], [123.3476767, 8.6075594], [123.3477665, 8.6068791], [123.3479458, 8.6054433], [123.3480472, 8.6046313], [123.3480654, 8.6045], [123.3480949, 8.6042685], [123.3481179, 8.6040282], [123.3481373, 8.6038756], [123.3482484, 8.6030042], [123.3483159, 8.602474], [123.3483364, 8.6023135], [123.3483481, 8.6022215], [123.3484235, 8.6016299], [123.3484784, 8.6011993], [123.3485503, 8.6006053], [123.3485578, 8.6005433], [123.3485634, 8.600497], [123.3485947, 8.6002385], [123.3486117, 8.6000983], [123.3487558, 8.5989084], [123.3487609, 8.5988605], [123.3487648, 8.5988344], [123.3487799, 8.5987098], [123.3487929, 8.5985993], [123.3488547, 8.598092], [123.3493381, 8.5942025], [123.3493482, 8.5941212], [123.3494014, 8.5936933], [123.349671, 8.5915228], [123.3497769, 8.5905822], [123.3500317, 8.5885577], [123.3501524, 8.5875429], [123.3502736, 8.5865681]]}, "properties": {"city": "dipolog", "name": "Dipolog-Oroquieta Road", "highway": "trunk", "v_posted": 60, "posted_imputed": false, "v_safe": 50, "gap": 10, "R": 2.07, "exposure": 0.306, "vru_150m": 0, "sss": 16.3, "recommended": 50, "fatal_reduction_pct": 51.8, "why": "undivided arterial, side-impact intersections", "pop_density": 9907.7, "pop_density_peak": 18141.7, "v_design": 60, "design_gap": 10}}, {"type": "Feature", "geometry": {"type": "LineString", "coordinates": [[123.337741, 8.5877271], [123.3377541, 8.587698], [123.3378016, 8.5876855], [123.3378271, 8.5877129]]}, "properties": {"city": "dipolog", "name": "Rizal Avenue", "highway": "unclassified", "v_posted": 40, "posted_imputed": false, "v_safe": 30, "gap": 10, "R": 3.16, "exposure": 0.336, "vru_150m": 1, "sss": 16.7, "recommended": 30, "fatal_reduction_pct": 68.4, "why": "local road, frontage/pedestrian mixing", "pop_density": 5482.2, "pop_density_peak": 5482.2, "v_design": 30, "design_gap": 0}}, {"type": "Feature", "geometry": {"type": "LineString", "coordinates": [[123.3372201, 8.5878374], [123.337741, 8.5877271]]}, "properties": {"city": "dipolog", "name": "Rizal Avenue", "highway": "unclassified", "v_posted": 40, "posted_imputed": false, "v_safe": 30, "gap": 10, "R": 3.16, "exposure": 0.376, "vru_150m": 1, "sss": 17.2, "recommended": 30, "fatal_reduction_pct": 68.4, "why": "local road, frontage/pedestrian mixing", "pop_density": 7117.6, "pop_density_peak": 8753.0, "v_design": 40, "design_gap": 10}}, {"type": "Feature", "geometry": {"type": "LineString", "coordinates": [[123.3378271, 8.5877129], [123.3378164, 8.5877383], [123.3377615, 8.5877531], [123.337741, 8.5877271]]}, "properties": {"city": "dipolog", "name": "Rizal Avenue", "highway": "unclassified", "v_posted": 40, "posted_imputed": false, "v_safe": 30, "gap": 10, "R": 3.16, "exposure": 0.336, "vru_150m": 1, "sss": 16.7, "recommended": 30, "fatal_reduction_pct": 68.4, "why": "local road, frontage/pedestrian mixing", "pop_density": 5482.2, "pop_density_peak": 5482.2, "v_design": 30, "design_gap": 0}}, {"type": "Feature", "geometry": {"type": "LineString", "coordinates": [[123.3502736, 8.5865681], [123.3503049, 8.5863066], [123.3503068, 8.5862908]]}, "properties": {"city": "dipolog", "name": "Dipolog-Oroquieta Road", "highway": "trunk", "v_posted": 60, "posted_imputed": false, "v_safe": 50, "gap": 10, "R": 2.07, "exposure": 0.346, "vru_150m": 0, "sss": 16.8, "recommended": 50, "fatal_reduction_pct": 51.8, "why": "undivided arterial, side-impact intersections", "pop_density": 11191.8, "pop_density_peak": 11191.8, "v_design": 70, "design_gap": 20}}, {"type": "Feature", "geometry": {"type": "LineString", "coordinates": [[123.350544, 8.5838889], [123.3504992, 8.5838857], [123.3504586, 8.5838697], [123.3503628, 8.5838046], [123.3503348, 8.5837695], [123.350322, 8.583739]]}, "properties": {"city": "dipolog", "name": "Dipolog City Rotunda", "highway": "trunk", "v_posted": 60, "posted_imputed": false, "v_safe": 50, "gap": 10, "R": 2.07, "exposure": 0.055, "vru_150m": 0, "sss": 13.2, "recommended": 50, "fatal_reduction_pct": 51.8, "why": "undivided arterial, side-impact intersections", "pop_density": 1763.5, "pop_density_peak": 1763.5, "v_design": 70, "design_gap": 20}}, {"type": "Feature", "geometry": {"type": "LineString", "coordinates": [[123.3356269, 8.5733843], [123.3358079, 8.5732471], [123.3360421, 8.5730694]]}, "properties": {"city": "dipolog", "name": "Magsaysay Street Extension", "highway": "unclassified", "v_posted": 40, "posted_imputed": false, "v_safe": 30, "gap": 10, "R": 3.16, "exposure": 0.08, "vru_150m": 0, "sss": 13.5, "recommended": 30, "fatal_reduction_pct": 68.4, "why": "local road, frontage/pedestrian mixing", "pop_density": 2598.7, "pop_density_peak": 2598.7, "v_design": 40, "design_gap": 10}}, {"type": "Feature", "geometry": {"type": "LineString", "coordinates": [[123.3503068, 8.5862908], [123.3503317, 8.5860827]]}, "properties": {"city": "dipolog", "name": "Dipolog-Oroquieta Road", "highway": "trunk", "v_posted": 60, "posted_imputed": false, "v_safe": 50, "gap": 10, "R": 2.07, "exposure": 0.346, "vru_150m": 0, "sss": 16.8, "recommended": 50, "fatal_reduction_pct": 51.8, "why": "undivided arterial, side-impact intersections", "pop_density": 11191.8, "pop_density_peak": 11191.8, "v_design": 70, "design_gap": 20}}, {"type": "Feature", "geometry": {"type": "LineString", "coordinates": [[123.362748, 8.5808614], [123.3616222, 8.5791898]]}, "properties": {"city": "dipolog", "name": "General John J. Pershing Highway", "highway": "secondary", "v_posted": 60, "posted_imputed": false, "v_safe": 50, "gap": 10, "R": 2.07, "exposure": 0.556, "vru_150m": 0, "sss": 19.5, "recommended": 50, "fatal_reduction_pct": 51.8, "why": "undivided arterial, side-impact intersections", "pop_density": 17992.6, "pop_density_peak": 19553.0, "v_design": 50, "design_gap": 0}}, {"type": "Feature", "geometry": {"type": "LineString", "coordinates": [[123.3567761, 8.6159224], [123.3564784, 8.6159144], [123.3563763, 8.6159167], [123.3561002, 8.6158799], [123.3555959, 8.6157553], [123.3553854, 8.6157155], [123.3552177, 8.6156943], [123.3548637, 8.615681]]}, "properties": {"city": "dipolog", "name": "Dipolog-Oroquieta Road", "highway": "trunk", "v_posted": 60, "posted_imputed": false, "v_safe": 50, "gap": 10, "R": 2.07, "exposure": 0.212, "vru_150m": 0, "sss": 15.1, "recommended": 50, "fatal_reduction_pct": 51.8, "why": "undivided arterial, side-impact intersections", "pop_density": 6842.5, "pop_density_peak": 7203.7, "v_design": 70, "design_gap": 20}}, {"type": "Feature", "geometry": {"type": "LineString", "coordinates": [[123.3668035, 8.6159634], [123.3661625, 8.6158428], [123.3654195, 8.6157075], [123.3647865, 8.6155988], [123.3645235, 8.6155548], [123.3633497, 8.615358], [123.3632201, 8.6153363], [123.3625398, 8.6152232], [123.3622625, 8.6151771], [123.3620292, 8.6151533], [123.3617851, 8.6151427], [123.3614767, 8.6151506], [123.3612969, 8.6151559], [123.3611092, 8.6151771], [123.3608249, 8.6152143], [123.360039, 8.6153416], [123.3594167, 8.615445], [123.3576947, 8.6157234], [123.3567761, 8.6159224]]}, "properties": {"city": "dipolog", "name": "Dipolog-Oroquieta Road", "highway": "trunk", "v_posted": 60, "posted_imputed": false, "v_safe": 50, "gap": 10, "R": 2.07, "exposure": 0.195, "vru_150m": 0, "sss": 14.9, "recommended": 50, "fatal_reduction_pct": 51.8, "why": "undivided arterial, side-impact intersections", "pop_density": 6319.3, "pop_density_peak": 8406.8, "v_design": 70, "design_gap": 20}}, {"type": "Feature", "geometry": {"type": "LineString", "coordinates": [[123.3901947, 8.6242414], [123.390076, 8.6242271], [123.3899714, 8.6242371], [123.3898165, 8.6242759], [123.3897097, 8.624303], [123.3896006, 8.6243306], [123.3894766, 8.6243359], [123.3893418, 8.6243193], [123.3892916, 8.6243075], [123.3891906, 8.6242838], [123.3881123, 8.6239673], [123.3878086, 8.6238635], [123.387655, 8.6237813], [123.3875149, 8.6236918], [123.3872956, 8.6235207], [123.3868758, 8.6232151], [123.385817, 8.6224335], [123.3855911, 8.6222531], [123.3853523, 8.6220218], [123.3851954, 8.6218189], [123.3850218, 8.621569], [123.384833, 8.621313], [123.3846362, 8.6211175], [123.3840186, 8.6206179], [123.3836937, 8.6203511], [123.3834832, 8.6202161], [123.3833833, 8.6201789], [123.3833246, 8.6201571], [123.3831449, 8.6201363], [123.3829541, 8.6201449], [123.3828032, 8.6201774], [123.3826135, 8.6202516], [123.3822822, 8.6205211], [123.3821349, 8.6206169], [123.3819905, 8.6206461], [123.3818809, 8.6206335], [123.381788, 8.620596], [123.3816941, 8.620543], [123.3815295, 8.6204233], [123.3812482, 8.6202135], [123.3810524, 8.6200998], [123.3808543, 8.6200169], [123.3805103, 8.619883], [123.3802598, 8.6197431], [123.3799564, 8.6195091], [123.3795521, 8.619173], [123.3793844, 8.6190795], [123.3792403, 8.6190503], [123.3791082, 8.6190508], [123.3790492, 8.619051], [123.3788627, 8.6190702], [123.3783424, 8.6191139], [123.3781302, 8.619107], [123.3779082, 8.6190569], [123.3777131, 8.6189875], [123.3776048, 8.618933], [123.377466, 8.6188534], [123.3771109, 8.6186187], [123.3763659, 8.61814], [123.3759928, 8.6179113], [123.3756254, 8.6176832], [123.375105, 8.6173411], [123.3749212, 8.6172258], [123.3747375, 8.617121], [123.374598, 8.6170547], [123.374421, 8.6169858], [123.3741903, 8.6169115], [123.3737048, 8.6167604], [123.3732033, 8.616641], [123.3725864, 8.6164899], [123.3723611, 8.6164395], [123.3722699, 8.6164289], [123.3721277, 8.616413], [123.3720043, 8.6164024], [123.3718756, 8.6163997], [123.3717388, 8.6164077], [123.3715913, 8.6164236], [123.3714652, 8.6164456], [123.3713861, 8.6164593], [123.3712332, 8.6164846]]}, "properties": {"city": "dipolog", "name": "Dipolog-Oroquieta Road", "highway": "trunk", "v_posted": 60, "posted_imputed": false, "v_safe": 50, "gap": 10, "R": 2.07, "exposure": 0.051, "vru_150m": 0, "sss": 13.1, "recommended": 50, "fatal_reduction_pct": 51.8, "why": "undivided arterial, side-impact intersections", "pop_density": 1664.8, "pop_density_peak": 10966.2, "v_design": 70, "design_gap": 20}}, {"type": "Feature", "geometry": {"type": "LineString", "coordinates": [[123.3712332, 8.6164846], [123.3709945, 8.6165032], [123.3708041, 8.6164926], [123.3706619, 8.6164687], [123.3703561, 8.6163891], [123.3697044, 8.6162274], [123.3695676, 8.6161955], [123.3694771, 8.6161797], [123.3693396, 8.6161558], [123.369015, 8.6161054], [123.3687361, 8.6160815], [123.368197, 8.616047], [123.3679188, 8.6160331], [123.3677937, 8.6160269], [123.3674003, 8.6160073], [123.3673057, 8.6160032], [123.3670449, 8.6159919], [123.366858, 8.6159699], [123.3668035, 8.6159634]]}, "properties": {"city": "dipolog", "name": "Dipolog-Oroquieta Road", "highway": "trunk", "v_posted": 60, "posted_imputed": false, "v_safe": 50, "gap": 10, "R": 2.07, "exposure": 0.075, "vru_150m": 0, "sss": 13.4, "recommended": 50, "fatal_reduction_pct": 51.8, "why": "undivided arterial, side-impact intersections", "pop_density": 2436.1, "pop_density_peak": 3912.7, "v_design": 70, "design_gap": 20}}]}