{"type": "FeatureCollection", "features": [{"type": "Feature", "geometry": {"type": "LineString", "coordinates": [[121.1154584, 13.9571862], [121.1155283, 13.9570927]]}, "properties": {"city": "lipa", "name": "V. Templo Avenue", "highway": "secondary", "v_posted": 40, "posted_imputed": false, "v_safe": 30, "gap": 10, "R": 3.16, "exposure": 0.595, "vru_150m": 2, "sss": 19.9, "recommended": 30, "fatal_reduction_pct": 68.4, "why": "pedestrian activity (1 VRU site<=50m)", "pop_density": 10515.2, "pop_density_peak": 12890.6, "v_design": 50, "design_gap": 20}}, {"type": "Feature", "geometry": {"type": "LineString", "coordinates": [[121.1155283, 13.9570927], [121.1155183, 13.9572028]]}, "properties": {"city": "lipa", "name": "V. Templo Avenue", "highway": "secondary", "v_posted": 40, "posted_imputed": false, "v_safe": 30, "gap": 10, "R": 3.16, "exposure": 0.551, "vru_150m": 2, "sss": 19.4, "recommended": 30, "fatal_reduction_pct": 68.4, "why": "pedestrian activity (1 VRU site<=50m)", "pop_density": 8139.8, "pop_density_peak": 8139.8, "v_design": 50, "design_gap": 20}}, {"type": "Feature", "geometry": {"type": "LineString", "coordinates": [[121.157561, 13.9617021], [121.1575636, 13.9616843], [121.1575651, 13.9616741], [121.1575667, 13.961659], [121.1575676, 13.9616409], [121.157568, 13.9616165], [121.1575675, 13.9615983], [121.1575664, 13.9615752], [121.1575625, 13.9615394], [121.1575595, 13.961518], [121.1575552, 13.9614959], [121.1575501, 13.9614719], [121.1574308, 13.9605225], [121.157398, 13.960278], [121.1573683, 13.9600624], [121.1573297, 13.9597813], [121.1571638, 13.9586979], [121.1569717, 13.9573587], [121.156965, 13.9571648], [121.1569686, 13.9570013], [121.1569704, 13.9568976], [121.1569704, 13.9568974], [121.1569681, 13.9567681], [121.1569704, 13.9566415], [121.1569669, 13.9564956], [121.1569636, 13.9561811], [121.1569852, 13.9556564], [121.1569892, 13.9554107], [121.1569894, 13.9553674], [121.1570012, 13.9548674], [121.156999, 13.9547673], [121.1569864, 13.954657], [121.1569676, 13.9545781], [121.1569453, 13.9544995], [121.1569158, 13.9544249], [121.1568797, 13.9543458], [121.1568415, 13.9542616], [121.1557896, 13.9522364], [121.1553241, 13.9513566], [121.155249, 13.9512128], [121.1552068, 13.9511134], [121.1551803, 13.951037], [121.155146, 13.9509103], [121.1551307, 13.9508357], [121.1551127, 13.950762], [121.1550844, 13.9505992], [121.1550726, 13.9504912], [121.1550686, 13.950384], [121.1550676, 13.9502764], [121.1550754, 13.9501264], [121.1550976, 13.9500023], [121.1551152, 13.9499255], [121.1551623, 13.9497772], [121.1552058, 13.9496718], [121.1552509, 13.9495855], [121.155293, 13.9495098], [121.1553475, 13.9494197], [121.1554281, 13.9492993], [121.1555574, 13.9491449], [121.1564008, 13.9483007], [121.1564288, 13.9482726], [121.1565087, 13.9482127]]}, "properties": {"city": "lipa", "name": "Manila-Batangas Bypass Road", "highway": "secondary", "v_posted": 60, "posted_imputed": false, "v_safe": 50, "gap": 10, "R": 2.07, "exposure": 0.173, "vru_150m": 0, "sss": 14.7, "recommended": 50, "fatal_reduction_pct": 51.8, "why": "undivided arterial, side-impact intersections", "pop_density": 5593.5, "pop_density_peak": 19787.1, "v_design": 50, "design_gap": 0}}, {"type": "Feature", "geometry": {"type": "LineString", "coordinates": [[121.1654611, 13.9553335], [121.1654602, 13.9553259], [121.1654606, 13.9553171], [121.1654622, 13.9553086], [121.1654648, 13.9553018], [121.165469, 13.9552929], [121.1654767, 13.95528], [121.1654893, 13.9552656], [121.1655124, 13.9552431], [121.1655518, 13.9552082]]}, "properties": {"city": "lipa", "name": "General Luna Street", "highway": "primary", "v_posted": 40, "posted_imputed": false, "v_safe": 30, "gap": 10, "R": 3.16, "exposure": 0.594, "vru_150m": 2, "sss": 19.9, "recommended": 30, "fatal_reduction_pct": 68.4, "why": "pedestrian activity (1 VRU site<=50m)", "pop_density": 10477.2, "pop_density_peak": 10850.0, "v_design": 60, "design_gap": 30}}, {"type": "Feature", "geometry": {"type": "LineString", "coordinates": [[121.1596223, 13.940597], [121.1594698, 13.9406244], [121.1593458, 13.9406517], [121.1592625, 13.9406701], [121.1590362, 13.9407245], [121.1589051, 13.9407623], [121.1588879, 13.9407685], [121.1588369, 13.9407869], [121.1587279, 13.9408261], [121.1585635, 13.9408872], [121.1584915, 13.9409147], [121.1584148, 13.9409455], [121.1582933, 13.9409943], [121.1580909, 13.9410567], [121.1580237, 13.9410754], [121.1578951, 13.9411101], [121.1577255, 13.9411398], [121.1577131, 13.941142], [121.1575348, 13.941158], [121.1572408, 13.9411696], [121.1571998, 13.9411712], [121.1571368, 13.9411727]]}, "properties": {"city": "lipa", "name": "B. Morada Street", "highway": "primary", "v_posted": 40, "posted_imputed": false, "v_safe": 30, "gap": 10, "R": 3.16, "exposure": 1.0, "vru_150m": 5, "sss": 25.0, "recommended": 30, "fatal_reduction_pct": 68.4, "why": "pedestrian activity (2 VRU site<=50m)", "pop_density": 24636.7, "pop_density_peak": 29297.3, "v_design": 60, "design_gap": 30}}, {"type": "Feature", "geometry": {"type": "LineString", "coordinates": [[121.1659852, 13.942507], [121.1657671, 13.9424182]]}, "properties": {"city": "lipa", "name": "C. M. Recto Avenue", "highway": "primary", "v_posted": 40, "posted_imputed": false, "v_safe": 30, "gap": 10, "R": 3.16, "exposure": 0.887, "vru_150m": 2, "sss": 23.6, "recommended": 30, "fatal_reduction_pct": 68.4, "why": "pedestrian activity (2 VRU site<=50m)", "pop_density": 26234.4, "pop_density_peak": 26234.4, "v_design": 60, "design_gap": 30}}, {"type": "Feature", "geometry": {"type": "LineString", "coordinates": [[121.1627696, 13.9401817], [121.1627413, 13.9402612], [121.1627011, 13.9403739], [121.1624375, 13.9411146], [121.1624177, 13.9411702]]}, "properties": {"city": "lipa", "name": "P. Torres Street", "highway": "primary", "v_posted": 40, "posted_imputed": false, "v_safe": 30, "gap": 10, "R": 3.16, "exposure": 0.713, "vru_150m": 3, "sss": 21.4, "recommended": 30, "fatal_reduction_pct": 68.4, "why": "pedestrian activity (1 VRU site<=50m)", "pop_density": 9127.4, "pop_density_peak": 10387.3, "v_design": 60, "design_gap": 30}}, {"type": "Feature", "geometry": {"type": "LineString", "coordinates": [[121.1552895, 13.9390551], [121.1554453, 13.9390998], [121.1556688, 13.9391661], [121.1562584, 13.939341], [121.1563078, 13.9393556], [121.1566642, 13.9394575], [121.15717, 13.9396175], [121.1572139, 13.9396308], [121.15741, 13.9396903], [121.1574476, 13.9397018], [121.1583287, 13.9399693], [121.1585095, 13.9400243], [121.1588561, 13.9401297], [121.1588753, 13.9401355], [121.1589298, 13.9401521], [121.1593928, 13.9402929], [121.1596447, 13.9403695]]}, "properties": {"city": "lipa", "name": "M. K. Lina Street", "highway": "secondary", "v_posted": 40, "posted_imputed": false, "v_safe": 30, "gap": 10, "R": 3.16, "exposure": 0.777, "vru_150m": 3, "sss": 22.2, "recommended": 30, "fatal_reduction_pct": 68.4, "why": "pedestrian activity (1 VRU site<=50m)", "pop_density": 14298.2, "pop_density_peak": 29297.2, "v_design": 50, "design_gap": 20}}, {"type": "Feature", "geometry": {"type": "LineString", "coordinates": [[121.1598071, 13.9598651], [121.1595266, 13.9598727], [121.1592915, 13.9598785], [121.1591097, 13.9598754], [121.158987, 13.9598853], [121.1589045, 13.9598965], [121.1587993, 13.9599186], [121.1587116, 13.9599402], [121.1586162, 13.9599707], [121.1585456, 13.9600032], [121.1584821, 13.9600386], [121.1584089, 13.9600763], [121.1583439, 13.9601156], [121.1582855, 13.9601746], [121.1580588, 13.9604029], [121.1580232, 13.960445], [121.1579853, 13.9604982], [121.1579642, 13.9605351], [121.1579491, 13.9605635], [121.1579304, 13.9606056], [121.1578987, 13.9606735], [121.1578788, 13.9607262], [121.1578659, 13.9607801], [121.1578552, 13.9608334], [121.1578413, 13.9609079], [121.1577542, 13.9613145], [121.1576818, 13.9617217], [121.1573899, 13.9633657], [121.1573476, 13.9636034], [121.1573071, 13.9638304], [121.1572441, 13.9641697], [121.1572244, 13.9643022], [121.1572087, 13.9644307], [121.1572087, 13.9645723], [121.1572135, 13.9647055], [121.1572282, 13.9648268], [121.1572496, 13.9649496], [121.1572649, 13.9650849], [121.1572745, 13.9652196], [121.1572872, 13.9655534], [121.1573651, 13.9663456], [121.157387, 13.9665825], [121.1574069, 13.9667965], [121.1574162, 13.9668884], [121.1574307, 13.9670341], [121.1575159, 13.9677356], [121.1575419, 13.9679523], [121.1575527, 13.968065], [121.1575662, 13.9681784], [121.1575819, 13.9682967], [121.1576083, 13.968415], [121.1576326, 13.9685253], [121.1576561, 13.9686054], [121.1576892, 13.9687352], [121.1577663, 13.9689472], [121.1577915, 13.9690675], [121.1578049, 13.9691184], [121.157808, 13.9691424], [121.1578099, 13.9691668]]}, "properties": {"city": "lipa", "name": "Manila-Batangas Bypass Road", "highway": "trunk", "v_posted": 60, "posted_imputed": false, "v_safe": 50, "gap": 10, "R": 2.07, "exposure": 0.176, "vru_150m": 0, "sss": 14.7, "recommended": 50, "fatal_reduction_pct": 51.8, "why": "undivided arterial, side-impact intersections", "pop_density": 5679.0, "pop_density_peak": 15648.3, "v_design": 60, "design_gap": 10}}, {"type": "Feature", "geometry": {"type": "LineString", "coordinates": [[121.1576893, 13.96917], [121.1576878, 13.9691497], [121.1576843, 13.9691216], [121.1576773, 13.9690825], [121.1576468, 13.9689611], [121.1575712, 13.9687587], [121.1575386, 13.9686345], [121.1575146, 13.9685513], [121.1574908, 13.9684423], [121.1574636, 13.9683181], [121.1574472, 13.9681974], [121.1574333, 13.9680818], [121.1574222, 13.9679666], [121.157396, 13.9677473], [121.1573194, 13.9671242], [121.1573106, 13.9670461], [121.1572959, 13.9668979], [121.1572867, 13.9668072], [121.157267, 13.9665942], [121.1572452, 13.9663585], [121.1571672, 13.9655656], [121.1571548, 13.9652289], [121.1571445, 13.9650931], [121.1571292, 13.9649562], [121.1571074, 13.9648296], [121.157093, 13.964707], [121.1570877, 13.9645676], [121.1570886, 13.964426], [121.1571048, 13.9642886], [121.1571238, 13.9641567], [121.1571876, 13.9638115], [121.157208, 13.9636972], [121.1572283, 13.9635834], [121.1572705, 13.9633464], [121.157561, 13.9617021], [121.1576332, 13.9612942], [121.1577146, 13.9609082], [121.1577205, 13.9608893], [121.1577382, 13.9608143], [121.1577549, 13.9607414], [121.1577685, 13.9606915], [121.1577949, 13.960625], [121.1578269, 13.9605601], [121.1578518, 13.9605029], [121.1578746, 13.9604573], [121.157902, 13.9604119], [121.1579293, 13.9603726], [121.1579664, 13.9603258], [121.1581428, 13.9601372], [121.1582377, 13.9600598], [121.1583217, 13.9600004], [121.1583843, 13.9599565], [121.1584823, 13.9599001], [121.1585179, 13.9598819], [121.1585627, 13.9598622], [121.1586257, 13.9598397], [121.1586899, 13.9598213], [121.1587692, 13.9598028], [121.1588603, 13.9597859], [121.1589292, 13.9597766], [121.1589929, 13.9597692], [121.1591043, 13.9597602], [121.1592903, 13.9597588]]}, "properties": {"city": "lipa", "name": "Manila-Batangas Bypass Road", "highway": "trunk", "v_posted": 60, "posted_imputed": false, "v_safe": 50, "gap": 10, "R": 2.07, "exposure": 0.133, "vru_150m": 0, "sss": 14.2, "recommended": 50, "fatal_reduction_pct": 51.8, "why": "undivided arterial, side-impact intersections", "pop_density": 4308.5, "pop_density_peak": 15648.3, "v_design": 70, "design_gap": 20}}, {"type": "Feature", "geometry": {"type": "LineString", "coordinates": [[121.1785723, 13.9422927], [121.1785794, 13.9422464], [121.1785918, 13.9422019], [121.1786073, 13.9421642], [121.1786257, 13.942128], [121.1786707, 13.9420395], [121.1786907, 13.9420043], [121.1787175, 13.9419573], [121.17878, 13.941834], [121.1788175, 13.9417625], [121.1788595, 13.9416853], [121.1791473, 13.9411447], [121.1791798, 13.9410846], [121.1792119, 13.9410237], [121.1792819, 13.9408933], [121.1793073, 13.9408333]]}, "properties": {"city": "lipa", "name": "Sentrina Drive", "highway": "residential", "v_posted": 40, "posted_imputed": false, "v_safe": 30, "gap": 10, "R": 3.16, "exposure": 0.152, "vru_150m": 0, "sss": 14.4, "recommended": 30, "fatal_reduction_pct": 68.4, "why": "local road, frontage/pedestrian mixing", "pop_density": 4908.5, "pop_density_peak": 6419.1, "v_design": 35, "design_gap": 5}}, {"type": "Feature", "geometry": {"type": "LineString", "coordinates": [[121.1656007, 13.942352], [121.1655219, 13.942321]]}, "properties": {"city": "lipa", "name": "C. M. Recto Avenue", "highway": "primary", "v_posted": 40, "posted_imputed": false, "v_safe": 30, "gap": 10, "R": 3.16, "exposure": 0.887, "vru_150m": 2, "sss": 23.6, "recommended": 30, "fatal_reduction_pct": 68.4, "why": "pedestrian activity (2 VRU site<=50m)", "pop_density": 26234.4, "pop_density_peak": 26234.4, "v_design": 60, "design_gap": 30}}, {"type": "Feature", "geometry": {"type": "LineString", "coordinates": [[121.1655219, 13.942321], [121.1652677, 13.9422232]]}, "properties": {"city": "lipa", "name": "C. M. Recto Avenue", "highway": "primary", "v_posted": 40, "posted_imputed": false, "v_safe": 30, "gap": 10, "R": 3.16, "exposure": 0.847, "vru_150m": 3, "sss": 23.1, "recommended": 30, "fatal_reduction_pct": 68.4, "why": "pedestrian activity (2 VRU site<=50m)", "pop_density": 20002.6, "pop_density_peak": 26234.4, "v_design": 60, "design_gap": 30}}, {"type": "Feature", "geometry": {"type": "LineString", "coordinates": [[121.1657671, 13.9424182], [121.1656007, 13.942352]]}, "properties": {"city": "lipa", "name": "C. M. Recto Avenue", "highway": "primary", "v_posted": 40, "posted_imputed": false, "v_safe": 30, "gap": 10, "R": 3.16, "exposure": 0.887, "vru_150m": 2, "sss": 23.6, "recommended": 30, "fatal_reduction_pct": 68.4, "why": "pedestrian activity (2 VRU site<=50m)", "pop_density": 26234.4, "pop_density_peak": 26234.4, "v_design": 60, "design_gap": 30}}, {"type": "Feature", "geometry": {"type": "LineString", "coordinates": [[121.1583843, 13.9599565], [121.1583793, 13.9599497], [121.1583735, 13.9599414], [121.1583646, 13.9599314], [121.1583578, 13.9599253], [121.1583537, 13.9599222], [121.1583501, 13.9599197], [121.1583462, 13.9599175], [121.1583421, 13.9599155], [121.1583297, 13.9599105], [121.1583097, 13.9599043], [121.1582437, 13.9598854], [121.1581555, 13.9598558], [121.1580606, 13.9598185], [121.1579882, 13.9597826], [121.1579171, 13.9597416], [121.1578223, 13.9596773], [121.1577298, 13.9596065], [121.1576603, 13.9595468], [121.1575799, 13.9594713], [121.1575258, 13.9594165], [121.1574638, 13.9593442], [121.1573473, 13.9591889], [121.1571638, 13.9586979]]}, "properties": {"city": "lipa", "name": "Manila-Batangas Bypass Road", "highway": "secondary", "v_posted": 60, "posted_imputed": false, "v_safe": 50, "gap": 10, "R": 2.07, "exposure": 0.306, "vru_150m": 0, "sss": 16.3, "recommended": 50, "fatal_reduction_pct": 51.8, "why": "undivided arterial, side-impact intersections", "pop_density": 9893.5, "pop_density_peak": 19787.1, "v_design": 50, "design_gap": 0}}, {"type": "Feature", "geometry": {"type": "LineString", "coordinates": [[121.1572733, 13.9586892], [121.1573559, 13.958967], [121.1574207, 13.9591004], [121.1575031, 13.9592106], [121.1575506, 13.9592692], [121.1576168, 13.9593486], [121.1576738, 13.9594048], [121.1577302, 13.9594547], [121.157796, 13.9595053], [121.1578613, 13.9595514], [121.1579534, 13.959615], [121.1580406, 13.9596676], [121.1581194, 13.9597094], [121.1582049, 13.9597447], [121.1583195, 13.9597805], [121.1584081, 13.9598019], [121.1584881, 13.9598185], [121.1585434, 13.9598165], [121.1586899, 13.9598213]]}, "properties": {"city": "lipa", "name": "Manila-Batangas Bypass Road", "highway": "secondary", "v_posted": 60, "posted_imputed": false, "v_safe": 50, "gap": 10, "R": 2.07, "exposure": 0.026, "vru_150m": 0, "sss": 12.8, "recommended": 50, "fatal_reduction_pct": 51.8, "why": "undivided arterial, side-impact intersections", "pop_density": 836.0, "pop_density_peak": 2508.1, "v_design": 50, "design_gap": 0}}, {"type": "Feature", "geometry": {"type": "LineString", "coordinates": [[121.156651, 13.9482434], [121.1565702, 13.9483007], [121.1565311, 13.9483313], [121.1564968, 13.9483603], [121.156468, 13.9483869], [121.1556401, 13.9492126], [121.1555148, 13.9493668], [121.1554409, 13.9494786], [121.1553924, 13.9495581], [121.1553539, 13.9496261], [121.1553109, 13.9497068], [121.1552661, 13.9498089], [121.1552221, 13.9499517], [121.1552068, 13.9500197], [121.1551834, 13.950142], [121.1551784, 13.9502843], [121.1551797, 13.9503855], [121.1551836, 13.9504874], [121.1551952, 13.9505907], [121.1552229, 13.9507486], [121.1552402, 13.9508172], [121.1552543, 13.9508861], [121.1552868, 13.9510061], [121.1553109, 13.9510756], [121.1553504, 13.9511687], [121.1554202, 13.9513081], [121.1559442, 13.9522925], [121.1569375, 13.9542131], [121.1569806, 13.9543008], [121.1570185, 13.9543837], [121.157051, 13.9544658], [121.1570753, 13.9545517], [121.1570961, 13.9546389], [121.1571099, 13.9547602], [121.1571123, 13.9548665], [121.1571003, 13.9554142], [121.1570939, 13.9557013], [121.1570746, 13.9561852], [121.1570822, 13.9566414], [121.1570813, 13.9567582], [121.1570832, 13.9568904], [121.1570832, 13.9568907], [121.1570807, 13.9569908], [121.1570763, 13.9571523], [121.1570816, 13.9573391], [121.1572733, 13.9586892], [121.1573473, 13.9591889], [121.1574484, 13.9598145], [121.1574842, 13.9600477], [121.1575027, 13.9601542], [121.1575118, 13.9602548], [121.1575439, 13.9605005], [121.1575738, 13.9607788], [121.1575803, 13.9608023], [121.1575881, 13.9608229], [121.157598, 13.9608441], [121.1576081, 13.9608598], [121.1576218, 13.9608741], [121.1576344, 13.960882], [121.1576495, 13.9608907], [121.1576583, 13.960894], [121.1576673, 13.9608963], [121.1576868, 13.9609006], [121.1577146, 13.9609082]]}, "properties": {"city": "lipa", "name": "Manila-Batangas Bypass Road", "highway": "secondary", "v_posted": 60, "posted_imputed": false, "v_safe": 50, "gap": 10, "R": 2.07, "exposure": 0.122, "vru_150m": 0, "sss": 14.0, "recommended": 50, "fatal_reduction_pct": 51.8, "why": "undivided arterial, side-impact intersections", "pop_density": 3935.4, "pop_density_peak": 12052.8, "v_design": 50, "design_gap": 0}}, {"type": "Feature", "geometry": {"type": "LineString", "coordinates": [[121.1655518, 13.9552082], [121.1655691, 13.9551902], [121.1655869, 13.9551705], [121.165605, 13.9551486], [121.165617, 13.9551321], [121.1656299, 13.955113], [121.1656437, 13.9550901]]}, "properties": {"city": "lipa", "name": "General Luna Street", "highway": "primary", "v_posted": 40, "posted_imputed": false, "v_safe": 30, "gap": 10, "R": 3.16, "exposure": 0.631, "vru_150m": 2, "sss": 20.4, "recommended": 30, "fatal_reduction_pct": 68.4, "why": "pedestrian activity (1 VRU site<=50m)", "pop_density": 12469.5, "pop_density_peak": 14089.1, "v_design": 60, "design_gap": 30}}, {"type": "Feature", "geometry": {"type": "LineString", "coordinates": [[121.1655994, 13.9553174], [121.1655793, 13.9553264], [121.1655551, 13.9553359], [121.1655333, 13.955342], [121.165511, 13.9553464], [121.1654893, 13.955349], [121.165469, 13.9553506]]}, "properties": {"city": "lipa", "name": "General Luna Street", "highway": "primary", "v_posted": 40, "posted_imputed": false, "v_safe": 30, "gap": 10, "R": 3.16, "exposure": 0.594, "vru_150m": 2, "sss": 19.9, "recommended": 30, "fatal_reduction_pct": 68.4, "why": "pedestrian activity (1 VRU site<=50m)", "pop_density": 10477.2, "pop_density_peak": 10850.0, "v_design": 60, "design_gap": 30}}, {"type": "Feature", "geometry": {"type": "LineString", "coordinates": [[121.1657402, 13.9550642], [121.1657354, 13.9550979], [121.1657281, 13.955128], [121.1657197, 13.9551544], [121.1657106, 13.9551774], [121.1656994, 13.9552009], [121.1656866, 13.9552235], [121.1656695, 13.9552489], [121.1656476, 13.9552761], [121.1656235, 13.9552984], [121.1655994, 13.9553174]]}, "properties": {"city": "lipa", "name": "General Luna Street", "highway": "primary", "v_posted": 40, "posted_imputed": false, "v_safe": 30, "gap": 10, "R": 3.16, "exposure": 0.631, "vru_150m": 2, "sss": 20.4, "recommended": 30, "fatal_reduction_pct": 68.4, "why": "pedestrian activity (1 VRU site<=50m)", "pop_density": 12469.5, "pop_density_peak": 14089.0, "v_design": 60, "design_gap": 30}}, {"type": "Feature", "geometry": {"type": "LineString", "coordinates": [[121.1606371, 13.9598572], [121.1600857, 13.9598574], [121.1598071, 13.9598651]]}, "properties": {"city": "lipa", "name": "Manila-Batangas Bypass Road", "highway": "trunk", "v_posted": 60, "posted_imputed": false, "v_safe": 50, "gap": 10, "R": 2.07, "exposure": 0.044, "vru_150m": 0, "sss": 13.0, "recommended": 50, "fatal_reduction_pct": 51.8, "why": "undivided arterial, side-impact intersections", "pop_density": 1407.4, "pop_density_peak": 1970.4, "v_design": 70, "design_gap": 20}}, {"type": "Feature", "geometry": {"type": "LineString", "coordinates": [[121.1656101, 13.9603187], [121.1655896, 13.9603166], [121.1655694, 13.9603138], [121.16555, 13.9603097], [121.1655335, 13.9603094], [121.1654513, 13.9603013], [121.1652402, 13.9602698], [121.1650502, 13.9602358], [121.1644321, 13.9601355], [121.1630493, 13.9599183], [121.162882, 13.9598894], [121.1628025, 13.9598754], [121.1627289, 13.9598637], [121.1626604, 13.9598551], [121.162624, 13.9598512], [121.162509, 13.959842], [121.162417, 13.9598372], [121.1623152, 13.9598352], [121.1615542, 13.9598313], [121.1606371, 13.9598572]]}, "properties": {"city": "lipa", "name": "Manila-Batangas Bypass Road", "highway": "trunk", "v_posted": 60, "posted_imputed": false, "v_safe": 50, "gap": 10, "R": 2.07, "exposure": 0.148, "vru_150m": 0, "sss": 14.3, "recommended": 50, "fatal_reduction_pct": 51.8, "why": "undivided arterial, side-impact intersections", "pop_density": 4778.7, "pop_density_peak": 8392.3, "v_design": 70, "design_gap": 20}}, {"type": "Feature", "geometry": {"type": "LineString", "coordinates": [[121.1592903, 13.9597588], [121.1595237, 13.9597534], [121.1598046, 13.959746]]}, "properties": {"city": "lipa", "name": "Manila-Batangas Bypass Road", "highway": "trunk", "v_posted": 60, "posted_imputed": false, "v_safe": 50, "gap": 10, "R": 2.07, "exposure": 0.013, "vru_150m": 0, "sss": 12.7, "recommended": 50, "fatal_reduction_pct": 51.8, "why": "undivided arterial, side-impact intersections", "pop_density": 422.2, "pop_density_peak": 844.4, "v_design": 70, "design_gap": 20}}, {"type": "Feature", "geometry": {"type": "LineString", "coordinates": [[121.1598046, 13.959746], [121.1600836, 13.9597386], [121.161556, 13.9597139], [121.1620493, 13.9597168], [121.1623168, 13.9597183], [121.1624226, 13.9597203], [121.1625152, 13.9597245], [121.1626369, 13.959734], [121.1626758, 13.9597392], [121.1627538, 13.9597491], [121.1628413, 13.9597642], [121.1629301, 13.9597798], [121.163072, 13.9598047], [121.1644559, 13.9600209], [121.1650743, 13.9601196], [121.1652731, 13.9601548], [121.1655012, 13.9601891], [121.1655332, 13.9601911], [121.1655688, 13.9601941], [121.1656078, 13.9602023]]}, "properties": {"city": "lipa", "name": "Manila-Batangas Bypass Road", "highway": "trunk", "v_posted": 60, "posted_imputed": false, "v_safe": 50, "gap": 10, "R": 2.07, "exposure": 0.158, "vru_150m": 0, "sss": 14.5, "recommended": 50, "fatal_reduction_pct": 51.8, "why": "undivided arterial, side-impact intersections", "pop_density": 5107.5, "pop_density_peak": 8392.3, "v_design": 70, "design_gap": 20}}, {"type": "Feature", "geometry": {"type": "LineString", "coordinates": [[121.0927054, 13.9818604], [121.0926148, 13.9819912], [121.0919644, 13.9833628], [121.0919, 13.9834631], [121.0917243, 13.9836934], [121.0916761, 13.9837598], [121.0911544, 13.9844495], [121.0910066, 13.9846419], [121.0900966, 13.9858264]]}, "properties": {"city": "lipa", "name": "", "highway": "unclassified", "v_posted": 40, "posted_imputed": false, "v_safe": 30, "gap": 10, "R": 3.16, "exposure": 0.26, "vru_150m": 0, "sss": 15.7, "recommended": 30, "fatal_reduction_pct": 68.4, "why": "local road, frontage/pedestrian mixing", "pop_density": 8406.6, "pop_density_peak": 15223.4, "v_design": 40, "design_gap": 10}}, {"type": "Feature", "geometry": {"type": "LineString", "coordinates": [[121.1395023, 13.9887117], [121.1394833, 13.9889515], [121.1394998, 13.9893309], [121.1395417, 13.9895874], [121.1396447, 13.9902262], [121.1397197, 13.9907242], [121.1397275, 13.9909239], [121.1397048, 13.9911056], [121.1396359, 13.9913375], [121.1395446, 13.9916049], [121.1393677, 13.9920793], [121.1392743, 13.9923274], [121.1392084, 13.9925229], [121.1391372, 13.9927195], [121.1390612, 13.9929208], [121.1389976, 13.9931178], [121.1383993, 13.9946997], [121.1381849, 13.995285], [121.1379767, 13.9958988], [121.1377852, 13.9965244], [121.137615, 13.997152], [121.1374752, 13.9976954]]}, "properties": {"city": "lipa", "name": "Governor Feliciano Leviste Provincial Highway", "highway": "secondary", "v_posted": 60, "posted_imputed": false, "v_safe": 50, "gap": 10, "R": 2.07, "exposure": 0.075, "vru_150m": 0, "sss": 13.4, "recommended": 50, "fatal_reduction_pct": 51.8, "why": "undivided arterial, side-impact intersections", "pop_density": 2415.7, "pop_density_peak": 6764.3, "v_design": 50, "design_gap": 0}}, {"type": "Feature", "geometry": {"type": "LineString", "coordinates": [[121.167775, 13.9780111], [121.1676512, 13.9780165], [121.1676129, 13.9780167], [121.1675903, 13.9780171], [121.167532, 13.978013], [121.1674777, 13.9780086], [121.1674177, 13.9779983], [121.1673614, 13.9779866], [121.1673006, 13.9779741], [121.1672485, 13.9779601], [121.1666643, 13.9777937], [121.1666283, 13.9777833], [121.1664706, 13.9777353], [121.166372, 13.9777054], [121.1663442, 13.9776969], [121.1661868, 13.9776491], [121.1659773, 13.9775858], [121.1658027, 13.9775525], [121.16568, 13.9775326], [121.1655562, 13.977516], [121.1633495, 13.977231], [121.16309, 13.9771977], [121.1629098, 13.9771745], [121.1624001, 13.977109], [121.1621631, 13.9770785], [121.1619314, 13.9770487], [121.1606396, 13.9768934], [121.1603803, 13.9768558], [121.1601029, 13.9767914], [121.1598812, 13.9766993], [121.1597053, 13.9766028], [121.159521, 13.9764317], [121.159368, 13.9762241], [121.1592668, 13.9759954], [121.1591937, 13.9757385], [121.1588266, 13.9744571], [121.1587145, 13.9740414], [121.1586525, 13.9738262], [121.1585885, 13.9736039], [121.1579417, 13.9713641], [121.1579091, 13.9712367], [121.157878, 13.9711004], [121.1578431, 13.970909], [121.1577554, 13.9700554], [121.1577202, 13.9697569], [121.1577116, 13.9696702], [121.1577035, 13.9695776], [121.157699, 13.9694716], [121.1576985, 13.969268], [121.157698, 13.9692243], [121.1576893, 13.96917]]}, "properties": {"city": "lipa", "name": "Manila-Batangas Bypass Road", "highway": "trunk", "v_posted": 60, "posted_imputed": false, "v_safe": 50, "gap": 10, "R": 2.07, "exposure": 0.153, "vru_150m": 0, "sss": 14.4, "recommended": 50, "fatal_reduction_pct": 51.8, "why": "undivided arterial, side-impact intersections", "pop_density": 4948.6, "pop_density_peak": 15648.3, "v_design": 60, "design_gap": 10}}, {"type": "Feature", "geometry": {"type": "LineString", "coordinates": [[121.1578099, 13.9691668], [121.1578184, 13.9692236], [121.1578189, 13.9692667], [121.1578195, 13.9694692], [121.1578233, 13.9695666], [121.1578315, 13.9696569], [121.1578398, 13.9697398], [121.157963, 13.9708951], [121.1579976, 13.9710807], [121.1580262, 13.9712088], [121.1580598, 13.9713384], [121.1585079, 13.9728897], [121.158705, 13.9735723], [121.158769, 13.9737946], [121.158831, 13.9740098], [121.1593099, 13.9757054], [121.1593767, 13.9759463], [121.1594706, 13.976163], [121.1596134, 13.9763563], [121.1597857, 13.9765157], [121.1599459, 13.9766], [121.1601522, 13.9766844], [121.1604159, 13.9767435], [121.1606629, 13.9767789], [121.1619472, 13.9769331], [121.1621789, 13.9769629], [121.1624159, 13.9769934], [121.1655751, 13.9774006], [121.1657012, 13.9774174], [121.1658274, 13.9774377], [121.1659993, 13.9774824], [121.1662215, 13.9775464], [121.1663463, 13.9775856], [121.1663999, 13.9776024], [121.166489, 13.9776304], [121.1666556, 13.9776827], [121.1666961, 13.977694], [121.1672736, 13.9778623], [121.1673255, 13.9778759], [121.167382, 13.9778879], [121.1674343, 13.977897], [121.167486, 13.9779036], [121.1675411, 13.9779088], [121.1675937, 13.9779113], [121.1676142, 13.9779115], [121.1676532, 13.977912], [121.1677681, 13.9779053]]}, "properties": {"city": "lipa", "name": "Manila-Batangas Bypass Road", "highway": "trunk", "v_posted": 60, "posted_imputed": false, "v_safe": 50, "gap": 10, "R": 2.07, "exposure": 0.135, "vru_150m": 0, "sss": 14.2, "recommended": 50, "fatal_reduction_pct": 51.8, "why": "undivided arterial, side-impact intersections", "pop_density": 4380.0, "pop_density_peak": 15648.3, "v_design": 60, "design_gap": 10}}]}