{"type": "FeatureCollection", "features": [{"type": "Feature", "geometry": {"type": "LineString", "coordinates": [[123.8433721, 9.6361788], [123.8434187, 9.6360845], [123.8434539, 9.6360012], [123.8434753, 9.6359291], [123.8434948, 9.6358356], [123.8434986, 9.6357693], [123.8434977, 9.6357043], [123.843477, 9.6356402], [123.8434461, 9.6355801], [123.843359, 9.6354504]]}, "properties": {"city": "tagbilaran", "name": "", "highway": "primary_link", "v_posted": 80, "posted_imputed": false, "v_safe": 50, "gap": 30, "R": 6.55, "exposure": 0.521, "vru_150m": 1, "sss": 57.0, "recommended": 50, "fatal_reduction_pct": 84.7, "why": "undivided arterial, side-impact intersections", "pop_density": 12972.7, "pop_density_peak": 13494.6, "v_design": 45, "design_gap": -5}}, {"type": "Feature", "geometry": {"type": "LineString", "coordinates": [[123.8442957, 9.6359767], [123.8440577, 9.6359902], [123.8439678, 9.6360006], [123.8438814, 9.6360271], [123.8438015, 9.6360689], [123.8437307, 9.6361244], [123.8436741, 9.6361803], [123.8436265, 9.6362352], [123.843589, 9.6362881]]}, "properties": {"city": "tagbilaran", "name": "", "highway": "primary_link", "v_posted": 80, "posted_imputed": false, "v_safe": 50, "gap": 30, "R": 6.55, "exposure": 0.428, "vru_150m": 0, "sss": 53.6, "recommended": 50, "fatal_reduction_pct": 84.7, "why": "undivided arterial, side-impact intersections", "pop_density": 13859.4, "pop_density_peak": 14224.2, "v_design": 45, "design_gap": -5}}, {"type": "Feature", "geometry": {"type": "LineString", "coordinates": [[123.8438798, 9.6356357], [123.8437643, 9.6358337]]}, "properties": {"city": "tagbilaran", "name": "", "highway": "primary", "v_posted": 80, "posted_imputed": false, "v_safe": 70, "gap": 10, "R": 1.71, "exposure": 0.385, "vru_150m": 0, "sss": 17.3, "recommended": 70, "fatal_reduction_pct": 41.4, "why": "divided carriageway (head-on only, no side impact)", "pop_density": 12450.8, "pop_density_peak": 12450.8, "v_design": 60, "design_gap": -10}}, {"type": "Feature", "geometry": {"type": "LineString", "coordinates": [[123.8446979, 9.6356669], [123.8446823, 9.6357435], [123.8446733, 9.635822], [123.8446753, 9.6358868], [123.8446854, 9.6359582], [123.8447034, 9.6360415], [123.8447328, 9.6361601]]}, "properties": {"city": "tagbilaran", "name": "", "highway": "primary", "v_posted": 80, "posted_imputed": false, "v_safe": 70, "gap": 10, "R": 1.71, "exposure": 0.465, "vru_150m": 0, "sss": 18.3, "recommended": 70, "fatal_reduction_pct": 41.4, "why": "divided carriageway (head-on only, no side impact)", "pop_density": 15038.9, "pop_density_peak": 15853.7, "v_design": 60, "design_gap": -10}}, {"type": "Feature", "geometry": {"type": "LineString", "coordinates": [[123.8442957, 9.6359767], [123.844403, 9.635941], [123.8444647, 9.6359129], [123.844515, 9.6358802], [123.8445482, 9.6358445], [123.8445838, 9.6357899], [123.8446146, 9.6357222], [123.8446353, 9.6356545]]}, "properties": {"city": "tagbilaran", "name": "", "highway": "primary", "v_posted": 80, "posted_imputed": false, "v_safe": 70, "gap": 10, "R": 1.71, "exposure": 0.44, "vru_150m": 0, "sss": 18.0, "recommended": 70, "fatal_reduction_pct": 41.4, "why": "divided carriageway (head-on only, no side impact)", "pop_density": 14224.1, "pop_density_peak": 14224.2, "v_design": 60, "design_gap": -10}}, {"type": "Feature", "geometry": {"type": "LineString", "coordinates": [[123.8438798, 9.6356357], [123.8439465, 9.6355215], [123.8440088, 9.6354228], [123.8440724, 9.6353418], [123.8441293, 9.6352924], [123.8441915, 9.6352576], [123.8442561, 9.6352397], [123.8443209, 9.6352361], [123.8443898, 9.635244], [123.8444534, 9.6352632], [123.8445164, 9.6353018], [123.8445695, 9.6353498], [123.8446032, 9.6353958], [123.8446329, 9.63545], [123.8446462, 9.6355144], [123.8446493, 9.6355861], [123.8446353, 9.6356545]]}, "properties": {"city": "tagbilaran", "name": "", "highway": "primary", "v_posted": 80, "posted_imputed": false, "v_safe": 70, "gap": 10, "R": 1.71, "exposure": 0.412, "vru_150m": 0, "sss": 17.7, "recommended": 70, "fatal_reduction_pct": 41.4, "why": "divided carriageway (head-on only, no side impact)", "pop_density": 13337.5, "pop_density_peak": 14224.1, "v_design": 45, "design_gap": -25}}, {"type": "Feature", "geometry": {"type": "LineString", "coordinates": [[123.8432319, 9.6367081], [123.8431961, 9.6367761], [123.8431606, 9.6368548], [123.8431362, 9.6369263], [123.8431181, 9.6369973], [123.843108, 9.6370537], [123.8431029, 9.6371065], [123.8430936, 9.6385004], [123.8430882, 9.6393146], [123.8430901, 9.6399074], [123.8430948, 9.64004], [123.8431041, 9.6401513], [123.8431177, 9.6402602]]}, "properties": {"city": "tagbilaran", "name": "", "highway": "primary", "v_posted": 80, "posted_imputed": false, "v_safe": 70, "gap": 10, "R": 1.71, "exposure": 0.205, "vru_150m": 0, "sss": 15.1, "recommended": 70, "fatal_reduction_pct": 41.4, "why": "divided carriageway (head-on only, no side impact)", "pop_density": 6632.5, "pop_density_peak": 11665.2, "v_design": 60, "design_gap": -10}}, {"type": "Feature", "geometry": {"type": "LineString", "coordinates": [[123.8431177, 9.6402602], [123.8431448, 9.6403975], [123.8431776, 9.6405172], [123.8432235, 9.6406504], [123.8432798, 9.6407761], [123.8433379, 9.6408806], [123.8434229, 9.6409933], [123.8435051, 9.6410926], [123.8436, 9.6411913]]}, "properties": {"city": "tagbilaran", "name": "", "highway": "primary", "v_posted": 80, "posted_imputed": false, "v_safe": 70, "gap": 10, "R": 1.71, "exposure": 0.033, "vru_150m": 0, "sss": 12.9, "recommended": 70, "fatal_reduction_pct": 41.4, "why": "divided carriageway (head-on only, no side impact)", "pop_density": 1063.4, "pop_density_peak": 2126.8, "v_design": 60, "design_gap": -10}}, {"type": "Feature", "geometry": {"type": "LineString", "coordinates": [[123.8435404, 9.6412469], [123.8434435, 9.641146], [123.8433582, 9.641043], [123.8432687, 9.6409243], [123.8432062, 9.6408119], [123.8431471, 9.6406798], [123.8430991, 9.6405407], [123.8430649, 9.6404158], [123.8430372, 9.6402757]]}, "properties": {"city": "tagbilaran", "name": "", "highway": "primary", "v_posted": 80, "posted_imputed": false, "v_safe": 70, "gap": 10, "R": 1.71, "exposure": 0.033, "vru_150m": 0, "sss": 12.9, "recommended": 70, "fatal_reduction_pct": 41.4, "why": "divided carriageway (head-on only, no side impact)", "pop_density": 1063.4, "pop_density_peak": 2126.8, "v_design": 60, "design_gap": -10}}, {"type": "Feature", "geometry": {"type": "LineString", "coordinates": [[123.8430372, 9.6402757], [123.8430225, 9.6401596], [123.8430129, 9.6400448], [123.8430081, 9.639909], [123.8430062, 9.6393144], [123.8430116, 9.6384999], [123.8430209, 9.6371025], [123.8430266, 9.6370429], [123.8430387, 9.636983], [123.8430574, 9.6369035], [123.843084, 9.6368254], [123.8431229, 9.6367391], [123.8431703, 9.6366696]]}, "properties": {"city": "tagbilaran", "name": "", "highway": "primary", "v_posted": 80, "posted_imputed": false, "v_safe": 70, "gap": 10, "R": 1.71, "exposure": 0.252, "vru_150m": 0, "sss": 15.7, "recommended": 70, "fatal_reduction_pct": 41.4, "why": "divided carriageway (head-on only, no side impact)", "pop_density": 8152.5, "pop_density_peak": 11665.2, "v_design": 60, "design_gap": -10}}, {"type": "Feature", "geometry": {"type": "LineString", "coordinates": [[123.8437643, 9.6358337], [123.8433909, 9.6364738], [123.8433309, 9.6365638], [123.8432769, 9.6366371], [123.8432319, 9.6367081]]}, "properties": {"city": "tagbilaran", "name": "", "highway": "primary", "v_posted": 80, "posted_imputed": false, "v_safe": 70, "gap": 10, "R": 1.71, "exposure": 0.373, "vru_150m": 0, "sss": 17.2, "recommended": 70, "fatal_reduction_pct": 41.4, "why": "divided carriageway (head-on only, no side impact)", "pop_density": 12058.0, "pop_density_peak": 12450.8, "v_design": 60, "design_gap": -10}}, {"type": "Feature", "geometry": {"type": "LineString", "coordinates": [[123.8438246, 9.6356043], [123.8438917, 9.6354892], [123.8439564, 9.6353869], [123.8440256, 9.6352986], [123.8440921, 9.635241], [123.8441667, 9.6351992], [123.8442455, 9.6351773], [123.8443229, 9.6351731], [123.8444028, 9.6351822], [123.84448, 9.6352054], [123.8445552, 9.6352514], [123.8446175, 9.6353078], [123.8446574, 9.6353624], [123.8446935, 9.6354284], [123.8447098, 9.6355068], [123.8447133, 9.6355911], [123.8446979, 9.6356669]]}, "properties": {"city": "tagbilaran", "name": "", "highway": "primary", "v_posted": 80, "posted_imputed": false, "v_safe": 70, "gap": 10, "R": 1.71, "exposure": 0.412, "vru_150m": 0, "sss": 17.7, "recommended": 70, "fatal_reduction_pct": 41.4, "why": "divided carriageway (head-on only, no side impact)", "pop_density": 13337.5, "pop_density_peak": 14224.1, "v_design": 45, "design_gap": -25}}, {"type": "Feature", "geometry": {"type": "LineString", "coordinates": [[123.843709, 9.6358024], [123.8438246, 9.6356043]]}, "properties": {"city": "tagbilaran", "name": "", "highway": "primary", "v_posted": 80, "posted_imputed": false, "v_safe": 70, "gap": 10, "R": 1.71, "exposure": 0.385, "vru_150m": 0, "sss": 17.3, "recommended": 70, "fatal_reduction_pct": 41.4, "why": "divided carriageway (head-on only, no side impact)", "pop_density": 12450.8, "pop_density_peak": 12450.8, "v_design": 60, "design_gap": -10}}, {"type": "Feature", "geometry": {"type": "LineString", "coordinates": [[123.8431703, 9.6366696], [123.8432251, 9.6366003], [123.8432785, 9.636528], [123.8433365, 9.6364408], [123.843709, 9.6358024]]}, "properties": {"city": "tagbilaran", "name": "", "highway": "primary", "v_posted": 80, "posted_imputed": false, "v_safe": 70, "gap": 10, "R": 1.71, "exposure": 0.373, "vru_150m": 0, "sss": 17.2, "recommended": 70, "fatal_reduction_pct": 41.4, "why": "divided carriageway (head-on only, no side impact)", "pop_density": 12058.0, "pop_density_peak": 12450.8, "v_design": 60, "design_gap": -10}}, {"type": "Feature", "geometry": {"type": "LineString", "coordinates": [[123.843589, 9.6362881], [123.843485, 9.6364765], [123.8434166, 9.6365703], [123.8433724, 9.636616], [123.8433104, 9.6366622], [123.8432319, 9.6367081]]}, "properties": {"city": "tagbilaran", "name": "", "highway": "primary_link", "v_posted": 80, "posted_imputed": false, "v_safe": 50, "gap": 30, "R": 6.55, "exposure": 0.389, "vru_150m": 0, "sss": 52.1, "recommended": 50, "fatal_reduction_pct": 84.7, "why": "undivided arterial, side-impact intersections", "pop_density": 12579.9, "pop_density_peak": 13494.6, "v_design": 45, "design_gap": -5}}, {"type": "Feature", "geometry": {"type": "LineString", "coordinates": [[123.8431703, 9.6366696], [123.843193, 9.6365823], [123.8432235, 9.6364957], [123.8432591, 9.6364071], [123.8433721, 9.6361788]]}, "properties": {"city": "tagbilaran", "name": "", "highway": "primary_link", "v_posted": 80, "posted_imputed": false, "v_safe": 50, "gap": 30, "R": 6.55, "exposure": 0.389, "vru_150m": 0, "sss": 52.1, "recommended": 50, "fatal_reduction_pct": 84.7, "why": "undivided arterial, side-impact intersections", "pop_density": 12579.9, "pop_density_peak": 13494.6, "v_design": 45, "design_gap": -5}}, {"type": "Feature", "geometry": {"type": "LineString", "coordinates": [[123.8876185, 9.6265836], [123.8888852, 9.6266558], [123.8907524, 9.626749], [123.8917677, 9.6267938], [123.8919841, 9.6268033], [123.8920475, 9.6268063], [123.8926868, 9.6268297], [123.892849, 9.626828], [123.8933832, 9.6268226], [123.8939971, 9.6268134], [123.8942802, 9.6267985], [123.8945668, 9.6267714], [123.8951294, 9.6266805], [123.8958023, 9.6265401], [123.8958751, 9.6265217], [123.895964, 9.6264985], [123.896915, 9.6262632], [123.8973796, 9.6261396], [123.8977403, 9.6260334], [123.8984391, 9.625805], [123.8987087, 9.6257137], [123.899646, 9.6253946], [123.8999812, 9.6252881], [123.8999966, 9.6252832], [123.9000315, 9.6252703], [123.9001252, 9.6252424], [123.900148, 9.6252351], [123.900536, 9.6251243], [123.9012116, 9.6249292], [123.9019943, 9.6247164], [123.9027415, 9.624517], [123.9029043, 9.6244748]]}, "properties": {"city": "tagbilaran", "name": "Tagbilaran East Road", "highway": "primary", "v_posted": 60, "posted_imputed": false, "v_safe": 50, "gap": 10, "R": 2.07, "exposure": 0.391, "vru_150m": 1, "sss": 17.4, "recommended": 50, "fatal_reduction_pct": 51.8, "why": "undivided arterial, side-impact intersections", "pop_density": 7721.4, "pop_density_peak": 21120.0, "v_design": 60, "design_gap": 10}}, {"type": "Feature", "geometry": {"type": "LineString", "coordinates": [[123.8833769, 9.6266545], [123.8846582, 9.6265104], [123.8848755, 9.626489], [123.8851392, 9.6264663], [123.8853948, 9.6264642], [123.8872542, 9.6265642], [123.8876185, 9.6265836]]}, "properties": {"city": "tagbilaran", "name": "Venancio P. Inting Avenue", "highway": "primary", "v_posted": 60, "posted_imputed": false, "v_safe": 30, "gap": 30, "R": 16.0, "exposure": 0.556, "vru_150m": 2, "sss": 58.4, "recommended": 30, "fatal_reduction_pct": 93.8, "why": "pedestrian activity (1 VRU site<=50m)", "pop_density": 8418.4, "pop_density_peak": 11374.7, "v_design": 60, "design_gap": 30}}, {"type": "Feature", "geometry": {"type": "LineString", "coordinates": [[123.9063811, 9.6283643], [123.9060061, 9.6285558], [123.9059545, 9.6285721], [123.9057087, 9.6286494], [123.905407, 9.6286981], [123.905353, 9.6287068], [123.9052307, 9.6287134], [123.9045086, 9.6287132], [123.9040741, 9.6286868], [123.9037684, 9.6286418], [123.9027637, 9.6283353], [123.9027224, 9.6283246]]}, "properties": {"city": "tagbilaran", "name": "", "highway": "secondary", "v_posted": 40, "posted_imputed": false, "v_safe": 30, "gap": 10, "R": 3.16, "exposure": 0.6, "vru_150m": 3, "sss": 20.0, "recommended": 30, "fatal_reduction_pct": 68.4, "why": "pedestrian activity (1 VRU site<=50m)", "pop_density": 0.0, "pop_density_peak": 0.0, "v_design": 50, "design_gap": 20}}, {"type": "Feature", "geometry": {"type": "LineString", "coordinates": [[123.9137509, 9.6225054], [123.9138113, 9.6224971]]}, "properties": {"city": "tagbilaran", "name": "Tagbilaran East Road", "highway": "primary", "v_posted": 50, "posted_imputed": false, "v_safe": 30, "gap": 20, "R": 7.72, "exposure": 1.0, "vru_150m": 5, "sss": 50.0, "recommended": 30, "fatal_reduction_pct": 87.0, "why": "pedestrian activity (2 VRU site<=50m)", "pop_density": 13160.2, "pop_density_peak": 13160.2, "v_design": 60, "design_gap": 30}}, {"type": "Feature", "geometry": {"type": "LineString", "coordinates": [[123.9193473, 9.6209028], [123.9199226, 9.6207979], [123.9204781, 9.6207099], [123.9208553, 9.6206604], [123.921046, 9.6206171], [123.921258, 9.620476], [123.9219541, 9.619901], [123.9221584, 9.6197523], [123.9223601, 9.6196375], [123.9225847, 9.619541], [123.9248192, 9.6186561], [123.9253185, 9.6184729], [123.9255528, 9.6184044], [123.9259361, 9.6183081], [123.9262432, 9.6182324], [123.9266001, 9.6181578], [123.9271468, 9.6180512], [123.9275313, 9.6179944], [123.9290737, 9.6177982], [123.9294261, 9.6177345], [123.9297474, 9.6176135], [123.9299481, 9.6175179], [123.9304394, 9.6173161], [123.9308303, 9.6171372], [123.93249, 9.6164217], [123.9331757, 9.61615], [123.9356266, 9.6153126], [123.9358502, 9.6152283], [123.9382345, 9.6143403], [123.9391401, 9.61399], [123.9398568, 9.6136813], [123.9410427, 9.6132088], [123.9415821, 9.6129951], [123.9424794, 9.6126797], [123.9438888, 9.6122209], [123.9442932, 9.6121021], [123.9449429, 9.6119247], [123.9453426, 9.611848], [123.9464932, 9.6117634], [123.9475313, 9.6117277], [123.9481407, 9.6117555], [123.9486433, 9.6117398], [123.9490194, 9.6117368], [123.9493856, 9.6117165], [123.9496207, 9.6116946], [123.9511919, 9.6114951]]}, "properties": {"city": "tagbilaran", "name": "Tagbilaran East Road", "highway": "primary", "v_posted": 60, "posted_imputed": false, "v_safe": 50, "gap": 10, "R": 2.07, "exposure": 0.023, "vru_150m": 0, "sss": 12.8, "recommended": 50, "fatal_reduction_pct": 51.8, "why": "undivided arterial, side-impact intersections", "pop_density": 744.8, "pop_density_peak": 8938.1, "v_design": 60, "design_gap": 10}}, {"type": "Feature", "geometry": {"type": "LineString", "coordinates": [[123.9029043, 9.6244748], [123.9030979, 9.6244275]]}, "properties": {"city": "tagbilaran", "name": "Tagbilaran East Road", "highway": "primary", "v_posted": 60, "posted_imputed": false, "v_safe": 50, "gap": 10, "R": 2.07, "exposure": 0.278, "vru_150m": 1, "sss": 16.0, "recommended": 50, "fatal_reduction_pct": 51.8, "why": "undivided arterial, side-impact intersections", "pop_density": 3169.1, "pop_density_peak": 3169.1, "v_design": 60, "design_gap": 10}}, {"type": "Feature", "geometry": {"type": "LineString", "coordinates": [[123.9030979, 9.6244275], [123.9035377, 9.6243194], [123.9040963, 9.6241587], [123.9043657, 9.6240878]]}, "properties": {"city": "tagbilaran", "name": "Tagbilaran East Road", "highway": "primary", "v_posted": 60, "posted_imputed": false, "v_safe": 30, "gap": 30, "R": 16.0, "exposure": 0.429, "vru_150m": 2, "sss": 53.6, "recommended": 30, "fatal_reduction_pct": 93.8, "why": "pedestrian activity (1 VRU site<=50m)", "pop_density": 1584.6, "pop_density_peak": 3169.1, "v_design": 60, "design_gap": 30}}, {"type": "Feature", "geometry": {"type": "LineString", "coordinates": [[123.9138113, 9.6224971], [123.913842, 9.6224931], [123.9146995, 9.6223415], [123.9153836, 9.6222432], [123.9156446, 9.6221988], [123.9159758, 9.622079], [123.9164909, 9.6218595], [123.9175468, 9.621486], [123.9177476, 9.6214183]]}, "properties": {"city": "tagbilaran", "name": "Tagbilaran East Road", "highway": "primary", "v_posted": 50, "posted_imputed": false, "v_safe": 30, "gap": 20, "R": 7.72, "exposure": 0.539, "vru_150m": 2, "sss": 38.5, "recommended": 30, "fatal_reduction_pct": 87.0, "why": "pedestrian activity (1 VRU site<=50m)", "pop_density": 7485.8, "pop_density_peak": 13160.2, "v_design": 60, "design_gap": 30}}, {"type": "Feature", "geometry": {"type": "LineString", "coordinates": [[123.9130516, 9.6223991], [123.9133152, 9.6224746], [123.9133667, 9.6224893]]}, "properties": {"city": "tagbilaran", "name": "Tagbilaran East Road", "highway": "primary", "v_posted": 50, "posted_imputed": false, "v_safe": 30, "gap": 20, "R": 7.72, "exposure": 1.0, "vru_150m": 5, "sss": 50.0, "recommended": 30, "fatal_reduction_pct": 87.0, "why": "pedestrian activity (3 VRU site<=50m)", "pop_density": 13440.6, "pop_density_peak": 13721.1, "v_design": 60, "design_gap": 30}}, {"type": "Feature", "geometry": {"type": "LineString", "coordinates": [[123.9133667, 9.6224893], [123.9134674, 9.6225039], [123.9136175, 9.6225153], [123.9137509, 9.6225054]]}, "properties": {"city": "tagbilaran", "name": "Tagbilaran East Road", "highway": "primary", "v_posted": 50, "posted_imputed": false, "v_safe": 30, "gap": 20, "R": 7.72, "exposure": 0.881, "vru_150m": 4, "sss": 47.0, "recommended": 30, "fatal_reduction_pct": 87.0, "why": "pedestrian activity (3 VRU site<=50m)", "pop_density": 13160.2, "pop_density_peak": 13160.2, "v_design": 60, "design_gap": 30}}, {"type": "Feature", "geometry": {"type": "LineString", "coordinates": [[123.9192147, 9.6209384], [123.9193473, 9.6209028]]}, "properties": {"city": "tagbilaran", "name": "Tagbilaran East Road", "highway": "primary", "v_posted": 60, "posted_imputed": false, "v_safe": 50, "gap": 10, "R": 2.07, "exposure": 0.0, "vru_150m": 0, "sss": 12.5, "recommended": 50, "fatal_reduction_pct": 51.8, "why": "undivided arterial, side-impact intersections", "pop_density": 0.0, "pop_density_peak": 0.0, "v_design": 60, "design_gap": 10}}, {"type": "Feature", "geometry": {"type": "LineString", "coordinates": [[123.9177476, 9.6214183], [123.9183844, 9.6212035], [123.9188536, 9.6210508], [123.9192147, 9.6209384]]}, "properties": {"city": "tagbilaran", "name": "Tagbilaran East Road", "highway": "primary", "v_posted": 60, "posted_imputed": false, "v_safe": 50, "gap": 10, "R": 2.07, "exposure": 0.082, "vru_150m": 0, "sss": 13.5, "recommended": 50, "fatal_reduction_pct": 51.8, "why": "undivided arterial, side-impact intersections", "pop_density": 2668.0, "pop_density_peak": 5335.9, "v_design": 60, "design_gap": 10}}]}