{"type": "FeatureCollection", "features": [{"type": "Feature", "geometry": {"type": "LineString", "coordinates": [[123.6967333, 13.0903187], [123.6967723, 13.0904677], [123.6967697, 13.0905762], [123.6965027, 13.0916863], [123.6964774, 13.0918217], [123.6964685, 13.091901], [123.6964846, 13.0920159], [123.6965543, 13.0921949], [123.6967662, 13.0927161], [123.6968252, 13.0928807], [123.6968502, 13.0929825], [123.696856, 13.093071], [123.6968445, 13.0931882], [123.6968211, 13.0933293], [123.6967844, 13.0934831], [123.6967233, 13.0937167], [123.6966168, 13.0939654], [123.6964309, 13.0942784], [123.6963558, 13.0944325], [123.69632, 13.0945442], [123.6963031, 13.0946451], [123.6962686, 13.0950846], [123.6962683, 13.0951839], [123.6962855, 13.0952835], [123.6963196, 13.0953756], [123.6963692, 13.0954879], [123.6966561, 13.0960628], [123.6966918, 13.0961445], [123.6967166, 13.0962103], [123.696734, 13.0963046], [123.6967335, 13.0964019], [123.6967248, 13.0964773], [123.6965663, 13.0971272], [123.6965556, 13.0972109], [123.6965494, 13.0972898], [123.6965587, 13.0973664], [123.6965793, 13.0974235], [123.69661, 13.0974739], [123.6969392, 13.0978339], [123.6970197, 13.0979593], [123.6970492, 13.0980377], [123.6970727, 13.0981255], [123.6971231, 13.0984783], [123.6971484, 13.0986072], [123.6971873, 13.0986908], [123.6972289, 13.0987482], [123.6974703, 13.0989206], [123.6976728, 13.0990578], [123.6977707, 13.099127], [123.6978404, 13.0991806], [123.6979075, 13.0992668], [123.6979397, 13.0993556], [123.6979534, 13.0994642], [123.6979529, 13.1001342], [123.6979523, 13.1009774], [123.69794, 13.1017065], [123.6979205, 13.102412], [123.6979208, 13.1025885], [123.6979308, 13.1026895], [123.6979411, 13.1027702], [123.697965, 13.1028721], [123.6980447, 13.1031145], [123.6981633, 13.1034776], [123.6983571, 13.1040257], [123.6983699, 13.1040847], [123.6983759, 13.1041459], [123.6983744, 13.1042091], [123.6983661, 13.1042657], [123.698349, 13.1043268], [123.6983286, 13.1043761], [123.6982116, 13.1046499], [123.6982007, 13.1046983], [123.6981926, 13.1047452], [123.6981936, 13.1047933], [123.6982013, 13.1048418], [123.6982149, 13.1048925], [123.6982377, 13.1049454], [123.6982672, 13.1050016], [123.6983056, 13.1050654], [123.6984328, 13.105263], [123.6985514, 13.1054183], [123.6986421, 13.1055081], [123.6987432, 13.1055983], [123.6988099, 13.1056579], [123.6992845, 13.1060963], [123.699452, 13.106255], [123.699519, 13.1063477], [123.6995609, 13.1064549], [123.6995796, 13.1065713], [123.6995847, 13.1066487], [123.6995833, 13.1068628], [123.6995754, 13.1069501], [123.6995574, 13.1070178], [123.6995302, 13.1070742], [123.6994886, 13.1071292], [123.6994269, 13.1071732], [123.6993635, 13.1072027], [123.6991692, 13.1072773], [123.6990698, 13.1073256], [123.6990043, 13.1073674], [123.6989403, 13.1074264], [123.6988894, 13.1074854], [123.6988041, 13.1076221], [123.6984691, 13.1082316], [123.6984249, 13.1083285], [123.6984046, 13.1083864], [123.6983889, 13.1084532], [123.6983817, 13.1085209], [123.6983795, 13.1086407], [123.6984992, 13.1107562]]}, "properties": {"city": "legazpi", "name": "Maharlika Highway", "highway": "trunk", "v_posted": 60, "posted_imputed": false, "v_safe": 50, "gap": 10, "R": 2.07, "exposure": 0.128, "vru_150m": 0, "sss": 14.1, "recommended": 50, "fatal_reduction_pct": 51.8, "why": "undivided arterial, side-impact intersections", "pop_density": 4144.3, "pop_density_peak": 12212.8, "v_design": 70, "design_gap": 20}}, {"type": "Feature", "geometry": {"type": "LineString", "coordinates": [[123.7007832, 13.1181907], [123.7006259, 13.118402], [123.7003336, 13.1187782], [123.7002367, 13.1189223], [123.7000506, 13.1192262], [123.6999071, 13.1194822], [123.6998025, 13.1198635], [123.6997408, 13.1201939], [123.6997079, 13.1202622], [123.6996425, 13.1203376], [123.6993907, 13.1206563], [123.6990219, 13.1211944], [123.6987551, 13.1215732], [123.6985338, 13.121905], [123.6983849, 13.1220761], [123.6981207, 13.1224587], [123.6980905, 13.1225106], [123.6978404, 13.1229093], [123.6976272, 13.123245], [123.6974891, 13.1234383], [123.6970948, 13.1238314], [123.6969097, 13.1240574], [123.696892, 13.1241389], [123.6968802, 13.1241932], [123.6968561, 13.1244518], [123.6968386, 13.1246098], [123.6967742, 13.1248776], [123.6966656, 13.1250069], [123.6964604, 13.1251284], [123.6962298, 13.125254], [123.6958355, 13.1254418], [123.6953607, 13.1256913], [123.694961, 13.1259407], [123.6948853, 13.1259852], [123.6948403, 13.126027], [123.6948135, 13.126074], [123.6947988, 13.1261366], [123.6948015, 13.1262477], [123.6949932, 13.1270574], [123.6950134, 13.1272102], [123.6950214, 13.1273578], [123.6949745, 13.1283727], [123.694953, 13.1285098]]}, "properties": {"city": "legazpi", "name": "Legazpi-Daraga Bypass Road", "highway": "trunk", "v_posted": 60, "posted_imputed": false, "v_safe": 50, "gap": 10, "R": 2.07, "exposure": 0.07, "vru_150m": 0, "sss": 13.4, "recommended": 50, "fatal_reduction_pct": 51.8, "why": "undivided arterial, side-impact intersections", "pop_density": 2251.6, "pop_density_peak": 10896.1, "v_design": 70, "design_gap": 20}}, {"type": "Feature", "geometry": {"type": "LineString", "coordinates": [[123.6964973, 13.0898339], [123.6965192, 13.0899055], [123.6966461, 13.090144], [123.6967333, 13.0903187]]}, "properties": {"city": "legazpi", "name": "Maharlika Highway", "highway": "trunk", "v_posted": 60, "posted_imputed": false, "v_safe": 50, "gap": 10, "R": 2.07, "exposure": 0.2, "vru_150m": 1, "sss": 15.0, "recommended": 50, "fatal_reduction_pct": 51.8, "why": "undivided arterial, side-impact intersections", "pop_density": 0.0, "pop_density_peak": 0.0, "v_design": 70, "design_gap": 20}}, {"type": "Feature", "geometry": {"type": "LineString", "coordinates": [[123.7128883, 13.050668], [123.7128737, 13.0507505], [123.7128329, 13.0509818], [123.7127263, 13.0512348], [123.7123072, 13.0518748], [123.7115827, 13.0529812], [123.7110801, 13.0537297], [123.7103111, 13.0549362], [123.7102443, 13.0551248], [123.7102351, 13.0553137], [123.7103077, 13.0560307], [123.7102162, 13.0563772], [123.7100154, 13.0566418], [123.7089545, 13.0573469], [123.7087962, 13.0575526], [123.7087012, 13.0577584], [123.707877, 13.0599333], [123.7077832, 13.0604332], [123.7078515, 13.0614465], [123.707913, 13.0623593], [123.7079817, 13.0633789], [123.7080202, 13.0639495], [123.7080293, 13.0640848], [123.7079588, 13.0644605], [123.7077981, 13.0648315], [123.7073936, 13.0654797], [123.7070231, 13.0660778], [123.7064525, 13.066999], [123.7063556, 13.0671555], [123.705598, 13.0683787], [123.7051522, 13.0690984], [123.7049093, 13.0694905], [123.704831, 13.069623], [123.7045916, 13.0700066], [123.7043286, 13.0704279], [123.7042037, 13.0706295], [123.7041722, 13.0706804], [123.7039558, 13.0710298], [123.7039348, 13.0710605], [123.7038708, 13.071154], [123.7037187, 13.0713764], [123.7034006, 13.0718414], [123.7033465, 13.0719204], [123.7032271, 13.072095], [123.7031952, 13.0721417], [123.7028701, 13.0725829], [123.7025936, 13.0730488], [123.7024888, 13.0732261], [123.702454, 13.0732965], [123.7021977, 13.0739969], [123.7019525, 13.074705], [123.7019391, 13.0747521], [123.7018293, 13.0751152], [123.7017632, 13.0752432], [123.7016555, 13.0754218], [123.7016105, 13.0755011], [123.7010748, 13.0762307], [123.7010335, 13.0762869], [123.7008974, 13.0765433], [123.700781, 13.0767708], [123.7006838, 13.0769539], [123.7004967, 13.0772983], [123.7000387, 13.07812], [123.6999829, 13.0782201], [123.6995735, 13.0789492], [123.6989163, 13.0798698], [123.6988403, 13.0800028], [123.6988083, 13.080055], [123.6987571, 13.0801923], [123.6987187, 13.0803625], [123.6987127, 13.0805077], [123.6987286, 13.0806239], [123.6989277, 13.0814398], [123.6989423, 13.0815917], [123.6989259, 13.0817216], [123.6988768, 13.0818783], [123.6986545, 13.0822506], [123.6986264, 13.0822943], [123.6978792, 13.0834584], [123.6974231, 13.0842016], [123.6969174, 13.0850256], [123.6968618, 13.0851415], [123.6968333, 13.0852263], [123.6968096, 13.0853365], [123.6968001, 13.0854575], [123.6967265, 13.0862303], [123.6966471, 13.0872942], [123.6966429, 13.0873626], [123.6966278, 13.0875417], [123.6966025, 13.0878669], [123.6965203, 13.0889716], [123.6964954, 13.0893322], [123.6964919, 13.0893722], [123.6964831, 13.0896856], [123.6964876, 13.0897681], [123.6964973, 13.0898339]]}, "properties": {"city": "legazpi", "name": "Maharlika Highway", "highway": "trunk", "v_posted": 60, "posted_imputed": false, "v_safe": 50, "gap": 10, "R": 2.07, "exposure": 0.0, "vru_150m": 0, "sss": 12.5, "recommended": 50, "fatal_reduction_pct": 51.8, "why": "undivided arterial, side-impact intersections", "pop_density": 0.0, "pop_density_peak": 0.0, "v_design": 70, "design_gap": 20}}, {"type": "Feature", "geometry": {"type": "LineString", "coordinates": [[123.7007832, 13.1181907], [123.7010599, 13.1186046], [123.7011271, 13.1187042], [123.7014394, 13.119174], [123.7015147, 13.1192718], [123.7016782, 13.1195269], [123.7022832, 13.1204212], [123.7023685, 13.1205473], [123.702467, 13.1206929], [123.7026988, 13.1210356], [123.7028731, 13.1212857], [123.703016, 13.1214957], [123.7034538, 13.1221565], [123.703969, 13.1229342], [123.7040041, 13.1229868], [123.704186, 13.1232435], [123.7049292, 13.1243309], [123.7050669, 13.1245253], [123.705099, 13.1245731], [123.7054593, 13.125109], [123.7055432, 13.1252417], [123.7060557, 13.1259911], [123.7062809, 13.1263154], [123.7063629, 13.1264537], [123.7064496, 13.1266221], [123.7064971, 13.1267667], [123.7065404, 13.1269969], [123.7065438, 13.12765], [123.7065097, 13.1285647], [123.7065145, 13.1291772]]}, "properties": {"city": "legazpi", "name": "Maharlika Highway", "highway": "primary", "v_posted": 60, "posted_imputed": false, "v_safe": 50, "gap": 10, "R": 2.07, "exposure": 0.105, "vru_150m": 0, "sss": 13.8, "recommended": 50, "fatal_reduction_pct": 51.8, "why": "undivided arterial, side-impact intersections", "pop_density": 3385.2, "pop_density_peak": 10896.1, "v_design": 60, "design_gap": 10}}, {"type": "Feature", "geometry": {"type": "LineString", "coordinates": [[123.6984992, 13.1107562], [123.6985965, 13.1125621]]}, "properties": {"city": "legazpi", "name": "Maharlika Highway", "highway": "trunk", "v_posted": 60, "posted_imputed": false, "v_safe": 50, "gap": 10, "R": 2.07, "exposure": 0.361, "vru_150m": 0, "sss": 17.0, "recommended": 50, "fatal_reduction_pct": 51.8, "why": "undivided arterial, side-impact intersections", "pop_density": 11668.7, "pop_density_peak": 12144.2, "v_design": 70, "design_gap": 20}}, {"type": "Feature", "geometry": {"type": "LineString", "coordinates": [[123.6986332, 13.1131776], [123.6986565, 13.1136426], [123.6986741, 13.1139988], [123.6987004, 13.1145098], [123.698722, 13.1148201], [123.6987359, 13.1149243], [123.6987544, 13.1150113], [123.6988086, 13.115196], [123.6988436, 13.1152864], [123.6988893, 13.1153849], [123.6989384, 13.1154777], [123.6994784, 13.1162877], [123.6996975, 13.1165892], [123.7006139, 13.1179402], [123.7007059, 13.1180759], [123.7007419, 13.1181294], [123.7007832, 13.1181907]]}, "properties": {"city": "legazpi", "name": "Maharlika Highway", "highway": "trunk", "v_posted": 60, "posted_imputed": false, "v_safe": 50, "gap": 10, "R": 2.07, "exposure": 0.345, "vru_150m": 0, "sss": 16.8, "recommended": 50, "fatal_reduction_pct": 51.8, "why": "undivided arterial, side-impact intersections", "pop_density": 11146.1, "pop_density_peak": 13352.3, "v_design": 70, "design_gap": 20}}, {"type": "Feature", "geometry": {"type": "LineString", "coordinates": [[123.6985965, 13.1125621], [123.6986058, 13.1127354], [123.698613, 13.1128557], [123.6986253, 13.1130743], [123.6986332, 13.1131776]]}, "properties": {"city": "legazpi", "name": "Maharlika Highway", "highway": "trunk", "v_posted": 60, "posted_imputed": false, "v_safe": 50, "gap": 10, "R": 2.07, "exposure": 0.375, "vru_150m": 0, "sss": 17.2, "recommended": 50, "fatal_reduction_pct": 51.8, "why": "undivided arterial, side-impact intersections", "pop_density": 12129.7, "pop_density_peak": 12144.2, "v_design": 70, "design_gap": 20}}, {"type": "Feature", "geometry": {"type": "LineString", "coordinates": [[123.7403696, 13.0902982], [123.7401228, 13.0905685], [123.7400584, 13.090694], [123.7400241, 13.090812], [123.7399916, 13.0909997], [123.7399874, 13.0910382], [123.7399583, 13.0913028], [123.739926, 13.0916207], [123.739843, 13.0922412], [123.7398374, 13.0922832], [123.7398133, 13.0924652], [123.739729, 13.0933132], [123.7396221, 13.0941788], [123.7395354, 13.0950268], [123.739461, 13.0958117], [123.7394447, 13.0964155], [123.7394304, 13.0970728], [123.7394442, 13.0974444], [123.7395769, 13.0978365], [123.7396703, 13.0981462], [123.7396714, 13.0984686], [123.7396267, 13.0988783], [123.7395558, 13.0994642], [123.7395273, 13.0996992], [123.739477, 13.1003915], [123.7395159, 13.1005332], [123.7396175, 13.1006709], [123.7397725, 13.1007308], [123.7399465, 13.1007381], [123.7404833, 13.1006542], [123.74091, 13.1005136], [123.741025, 13.1005084], [123.74114, 13.1005332], [123.7412788, 13.1006324], [123.7415289, 13.1012019], [123.7425492, 13.1028937], [123.7431175, 13.1038359], [123.7434862, 13.104215], [123.7439583, 13.1046099], [123.744375, 13.1049611], [123.7452859, 13.1057175], [123.7468632, 13.1069805], [123.7470583, 13.1072351], [123.7471222, 13.1073669], [123.7471247, 13.1075202], [123.7470993, 13.107669], [123.7464944, 13.1100239], [123.7464216, 13.1103072], [123.7458894, 13.1123044], [123.7458, 13.1125911], [123.7457607, 13.1127024], [123.7457049, 13.1128315], [123.7456202, 13.1129738], [123.7453882, 13.1132458], [123.745105, 13.1135785], [123.7440132, 13.1148494]]}, "properties": {"city": "legazpi", "name": "Legazpi City - Manito Road", "highway": "primary", "v_posted": 60, "posted_imputed": false, "v_safe": 50, "gap": 10, "R": 2.07, "exposure": 0.274, "vru_150m": 0, "sss": 15.9, "recommended": 50, "fatal_reduction_pct": 51.8, "why": "undivided arterial, side-impact intersections", "pop_density": 8866.1, "pop_density_peak": 58802.8, "v_design": 55, "design_gap": 5}}, {"type": "Feature", "geometry": {"type": "LineString", "coordinates": [[123.7421908, 13.0813424], [123.7424442, 13.0824658], [123.7428693, 13.0847923], [123.7429807, 13.0854128], [123.7430142, 13.0856244], [123.7429954, 13.0858112], [123.7429297, 13.0859862], [123.7426655, 13.0864447], [123.7421042, 13.0873859], [123.7420224, 13.0875551], [123.7419856, 13.0877046], [123.7419661, 13.0878627], [123.7419532, 13.0880013], [123.7419939, 13.0882926], [123.7420064, 13.0884762], [123.7419763, 13.0886208], [123.7418976, 13.088767], [123.7418289, 13.0888466], [123.7417689, 13.0889162], [123.7410845, 13.0896296], [123.7404712, 13.09019], [123.7403696, 13.0902982]]}, "properties": {"city": "legazpi", "name": "Legazpi City - Manito Road", "highway": "primary", "v_posted": 60, "posted_imputed": false, "v_safe": 50, "gap": 10, "R": 2.07, "exposure": 0.16, "vru_150m": 0, "sss": 14.5, "recommended": 50, "fatal_reduction_pct": 51.8, "why": "undivided arterial, side-impact intersections", "pop_density": 5170.5, "pop_density_peak": 31022.8, "v_design": 60, "design_gap": 10}}, {"type": "Feature", "geometry": {"type": "LineString", "coordinates": [[123.7440132, 13.1148494], [123.7438174, 13.1151201], [123.7437625, 13.1151942], [123.743728, 13.1152578], [123.7437142, 13.1153222], [123.743712, 13.1154015], [123.7437464, 13.116036], [123.743751, 13.1163626], [123.7437847, 13.1168863], [123.743788, 13.1170665], [123.7438054, 13.1172494], [123.7438041, 13.1173127], [123.7438262, 13.1177934], [123.7438376, 13.1182198], [123.7438618, 13.118818], [123.7438477, 13.1189244], [123.7437779, 13.1190433], [123.7436244, 13.1191606], [123.7431048, 13.1196328], [123.7428567, 13.1198502], [123.7426075, 13.1200737], [123.7423151, 13.1203361], [123.7416348, 13.1209097], [123.7407516, 13.1216863], [123.7406592, 13.1217789], [123.7406078, 13.121899], [123.7406065, 13.1219156], [123.7405992, 13.1220099], [123.7406437, 13.1221566], [123.7408244, 13.1226898], [123.7408428, 13.1227869], [123.7408349, 13.1228943], [123.7407876, 13.1230093], [123.7407194, 13.1231039], [123.7404279, 13.123436], [123.7400959, 13.1238226], [123.7399673, 13.1239439], [123.7397902, 13.1240011], [123.7391479, 13.1241284], [123.7389574, 13.1241845], [123.7387732, 13.1243008], [123.7385616, 13.1244861], [123.7385003, 13.1245648], [123.7384735, 13.1246375], [123.7384789, 13.12472], [123.738525, 13.1248131], [123.7386155, 13.1249011], [123.7390035, 13.125183]]}, "properties": {"city": "legazpi", "name": "Legazpi City - Punta De Jesus Road", "highway": "primary", "v_posted": 60, "posted_imputed": false, "v_safe": 50, "gap": 10, "R": 2.07, "exposure": 0.511, "vru_150m": 0, "sss": 18.9, "recommended": 50, "fatal_reduction_pct": 51.8, "why": "undivided arterial, side-impact intersections", "pop_density": 16528.1, "pop_density_peak": 28337.1, "v_design": 55, "design_gap": 5}}, {"type": "Feature", "geometry": {"type": "LineString", "coordinates": [[123.7126476, 13.1392472], [123.7127032, 13.1393445], [123.7127152, 13.1394418], [123.7127059, 13.1395404], [123.7126804, 13.1396351], [123.7126338, 13.1397433], [123.7125469, 13.1399101], [123.7123659, 13.140213], [123.7123042, 13.1403776], [123.7122707, 13.1405617], [123.712264, 13.1407642], [123.7122734, 13.1408608], [123.7123203, 13.1409528], [123.7123874, 13.1410182], [123.7124591, 13.1410724], [123.7126059, 13.1411618], [123.7126878, 13.1412643], [123.7127194, 13.1413381], [123.7127475, 13.1414616], [123.7127508, 13.1416378], [123.7127468, 13.1418664], [123.712716, 13.1420231], [123.7126679, 13.1421565], [123.712591, 13.1423095], [123.7124843, 13.1424736], [123.7121748, 13.1428633], [123.7120475, 13.142972], [123.711933, 13.1430426], [123.7117465, 13.1431443]]}, "properties": {"city": "legazpi", "name": "Maharlika Highway", "highway": "primary", "v_posted": 60, "posted_imputed": false, "v_safe": 50, "gap": 10, "R": 2.07, "exposure": 0.158, "vru_150m": 0, "sss": 14.5, "recommended": 50, "fatal_reduction_pct": 51.8, "why": "undivided arterial, side-impact intersections", "pop_density": 5110.2, "pop_density_peak": 6744.3, "v_design": 55, "design_gap": 5}}, {"type": "Feature", "geometry": {"type": "LineString", "coordinates": [[123.6657392, 13.1273182], [123.6660254, 13.127269], [123.6663017, 13.1272612], [123.666883, 13.127288], [123.6677206, 13.1273317], [123.6682966, 13.1273579], [123.6689983, 13.1273899], [123.669422, 13.127411], [123.6707783, 13.1274571], [123.6716744, 13.1275175], [123.6718686, 13.1275499], [123.6720507, 13.1276152], [123.6721543, 13.1276752], [123.6722398, 13.1277375], [123.6723769, 13.127909], [123.6728302, 13.1287866], [123.6729883, 13.1290826], [123.6730018, 13.1291079], [123.6732727, 13.1296695], [123.6733067, 13.1297449], [123.6734819, 13.1301345], [123.6736854, 13.1306156], [123.6739592, 13.1312854], [123.6741178, 13.1316734], [123.6743532, 13.1322492], [123.6745425, 13.1327027], [123.6746648, 13.1330104], [123.6748676, 13.1333773], [123.6752173, 13.1339886], [123.6761263, 13.1355484], [123.6762218, 13.1357023], [123.6762419, 13.1357347], [123.6763586, 13.135876], [123.6765061, 13.136022], [123.6766335, 13.13612], [123.6767449, 13.1361968], [123.6773705, 13.1364765], [123.6779733, 13.1366999], [123.6781613, 13.1367683], [123.6785766, 13.1369195], [123.6814515, 13.1380299], [123.6816761, 13.1380882], [123.681889, 13.138106], [123.6820489, 13.1380829], [123.6822173, 13.1380378], [123.6827624, 13.1378439], [123.6833082, 13.1376245], [123.6835536, 13.137524], [123.6837468, 13.1374221], [123.6838487, 13.1373463], [123.6839506, 13.1372379], [123.6840686, 13.1370904], [123.6848733, 13.1359967], [123.6851335, 13.1355441], [123.6855264, 13.1349172]]}, "properties": {"city": "legazpi", "name": "Comun-Inarado-Pe\u00f1afrancia Road", "highway": "secondary", "v_posted": 60, "posted_imputed": false, "v_safe": 50, "gap": 10, "R": 2.07, "exposure": 0.0, "vru_150m": 0, "sss": 12.5, "recommended": 50, "fatal_reduction_pct": 51.8, "why": "undivided arterial, side-impact intersections", "pop_density": 0.0, "pop_density_peak": 0.0, "v_design": 45, "design_gap": -5}}, {"type": "Feature", "geometry": {"type": "LineString", "coordinates": [[123.6855264, 13.1349172], [123.6857537, 13.134829], [123.6858717, 13.1348192], [123.6859636, 13.1348342], [123.6860246, 13.1348675], [123.6860669, 13.1349113], [123.6861118, 13.1349825], [123.6861815, 13.1351477], [123.6862392, 13.1352123], [123.6863123, 13.1352724], [123.6863847, 13.1352959], [123.6864679, 13.1352992], [123.6865477, 13.1352737], [123.6866026, 13.1352241], [123.6866456, 13.1351385], [123.6866536, 13.1350445], [123.6866449, 13.1349583], [123.6865979, 13.1347879], [123.686501, 13.1345991], [123.6864839, 13.1345381], [123.6864856, 13.1344855], [123.6865135, 13.1344241], [123.6865617, 13.1343876], [123.686661, 13.1343549], [123.6867515, 13.1343575], [123.686842, 13.1343797], [123.6869017, 13.1344072], [123.6869788, 13.1344516], [123.6870338, 13.1345077], [123.6871062, 13.1346213], [123.687211, 13.1349214], [123.6873141, 13.1350817], [123.687448, 13.1352059], [123.6877057, 13.1353821], [123.6877929, 13.1354748], [123.68788, 13.1356015], [123.6879082, 13.1356995], [123.687927, 13.1359006], [123.6879095, 13.1362532], [123.6879283, 13.1363995], [123.6880041, 13.1365549], [123.68811, 13.1366698], [123.6882334, 13.1367384], [123.6883581, 13.1367815], [123.6884534, 13.1368057], [123.688568, 13.1368083], [123.6886703, 13.1367952], [123.6887491, 13.1367645], [123.6888869, 13.1367106], [123.6891004, 13.1366385], [123.6892949, 13.1366215], [123.6894505, 13.1366254], [123.6898139, 13.1366777], [123.6899199, 13.1366868], [123.6900379, 13.136677], [123.6901371, 13.1366535], [123.6901944, 13.1366231], [123.6902411, 13.1365869], [123.6902947, 13.1365203], [123.6904965, 13.1361984], [123.690575, 13.1361063], [123.6906367, 13.1360638], [123.690697, 13.1360358], [123.6907855, 13.1360194], [123.6909411, 13.1360031], [123.6910544, 13.1359842], [123.6911262, 13.1359639], [123.6912543, 13.1359117], [123.6913669, 13.1358594], [123.6914095, 13.135851], [123.6914635, 13.1358506], [123.691502, 13.1358594], [123.6915402, 13.1358849], [123.6915714, 13.1359385], [123.6915815, 13.1359894], [123.6915808, 13.1361324], [123.6915808, 13.1362904], [123.6915926, 13.1363404], [123.691612, 13.1363884], [123.6916532, 13.1364161], [123.6917005, 13.1364321], [123.6917464, 13.1364315], [123.6917937, 13.1364122], [123.6918316, 13.1363753], [123.6918671, 13.1363175], [123.6918946, 13.1362513], [123.6919288, 13.1361128], [123.6919644, 13.1359855], [123.6920019, 13.135898], [123.6920656, 13.1357974], [123.6921347, 13.1356844], [123.692252, 13.1355264], [123.6924908, 13.1351705], [123.6925317, 13.1351176], [123.6925766, 13.1350739], [123.6926403, 13.1350262], [123.6927087, 13.1349988], [123.6928113, 13.1349766], [123.69298, 13.1349417], [123.6931291, 13.1348806], [123.6932277, 13.134808], [123.693308, 13.1347299], [123.693414, 13.1345862], [123.6934581, 13.1344187], [123.6934728, 13.1342685], [123.6934393, 13.1338545], [123.6934188, 13.1336412], [123.6934168, 13.13357], [123.6934302, 13.1334949], [123.6934758, 13.1334257], [123.693556, 13.1333621], [123.6937387, 13.1332696], [123.6938191, 13.1332219], [123.6938731, 13.1331779], [123.6938989, 13.1331397], [123.693918, 13.1330861], [123.6939358, 13.1330051], [123.6939687, 13.1327962], [123.6939961, 13.1326937], [123.6940283, 13.1326264], [123.6940887, 13.1325448], [123.6941752, 13.1324762], [123.6943261, 13.1323613], [123.6950724, 13.1316018], [123.6953218, 13.131351], [123.6955424, 13.1311388], [123.6957131, 13.1310187], [123.6958107, 13.1309605], [123.6959019, 13.1309246], [123.6959924, 13.1309005], [123.6960903, 13.1308906], [123.696209, 13.1308972], [123.6963203, 13.1309201], [123.6964745, 13.1309579], [123.6967789, 13.1310494], [123.6971029, 13.1311621], [123.6973651, 13.131249], [123.6983022, 13.1315598], [123.6984222, 13.1316007], [123.6986277, 13.1316632], [123.698749, 13.1317213], [123.6988603, 13.1317801], [123.6989904, 13.1318735], [123.6991674, 13.1320197], [123.6992419, 13.1320615], [123.6993237, 13.1320922], [123.6993884, 13.132103], [123.6994655, 13.132102], [123.6995316, 13.1320844], [123.6996516, 13.1320419], [123.6997314, 13.1319992], [123.6997904, 13.1319538], [123.6998434, 13.1318833], [123.6998735, 13.1318095], [123.7000881, 13.1311793], [123.7001538, 13.1309847], [123.7002343, 13.1308469], [123.7003188, 13.1307326], [123.7009423, 13.1301055], [123.7010844, 13.1299644], [123.7011536, 13.1299053], [123.7012321, 13.1298576], [123.7013309, 13.1298099], [123.7014537, 13.1297511], [123.7015378, 13.1297067], [123.7016062, 13.1296633], [123.7016638, 13.1296197], [123.7020032, 13.1292855], [123.7020706, 13.1292189], [123.7021212, 13.1291824], [123.7022004, 13.1291432], [123.7023063, 13.1291158], [123.7024156, 13.1291001], [123.7033312, 13.1291201], [123.7041113, 13.1291212], [123.7042555, 13.1291287], [123.7048261, 13.129141], [123.7051476, 13.1291479], [123.7052408, 13.1291499], [123.7054968, 13.1291554], [123.7065145, 13.1291772]]}, "properties": {"city": "legazpi", "name": "Comun-Inarado-Pe\u00f1afrancia Road", "highway": "secondary", "v_posted": 60, "posted_imputed": false, "v_safe": 50, "gap": 10, "R": 2.07, "exposure": 0.032, "vru_150m": 0, "sss": 12.9, "recommended": 50, "fatal_reduction_pct": 51.8, "why": "undivided arterial, side-impact intersections", "pop_density": 1049.5, "pop_density_peak": 7445.1, "v_design": 35, "design_gap": -15}}, {"type": "Feature", "geometry": {"type": "LineString", "coordinates": [[123.6871112, 13.1553722], [123.6870756, 13.1555658], [123.6868039, 13.1561271], [123.6866505, 13.1565396], [123.686396, 13.1571568], [123.6863387, 13.1576659], [123.6863215, 13.1582823]]}, "properties": {"city": "legazpi", "name": "Legazpi-Daraga Bypass Road", "highway": "trunk", "v_posted": 60, "posted_imputed": false, "v_safe": 50, "gap": 10, "R": 2.07, "exposure": 0.0, "vru_150m": 0, "sss": 12.5, "recommended": 50, "fatal_reduction_pct": 51.8, "why": "undivided arterial, side-impact intersections", "pop_density": 0.0, "pop_density_peak": 0.0, "v_design": 70, "design_gap": 20}}, {"type": "Feature", "geometry": {"type": "LineString", "coordinates": [[123.68719, 13.1544268], [123.6872365, 13.1541054], [123.6872739, 13.1539843], [123.6873596, 13.1538732], [123.6876826, 13.1536036], [123.6878546, 13.1534397], [123.6879138, 13.1533882], [123.6879773, 13.1533305], [123.6880301, 13.1532803], [123.6880788, 13.1532269], [123.6881248, 13.1531716], [123.6881618, 13.153117], [123.6882232, 13.1530145], [123.6883036, 13.1528754], [123.6883605, 13.1527843], [123.6884222, 13.1526874], [123.6884709, 13.1526165], [123.6885481, 13.1524934], [123.6886065, 13.1523935], [123.6886519, 13.1522927], [123.6886802, 13.1522086]]}, "properties": {"city": "legazpi", "name": "Legazpi-Daraga Bypass Road", "highway": "trunk", "v_posted": 60, "posted_imputed": false, "v_safe": 50, "gap": 10, "R": 2.07, "exposure": 0.0, "vru_150m": 0, "sss": 12.5, "recommended": 50, "fatal_reduction_pct": 51.8, "why": "undivided arterial, side-impact intersections", "pop_density": 0.0, "pop_density_peak": 0.0, "v_design": 70, "design_gap": 20}}, {"type": "Feature", "geometry": {"type": "LineString", "coordinates": [[123.6896439, 13.1500593], [123.6896865, 13.1500207], [123.6897235, 13.1499933], [123.6897718, 13.1499665], [123.6898256, 13.1499415], [123.6899156, 13.1499117], [123.6900917, 13.149864], [123.6901403, 13.1498533], [123.6901866, 13.1498464], [123.6902606, 13.1498392], [123.6903953, 13.1498321], [123.6905096, 13.1498219], [123.6905967, 13.1498098], [123.6906842, 13.14979], [123.6907739, 13.149766], [123.690867, 13.1497338], [123.6909606, 13.1496849], [123.6910405, 13.1496311], [123.6911115, 13.1495633], [123.6911709, 13.1495036], [123.6912177, 13.1494377]]}, "properties": {"city": "legazpi", "name": "Legazpi-Daraga Bypass Road", "highway": "trunk", "v_posted": 60, "posted_imputed": false, "v_safe": 50, "gap": 10, "R": 2.07, "exposure": 0.0, "vru_150m": 0, "sss": 12.5, "recommended": 50, "fatal_reduction_pct": 51.8, "why": "undivided arterial, side-impact intersections", "pop_density": 0.0, "pop_density_peak": 0.0, "v_design": 70, "design_gap": 20}}, {"type": "Feature", "geometry": {"type": "LineString", "coordinates": [[123.6935421, 13.1420436], [123.6934121, 13.1420711], [123.6933008, 13.1421139], [123.6931352, 13.1422451], [123.6929092, 13.1424462], [123.6927409, 13.1426265], [123.6925404, 13.142855], [123.6924438, 13.1429497], [123.6922929, 13.1430822], [123.6921347, 13.1432292], [123.6920484, 13.1432951], [123.6918759, 13.1434257], [123.6915667, 13.1436667], [123.6914273, 13.143794], [123.6912878, 13.1439795], [123.6912221, 13.1441166], [123.6912033, 13.1443765], [123.6912301, 13.1445345], [123.6913267, 13.1446925], [123.6914863, 13.1448492], [123.6916217, 13.1449955], [123.6919034, 13.145433], [123.6920321, 13.1456054], [123.6921675, 13.1458313], [123.6922145, 13.1459867], [123.6922252, 13.1461722], [123.6922038, 13.1463263], [123.6920468, 13.1468526], [123.6919376, 13.1472543], [123.6918832, 13.1474546], [123.6917759, 13.1478203], [123.6917317, 13.1480331], [123.691719, 13.1481331], [123.6916526, 13.1482774], [123.6915594, 13.1484478], [123.6914493, 13.1485836], [123.6914253, 13.148624], [123.6913743, 13.1487096], [123.6913421, 13.1487828], [123.6913273, 13.1489512], [123.6913153, 13.1490459], [123.6912978, 13.1491693], [123.6912737, 13.14929], [123.6912457, 13.1493749], [123.6912177, 13.1494377]]}, "properties": {"city": "legazpi", "name": "Legazpi-Daraga Bypass Road", "highway": "trunk", "v_posted": 60, "posted_imputed": false, "v_safe": 50, "gap": 10, "R": 2.07, "exposure": 0.0, "vru_150m": 0, "sss": 12.5, "recommended": 50, "fatal_reduction_pct": 51.8, "why": "undivided arterial, side-impact intersections", "pop_density": 0.0, "pop_density_peak": 0.0, "v_design": 60, "design_gap": 10}}, {"type": "Feature", "geometry": {"type": "LineString", "coordinates": [[123.6935421, 13.1420436], [123.6938365, 13.1420134], [123.6941652, 13.1419912], [123.6943193, 13.1419823], [123.6944431, 13.1419557], [123.6945376, 13.1419096], [123.694615, 13.1418399], [123.694725, 13.1416349], [123.6947826, 13.1414403], [123.6947786, 13.14123], [123.6947236, 13.1410628], [123.694623, 13.1408095], [123.6946064, 13.1406623], [123.6946204, 13.1405169], [123.6946445, 13.140385], [123.6947008, 13.1401669], [123.6947478, 13.1400494], [123.6948631, 13.1398248], [123.695024, 13.1396119], [123.6951655, 13.1393972], [123.6952416, 13.1392173], [123.695304, 13.1390617], [123.6954518, 13.1386683], [123.6955611, 13.1384358], [123.6957319, 13.1381123], [123.6958566, 13.1378433], [123.6958788, 13.137701], [123.6958701, 13.1374998], [123.6958144, 13.1371616], [123.6957393, 13.1368207], [123.695655, 13.1364043], [123.6955833, 13.1360204], [123.6955303, 13.1357017], [123.6955457, 13.1354934], [123.6955752, 13.1353935], [123.6957201, 13.1350579], [123.6959202, 13.1347106], [123.6961281, 13.1343128], [123.6962149, 13.1341136], [123.6962552, 13.133968], [123.6962451, 13.1338171], [123.6961962, 13.1336931], [123.6960419, 13.13333], [123.6959843, 13.1331308], [123.695936, 13.1328899], [123.6958937, 13.1327704], [123.6957905, 13.1325953], [123.6956275, 13.1323923], [123.6955075, 13.132229], [123.6952171, 13.1318248], [123.6950724, 13.1316018]]}, "properties": {"city": "legazpi", "name": "Legazpi-Daraga Bypass Road", "highway": "trunk", "v_posted": 60, "posted_imputed": false, "v_safe": 50, "gap": 10, "R": 2.07, "exposure": 0.0, "vru_150m": 0, "sss": 12.5, "recommended": 50, "fatal_reduction_pct": 51.8, "why": "undivided arterial, side-impact intersections", "pop_density": 0.0, "pop_density_peak": 0.0, "v_design": 60, "design_gap": 10}}, {"type": "Feature", "geometry": {"type": "LineString", "coordinates": [[123.694953, 13.1285098], [123.6949691, 13.1286899], [123.6949584, 13.1288768], [123.6948967, 13.1292699], [123.6948377, 13.1295585], [123.6947384, 13.1300261]]}, "properties": {"city": "legazpi", "name": "Legazpi-Daraga Bypass Road", "highway": "trunk", "v_posted": 60, "posted_imputed": false, "v_safe": 50, "gap": 10, "R": 2.07, "exposure": 0.0, "vru_150m": 0, "sss": 12.5, "recommended": 50, "fatal_reduction_pct": 51.8, "why": "undivided arterial, side-impact intersections", "pop_density": 0.0, "pop_density_peak": 0.0, "v_design": 70, "design_gap": 20}}, {"type": "Feature", "geometry": {"type": "LineString", "coordinates": [[123.6950724, 13.1316018], [123.6945677, 13.1308663], [123.6945271, 13.1307475], [123.6945271, 13.1306604], [123.6947384, 13.1300261]]}, "properties": {"city": "legazpi", "name": "Legazpi-Daraga Bypass Road", "highway": "trunk", "v_posted": 60, "posted_imputed": false, "v_safe": 50, "gap": 10, "R": 2.07, "exposure": 0.0, "vru_150m": 0, "sss": 12.5, "recommended": 50, "fatal_reduction_pct": 51.8, "why": "undivided arterial, side-impact intersections", "pop_density": 0.0, "pop_density_peak": 0.0, "v_design": 70, "design_gap": 20}}, {"type": "Feature", "geometry": {"type": "LineString", "coordinates": [[123.6895499, 13.1502274], [123.6895824, 13.1501483], [123.689613, 13.1500971], [123.6896439, 13.1500593]]}, "properties": {"city": "legazpi", "name": "Legazpi-Daraga Bypass Road", "highway": "trunk", "v_posted": 60, "posted_imputed": false, "v_safe": 50, "gap": 10, "R": 2.07, "exposure": 0.0, "vru_150m": 0, "sss": 12.5, "recommended": 50, "fatal_reduction_pct": 51.8, "why": "undivided arterial, side-impact intersections", "pop_density": 0.0, "pop_density_peak": 0.0, "v_design": 70, "design_gap": 20}}, {"type": "Feature", "geometry": {"type": "LineString", "coordinates": [[123.6886802, 13.1522086], [123.6886937, 13.152132], [123.6886987, 13.1520153], [123.6887063, 13.151911], [123.6887129, 13.1518606], [123.6887284, 13.1518109], [123.6887539, 13.1517606], [123.6889158, 13.1515062], [123.6890485, 13.1513235], [123.6892018, 13.1511164], [123.6892357, 13.1510678], [123.6892715, 13.1510156], [123.6893125, 13.1509393], [123.6893878, 13.1507365], [123.6894416, 13.1505631], [123.6894949, 13.1503826], [123.6895499, 13.1502274]]}, "properties": {"city": "legazpi", "name": "Legazpi-Daraga Bypass Road", "highway": "trunk", "v_posted": 60, "posted_imputed": false, "v_safe": 50, "gap": 10, "R": 2.07, "exposure": 0.0, "vru_150m": 0, "sss": 12.5, "recommended": 50, "fatal_reduction_pct": 51.8, "why": "undivided arterial, side-impact intersections", "pop_density": 0.0, "pop_density_peak": 0.0, "v_design": 70, "design_gap": 20}}, {"type": "Feature", "geometry": {"type": "LineString", "coordinates": [[123.6871324, 13.1550072], [123.6871112, 13.1553722]]}, "properties": {"city": "legazpi", "name": "Legazpi-Daraga Bypass Road", "highway": "trunk", "v_posted": 60, "posted_imputed": false, "v_safe": 50, "gap": 10, "R": 2.07, "exposure": 0.0, "vru_150m": 0, "sss": 12.5, "recommended": 50, "fatal_reduction_pct": 51.8, "why": "undivided arterial, side-impact intersections", "pop_density": 0.0, "pop_density_peak": 0.0, "v_design": 70, "design_gap": 20}}, {"type": "Feature", "geometry": {"type": "LineString", "coordinates": [[123.68719, 13.1544268], [123.6871324, 13.1550072]]}, "properties": {"city": "legazpi", "name": "Legazpi-Daraga Bypass Road", "highway": "trunk", "v_posted": 60, "posted_imputed": false, "v_safe": 50, "gap": 10, "R": 2.07, "exposure": 0.0, "vru_150m": 0, "sss": 12.5, "recommended": 50, "fatal_reduction_pct": 51.8, "why": "undivided arterial, side-impact intersections", "pop_density": 0.0, "pop_density_peak": 0.0, "v_design": 70, "design_gap": 20}}, {"type": "Feature", "geometry": {"type": "LineString", "coordinates": [[123.7094297, 13.1406316], [123.7097132, 13.1407694], [123.7097969, 13.1407951], [123.7098723, 13.1408026], [123.7099533, 13.1408033], [123.7100605, 13.1407901], [123.7101558, 13.1407472], [123.7102542, 13.1406731], [123.7103967, 13.1404841], [123.7105587, 13.1402381], [123.7108272, 13.1398825], [123.7109116, 13.1397736], [123.7109991, 13.1396689], [123.7111612, 13.1395216], [123.711396, 13.1393435], [123.7118692, 13.1390015], [123.7119697, 13.1389358], [123.7120631, 13.1389054], [123.712164, 13.1388956], [123.7122393, 13.1389027], [123.7123084, 13.1389347], [123.7125956, 13.1391893], [123.7126476, 13.1392472]]}, "properties": {"city": "legazpi", "name": "Maharlika Highway", "highway": "primary", "v_posted": 60, "posted_imputed": false, "v_safe": 50, "gap": 10, "R": 2.07, "exposure": 0.095, "vru_150m": 0, "sss": 13.7, "recommended": 50, "fatal_reduction_pct": 51.8, "why": "undivided arterial, side-impact intersections", "pop_density": 3057.8, "pop_density_peak": 4013.0, "v_design": 55, "design_gap": 5}}, {"type": "Feature", "geometry": {"type": "LineString", "coordinates": [[123.7065145, 13.1291772], [123.7065074, 13.1295656], [123.7064885, 13.1306047], [123.706471, 13.1310945], [123.7064491, 13.1312431], [123.7064222, 13.1313887], [123.7063819, 13.1315398], [123.7063185, 13.1316994], [123.7062236, 13.1318877], [123.7061843, 13.1319584], [123.7061097, 13.1320883], [123.7057101, 13.1326282], [123.705585, 13.1328198], [123.7055527, 13.1328817], [123.705462, 13.1330483], [123.7053847, 13.1332362], [123.7053309, 13.1333828], [123.7052932, 13.1335255], [123.7052493, 13.1337488], [123.7052018, 13.1340608], [123.7050833, 13.1358447], [123.7051093, 13.136118], [123.7051577, 13.1363584], [123.7052245, 13.1365431], [123.7053184, 13.1367164], [123.7054689, 13.1369584], [123.7056329, 13.1371437], [123.7057355, 13.1372327], [123.7058491, 13.1373066], [123.7059766, 13.1373742], [123.706132, 13.1374353], [123.7063145, 13.1374744], [123.7070711, 13.1375574], [123.7072646, 13.1376042], [123.7074306, 13.1376685], [123.7075622, 13.1377415], [123.7077071, 13.1378418], [123.7078784, 13.1380139], [123.7081974, 13.1384218], [123.7083547, 13.138638], [123.7084989, 13.1388604], [123.7086001, 13.1390441], [123.7086983, 13.1392276], [123.7088394, 13.1395392], [123.7089786, 13.1398744], [123.7091965, 13.1403772], [123.7092364, 13.1404553], [123.7092846, 13.1405267], [123.7093535, 13.1405848], [123.7094297, 13.1406316]]}, "properties": {"city": "legazpi", "name": "Maharlika Highway", "highway": "primary", "v_posted": 60, "posted_imputed": false, "v_safe": 50, "gap": 10, "R": 2.07, "exposure": 0.297, "vru_150m": 0, "sss": 16.2, "recommended": 50, "fatal_reduction_pct": 51.8, "why": "undivided arterial, side-impact intersections", "pop_density": 9596.5, "pop_density_peak": 18114.9, "v_design": 55, "design_gap": 5}}, {"type": "Feature", "geometry": {"type": "LineString", "coordinates": [[123.7111443, 13.1544884], [123.710434, 13.1552934], [123.710141, 13.1556206], [123.7098526, 13.1559201], [123.7097626, 13.1560023]]}, "properties": {"city": "legazpi", "name": "Maharlika Highway", "highway": "primary", "v_posted": 40, "posted_imputed": false, "v_safe": 30, "gap": 10, "R": 3.16, "exposure": 0.546, "vru_150m": 2, "sss": 19.3, "recommended": 30, "fatal_reduction_pct": 68.4, "why": "pedestrian activity (1 VRU site<=50m)", "pop_density": 7858.8, "pop_density_peak": 8232.2, "v_design": 60, "design_gap": 30}}, {"type": "Feature", "geometry": {"type": "LineString", "coordinates": [[123.7345716, 13.1392176], [123.7345701, 13.139864], [123.7345693, 13.1400816], [123.7345673, 13.1404846]]}, "properties": {"city": "legazpi", "name": "Captain Fermin Aquende Drive", "highway": "primary", "v_posted": 50, "posted_imputed": false, "v_safe": 30, "gap": 20, "R": 7.72, "exposure": 0.494, "vru_150m": 1, "sss": 37.4, "recommended": 30, "fatal_reduction_pct": 87.0, "why": "pedestrian activity (1 VRU site<=50m)", "pop_density": 11900.6, "pop_density_peak": 13380.5, "v_design": 60, "design_gap": 30}}, {"type": "Feature", "geometry": {"type": "LineString", "coordinates": [[123.6911524, 13.1703074], [123.6909217, 13.1700282], [123.6906829, 13.1697227], [123.6904925, 13.169472], [123.6903745, 13.1691951], [123.6901867, 13.1685918], [123.6899571, 13.1682671], [123.6894595, 13.167588], [123.6893268, 13.167444]]}, "properties": {"city": "legazpi", "name": "Legazpi-Daraga Bypass Road", "highway": "trunk", "v_posted": 60, "posted_imputed": false, "v_safe": 50, "gap": 10, "R": 2.07, "exposure": 0.086, "vru_150m": 0, "sss": 13.6, "recommended": 50, "fatal_reduction_pct": 51.8, "why": "undivided arterial, side-impact intersections", "pop_density": 2786.1, "pop_density_peak": 8893.4, "v_design": 70, "design_gap": 20}}, {"type": "Feature", "geometry": {"type": "LineString", "coordinates": [[123.6863215, 13.1582823], [123.6862937, 13.1586054], [123.6862141, 13.1592627], [123.6863075, 13.1595538], [123.6864943, 13.1598266], [123.686674, 13.1600701], [123.687059, 13.1605919], [123.6871263, 13.1607671], [123.6871539, 13.1609504], [123.6870734, 13.1613363], [123.6870358, 13.1615061], [123.6868125, 13.1625129], [123.6867699, 13.162705]]}, "properties": {"city": "legazpi", "name": "Legazpi-Daraga Bypass Road", "highway": "trunk", "v_posted": 60, "posted_imputed": false, "v_safe": 50, "gap": 10, "R": 2.07, "exposure": 0.0, "vru_150m": 0, "sss": 12.5, "recommended": 50, "fatal_reduction_pct": 51.8, "why": "undivided arterial, side-impact intersections", "pop_density": 0.0, "pop_density_peak": 0.0, "v_design": 70, "design_gap": 20}}, {"type": "Feature", "geometry": {"type": "LineString", "coordinates": [[123.6866473, 13.1635847], [123.686665, 13.1636361], [123.6866945, 13.1636818], [123.68721, 13.1642451], [123.6873418, 13.1645147], [123.6874824, 13.1648018], [123.6875435, 13.1649497], [123.6877955, 13.165621], [123.6879408, 13.1659614], [123.6880612, 13.1662028], [123.6881295, 13.1663243], [123.6881774, 13.1664065], [123.6882396, 13.1664909], [123.6883325, 13.1665669]]}, "properties": {"city": "legazpi", "name": "Legazpi-Daraga Bypass Road", "highway": "trunk", "v_posted": 60, "posted_imputed": false, "v_safe": 50, "gap": 10, "R": 2.07, "exposure": 0.0, "vru_150m": 0, "sss": 12.5, "recommended": 50, "fatal_reduction_pct": 51.8, "why": "undivided arterial, side-impact intersections", "pop_density": 0.0, "pop_density_peak": 0.0, "v_design": 70, "design_gap": 20}}, {"type": "Feature", "geometry": {"type": "LineString", "coordinates": [[123.6867699, 13.162705], [123.6866473, 13.1635847]]}, "properties": {"city": "legazpi", "name": "Legazpi-Daraga Bypass Road", "highway": "trunk", "v_posted": 60, "posted_imputed": false, "v_safe": 50, "gap": 10, "R": 2.07, "exposure": 0.0, "vru_150m": 0, "sss": 12.5, "recommended": 50, "fatal_reduction_pct": 51.8, "why": "undivided arterial, side-impact intersections", "pop_density": 0.0, "pop_density_peak": 0.0, "v_design": 70, "design_gap": 20}}, {"type": "Feature", "geometry": {"type": "LineString", "coordinates": [[123.6911524, 13.1703074], [123.6900899, 13.1715107], [123.6899834, 13.1716167], [123.6898343, 13.1717502], [123.6897173, 13.171833], [123.6896837, 13.1718582], [123.6889111, 13.1723332], [123.6880458, 13.1728762], [123.6876833, 13.1730682], [123.6874062, 13.1731864], [123.6864824, 13.1735058], [123.6859985, 13.1736885], [123.6852025, 13.1740342], [123.6848533, 13.1741691], [123.684645, 13.1742139], [123.6844689, 13.1742139], [123.6843268, 13.1741903], [123.6841871, 13.1741294], [123.6840422, 13.1740262], [123.6839479, 13.1738805], [123.6836204, 13.1732979], [123.683206, 13.1725606], [123.6831273, 13.1724206], [123.6830101, 13.1722605], [123.682945, 13.1721955], [123.6828668, 13.1721416], [123.6828082, 13.1721098], [123.6827349, 13.1720845], [123.6826608, 13.1720708], [123.6826237, 13.1720682], [123.6825932, 13.172067], [123.6825102, 13.1720734], [123.6824369, 13.1720908], [123.6823701, 13.1721146], [123.6823083, 13.1721463], [123.6822187, 13.1722034], [123.6821291, 13.172289], [123.6820099, 13.1724582]]}, "properties": {"city": "legazpi", "name": "Maharlika Highway", "highway": "trunk", "v_posted": 60, "posted_imputed": false, "v_safe": 50, "gap": 10, "R": 2.07, "exposure": 0.289, "vru_150m": 0, "sss": 16.1, "recommended": 50, "fatal_reduction_pct": 51.8, "why": "undivided arterial, side-impact intersections", "pop_density": 9359.8, "pop_density_peak": 14485.7, "v_design": 60, "design_gap": 10}}, {"type": "Feature", "geometry": {"type": "LineString", "coordinates": [[123.6965919, 13.1642428], [123.6968913, 13.1638789], [123.6972275, 13.1633799], [123.6975001, 13.1630298]]}, "properties": {"city": "legazpi", "name": "Maharlika Highway", "highway": "primary", "v_posted": 60, "posted_imputed": false, "v_safe": 50, "gap": 10, "R": 2.07, "exposure": 0.155, "vru_150m": 0, "sss": 14.4, "recommended": 50, "fatal_reduction_pct": 51.8, "why": "undivided arterial, side-impact intersections", "pop_density": 5019.6, "pop_density_peak": 5890.7, "v_design": 60, "design_gap": 10}}, {"type": "Feature", "geometry": {"type": "LineString", "coordinates": [[123.698326, 13.1624799], [123.6982644, 13.162564], [123.698148, 13.1626209]]}, "properties": {"city": "legazpi", "name": "Maharlika Highway", "highway": "primary", "v_posted": 60, "posted_imputed": false, "v_safe": 50, "gap": 10, "R": 2.07, "exposure": 0.17, "vru_150m": 0, "sss": 14.6, "recommended": 50, "fatal_reduction_pct": 51.8, "why": "undivided arterial, side-impact intersections", "pop_density": 5510.8, "pop_density_peak": 6001.2, "v_design": 60, "design_gap": 10}}, {"type": "Feature", "geometry": {"type": "LineString", "coordinates": [[123.6977551, 13.1628758], [123.6977042, 13.1629079], [123.6976488, 13.1629475], [123.6976061, 13.1629719], [123.6975001, 13.1630298]]}, "properties": {"city": "legazpi", "name": "Maharlika Highway", "highway": "primary", "v_posted": 60, "posted_imputed": false, "v_safe": 50, "gap": 10, "R": 2.07, "exposure": 0.182, "vru_150m": 0, "sss": 14.8, "recommended": 50, "fatal_reduction_pct": 51.8, "why": "undivided arterial, side-impact intersections", "pop_density": 5890.7, "pop_density_peak": 5890.7, "v_design": 60, "design_gap": 10}}, {"type": "Feature", "geometry": {"type": "LineString", "coordinates": [[123.6911524, 13.1703074], [123.6917938, 13.1695862], [123.693309, 13.167893], [123.6940197, 13.1670971], [123.6940286, 13.1670871], [123.6941309, 13.166974], [123.6948296, 13.1662012], [123.6950418, 13.1659605], [123.6952516, 13.1657336], [123.6953482, 13.1656243], [123.6963638, 13.1644861], [123.6965101, 13.1643317], [123.6965919, 13.1642428]]}, "properties": {"city": "legazpi", "name": "Maharlika Highway", "highway": "primary", "v_posted": 60, "posted_imputed": false, "v_safe": 50, "gap": 10, "R": 2.07, "exposure": 0.145, "vru_150m": 0, "sss": 14.3, "recommended": 50, "fatal_reduction_pct": 51.8, "why": "undivided arterial, side-impact intersections", "pop_density": 4679.3, "pop_density_peak": 8893.4, "v_design": 60, "design_gap": 10}}, {"type": "Feature", "geometry": {"type": "LineString", "coordinates": [[123.698148, 13.1626209], [123.6977551, 13.1628758]]}, "properties": {"city": "legazpi", "name": "Maharlika Highway", "highway": "primary", "v_posted": 60, "posted_imputed": false, "v_safe": 50, "gap": 10, "R": 2.07, "exposure": 0.184, "vru_150m": 0, "sss": 14.8, "recommended": 50, "fatal_reduction_pct": 51.8, "why": "undivided arterial, side-impact intersections", "pop_density": 5945.9, "pop_density_peak": 6001.2, "v_design": 60, "design_gap": 10}}, {"type": "Feature", "geometry": {"type": "LineString", "coordinates": [[123.7016015, 13.1595309], [123.7015606, 13.1595564], [123.7013721, 13.1596695], [123.7013035, 13.1597154], [123.7012296, 13.1597643], [123.7010267, 13.1598959], [123.7008726, 13.1600149], [123.7007559, 13.1601201], [123.7006209, 13.1602798], [123.7005211, 13.1604047], [123.7004103, 13.1605454], [123.7003242, 13.1606819], [123.7003126, 13.1606993], [123.6999151, 13.1612947], [123.6997059, 13.1615963], [123.699611, 13.1617237], [123.699576, 13.1617707], [123.6994725, 13.1618758], [123.6993619, 13.1619685], [123.6992432, 13.1620691], [123.6991445, 13.1621487], [123.6990139, 13.1622219], [123.698326, 13.1624799]]}, "properties": {"city": "legazpi", "name": "Maharlika Highway", "highway": "primary", "v_posted": 60, "posted_imputed": false, "v_safe": 50, "gap": 10, "R": 2.07, "exposure": 0.17, "vru_150m": 0, "sss": 14.6, "recommended": 50, "fatal_reduction_pct": 51.8, "why": "undivided arterial, side-impact intersections", "pop_density": 5486.8, "pop_density_peak": 8304.3, "v_design": 60, "design_gap": 10}}, {"type": "Feature", "geometry": {"type": "LineString", "coordinates": [[123.6888381, 13.1669563], [123.6891196, 13.1671833], [123.6893268, 13.167444]]}, "properties": {"city": "legazpi", "name": "Legazpi-Daraga Bypass Road", "highway": "trunk", "v_posted": 60, "posted_imputed": false, "v_safe": 50, "gap": 10, "R": 2.07, "exposure": 0.013, "vru_150m": 0, "sss": 12.7, "recommended": 50, "fatal_reduction_pct": 51.8, "why": "undivided arterial, side-impact intersections", "pop_density": 427.1, "pop_density_peak": 854.3, "v_design": 70, "design_gap": 20}}, {"type": "Feature", "geometry": {"type": "LineString", "coordinates": [[123.6883325, 13.1665669], [123.6888381, 13.1669563]]}, "properties": {"city": "legazpi", "name": "Legazpi-Daraga Bypass Road", "highway": "trunk", "v_posted": 60, "posted_imputed": false, "v_safe": 50, "gap": 10, "R": 2.07, "exposure": 0.0, "vru_150m": 0, "sss": 12.5, "recommended": 50, "fatal_reduction_pct": 51.8, "why": "undivided arterial, side-impact intersections", "pop_density": 0.0, "pop_density_peak": 0.0, "v_design": 70, "design_gap": 20}}]}