{"type": "FeatureCollection", "features": [{"type": "Feature", "geometry": {"type": "LineString", "coordinates": [[120.5411156, 15.4412467], [120.5411851, 15.4412993], [120.5412746, 15.441339], [120.5413882, 15.4413619], [120.5415252, 15.441374], [120.541735, 15.4413881], [120.5420098, 15.4414037], [120.5421357, 15.4414185], [120.5422285, 15.4414446], [120.5423276, 15.4414923], [120.542409, 15.441553], [120.5424778, 15.4416329], [120.5425686, 15.4417449], [120.5432539, 15.4425656], [120.5435466, 15.4429153], [120.5437707, 15.4431829], [120.5441938, 15.4436942], [120.54475, 15.4443584], [120.544985, 15.4446572], [120.5451052, 15.4448109], [120.5451816, 15.4449089], [120.545225, 15.4449579], [120.5452729, 15.4450005], [120.5453389, 15.4450482], [120.5454575, 15.4451179], [120.5456087, 15.4451921], [120.545921, 15.4453438], [120.5465584, 15.4456476], [120.5469244, 15.4458547], [120.5473215, 15.4460849], [120.548091, 15.4465265], [120.5484707, 15.446744], [120.5486705, 15.4468711], [120.548897, 15.4470282], [120.5494043, 15.4473776], [120.5497944, 15.4476733], [120.5499793, 15.4478202], [120.5501249, 15.447954], [120.550399, 15.4482091], [120.5508314, 15.4485782], [120.5512109, 15.4489013], [120.5514104, 15.4490704], [120.551493, 15.4491382], [120.5515679, 15.4491999], [120.5517313, 15.4493718], [120.5519054, 15.4495682], [120.5521175, 15.4498257], [120.5526929, 15.4504915], [120.552994, 15.450863], [120.5531237, 15.4510546], [120.5532595, 15.4512642], [120.5533429, 15.4513857], [120.5535301, 15.4516721], [120.5537693, 15.4519893], [120.5541743, 15.4524759], [120.5544407, 15.452799], [120.554577, 15.4530042], [120.5546402, 15.4531301], [120.5547051, 15.4532993], [120.5547353, 15.4533925], [120.5547578, 15.4535019], [120.5547743, 15.4536085], [120.5547813, 15.453693], [120.5547793, 15.453816], [120.5547677, 15.4539734], [120.5547492, 15.454122], [120.5547254, 15.4542272], [120.5546906, 15.454329], [120.5546248, 15.4544864], [120.5545534, 15.454616], [120.5544678, 15.4547566], [120.5543381, 15.4549248], [120.5538374, 15.4555674], [120.5537208, 15.4557386], [120.5536446, 15.4558627], [120.5535774, 15.4559972], [120.553523, 15.4561796], [120.5534969, 15.4563367], [120.5534811, 15.4565329], [120.5534851, 15.4567042], [120.5535149, 15.4568634], [120.5535679, 15.4570627], [120.5536227, 15.4572416], [120.5539151, 15.4582007], [120.554292, 15.4594355], [120.5543996, 15.4598152], [120.5544289, 15.4599284], [120.5544362, 15.4600546], [120.5544178, 15.4601811], [120.5543825, 15.4603291], [120.5542391, 15.4609325], [120.5538918, 15.4624678], [120.5535793, 15.463865], [120.55353, 15.464083], [120.5534985, 15.4643063], [120.5534932, 15.4645305], [120.5535025, 15.4654811], [120.5535058, 15.4658948], [120.553462, 15.4659533]]}, "properties": {"city": "tarlac", "name": "Tarlac Diversion Road", "highway": "secondary", "v_posted": 80, "posted_imputed": false, "v_safe": 50, "gap": 30, "R": 6.55, "exposure": 0.0, "vru_150m": 0, "sss": 37.5, "recommended": 50, "fatal_reduction_pct": 84.7, "why": "undivided arterial, side-impact intersections", "pop_density": 0.0, "pop_density_peak": 0.0, "v_design": 45, "design_gap": -5}}, {"type": "Feature", "geometry": {"type": "LineString", "coordinates": [[120.553462, 15.4659533], [120.5534126, 15.4658954], [120.5534093, 15.4654819], [120.5533999, 15.4645299], [120.5534054, 15.4642991], [120.5534382, 15.4640674], [120.5534882, 15.463846], [120.5538007, 15.4624487], [120.5541481, 15.4609129], [120.5542916, 15.460309], [120.5543261, 15.4601648], [120.5543426, 15.4600508], [120.5543364, 15.4599419], [120.5543094, 15.4598379], [120.5542023, 15.4594601], [120.5538257, 15.4582261], [120.5535332, 15.457267], [120.5534781, 15.4570865], [120.5534238, 15.4568826], [120.553392, 15.4567133], [120.5533878, 15.4565304], [120.5534043, 15.4563261], [120.5534318, 15.45616], [120.55349, 15.455965], [120.5535623, 15.4558203], [120.5536417, 15.4556911], [120.5537612, 15.4555158], [120.5542635, 15.454871], [120.55439, 15.4547069], [120.554472, 15.4545722], [120.5545402, 15.4544484], [120.5546031, 15.4542982], [120.5546354, 15.4542035], [120.5546572, 15.4541071], [120.5546749, 15.4539649], [120.5546861, 15.4538121], [120.5546881, 15.4536959], [120.5546817, 15.4536188], [120.554666, 15.4535173], [120.5546449, 15.4534147], [120.5546168, 15.4533283], [120.5545543, 15.4531653], [120.5544955, 15.4530481], [120.5543648, 15.4528513], [120.5541015, 15.452532], [120.5536952, 15.4520439], [120.5534529, 15.4517225], [120.5532646, 15.4514344], [120.553181, 15.4513128], [120.5530452, 15.451103], [120.5529181, 15.4509153], [120.5526204, 15.450548], [120.5520452, 15.4498824], [120.5518334, 15.4496254], [120.5516615, 15.4494314], [120.5515031, 15.4492647], [120.5514314, 15.4492057], [120.5513494, 15.4491383], [120.5511493, 15.4489687], [120.5507697, 15.4486455], [120.5503357, 15.4482751], [120.5500604, 15.4480188], [120.5499174, 15.4478875], [120.549736, 15.4477432], [120.5493483, 15.4474495], [120.5488427, 15.4471012], [120.5486176, 15.4469451], [120.5484212, 15.4468202], [120.5480434, 15.4466037], [120.5472737, 15.446162], [120.5468768, 15.445932], [120.5465141, 15.4457267], [120.5458793, 15.4454242], [120.5455666, 15.4452722], [120.5454121, 15.4451964], [120.5452866, 15.4451227], [120.5452131, 15.4450696], [120.5451577, 15.4450203], [120.5451089, 15.4449651], [120.5450308, 15.4448649], [120.5449107, 15.4447113], [120.5446766, 15.4444138], [120.5441211, 15.4437504], [120.543698, 15.4432392], [120.5434724, 15.4429697], [120.5431813, 15.442622], [120.5424956, 15.4418007], [120.5424052, 15.4416893], [120.5423438, 15.441618], [120.5422777, 15.4415688], [120.5421944, 15.4415286], [120.5421169, 15.4415068], [120.5420014, 15.4414932], [120.541729, 15.4414778], [120.5415177, 15.4414635], [120.5413744, 15.4414509], [120.5412452, 15.4414248], [120.5411363, 15.4413765], [120.5410502, 15.4413115]]}, "properties": {"city": "tarlac", "name": "Tarlac Diversion Road", "highway": "secondary", "v_posted": 80, "posted_imputed": false, "v_safe": 50, "gap": 30, "R": 6.55, "exposure": 0.027, "vru_150m": 0, "sss": 38.5, "recommended": 50, "fatal_reduction_pct": 84.7, "why": "undivided arterial, side-impact intersections", "pop_density": 865.5, "pop_density_peak": 10386.3, "v_design": 45, "design_gap": -5}}, {"type": "Feature", "geometry": {"type": "LineString", "coordinates": [[120.5394947, 15.4359139], [120.5396037, 15.4359512], [120.5396909, 15.4360094], [120.539766, 15.4360702], [120.5398625, 15.4361889], [120.5399979, 15.436436], [120.5402226, 15.4368267], [120.5403748, 15.437094], [120.5404606, 15.4372594], [120.5405263, 15.4374146], [120.5405827, 15.437589], [120.5406323, 15.4377843], [120.5406603, 15.4379189], [120.5406739, 15.4380273], [120.5406793, 15.4381501], [120.540678, 15.4383156], [120.5406718, 15.4387684], [120.5406538, 15.4390655], [120.540635, 15.439576], [120.540635, 15.4397001], [120.540643, 15.4398617], [120.5406672, 15.440076], [120.54069, 15.4402353], [120.5407141, 15.4403219], [120.5407181, 15.4403852], [120.5407047, 15.4404447], [120.5406605, 15.4405158], [120.5405988, 15.4405843], [120.5405746, 15.440627], [120.5405639, 15.4406748], [120.5405693, 15.4407536], [120.5406162, 15.4408997], [120.5406605, 15.4409824], [120.5407155, 15.4410529], [120.540788, 15.4411246], [120.540867, 15.4411867], [120.5409515, 15.4412449], [120.5410502, 15.4413115]]}, "properties": {"city": "tarlac", "name": "Tarlac Diversion Road", "highway": "secondary", "v_posted": 80, "posted_imputed": false, "v_safe": 50, "gap": 30, "R": 6.55, "exposure": 0.0, "vru_150m": 0, "sss": 37.5, "recommended": 50, "fatal_reduction_pct": 84.7, "why": "undivided arterial, side-impact intersections", "pop_density": 0.0, "pop_density_peak": 0.0, "v_design": 50, "design_gap": 0}}, {"type": "Feature", "geometry": {"type": "LineString", "coordinates": [[120.5350736, 15.4294244], [120.5351539, 15.4296064], [120.5352183, 15.4297926], [120.5352344, 15.4298792], [120.5352344, 15.4299736], [120.5352263, 15.430064], [120.5351861, 15.4303484], [120.5351247, 15.4307756], [120.5351123, 15.4309224], [120.5351096, 15.4310892], [120.5351257, 15.4312844], [120.5351646, 15.4314861], [120.5352169, 15.4316929], [120.5353658, 15.4320782], [120.5355616, 15.4326043], [120.5356581, 15.4328331], [120.5357386, 15.4329973], [120.5358351, 15.4331653], [120.5359277, 15.4333011], [120.536027, 15.4334239], [120.5362416, 15.4336709], [120.5365184, 15.4339893], [120.5366787, 15.4341737], [120.5370542, 15.4346029], [120.5373524, 15.4349311], [120.5377285, 15.4353384], [120.5380444, 15.4356804], [120.5380966, 15.4357353], [120.5381647, 15.4358051], [120.5382176, 15.4358387], [120.538276, 15.4358607], [120.5383417, 15.4358723], [120.5387026, 15.4358814], [120.5390834, 15.4358865], [120.5392482, 15.4358853], [120.5393408, 15.4358904], [120.5394186, 15.4358982], [120.5394947, 15.4359139]]}, "properties": {"city": "tarlac", "name": "Tarlac Diversion Road", "highway": "secondary", "v_posted": 80, "posted_imputed": false, "v_safe": 50, "gap": 30, "R": 6.55, "exposure": 0.0, "vru_150m": 0, "sss": 37.5, "recommended": 50, "fatal_reduction_pct": 84.7, "why": "undivided arterial, side-impact intersections", "pop_density": 0.0, "pop_density_peak": 0.0, "v_design": 45, "design_gap": -5}}, {"type": "Feature", "geometry": {"type": "LineString", "coordinates": [[120.5988388, 15.4338354], [120.5995177, 15.4338792], [120.5996053, 15.4338817], [120.5997508, 15.4338902], [120.5998039, 15.4338945], [120.6003458, 15.4339236], [120.6006981, 15.4339397], [120.60086, 15.4339468], [120.6011488, 15.4339497], [120.6017383, 15.4339619], [120.6019595, 15.4339599], [120.6022132, 15.4339729], [120.6024095, 15.434059], [120.6025417, 15.4342351], [120.6025853, 15.4344116], [120.6026216, 15.4350318], [120.6027737, 15.4360921], [120.6028316, 15.4364422], [120.6029494, 15.4369083], [120.6029836, 15.4369595], [120.6030183, 15.4370008], [120.6032972, 15.4372331], [120.6034473, 15.4373614], [120.6035747, 15.4374357]]}, "properties": {"city": "tarlac", "name": "Luisita Access Road", "highway": "secondary", "v_posted": 60, "posted_imputed": false, "v_safe": 50, "gap": 10, "R": 2.07, "exposure": 0.218, "vru_150m": 1, "sss": 15.2, "recommended": 50, "fatal_reduction_pct": 51.8, "why": "undivided arterial, side-impact intersections", "pop_density": 721.4, "pop_density_peak": 1814.9, "v_design": 45, "design_gap": -5}}, {"type": "Feature", "geometry": {"type": "LineString", "coordinates": [[120.6036111, 15.4375874], [120.6035475, 15.4375503], [120.6033454, 15.4374875], [120.603208, 15.4373948], [120.6031083, 15.4373105], [120.6030092, 15.4372008], [120.6029091, 15.4370709], [120.6028482, 15.4369716], [120.6028133, 15.436847], [120.6027243, 15.4364719], [120.6026303, 15.436018], [120.6025922, 15.4358204], [120.6025198, 15.4350444], [120.6024459, 15.4343514], [120.6024177, 15.4342668], [120.6023774, 15.4341989], [120.602263, 15.4341059], [120.6021473, 15.4340622], [120.6019624, 15.4340469], [120.6017128, 15.4340484], [120.6014461, 15.4340446], [120.6011731, 15.4340476], [120.6006918, 15.4340283], [120.6003441, 15.4340231], [120.5997718, 15.4339912], [120.5997472, 15.4339898], [120.5995982, 15.4339843], [120.5991867, 15.4339717], [120.5988858, 15.4339628]]}, "properties": {"city": "tarlac", "name": "Luisita Access Road", "highway": "secondary", "v_posted": 60, "posted_imputed": false, "v_safe": 50, "gap": 10, "R": 2.07, "exposure": 0.022, "vru_150m": 0, "sss": 12.8, "recommended": 50, "fatal_reduction_pct": 51.8, "why": "undivided arterial, side-impact intersections", "pop_density": 721.4, "pop_density_peak": 1814.9, "v_design": 45, "design_gap": -5}}, {"type": "Feature", "geometry": {"type": "LineString", "coordinates": [[120.6035747, 15.4374357], [120.6037313, 15.4375206], [120.6039436, 15.4376132], [120.6039982, 15.4376414], [120.6040293, 15.4376601], [120.6040766, 15.4377138], [120.6041517, 15.4378082], [120.6041926, 15.4378599], [120.6042519, 15.4379315], [120.6042986, 15.437975], [120.6043901, 15.4380258], [120.6047885, 15.4382131], [120.6051932, 15.4383765], [120.6053003, 15.4384237], [120.6067733, 15.4391024], [120.6077529, 15.4395522], [120.6077953, 15.4395717], [120.6089942, 15.4400952], [120.6097774, 15.4404882], [120.6103246, 15.440695], [120.6109254, 15.4407571], [120.6116632, 15.4407461], [120.6151294, 15.4406895], [120.6194947, 15.4406326], [120.6244759, 15.4405709], [120.6267075, 15.4405399], [120.6271224, 15.4405002], [120.6271662, 15.440496], [120.6273896, 15.4404521], [120.6275376, 15.4404221], [120.6276194, 15.4404055], [120.6288854, 15.4399091], [120.6306286, 15.4392144], [120.6313975, 15.4388821], [120.6329006, 15.4382946], [120.634402, 15.4376624], [120.6359079, 15.4370485], [120.6369337, 15.4366303], [120.6373885, 15.4364478], [120.6374547, 15.4364214], [120.637494, 15.4364058], [120.6378976, 15.4362414], [120.6382929, 15.4361005], [120.6383713, 15.4360779], [120.6384801, 15.4360962]]}, "properties": {"city": "tarlac", "name": "Luisita Access Road", "highway": "secondary", "v_posted": 60, "posted_imputed": false, "v_safe": 50, "gap": 10, "R": 2.07, "exposure": 0.127, "vru_150m": 0, "sss": 14.1, "recommended": 50, "fatal_reduction_pct": 51.8, "why": "undivided arterial, side-impact intersections", "pop_density": 4093.8, "pop_density_peak": 13348.9, "v_design": 50, "design_gap": 0}}, {"type": "Feature", "geometry": {"type": "LineString", "coordinates": [[120.6384801, 15.4360962], [120.6383539, 15.436169], [120.6382674, 15.4362065], [120.6378208, 15.4363985], [120.6375326, 15.4365084], [120.6374307, 15.4365521], [120.6371503, 15.4366674], [120.63658, 15.4368966], [120.636186, 15.4370629], [120.6359589, 15.4371551], [120.6344466, 15.4377688], [120.6336942, 15.4380932], [120.6329591, 15.4384131], [120.6314767, 15.4390041], [120.6295376, 15.439785], [120.6276577, 15.4405437], [120.6275692, 15.440564], [120.6274232, 15.4405975], [120.6271852, 15.4406321], [120.6271374, 15.4406339], [120.6253907, 15.4407015], [120.624508, 15.4406988], [120.623422, 15.4406955], [120.6195222, 15.4407777], [120.6147712, 15.4408157], [120.6116572, 15.4408726], [120.6105173, 15.4408493], [120.6100479, 15.4407511], [120.6091815, 15.4403956], [120.6077102, 15.4397316], [120.6076645, 15.4397096], [120.605244, 15.438547], [120.6051314, 15.4384966], [120.6048704, 15.4383747], [120.6045552, 15.4382364], [120.6040428, 15.4379947], [120.6038987, 15.4378857], [120.6038148, 15.4378081], [120.6037169, 15.4376937], [120.6036111, 15.4375874]]}, "properties": {"city": "tarlac", "name": "Luisita Access Road", "highway": "secondary", "v_posted": 60, "posted_imputed": false, "v_safe": 50, "gap": 10, "R": 2.07, "exposure": 0.103, "vru_150m": 0, "sss": 13.8, "recommended": 50, "fatal_reduction_pct": 51.8, "why": "undivided arterial, side-impact intersections", "pop_density": 3347.1, "pop_density_peak": 13348.9, "v_design": 50, "design_gap": 0}}, {"type": "Feature", "geometry": {"type": "LineString", "coordinates": [[120.5975762, 15.4459359], [120.5975396, 15.4461928]]}, "properties": {"city": "tarlac", "name": "MacArthur Highway", "highway": "trunk", "v_posted": 80, "posted_imputed": false, "v_safe": 70, "gap": 10, "R": 1.71, "exposure": 0.478, "vru_150m": 1, "sss": 18.5, "recommended": 70, "fatal_reduction_pct": 41.4, "why": "trunk highway (head-on only; no at-grade ped mixing assumed)", "pop_density": 11248.1, "pop_density_peak": 11248.1, "v_design": 70, "design_gap": 0}}, {"type": "Feature", "geometry": {"type": "LineString", "coordinates": [[120.5975396, 15.4461928], [120.5975269, 15.4463956], [120.5975179, 15.4465125], [120.5975139, 15.4466211], [120.5975206, 15.4467246], [120.5975277, 15.4468169], [120.5975374, 15.4468466], [120.5975622, 15.4470386], [120.597587, 15.4471539], [120.5976655, 15.4473875], [120.5976787, 15.4474294], [120.5976893, 15.4474614], [120.5977755, 15.4477192], [120.5979711, 15.4483059], [120.5980633, 15.4485244], [120.5984892, 15.4498367], [120.5985434, 15.4499965], [120.5986452, 15.4502919], [120.5986552, 15.4503224], [120.5991115, 15.451721], [120.5992686, 15.452173], [120.5994249, 15.4526371], [120.5995047, 15.4528739]]}, "properties": {"city": "tarlac", "name": "MacArthur Highway", "highway": "trunk", "v_posted": 80, "posted_imputed": false, "v_safe": 70, "gap": 10, "R": 1.71, "exposure": 0.271, "vru_150m": 0, "sss": 15.9, "recommended": 70, "fatal_reduction_pct": 41.4, "why": "trunk highway (head-on only; no at-grade ped mixing assumed)", "pop_density": 8766.8, "pop_density_peak": 11248.1, "v_design": 70, "design_gap": 0}}, {"type": "Feature", "geometry": {"type": "LineString", "coordinates": [[120.598863, 15.4710032], [120.5989583, 15.4706749], [120.599028, 15.470366], [120.5990652, 15.47019], [120.5990924, 15.4700519], [120.5991246, 15.4698671], [120.5991943, 15.4694005], [120.5992466, 15.468886], [120.5992628, 15.4684614], [120.5992676, 15.4678708], [120.5992424, 15.4672631], [120.5992111, 15.4670136], [120.5991957, 15.4669131], [120.5991464, 15.4665901], [120.5991399, 15.4665477], [120.5991226, 15.4664126], [120.5991082, 15.4663385], [120.5991012, 15.4662945], [120.5990911, 15.4662109], [120.5990268, 15.4658484], [120.5989938, 15.4656668], [120.5989823, 15.4656031], [120.598962, 15.4654981], [120.5989497, 15.4654344], [120.5989345, 15.4653528], [120.5989028, 15.4651888], [120.5988718, 15.4650286], [120.5988608, 15.4649616], [120.5988479, 15.4648834], [120.5988211, 15.4647205], [120.5988125, 15.4646867], [120.5987546, 15.4643164], [120.5987456, 15.4642555], [120.5986326, 15.463382], [120.5986281, 15.4632457], [120.5986286, 15.4629872], [120.5986237, 15.4627695], [120.5986287, 15.4624827], [120.5986369, 15.462294], [120.5986514, 15.4620549], [120.5986784, 15.4616828], [120.5986926, 15.4615722], [120.5987115, 15.4614358], [120.5987278, 15.4612823], [120.5987838, 15.4609127], [120.5988322, 15.4606641], [120.5988474, 15.4605431], [120.5988631, 15.4604661], [120.5988818, 15.4603746], [120.5989318, 15.4601461], [120.5990218, 15.4597824], [120.5990574, 15.4596384], [120.5990933, 15.4594615], [120.599099, 15.4594387], [120.5991581, 15.459175], [120.5992587, 15.4587098], [120.5992888, 15.4585822], [120.5994022, 15.4580893], [120.5994509, 15.4578676], [120.5996009, 15.4571696], [120.5997001, 15.456707], [120.5998541, 15.4560121], [120.599856, 15.4559991], [120.5998812, 15.455831], [120.5999044, 15.4556754], [120.5999118, 15.4556084], [120.599935, 15.4553545], [120.5999446, 15.4551952], [120.5999481, 15.454979], [120.5999354, 15.4547031], [120.5999197, 15.4544884], [120.599887, 15.4542555], [120.5998467, 15.4540098], [120.5997996, 15.4538244], [120.5996408, 15.4532898], [120.5996283, 15.4532337], [120.5995047, 15.4528739]]}, "properties": {"city": "tarlac", "name": "MacArthur Highway", "highway": "trunk", "v_posted": 80, "posted_imputed": false, "v_safe": 70, "gap": 10, "R": 1.71, "exposure": 0.528, "vru_150m": 2, "sss": 19.1, "recommended": 70, "fatal_reduction_pct": 41.4, "why": "trunk highway (head-on only; no at-grade ped mixing assumed)", "pop_density": 6886.5, "pop_density_peak": 10843.1, "v_design": 70, "design_gap": 0}}, {"type": "Feature", "geometry": {"type": "LineString", "coordinates": [[120.5988858, 15.4339628], [120.5989196, 15.4340868], [120.5989366, 15.4341924], [120.5989711, 15.4343675], [120.5989766, 15.4343939], [120.59899, 15.4345295], [120.5990227, 15.4348598], [120.5990327, 15.4350728], [120.5990321, 15.4351781], [120.5990304, 15.4354453], [120.5989806, 15.4357949], [120.5989747, 15.4358391], [120.5989439, 15.4360627], [120.5989181, 15.4362747], [120.598909, 15.4363238], [120.5988984, 15.4364213], [120.5988282, 15.4369893], [120.5987926, 15.4372438], [120.5987596, 15.4374913], [120.5987515, 15.4375593], [120.5986923, 15.4380899], [120.598667, 15.4382783], [120.5986316, 15.438541], [120.598619, 15.4386237], [120.5985303, 15.439235], [120.5984763, 15.4395926], [120.5984431, 15.4398177], [120.5984293, 15.439914], [120.5984107, 15.4400436], [120.5983839, 15.4402297], [120.5983529, 15.4404459], [120.5982944, 15.4408463], [120.5982281, 15.4413004], [120.5982224, 15.4414003], [120.598192, 15.4416076], [120.598167, 15.4417776], [120.5981594, 15.4418294], [120.5981532, 15.4418713], [120.5981321, 15.4420683], [120.5980959, 15.4423385], [120.5980608, 15.4425754], [120.5980383, 15.4427173], [120.5980153, 15.4428663], [120.5979514, 15.443312], [120.5979496, 15.4433382], [120.5979413, 15.4433896], [120.5979185, 15.4435886], [120.5979049, 15.4436675], [120.5978572, 15.4440138], [120.5978188, 15.4443036], [120.5977798, 15.4445975], [120.5976913, 15.4451863], [120.5976789, 15.4452923], [120.5976634, 15.4454147], [120.5976432, 15.4455467], [120.5975886, 15.4458303], [120.5975762, 15.4459359]]}, "properties": {"city": "tarlac", "name": "MacArthur Highway", "highway": "trunk", "v_posted": 80, "posted_imputed": false, "v_safe": 70, "gap": 10, "R": 1.71, "exposure": 0.829, "vru_150m": 4, "sss": 22.9, "recommended": 70, "fatal_reduction_pct": 41.4, "why": "trunk highway (head-on only; no at-grade ped mixing assumed)", "pop_density": 4749.5, "pop_density_peak": 11248.1, "v_design": 70, "design_gap": 0}}, {"type": "Feature", "geometry": {"type": "LineString", "coordinates": [[120.5988388, 15.4338354], [120.5988858, 15.4339628]]}, "properties": {"city": "tarlac", "name": "MacArthur Highway", "highway": "trunk", "v_posted": 80, "posted_imputed": false, "v_safe": 70, "gap": 10, "R": 1.71, "exposure": 0.056, "vru_150m": 0, "sss": 13.2, "recommended": 70, "fatal_reduction_pct": 41.4, "why": "trunk highway (head-on only; no at-grade ped mixing assumed)", "pop_density": 1814.9, "pop_density_peak": 1814.9, "v_design": 70, "design_gap": 0}}, {"type": "Feature", "geometry": {"type": "LineString", "coordinates": [[120.5979423, 15.430851], [120.5979438, 15.4308719], [120.5979517, 15.431015], [120.5979902, 15.4312504], [120.5980586, 15.4315717], [120.5980758, 15.431649], [120.5982621, 15.4322513], [120.5983376, 15.4324539], [120.5983648, 15.4325412], [120.5984163, 15.4326793], [120.5984388, 15.4327333], [120.5984659, 15.4328107], [120.598489, 15.432881], [120.5985058, 15.4329279], [120.5985221, 15.4329732], [120.59862, 15.4332311], [120.5986458, 15.433299], [120.598656, 15.4333233], [120.5987504, 15.433583], [120.5988388, 15.4338354]]}, "properties": {"city": "tarlac", "name": "MacArthur Highway", "highway": "trunk", "v_posted": 80, "posted_imputed": false, "v_safe": 70, "gap": 10, "R": 1.71, "exposure": 0.26, "vru_150m": 1, "sss": 15.7, "recommended": 70, "fatal_reduction_pct": 41.4, "why": "trunk highway (head-on only; no at-grade ped mixing assumed)", "pop_density": 2411.5, "pop_density_peak": 3312.3, "v_design": 70, "design_gap": 0}}, {"type": "Feature", "geometry": {"type": "LineString", "coordinates": [[120.6079075, 15.4393627], [120.6077953, 15.4395717], [120.6077102, 15.4397316]]}, "properties": {"city": "tarlac", "name": "", "highway": "service", "v_posted": 40, "posted_imputed": false, "v_safe": 30, "gap": 10, "R": 3.16, "exposure": 0.0, "vru_150m": 0, "sss": 12.5, "recommended": 30, "fatal_reduction_pct": 68.4, "why": "local road, frontage/pedestrian mixing", "pop_density": 0.0, "pop_density_peak": 0.0, "v_design": 25, "design_gap": -5}}, {"type": "Feature", "geometry": {"type": "LineString", "coordinates": [[120.642119, 15.4362266], [120.641765, 15.436074], [120.6415397, 15.4359977], [120.641309, 15.4359034], [120.6411012, 15.4358038], [120.6409281, 15.4357857], [120.6407562, 15.435771], [120.6405848, 15.4357599], [120.6403595, 15.4357599], [120.6401501, 15.4357641], [120.6399746, 15.4357754], [120.6398314, 15.4357892], [120.6396461, 15.4358142], [120.6394623, 15.4358387], [120.639288, 15.4358711], [120.6391177, 15.4359073], [120.6389518, 15.4359469], [120.6388132, 15.4359861], [120.6386872, 15.4360275], [120.6385611, 15.4360676], [120.6384801, 15.4360962]]}, "properties": {"city": "tarlac", "name": "Luisita Access Road", "highway": "secondary", "v_posted": 60, "posted_imputed": false, "v_safe": 50, "gap": 10, "R": 2.07, "exposure": 0.457, "vru_150m": 0, "sss": 18.2, "recommended": 50, "fatal_reduction_pct": 51.8, "why": "undivided arterial, side-impact intersections", "pop_density": 14791.1, "pop_density_peak": 18081.3, "v_design": 50, "design_gap": 0}}, {"type": "Feature", "geometry": {"type": "LineString", "coordinates": [[120.568467, 15.4894801], [120.5682626, 15.4895348], [120.5680009, 15.4895848], [120.5678621, 15.4896029], [120.5677461, 15.489608], [120.5676039, 15.489608], [120.5674987, 15.4896119], [120.5674256, 15.4896106], [120.5673357, 15.4896022], [120.5672204, 15.4895848], [120.5671712, 15.4895726], [120.5671473, 15.4895667], [120.567042, 15.4895356], [120.5665411, 15.4893599], [120.5659906, 15.4891357], [120.5655876, 15.4889689], [120.5653227, 15.4888733], [120.5651858, 15.4888154], [120.5649881, 15.4887318], [120.5648761, 15.4886853], [120.5647668, 15.4886471], [120.5645789, 15.4885772], [120.5643618, 15.488492], [120.564052, 15.4883706], [120.5638669, 15.4883085], [120.5638133, 15.4882901], [120.5637402, 15.4882685], [120.5636658, 15.4882497], [120.5635631, 15.488231], [120.5634666, 15.4882219], [120.5632722, 15.4882213], [120.5631193, 15.4882277], [120.5628584, 15.4882562], [120.562786, 15.4882691], [120.5626159, 15.4882962], [120.5625755, 15.4883027], [120.5620598, 15.4883783], [120.5615663, 15.488463], [120.5613336, 15.4885056], [120.5612097, 15.4885287], [120.5611251, 15.4885444], [120.5609581, 15.4885874], [120.5608086, 15.48862], [120.5604899, 15.4887014], [120.5603157, 15.4887563], [120.5597572, 15.4889174], [120.5597196, 15.4889282], [120.5595063, 15.4889935], [120.5593258, 15.4890615]]}, "properties": {"city": "tarlac", "name": "Tarlac City-San Jose Road", "highway": "secondary", "v_posted": 60, "posted_imputed": false, "v_safe": 50, "gap": 10, "R": 2.07, "exposure": 0.122, "vru_150m": 0, "sss": 14.0, "recommended": 50, "fatal_reduction_pct": 51.8, "why": "undivided arterial, side-impact intersections", "pop_density": 3944.2, "pop_density_peak": 8010.3, "v_design": 50, "design_gap": 0}}, {"type": "Feature", "geometry": {"type": "LineString", "coordinates": [[120.5701061, 15.5020103], [120.5701126, 15.5020336], [120.5703516, 15.5030721]]}, "properties": {"city": "tarlac", "name": "Romulo Highway", "highway": "trunk", "v_posted": 80, "posted_imputed": false, "v_safe": 70, "gap": 10, "R": 1.71, "exposure": 0.214, "vru_150m": 0, "sss": 15.2, "recommended": 70, "fatal_reduction_pct": 41.4, "why": "trunk highway (head-on only; no at-grade ped mixing assumed)", "pop_density": 6934.4, "pop_density_peak": 8864.1, "v_design": 70, "design_gap": 0}}, {"type": "Feature", "geometry": {"type": "LineString", "coordinates": [[120.5703213, 15.4832595], [120.5700483, 15.484767]]}, "properties": {"city": "tarlac", "name": "Romulo Boulevard", "highway": "trunk", "v_posted": 80, "posted_imputed": false, "v_safe": 70, "gap": 10, "R": 1.71, "exposure": 0.286, "vru_150m": 0, "sss": 16.1, "recommended": 70, "fatal_reduction_pct": 41.4, "why": "trunk highway (head-on only; no at-grade ped mixing assumed)", "pop_density": 9260.5, "pop_density_peak": 9499.1, "v_design": 70, "design_gap": 0}}, {"type": "Feature", "geometry": {"type": "LineString", "coordinates": [[120.5700483, 15.484767], [120.5699946, 15.4850181], [120.5699704, 15.485119], [120.5699314, 15.4852668], [120.5698831, 15.485409], [120.5698226, 15.4855888], [120.5695303, 15.4863736], [120.5694562, 15.4865726], [120.5693482, 15.4868501], [120.5693293, 15.486901], [120.5691628, 15.4873291], [120.5688989, 15.4880409], [120.5688631, 15.4881403], [120.5687258, 15.4884966], [120.5686775, 15.4886336], [120.5686173, 15.4888066], [120.5685702, 15.4889748], [120.5685324, 15.4891248], [120.5684927, 15.4893198], [120.568467, 15.4894801], [120.5684508, 15.4897515], [120.5684495, 15.4898794], [120.5684506, 15.4900146], [120.5684562, 15.4901935], [120.5684696, 15.4903434], [120.5684857, 15.4905295], [120.5685058, 15.4907091], [120.568591, 15.4913859], [120.568623, 15.4916087], [120.5686847, 15.4920598], [120.5686945, 15.492124], [120.568733, 15.492462], [120.5687463, 15.492571], [120.5688218, 15.4932351], [120.5688504, 15.4934529], [120.5689093, 15.4939725], [120.5689229, 15.4940499], [120.5689708, 15.4944254], [120.5690691, 15.4952699], [120.5690998, 15.4955056], [120.5691714, 15.495976], [120.569278, 15.4968045], [120.5693322, 15.497226], [120.5693594, 15.4975424], [120.5694018, 15.4977984], [120.5694008, 15.4979671], [120.5694637, 15.4984551], [120.5695162, 15.498862], [120.5695873, 15.4993375], [120.5696479, 15.4997434], [120.5697282, 15.5002808], [120.5699352, 15.5013308]]}, "properties": {"city": "tarlac", "name": "Romulo Highway", "highway": "trunk", "v_posted": 80, "posted_imputed": false, "v_safe": 70, "gap": 10, "R": 1.71, "exposure": 0.405, "vru_150m": 1, "sss": 17.6, "recommended": 70, "fatal_reduction_pct": 41.4, "why": "trunk highway (head-on only; no at-grade ped mixing assumed)", "pop_density": 8294.6, "pop_density_peak": 12414.5, "v_design": 70, "design_gap": 0}}, {"type": "Feature", "geometry": {"type": "LineString", "coordinates": [[120.5700626, 15.5018306], [120.5701061, 15.5020103]]}, "properties": {"city": "tarlac", "name": "Romulo Highway", "highway": "trunk", "v_posted": 80, "posted_imputed": false, "v_safe": 70, "gap": 10, "R": 1.71, "exposure": 0.274, "vru_150m": 0, "sss": 15.9, "recommended": 70, "fatal_reduction_pct": 41.4, "why": "trunk highway (head-on only; no at-grade ped mixing assumed)", "pop_density": 8864.1, "pop_density_peak": 8864.1, "v_design": 70, "design_gap": 0}}, {"type": "Feature", "geometry": {"type": "LineString", "coordinates": [[120.5704033, 15.5033032], [120.5708165, 15.5048693], [120.5708863, 15.5051485], [120.5710848, 15.5059665], [120.5712323, 15.5065377], [120.5712739, 15.5069499], [120.5712476, 15.5072616], [120.5712457, 15.5072846], [120.571157, 15.507699], [120.5709996, 15.5080774], [120.5708085, 15.5084296]]}, "properties": {"city": "tarlac", "name": "Romulo Highway", "highway": "trunk", "v_posted": 80, "posted_imputed": false, "v_safe": 70, "gap": 10, "R": 1.71, "exposure": 0.371, "vru_150m": 1, "sss": 17.1, "recommended": 70, "fatal_reduction_pct": 41.4, "why": "trunk highway (head-on only; no at-grade ped mixing assumed)", "pop_density": 6899.6, "pop_density_peak": 15637.5, "v_design": 70, "design_gap": 0}}, {"type": "Feature", "geometry": {"type": "LineString", "coordinates": [[120.5703516, 15.5030721], [120.5704033, 15.5033032]]}, "properties": {"city": "tarlac", "name": "Romulo Highway", "highway": "trunk", "v_posted": 80, "posted_imputed": false, "v_safe": 70, "gap": 10, "R": 1.71, "exposure": 0.077, "vru_150m": 0, "sss": 13.5, "recommended": 70, "fatal_reduction_pct": 41.4, "why": "trunk highway (head-on only; no at-grade ped mixing assumed)", "pop_density": 2502.3, "pop_density_peak": 5004.6, "v_design": 70, "design_gap": 0}}, {"type": "Feature", "geometry": {"type": "LineString", "coordinates": [[120.5821315, 15.4778393], [120.5820838, 15.4778478], [120.5813038, 15.4779872], [120.5808671, 15.4780368], [120.5805153, 15.4780331], [120.5803482, 15.478026], [120.5801453, 15.4780098], [120.5799857, 15.47798], [120.5796639, 15.4779047], [120.579442, 15.4778578], [120.5793003, 15.4778278], [120.5792237, 15.4778104], [120.5791437, 15.4777918], [120.5789089, 15.4777304], [120.5788737, 15.4777212], [120.578755, 15.4776902], [120.5786485, 15.4776623], [120.5784198, 15.4776048], [120.577388, 15.4773454], [120.5772943, 15.4773211], [120.5772132, 15.4773027], [120.5770802, 15.4772634], [120.5769386, 15.477222], [120.5767403, 15.477177], [120.5763299, 15.4770838], [120.5761908, 15.4770655], [120.5760847, 15.4770518], [120.5759242, 15.4770471], [120.5757295, 15.4770583], [120.5754686, 15.4770976], [120.5751921, 15.4771603], [120.5751509, 15.4771713], [120.5751016, 15.4771931], [120.5750486, 15.4772165], [120.5749366, 15.4772659], [120.5747597, 15.477344], [120.5746633, 15.4773975], [120.574576, 15.4774459], [120.5743692, 15.4775821], [120.5743302, 15.4776078], [120.574115, 15.477748], [120.5736836, 15.4780325], [120.5735767, 15.4781018], [120.5733436, 15.4782527], [120.5731506, 15.4783814], [120.5730354, 15.4784582], [120.5727647, 15.4786507], [120.5725154, 15.4788812], [120.5724506, 15.478956], [120.5723537, 15.4790679], [120.5722967, 15.4791499], [120.5721841, 15.4793116], [120.5720346, 15.4795634], [120.5717748, 15.4800357], [120.5713767, 15.4807244], [120.5713593, 15.4807561], [120.5711666, 15.4811086], [120.5708143, 15.481753], [120.5707309, 15.4819054], [120.5706983, 15.4819818]]}, "properties": {"city": "tarlac", "name": "Romulo Boulevard", "highway": "trunk", "v_posted": 80, "posted_imputed": false, "v_safe": 70, "gap": 10, "R": 1.71, "exposure": 0.359, "vru_150m": 1, "sss": 17.0, "recommended": 70, "fatal_reduction_pct": 41.4, "why": "trunk highway (head-on only; no at-grade ped mixing assumed)", "pop_density": 6410.2, "pop_density_peak": 10774.0, "v_design": 60, "design_gap": -10}}, {"type": "Feature", "geometry": {"type": "LineString", "coordinates": [[120.5593258, 15.4890615], [120.5591342, 15.4891263]]}, "properties": {"city": "tarlac", "name": "Tarlac City-San Jose Road", "highway": "secondary", "v_posted": 60, "posted_imputed": false, "v_safe": 50, "gap": 10, "R": 2.07, "exposure": 0.085, "vru_150m": 0, "sss": 13.6, "recommended": 50, "fatal_reduction_pct": 51.8, "why": "undivided arterial, side-impact intersections", "pop_density": 2734.5, "pop_density_peak": 2840.3, "v_design": 50, "design_gap": 0}}, {"type": "Feature", "geometry": {"type": "LineString", "coordinates": [[120.5585571, 15.4896072], [120.5583106, 15.4898865], [120.5582572, 15.4899515], [120.5581701, 15.4900575], [120.5580627, 15.4901891], [120.5580288, 15.4902304], [120.5579598, 15.4903145], [120.5578411, 15.4904592], [120.5576552, 15.4906858], [120.5575114, 15.4908418], [120.5573998, 15.4909717], [120.5572975, 15.4911107], [120.5570661, 15.4911851], [120.5568898, 15.4912293], [120.5567233, 15.4912553], [120.5565415, 15.4912468], [120.5563153, 15.4911959], [120.5562495, 15.4911784], [120.556216, 15.4911678], [120.5559988, 15.4910992], [120.5558755, 15.4910603], [120.555743, 15.4910194], [120.5555098, 15.4909475], [120.5548349, 15.4907368], [120.5541695, 15.4905252], [120.5532778, 15.4902417], [120.5532201, 15.4902234], [120.5528256, 15.4900985], [120.5526766, 15.4900667], [120.5522736, 15.4899808], [120.5521562, 15.4899557], [120.5517365, 15.4898643], [120.5515328, 15.4898199], [120.5514383, 15.4898027], [120.5508651, 15.4897167], [120.5507361, 15.4896905], [120.5503228, 15.4895914], [120.550181, 15.4895518], [120.5500029, 15.4894873], [120.5499783, 15.4894763], [120.5498653, 15.4894301], [120.5497928, 15.4893986], [120.5497163, 15.4893653], [120.5496599, 15.4893397], [120.5495815, 15.4893036], [120.5491783, 15.4890852], [120.5490721, 15.4890276], [120.5489023, 15.4889356], [120.5486608, 15.4888294], [120.5484538, 15.4888014], [120.5483301, 15.4887989], [120.5482511, 15.4887974], [120.5479574, 15.4888381], [120.5475848, 15.4888895], [120.547523, 15.488898], [120.5472435, 15.4889366], [120.547039, 15.4889564], [120.5468902, 15.4889677], [120.5466654, 15.4889219], [120.5466279, 15.4889082], [120.5464252, 15.4888344], [120.546327, 15.4887894], [120.5461924, 15.4887271], [120.5460342, 15.488655], [120.5459738, 15.4886275], [120.5458571, 15.4885653], [120.5453815, 15.4883119], [120.5446991, 15.4879732], [120.5446413, 15.4879529], [120.5444288, 15.4878783], [120.5443419, 15.4878754], [120.5442598, 15.4878726], [120.5440631, 15.4878906], [120.5438925, 15.4879454], [120.5433395, 15.4882199], [120.5431161, 15.4883375], [120.5430278, 15.488384], [120.5428375, 15.4884632], [120.5427686, 15.4884733], [120.5426521, 15.4884904], [120.5423098, 15.4884465], [120.5422474, 15.4884435], [120.5418233, 15.4884231], [120.541757, 15.4884199], [120.5414829, 15.4883984], [120.5413135, 15.4883851], [120.541085, 15.4883586], [120.5405708, 15.4883669], [120.5405223, 15.4883677], [120.5400373, 15.4883793], [120.5396569, 15.488387], [120.5392701, 15.488333], [120.538919, 15.4882827], [120.5385799, 15.488234], [120.538512, 15.4882213], [120.5382769, 15.4881773], [120.5380051, 15.4880778], [120.5376157, 15.4879164], [120.5372396, 15.4877605], [120.5368419, 15.4876354], [120.5364875, 15.4875483], [120.5364495, 15.487539], [120.5359843, 15.4874642], [120.5359032, 15.487454], [120.535463, 15.4873985], [120.5352558, 15.4873676], [120.5350386, 15.4873496], [120.5349098, 15.4873676], [120.5347624, 15.4873962], [120.5340883, 15.4876077], [120.5333434, 15.4878523], [120.5326165, 15.4880914], [120.5322876, 15.4882086], [120.5316733, 15.4884274], [120.5312638, 15.4885715], [120.5309851, 15.4886697], [120.5306557, 15.4887814], [120.529895, 15.4890547], [120.5296756, 15.4891375], [120.5295241, 15.4892003], [120.5293836, 15.489264], [120.5292409, 15.4893421], [120.5291021, 15.4894286], [120.5288559, 15.4896108], [120.5285832, 15.4898263], [120.5284161, 15.4899445], [120.5282706, 15.4900285], [120.5281159, 15.4900916], [120.5280053, 15.4901257], [120.5278856, 15.4901583], [120.5271844, 15.4903431], [120.5264782, 15.490532], [120.5263426, 15.4905585], [120.5261791, 15.4905837], [120.5256947, 15.4905857], [120.5254079, 15.4905809], [120.5250605, 15.4905638], [120.5246343, 15.4905252], [120.5239767, 15.4904345], [120.5228055, 15.4903184], [120.5226755, 15.4903058], [120.5225027, 15.4902794], [120.5223492, 15.4902685], [120.5222009, 15.4902642], [120.5220389, 15.490272]]}, "properties": {"city": "tarlac", "name": "Tarlac City-San Jose Road", "highway": "secondary", "v_posted": 60, "posted_imputed": false, "v_safe": 50, "gap": 10, "R": 2.07, "exposure": 0.039, "vru_150m": 0, "sss": 13.0, "recommended": 50, "fatal_reduction_pct": 51.8, "why": "undivided arterial, side-impact intersections", "pop_density": 1264.4, "pop_density_peak": 4367.8, "v_design": 50, "design_gap": 0}}, {"type": "Feature", "geometry": {"type": "LineString", "coordinates": [[120.5706356, 15.4821274], [120.5706224, 15.4821533], [120.5705019, 15.4824948], [120.5703917, 15.4829196], [120.5703496, 15.483107], [120.5703334, 15.4831944], [120.5703213, 15.4832595]]}, "properties": {"city": "tarlac", "name": "Romulo Boulevard", "highway": "trunk", "v_posted": 80, "posted_imputed": false, "v_safe": 70, "gap": 10, "R": 1.71, "exposure": 0.271, "vru_150m": 0, "sss": 15.9, "recommended": 70, "fatal_reduction_pct": 41.4, "why": "trunk highway (head-on only; no at-grade ped mixing assumed)", "pop_density": 8753.1, "pop_density_peak": 9499.1, "v_design": 70, "design_gap": 0}}, {"type": "Feature", "geometry": {"type": "LineString", "coordinates": [[120.5706983, 15.4819818], [120.5706356, 15.4821274]]}, "properties": {"city": "tarlac", "name": "Romulo Boulevard", "highway": "trunk", "v_posted": 80, "posted_imputed": false, "v_safe": 70, "gap": 10, "R": 1.71, "exposure": 0.398, "vru_150m": 1, "sss": 17.5, "recommended": 70, "fatal_reduction_pct": 41.4, "why": "trunk highway (head-on only; no at-grade ped mixing assumed)", "pop_density": 8007.0, "pop_density_peak": 8007.0, "v_design": 70, "design_gap": 0}}, {"type": "Feature", "geometry": {"type": "LineString", "coordinates": [[120.5700124, 15.5016268], [120.5700534, 15.50179], [120.5700626, 15.5018306]]}, "properties": {"city": "tarlac", "name": "Romulo Highway", "highway": "trunk", "v_posted": 80, "posted_imputed": false, "v_safe": 70, "gap": 10, "R": 1.71, "exposure": 0.274, "vru_150m": 0, "sss": 15.9, "recommended": 70, "fatal_reduction_pct": 41.4, "why": "trunk highway (head-on only; no at-grade ped mixing assumed)", "pop_density": 8864.1, "pop_density_peak": 8864.1, "v_design": 70, "design_gap": 0}}, {"type": "Feature", "geometry": {"type": "LineString", "coordinates": [[120.5699352, 15.5013308], [120.5700124, 15.5016268]]}, "properties": {"city": "tarlac", "name": "Romulo Highway", "highway": "trunk", "v_posted": 80, "posted_imputed": false, "v_safe": 70, "gap": 10, "R": 1.71, "exposure": 0.329, "vru_150m": 0, "sss": 16.6, "recommended": 70, "fatal_reduction_pct": 41.4, "why": "trunk highway (head-on only; no at-grade ped mixing assumed)", "pop_density": 10639.3, "pop_density_peak": 12414.5, "v_design": 70, "design_gap": 0}}, {"type": "Feature", "geometry": {"type": "LineString", "coordinates": [[120.5587094, 15.4894496], [120.5585571, 15.4896072]]}, "properties": {"city": "tarlac", "name": "Tarlac City-San Jose Road", "highway": "secondary", "v_posted": 60, "posted_imputed": false, "v_safe": 50, "gap": 10, "R": 2.07, "exposure": 0.055, "vru_150m": 0, "sss": 13.2, "recommended": 50, "fatal_reduction_pct": 51.8, "why": "undivided arterial, side-impact intersections", "pop_density": 1777.9, "pop_density_peak": 1777.9, "v_design": 50, "design_gap": 0}}, {"type": "Feature", "geometry": {"type": "LineString", "coordinates": [[120.5591342, 15.4891263], [120.5590839, 15.4891499], [120.5590269, 15.4891718], [120.5589773, 15.4892035], [120.5589108, 15.4892595], [120.5588271, 15.4893237], [120.5587094, 15.4894496]]}, "properties": {"city": "tarlac", "name": "Tarlac City-San Jose Road", "highway": "secondary", "v_posted": 60, "posted_imputed": false, "v_safe": 50, "gap": 10, "R": 2.07, "exposure": 0.068, "vru_150m": 0, "sss": 13.4, "recommended": 50, "fatal_reduction_pct": 51.8, "why": "undivided arterial, side-impact intersections", "pop_density": 2203.3, "pop_density_peak": 2628.7, "v_design": 50, "design_gap": 0}}, {"type": "Feature", "geometry": {"type": "LineString", "coordinates": [[120.5965514, 15.5040999], [120.5965403, 15.5042492], [120.5965345, 15.5043923], [120.5965242, 15.5046122], [120.5965188, 15.5048642], [120.5964983, 15.5052946], [120.5964947, 15.5053707], [120.5964916, 15.505533], [120.5964887, 15.505681], [120.596484, 15.5059265], [120.596496, 15.5062935], [120.5965041, 15.5066437], [120.5965135, 15.5069525], [120.5965255, 15.507083], [120.5965308, 15.5071611], [120.5965372, 15.5073687], [120.596562, 15.5081796], [120.5965966, 15.5093084], [120.5966169, 15.5097887], [120.5966212, 15.5102798], [120.5965859, 15.510524], [120.5965631, 15.510682], [120.5965473, 15.5107451], [120.5964457, 15.5111509], [120.5962711, 15.511736], [120.5961262, 15.5122689], [120.5960762, 15.5125377], [120.596044, 15.5128917], [120.5960078, 15.5133402], [120.5959515, 15.5139798], [120.5959235, 15.5142515], [120.5957437, 15.5157527], [120.5955967, 15.516982], [120.5955671, 15.5173854], [120.5954679, 15.5181714], [120.5954043, 15.5186758], [120.5953899, 15.5188133], [120.5953687, 15.5190163], [120.5953073, 15.5196049], [120.5952907, 15.5197411], [120.5951592, 15.5209099], [120.5951182, 15.5212741], [120.595109, 15.5213508], [120.5949122, 15.5230048], [120.5948071, 15.5239854], [120.5947437, 15.5246313], [120.5946842, 15.5252104], [120.594641, 15.525549], [120.5945541, 15.5263798], [120.5944863, 15.5269921], [120.5944147, 15.5276135], [120.594396, 15.527763], [120.5943531, 15.5281554], [120.5943208, 15.5284059], [120.5943112, 15.5285046], [120.5942907, 15.5287167], [120.5942571, 15.5290345], [120.594212, 15.529597], [120.5941456, 15.530164], [120.5940814, 15.5306948], [120.5940119, 15.5312316], [120.5939651, 15.5317195], [120.593961, 15.531762], [120.593924, 15.5320915], [120.5937816, 15.5333574], [120.5937414, 15.5338626], [120.5935496, 15.5354997], [120.5935172, 15.5357635], [120.5934853, 15.536023], [120.593457, 15.5363615], [120.5934303, 15.5366161], [120.5933841, 15.5370445], [120.5933874, 15.5372867], [120.5934023, 15.537434], [120.5934414, 15.5377497], [120.5934504, 15.53781], [120.5934994, 15.5382404], [120.593522, 15.5383915], [120.5935381, 15.538483], [120.5935643, 15.5386692], [120.5935831, 15.5388101], [120.593601, 15.5389709], [120.593633, 15.539184], [120.5936852, 15.5395035], [120.5937427, 15.5397248], [120.5938633, 15.5401939], [120.5939121, 15.5403588], [120.5939329, 15.5404435], [120.5939878, 15.5406273], [120.594102, 15.5410124], [120.594139, 15.5411255], [120.5942936, 15.5416519], [120.5944179, 15.5420749], [120.5944898, 15.5423042], [120.5945568, 15.5425416], [120.5949023, 15.5437668], [120.5949165, 15.5438089], [120.5949459, 15.5439072], [120.5952094, 15.5447874], [120.5952439, 15.5449013], [120.595401, 15.5454368], [120.5954942, 15.545747], [120.5955684, 15.5460039], [120.5957073, 15.5465101], [120.5958065, 15.5468391], [120.5959465, 15.5472546], [120.5960495, 15.5475568], [120.596154, 15.5478203], [120.5963023, 15.5481818], [120.5964457, 15.5484952], [120.5965321, 15.5486887], [120.5966542, 15.5489622], [120.5967599, 15.5491828], [120.5969549, 15.5495634], [120.5971015, 15.549872], [120.5972232, 15.5501354], [120.5976332, 15.5509639], [120.5976786, 15.5510556], [120.5977548, 15.5512096], [120.5978476, 15.551374]]}, "properties": {"city": "tarlac", "name": "MacArthur Highway", "highway": "trunk", "v_posted": 80, "posted_imputed": false, "v_safe": 70, "gap": 10, "R": 1.71, "exposure": 0.49, "vru_150m": 2, "sss": 18.6, "recommended": 70, "fatal_reduction_pct": 41.4, "why": "trunk highway (head-on only; no at-grade ped mixing assumed)", "pop_density": 4837.7, "pop_density_peak": 9200.9, "v_design": 70, "design_gap": 0}}, {"type": "Feature", "geometry": {"type": "LineString", "coordinates": [[120.5849338, 15.477316], [120.5847476, 15.4773566], [120.5846336, 15.4773814], [120.5844516, 15.4774217], [120.5842723, 15.4774553], [120.5841647, 15.4774754], [120.5837035, 15.4775618], [120.5833621, 15.4776222], [120.5833219, 15.4776294], [120.5826821, 15.4777436], [120.582465, 15.4777833], [120.5821315, 15.4778393]]}, "properties": {"city": "tarlac", "name": "Romulo Boulevard", "highway": "trunk", "v_posted": 80, "posted_imputed": false, "v_safe": 70, "gap": 10, "R": 1.71, "exposure": 0.312, "vru_150m": 1, "sss": 16.4, "recommended": 70, "fatal_reduction_pct": 41.4, "why": "trunk highway (head-on only; no at-grade ped mixing assumed)", "pop_density": 4517.4, "pop_density_peak": 4955.9, "v_design": 70, "design_gap": 0}}, {"type": "Feature", "geometry": {"type": "LineString", "coordinates": [[120.5859696, 15.4773519], [120.5858641, 15.4772935], [120.585787, 15.4772508], [120.5857178, 15.4772409], [120.5855495, 15.4772168], [120.5853555, 15.4772341], [120.5851979, 15.4772647], [120.5849338, 15.477316]]}, "properties": {"city": "tarlac", "name": "Romulo Boulevard", "highway": "trunk", "v_posted": 80, "posted_imputed": false, "v_safe": 70, "gap": 10, "R": 1.71, "exposure": 0.687, "vru_150m": 3, "sss": 21.1, "recommended": 70, "fatal_reduction_pct": 41.4, "why": "trunk highway (head-on only; no at-grade ped mixing assumed)", "pop_density": 7044.8, "pop_density_peak": 9133.7, "v_design": 70, "design_gap": 0}}, {"type": "Feature", "geometry": {"type": "LineString", "coordinates": [[120.5957204, 15.4763211], [120.5957518, 15.4762672], [120.5958817, 15.4760562], [120.5959509, 15.4759467], [120.5960507, 15.4758062], [120.5962244, 15.4755812], [120.5963076, 15.4754675], [120.5964303, 15.4753078], [120.5967381, 15.4749052], [120.5969071, 15.4746512], [120.5971103, 15.4743875], [120.597536, 15.4737943], [120.5976467, 15.4736227], [120.5976789, 15.4735759], [120.5979364, 15.4731268], [120.5980912, 15.472845], [120.598175, 15.4727713]]}, "properties": {"city": "tarlac", "name": "MacArthur Highway", "highway": "trunk", "v_posted": 80, "posted_imputed": false, "v_safe": 70, "gap": 10, "R": 1.71, "exposure": 0.25, "vru_150m": 0, "sss": 15.6, "recommended": 70, "fatal_reduction_pct": 41.4, "why": "trunk highway (head-on only; no at-grade ped mixing assumed)", "pop_density": 8100.8, "pop_density_peak": 9284.9, "v_design": 70, "design_gap": 0}}, {"type": "Feature", "geometry": {"type": "LineString", "coordinates": [[120.598175, 15.4727713], [120.5981613, 15.4728942], [120.5981048, 15.4730091], [120.598014, 15.4731673], [120.5980061, 15.473181], [120.5977902, 15.4735488], [120.5977441, 15.4736194], [120.5977254, 15.4736483], [120.5976997, 15.4736877], [120.5976041, 15.4738307], [120.5975796, 15.4738674], [120.5971736, 15.4744473], [120.5970217, 15.4746816], [120.5968051, 15.4749892], [120.5965047, 15.4753886], [120.5963972, 15.4755348], [120.596317, 15.4756484], [120.5961078, 15.4759153], [120.5960072, 15.4760736], [120.5959462, 15.476168], [120.5958496, 15.4763366], [120.5958268, 15.4763787]]}, "properties": {"city": "tarlac", "name": "MacArthur Highway", "highway": "trunk", "v_posted": 80, "posted_imputed": false, "v_safe": 70, "gap": 10, "R": 1.71, "exposure": 0.407, "vru_150m": 1, "sss": 17.6, "recommended": 70, "fatal_reduction_pct": 41.4, "why": "trunk highway (head-on only; no at-grade ped mixing assumed)", "pop_density": 8363.9, "pop_density_peak": 9284.9, "v_design": 70, "design_gap": 0}}, {"type": "Feature", "geometry": {"type": "LineString", "coordinates": [[120.598175, 15.4727713], [120.5982276, 15.4726484], [120.5984513, 15.4721472], [120.5984665, 15.4721048], [120.5986144, 15.4717521], [120.5986726, 15.4716132], [120.5986857, 15.4715711], [120.598863, 15.4710032]]}, "properties": {"city": "tarlac", "name": "MacArthur Highway", "highway": "trunk", "v_posted": 80, "posted_imputed": false, "v_safe": 70, "gap": 10, "R": 1.71, "exposure": 0.208, "vru_150m": 0, "sss": 15.1, "recommended": 70, "fatal_reduction_pct": 41.4, "why": "trunk highway (head-on only; no at-grade ped mixing assumed)", "pop_density": 6726.1, "pop_density_peak": 7649.4, "v_design": 70, "design_gap": 0}}, {"type": "Feature", "geometry": {"type": "LineString", "coordinates": [[120.5676757, 15.5119212], [120.567592, 15.5120158], [120.5670883, 15.512585], [120.5670472, 15.5126275], [120.5668847, 15.5128082], [120.5668107, 15.5128905], [120.5666477, 15.5130726], [120.5661697, 15.5135952], [120.5661133, 15.5136568], [120.5657176, 15.5140948], [120.565684, 15.5141306], [120.5653252, 15.5145129], [120.5651075, 15.5147449], [120.5648584, 15.5150198], [120.564561, 15.5153479], [120.564508, 15.5154065], [120.5644139, 15.5155151], [120.5643901, 15.5155427], [120.5642598, 15.5156817], [120.5639044, 15.5160763], [120.563753, 15.5162426], [120.5634039, 15.5166364], [120.5633694, 15.5166754], [120.5628088, 15.5172686], [120.5626516, 15.5174048], [120.5626103, 15.5174405], [120.5623903, 15.5176033], [120.5622321, 15.5177015], [120.5618432, 15.5179159], [120.5614127, 15.5180684], [120.5610094, 15.5181911], [120.5603438, 15.5183941], [120.559931, 15.5185175], [120.5597916, 15.5185592], [120.5595129, 15.5186424], [120.5584952, 15.5189465], [120.5578945, 15.5191263], [120.5570946, 15.519365], [120.5555262, 15.5198337], [120.5543602, 15.5201821], [120.5542155, 15.5202253], [120.5522762, 15.520822], [120.551477, 15.5210679]]}, "properties": {"city": "tarlac", "name": "Romulo Highway", "highway": "trunk", "v_posted": 80, "posted_imputed": false, "v_safe": 70, "gap": 10, "R": 1.71, "exposure": 0.195, "vru_150m": 0, "sss": 14.9, "recommended": 70, "fatal_reduction_pct": 41.4, "why": "trunk highway (head-on only; no at-grade ped mixing assumed)", "pop_density": 6305.5, "pop_density_peak": 12684.0, "v_design": 70, "design_gap": 0}}, {"type": "Feature", "geometry": {"type": "LineString", "coordinates": [[120.551477, 15.5210679], [120.5510835, 15.5212008], [120.5509112, 15.5212652], [120.5506048, 15.5213933], [120.5502641, 15.5215768], [120.5498417, 15.521852], [120.5494057, 15.5221586], [120.5493575, 15.5221958], [120.5474339, 15.5235558], [120.5473852, 15.5235914], [120.5441016, 15.5258727], [120.5435694, 15.5262423], [120.5435277, 15.5262713], [120.5433634, 15.5263928], [120.5423315, 15.5271544], [120.540911, 15.5281583], [120.5408527, 15.5281951], [120.5396669, 15.5290438], [120.5394217, 15.5292049], [120.5393589, 15.529258], [120.5390292, 15.5294895], [120.5387563, 15.5296812], [120.5386782, 15.5297361], [120.5364585, 15.5312951], [120.5362228, 15.5314606], [120.5348625, 15.5324153], [120.5347106, 15.5325188], [120.5345683, 15.5326092], [120.5343827, 15.5327211], [120.5339, 15.532993], [120.5334681, 15.5331933], [120.5327731, 15.5334795], [120.5324701, 15.5336211], [120.5316507, 15.5339778], [120.5315242, 15.5340338], [120.531478, 15.5340533], [120.5306169, 15.5344402], [120.5301671, 15.5346345], [120.5299961, 15.5347059], [120.5299115, 15.5347412], [120.5296268, 15.5348634], [120.5295184, 15.5349092], [120.5294622, 15.534937], [120.5290497, 15.5351209], [120.5287927, 15.5352333], [120.5287601, 15.535249], [120.5285436, 15.5353421], [120.528382, 15.5354117], [120.5278221, 15.5356858], [120.5275673, 15.5358874], [120.5273953, 15.5360718], [120.5272333, 15.5362827], [120.5267767, 15.5369482], [120.5265565, 15.5372611], [120.5261737, 15.5378454], [120.5254972, 15.5388285], [120.525459, 15.538885]]}, "properties": {"city": "tarlac", "name": "Romulo Highway", "highway": "trunk", "v_posted": 80, "posted_imputed": false, "v_safe": 70, "gap": 10, "R": 1.71, "exposure": 0.035, "vru_150m": 0, "sss": 12.9, "recommended": 70, "fatal_reduction_pct": 41.4, "why": "trunk highway (head-on only; no at-grade ped mixing assumed)", "pop_density": 1147.3, "pop_density_peak": 8618.9, "v_design": 70, "design_gap": 0}}, {"type": "Feature", "geometry": {"type": "LineString", "coordinates": [[120.5708085, 15.5084296], [120.570571, 15.5086944], [120.5705055, 15.5087675], [120.5704362, 15.5088447], [120.5704075, 15.5088767], [120.5700873, 15.5092614], [120.5699988, 15.5093578], [120.5699502, 15.5094067], [120.5698924, 15.5094707], [120.5698309, 15.5095387], [120.5691174, 15.5103279], [120.5689748, 15.5104733], [120.5687627, 15.5107153], [120.568371, 15.511156], [120.5679904, 15.5115817], [120.5678857, 15.5116988], [120.5677608, 15.5118311], [120.5676757, 15.5119212]]}, "properties": {"city": "tarlac", "name": "Romulo Highway", "highway": "trunk", "v_posted": 80, "posted_imputed": false, "v_safe": 70, "gap": 10, "R": 1.71, "exposure": 0.324, "vru_150m": 1, "sss": 16.6, "recommended": 70, "fatal_reduction_pct": 41.4, "why": "trunk highway (head-on only; no at-grade ped mixing assumed)", "pop_density": 5023.6, "pop_density_peak": 12523.1, "v_design": 70, "design_gap": 0}}, {"type": "Feature", "geometry": {"type": "LineString", "coordinates": [[120.5992285, 15.5094355], [120.5984481, 15.5087338], [120.5980727, 15.5083962], [120.597528, 15.5079515], [120.5975032, 15.5079301], [120.5972982, 15.507753], [120.5971601, 15.5076338], [120.5969401, 15.5074443]]}, "properties": {"city": "tarlac", "name": "Tarlac - Victoria Road", "highway": "primary", "v_posted": 80, "posted_imputed": false, "v_safe": 50, "gap": 30, "R": 6.55, "exposure": 0.664, "vru_150m": 3, "sss": 62.4, "recommended": 50, "fatal_reduction_pct": 84.7, "why": "undivided arterial, side-impact intersections", "pop_density": 5165.6, "pop_density_peak": 5425.6, "v_design": 60, "design_gap": 10}}, {"type": "Feature", "geometry": {"type": "LineString", "coordinates": [[120.5965308, 15.5071611], [120.5966241, 15.5072252], [120.5967723, 15.5073169], [120.5968675, 15.5073873], [120.5969401, 15.5074443]]}, "properties": {"city": "tarlac", "name": "Tarlac - Victoria Road", "highway": "primary", "v_posted": 80, "posted_imputed": false, "v_safe": 30, "gap": 50, "R": 50.57, "exposure": 0.664, "vru_150m": 3, "sss": 83.2, "recommended": 30, "fatal_reduction_pct": 98.0, "why": "pedestrian activity (2 VRU site<=50m)", "pop_density": 5141.0, "pop_density_peak": 5425.6, "v_design": 60, "design_gap": 30}}, {"type": "Feature", "geometry": {"type": "LineString", "coordinates": [[120.6011952, 15.5111072], [120.6011402, 15.5110503], [120.6011185, 15.5110281], [120.6005958, 15.5104934], [120.6005011, 15.5104061], [120.6003558, 15.5102722], [120.6000884, 15.5100258], [120.5997185, 15.5096969], [120.5995982, 15.5096309], [120.5994511, 15.5095889], [120.5993884, 15.5095547], [120.5992285, 15.5094355]]}, "properties": {"city": "tarlac", "name": "Tarlac - Victoria Road", "highway": "primary", "v_posted": 80, "posted_imputed": false, "v_safe": 50, "gap": 30, "R": 6.55, "exposure": 0.138, "vru_150m": 0, "sss": 42.7, "recommended": 50, "fatal_reduction_pct": 84.7, "why": "undivided arterial, side-impact intersections", "pop_density": 4476.4, "pop_density_peak": 4972.2, "v_design": 60, "design_gap": 10}}, {"type": "Feature", "geometry": {"type": "LineString", "coordinates": [[120.6103279, 15.519889], [120.6097455, 15.5196932], [120.6093259, 15.5195522], [120.6089201, 15.5193904], [120.608881, 15.5193763], [120.6086136, 15.5192802], [120.6082746, 15.5191461], [120.6079875, 15.5190327], [120.607836, 15.5189756], [120.6075953, 15.5188848], [120.6075557, 15.5188699], [120.6073465, 15.5187562], [120.6072154, 15.5186669], [120.6070088, 15.5184762], [120.6069338, 15.518407], [120.6068273, 15.518275], [120.606684, 15.5180972], [120.6064911, 15.5178574], [120.6064292, 15.5177805], [120.6063953, 15.5177369], [120.6062803, 15.5175893], [120.6059898, 15.5172009], [120.6055601, 15.5165181], [120.6049043, 15.5155437], [120.6044742, 15.5148379], [120.6041777, 15.5144253], [120.6040078, 15.5141887], [120.603655, 15.5136938], [120.6033637, 15.5133052], [120.6028672, 15.5127499], [120.6028104, 15.5126989], [120.6025525, 15.5124383], [120.6020204, 15.5119116], [120.6013008, 15.5111992], [120.6012384, 15.5111423], [120.6011952, 15.5111072]]}, "properties": {"city": "tarlac", "name": "Tarlac - Victoria Road", "highway": "primary", "v_posted": 80, "posted_imputed": false, "v_safe": 50, "gap": 30, "R": 6.55, "exposure": 0.445, "vru_150m": 2, "sss": 54.2, "recommended": 50, "fatal_reduction_pct": 84.7, "why": "undivided arterial, side-impact intersections", "pop_density": 2449.7, "pop_density_peak": 10599.3, "v_design": 60, "design_gap": 10}}, {"type": "Feature", "geometry": {"type": "LineString", "coordinates": [[120.6398056, 15.5403011], [120.6397795, 15.5401745], [120.6396823, 15.5397165], [120.6396206, 15.5394277], [120.639571, 15.5391932], [120.6394884, 15.5388317], [120.6394838, 15.5388114], [120.6393979, 15.5385174], [120.6393756, 15.5384578], [120.6393047, 15.5382693], [120.6392905, 15.5382364], [120.6392182, 15.5380697], [120.6391699, 15.5379642], [120.6390654, 15.5377357], [120.6389279, 15.5374553], [120.6387676, 15.5371058], [120.6386436, 15.5367925], [120.6384464, 15.536328], [120.6383003, 15.5359907], [120.6381286, 15.5355288], [120.6379328, 15.5350262], [120.6378952, 15.5349286], [120.6377645, 15.53453], [120.6377041, 15.5343898], [120.6376116, 15.534136], [120.6375647, 15.5340073], [120.6374379, 15.5336413], [120.6374071, 15.5335525], [120.6372777, 15.5332469], [120.6371673, 15.5329907], [120.6371295, 15.5329045], [120.6370061, 15.5326945], [120.6369489, 15.5326058], [120.6369216, 15.5325634], [120.6368884, 15.5325172], [120.6367975, 15.5323905], [120.6366823, 15.53223], [120.6365432, 15.5320254], [120.6364377, 15.5318704], [120.6364084, 15.5318272], [120.6361387, 15.5314307], [120.6360146, 15.5312481], [120.63583, 15.5309766], [120.635701, 15.5307888], [120.6355134, 15.5305235], [120.6354263, 15.5304003], [120.6351163, 15.529939], [120.6350535, 15.5298456], [120.6348729, 15.5296105], [120.6346719, 15.5293828], [120.6345465, 15.5292534], [120.6344438, 15.5291473], [120.6344123, 15.5291179], [120.634334, 15.5290449], [120.6341526, 15.5288757], [120.6338344, 15.5286229], [120.6336728, 15.5285209], [120.6334877, 15.5284163], [120.6332688, 15.5283237], [120.6330344, 15.5282405], [120.6328368, 15.5281814], [120.6323412, 15.5280614], [120.6318013, 15.5279647], [120.6316108, 15.5279247], [120.631381, 15.5278789], [120.6310158, 15.527838], [120.6309446, 15.5278289], [120.6307773, 15.5278154], [120.6307366, 15.5278154], [120.6306988, 15.5278104], [120.6304421, 15.5277769], [120.6303069, 15.5277593], [120.6301174, 15.5277346], [120.6299823, 15.5277169], [120.6297759, 15.52769], [120.6291184, 15.5275651], [120.6289118, 15.5274982], [120.6286875, 15.5274074], [120.6282493, 15.5272081], [120.627801, 15.5270055], [120.6270103, 15.5266237], [120.6266575, 15.5264534], [120.6265914, 15.5264214], [120.6265435, 15.5263969], [120.6260251, 15.5261209], [120.6259262, 15.5260682], [120.625784, 15.5259925], [120.6254109, 15.5257865], [120.6252225, 15.5256666], [120.6248376, 15.5254029], [120.6244865, 15.5251664], [120.62422, 15.5249869], [120.6240567, 15.5248695], [120.6235714, 15.5244926], [120.6235209, 15.5244554], [120.6233651, 15.5243385], [120.6233114, 15.5242981], [120.6232029, 15.5242188], [120.6230834, 15.5241314], [120.6229819, 15.5240603], [120.6229489, 15.5240371], [120.6228765, 15.5239863], [120.6226102, 15.5237995], [120.6224853, 15.5237102], [120.622032, 15.5233949], [120.6218255, 15.5232502], [120.6216578, 15.523121]]}, "properties": {"city": "tarlac", "name": "Tarlac - Victoria Road", "highway": "primary", "v_posted": 80, "posted_imputed": false, "v_safe": 50, "gap": 30, "R": 6.55, "exposure": 0.15, "vru_150m": 0, "sss": 43.1, "recommended": 50, "fatal_reduction_pct": 84.7, "why": "undivided arterial, side-impact intersections", "pop_density": 4850.5, "pop_density_peak": 7105.2, "v_design": 60, "design_gap": 10}}, {"type": "Feature", "geometry": {"type": "LineString", "coordinates": [[120.6216578, 15.523121], [120.6213237, 15.5228596], [120.6211656, 15.5227359], [120.6211225, 15.522699], [120.6210734, 15.5226569], [120.6207311, 15.5223637], [120.6205487, 15.5222009], [120.6204025, 15.5220549], [120.619575, 15.5211448], [120.6191463, 15.5206262], [120.6190454, 15.520543], [120.6189179, 15.5204732], [120.6187856, 15.5204241], [120.6185519, 15.5203632], [120.6182805, 15.5203065], [120.6182232, 15.5202898], [120.6179939, 15.5202497], [120.6178048, 15.5202342], [120.6174776, 15.5202161], [120.6172563, 15.5202044], [120.6171582, 15.5202064], [120.6170592, 15.5202084], [120.6168848, 15.5202239], [120.6164972, 15.5202859], [120.6159998, 15.5203922], [120.6158924, 15.5204151], [120.6157469, 15.5204339], [120.6155705, 15.5204461], [120.6152272, 15.5204566], [120.6147969, 15.5204615], [120.6138805, 15.520473], [120.6133559, 15.5204813], [120.6127676, 15.5204991], [120.6126002, 15.5204926], [120.612222, 15.5204175], [120.6119885, 15.5203595], [120.6117605, 15.5202988], [120.6115842, 15.5202448], [120.6107627, 15.5200352], [120.6103279, 15.519889]]}, "properties": {"city": "tarlac", "name": "Tarlac - Victoria Road", "highway": "primary", "v_posted": 80, "posted_imputed": false, "v_safe": 50, "gap": 30, "R": 6.55, "exposure": 0.044, "vru_150m": 0, "sss": 39.1, "recommended": 50, "fatal_reduction_pct": 84.7, "why": "undivided arterial, side-impact intersections", "pop_density": 1413.1, "pop_density_peak": 3402.5, "v_design": 60, "design_gap": 10}}]}