{"type": "FeatureCollection", "features": [{"type": "Feature", "geometry": {"type": "LineString", "coordinates": [[125.1760842, 6.1381719], [125.1760795, 6.1378508], [125.1760758, 6.1376008], [125.176062, 6.1369135], [125.1760429, 6.1359712], [125.1760582, 6.1359111], [125.1760729, 6.1358898], [125.1760936, 6.1358694], [125.176294, 6.1357084], [125.1763156, 6.1356758], [125.176331, 6.1356467], [125.1763404, 6.1355868], [125.1763317, 6.1342437], [125.1763042, 6.1328984], [125.176298, 6.1325978]]}, "properties": {"city": "gensan", "name": "San Juanico Drive", "highway": "residential", "v_posted": 50, "posted_imputed": false, "v_safe": 30, "gap": 20, "R": 7.72, "exposure": 0.126, "vru_150m": 0, "sss": 28.1, "recommended": 30, "fatal_reduction_pct": 87.0, "why": "local road, frontage/pedestrian mixing", "pop_density": 4063.9, "pop_density_peak": 6287.7, "v_design": 35, "design_gap": 5}}, {"type": "Feature", "geometry": {"type": "LineString", "coordinates": [[125.2166299, 6.1648063], [125.2165199, 6.164569], [125.2161874, 6.1637945], [125.2160304, 6.1634336], [125.2158434, 6.1629887], [125.215806, 6.1629003], [125.2157374, 6.1627383], [125.2156981, 6.1626397], [125.2155228, 6.1622396], [125.21543, 6.1620212], [125.2152409, 6.161576], [125.2142978, 6.1593558], [125.2140784, 6.1588339], [125.213351, 6.1571035], [125.2130941, 6.1564915], [125.2128657, 6.1559521], [125.2123716, 6.1547855], [125.2123298, 6.1546868], [125.2122998, 6.1546159], [125.2122469, 6.1544907], [125.2117422, 6.1532994], [125.2114177, 6.152554], [125.2113305, 6.1523593], [125.211193, 6.1520544], [125.2108678, 6.1513032], [125.2103355, 6.1500514], [125.2101169, 6.1495392], [125.2099223, 6.1490725], [125.2098529, 6.1489038], [125.2096303, 6.1483562], [125.2096075, 6.1483036], [125.2092757, 6.1475193], [125.209215, 6.1473637], [125.2086025, 6.1459505], [125.2081491, 6.1448847], [125.2077068, 6.1438523], [125.2076057, 6.1436222], [125.207549, 6.143491], [125.2073736, 6.1430589], [125.2072508, 6.1427703], [125.2071986, 6.1426376], [125.2069874, 6.1421422], [125.2067198, 6.1415148], [125.2066427, 6.1413322], [125.2066138, 6.1412648], [125.206587, 6.1411982], [125.2060774, 6.1399941], [125.2060553, 6.1399395], [125.2060315, 6.1398809], [125.2059681, 6.1397201], [125.2053813, 6.138272], [125.2053451, 6.1381882], [125.2052402, 6.1379454], [125.2052164, 6.1378866], [125.2050634, 6.1375234], [125.2048194, 6.1370319], [125.2045727, 6.1365759], [125.2040738, 6.1357959], [125.2037034, 6.1352882], [125.2035749, 6.1350934], [125.2035266, 6.1350348], [125.2034069, 6.1348987], [125.2033027, 6.1347718], [125.2030599, 6.1345104], [125.2023772, 6.1338312], [125.2023405, 6.1337947], [125.2018754, 6.133332], [125.2015711, 6.1330292], [125.2014135, 6.1328725], [125.2012024, 6.1326624], [125.2011024, 6.132563], [125.200896, 6.1323576], [125.2005816, 6.1320448], [125.2003819, 6.1318461], [125.2003202, 6.1317848], [125.199997, 6.1314633], [125.1997874, 6.1312547], [125.1995766, 6.1310466]]}, "properties": {"city": "gensan", "name": "Digos-Makar Road", "highway": "primary", "v_posted": 80, "posted_imputed": false, "v_safe": 50, "gap": 30, "R": 6.55, "exposure": 0.199, "vru_150m": 0, "sss": 45.0, "recommended": 50, "fatal_reduction_pct": 84.7, "why": "undivided arterial, side-impact intersections", "pop_density": 6439.1, "pop_density_peak": 10851.1, "v_design": 60, "design_gap": 10}}, {"type": "Feature", "geometry": {"type": "LineString", "coordinates": [[125.216661, 6.1648804], [125.2166299, 6.1648063]]}, "properties": {"city": "gensan", "name": "Digos-Makar Road", "highway": "trunk", "v_posted": 80, "posted_imputed": false, "v_safe": 50, "gap": 30, "R": 6.55, "exposure": 0.253, "vru_150m": 0, "sss": 47.0, "recommended": 50, "fatal_reduction_pct": 84.7, "why": "undivided arterial, side-impact intersections", "pop_density": 8170.5, "pop_density_peak": 8170.5, "v_design": 70, "design_gap": 20}}, {"type": "Feature", "geometry": {"type": "LineString", "coordinates": [[125.2343713, 6.2067891], [125.2339424, 6.2057783], [125.2335784, 6.2049202], [125.2332012, 6.2040313], [125.2331758, 6.2039613], [125.2328457, 6.2031612], [125.2324938, 6.2023081], [125.2320734, 6.2013535], [125.231784, 6.2006706], [125.2314219, 6.1998161], [125.2312037, 6.1992736], [125.230924, 6.1986349], [125.230861, 6.1984723], [125.2306708, 6.1980435], [125.230515, 6.1976758], [125.2300488, 6.1965756], [125.2298954, 6.1962137], [125.2295413, 6.1953483], [125.2292222, 6.1945685], [125.2290317, 6.1941552], [125.2289191, 6.1938897], [125.228506, 6.1929122], [125.2281935, 6.1921726], [125.2279363, 6.1915546], [125.2275431, 6.190604], [125.2275243, 6.1905626], [125.2274504, 6.1903873], [125.2274288, 6.1903383], [125.2273943, 6.1902526], [125.2271944, 6.189786], [125.2270533, 6.1894421], [125.2268889, 6.1890383], [125.226801, 6.1888437], [125.2266687, 6.1885507], [125.2264978, 6.1881557], [125.2262957, 6.1876884], [125.2262003, 6.1874679], [125.2261261, 6.1872935], [125.2260124, 6.1870177], [125.2259658, 6.1869049], [125.2257998, 6.1865133], [125.2257048, 6.1862894], [125.2254773, 6.1857575], [125.2252552, 6.1852334], [125.2250809, 6.1848223], [125.2248321, 6.184228], [125.2246834, 6.1838763], [125.2245397, 6.1835371], [125.2243312, 6.1830449], [125.2240777, 6.1824409], [125.2237788, 6.1817375], [125.223458, 6.1809827], [125.2233763, 6.1807902], [125.2233246, 6.1806641], [125.2231751, 6.1802996], [125.222994, 6.1798824], [125.2227768, 6.1793823], [125.2225223, 6.1787679], [125.2222592, 6.1781329], [125.2217656, 6.176957], [125.2213927, 6.1760997], [125.2212332, 6.175733], [125.2210148, 6.1752154], [125.2207477, 6.1745823], [125.2204418, 6.1738656], [125.220281, 6.173489], [125.2201838, 6.1732643], [125.2199534, 6.1727316], [125.2199431, 6.1727077], [125.2198289, 6.1724368], [125.2195367, 6.1717437], [125.2188367, 6.1700757], [125.2184023, 6.1690364], [125.2178483, 6.1677111], [125.2177919, 6.1675761], [125.2175572, 6.1670143], [125.2172368, 6.1662513], [125.2169655, 6.1656054], [125.216661, 6.1648804]]}, "properties": {"city": "gensan", "name": "Digos-Makar Road", "highway": "trunk", "v_posted": 80, "posted_imputed": false, "v_safe": 50, "gap": 30, "R": 6.55, "exposure": 0.048, "vru_150m": 0, "sss": 39.3, "recommended": 50, "fatal_reduction_pct": 84.7, "why": "undivided arterial, side-impact intersections", "pop_density": 1560.1, "pop_density_peak": 10164.7, "v_design": 70, "design_gap": 20}}]}