{"type": "FeatureCollection", "features": [{"type": "Feature", "geometry": {"type": "LineString", "coordinates": [[120.3943889, 17.5698077], [120.3940952, 17.5691045], [120.3940207, 17.5689385], [120.3939362, 17.5687504], [120.3937921, 17.5684294], [120.3934863, 17.5677441], [120.3933482, 17.5674475], [120.3932932, 17.5673657], [120.3931926, 17.5672557], [120.3930746, 17.5671304], [120.3928506, 17.5669744], [120.3923544, 17.5666535], [120.3922324, 17.5665653], [120.3921492, 17.5664809], [120.3920862, 17.5663786], [120.392054, 17.5662687], [120.3920352, 17.5661127], [120.3919843, 17.5654414], [120.3919199, 17.5649869], [120.3918166, 17.5643508], [120.3917375, 17.5640081], [120.391645, 17.5637665], [120.3915498, 17.5635223], [120.3913231, 17.56303], [120.391067, 17.5624483], [120.3910241, 17.5622641], [120.3909194, 17.5617553], [120.3908209, 17.5612727], [120.3907451, 17.5609012], [120.3906324, 17.5604127], [120.3905976, 17.5603539], [120.3905332, 17.5602772], [120.3904527, 17.5602337], [120.3902918, 17.5601851], [120.3896192, 17.560111], [120.3889283, 17.5600594], [120.3886986, 17.5600554]]}, "properties": {"city": "vigan", "name": "Vigan City Diversion Road", "highway": "secondary", "v_posted": 60, "posted_imputed": false, "v_safe": 50, "gap": 10, "R": 2.07, "exposure": 0.269, "vru_150m": 0, "sss": 15.9, "recommended": 50, "fatal_reduction_pct": 51.8, "why": "undivided arterial, side-impact intersections", "pop_density": 8711.5, "pop_density_peak": 35895.6, "v_design": 45, "design_gap": -5}}, {"type": "Feature", "geometry": {"type": "LineString", "coordinates": [[120.3887361, 17.5602005], [120.3887339, 17.5601679], [120.38872, 17.5601123], [120.3886986, 17.5600554], [120.3886544, 17.5599629], [120.3886101, 17.5598846], [120.3884485, 17.5595887], [120.3880964, 17.5589743], [120.3880495, 17.5588797], [120.3879999, 17.5587633], [120.3879771, 17.5586188], [120.3879637, 17.5585536], [120.387902, 17.5582046], [120.3877732, 17.5577289], [120.3876337, 17.5572839], [120.3876094, 17.5572289], [120.3874782, 17.5569323], [120.3871684, 17.5561779], [120.3868264, 17.5553468], [120.3866494, 17.5548763], [120.3863838, 17.5540324], [120.3862021, 17.5533476], [120.3859185, 17.5524775], [120.3856958, 17.5518235], [120.3856328, 17.551656], [120.3854316, 17.5512858], [120.3852315, 17.5508939], [120.3847598, 17.5499764]]}, "properties": {"city": "vigan", "name": "Vigan-Caoayan Road", "highway": "secondary", "v_posted": 60, "posted_imputed": false, "v_safe": 50, "gap": 10, "R": 2.07, "exposure": 0.243, "vru_150m": 0, "sss": 15.5, "recommended": 50, "fatal_reduction_pct": 51.8, "why": "undivided arterial, side-impact intersections", "pop_density": 7851.9, "pop_density_peak": 22371.3, "v_design": 50, "design_gap": 0}}, {"type": "Feature", "geometry": {"type": "LineString", "coordinates": [[120.3886544, 17.5599629], [120.3888921, 17.5599793], [120.3896324, 17.5600304], [120.3903123, 17.5600877], [120.3904944, 17.5601426], [120.3906017, 17.5602006], [120.3906837, 17.5602984], [120.3907303, 17.560377], [120.3908466, 17.5608811], [120.3909223, 17.561252], [120.3910212, 17.5617363], [120.3911255, 17.5622439], [120.3911423, 17.5623158], [120.3911661, 17.5624182], [120.3914184, 17.562991], [120.3916459, 17.5634852], [120.3917422, 17.5637323], [120.3918373, 17.5639804], [120.3919187, 17.5643331], [120.3920051, 17.5648709], [120.3920169, 17.5649767], [120.3920874, 17.5654306], [120.3921385, 17.5661035], [120.3921561, 17.5662496], [120.3921824, 17.5663397], [120.3922327, 17.5664213], [120.392302, 17.5664916], [120.3924149, 17.5665732], [120.3929103, 17.5668936], [120.3931445, 17.5670567], [120.3932702, 17.5671902], [120.3933763, 17.5673062], [120.3934397, 17.5674005], [120.3935814, 17.5677047], [120.3938874, 17.5683906], [120.3940549, 17.5686934], [120.3942555, 17.5691289], [120.3944505, 17.5697326], [120.3944732, 17.5698031]]}, "properties": {"city": "vigan", "name": "Vigan City Diversion Road", "highway": "secondary", "v_posted": 60, "posted_imputed": false, "v_safe": 50, "gap": 10, "R": 2.07, "exposure": 0.282, "vru_150m": 0, "sss": 16.0, "recommended": 50, "fatal_reduction_pct": 51.8, "why": "undivided arterial, side-impact intersections", "pop_density": 9126.5, "pop_density_peak": 41463.9, "v_design": 45, "design_gap": -5}}, {"type": "Feature", "geometry": {"type": "LineString", "coordinates": [[120.3889283, 17.5600594], [120.3887339, 17.5601679]]}, "properties": {"city": "vigan", "name": "Vigan City Diversion Road", "highway": "secondary", "v_posted": 60, "posted_imputed": false, "v_safe": 50, "gap": 10, "R": 2.07, "exposure": 0.664, "vru_150m": 0, "sss": 20.8, "recommended": 50, "fatal_reduction_pct": 51.8, "why": "undivided arterial, side-impact intersections", "pop_density": 21466.9, "pop_density_peak": 22371.3, "v_design": 50, "design_gap": 0}}, {"type": "Feature", "geometry": {"type": "LineString", "coordinates": [[120.3886101, 17.5598846], [120.3888921, 17.5599793]]}, "properties": {"city": "vigan", "name": "Vigan City Diversion Road", "highway": "secondary", "v_posted": 60, "posted_imputed": false, "v_safe": 50, "gap": 10, "R": 2.07, "exposure": 0.636, "vru_150m": 0, "sss": 20.4, "recommended": 50, "fatal_reduction_pct": 51.8, "why": "undivided arterial, side-impact intersections", "pop_density": 20562.4, "pop_density_peak": 20562.4, "v_design": 50, "design_gap": 0}}, {"type": "Feature", "geometry": {"type": "LineString", "coordinates": [[120.3868579, 17.5753048], [120.3859638, 17.5755574], [120.3859215, 17.5754233]]}, "properties": {"city": "vigan", "name": "Calle Burgos", "highway": "secondary", "v_posted": 40, "posted_imputed": false, "v_safe": 30, "gap": 10, "R": 3.16, "exposure": 0.449, "vru_150m": 2, "sss": 18.1, "recommended": 30, "fatal_reduction_pct": 68.4, "why": "pedestrian activity (1 VRU site<=50m)", "pop_density": 2640.3, "pop_density_peak": 2695.4, "v_design": 45, "design_gap": 15}}, {"type": "Feature", "geometry": {"type": "LineString", "coordinates": [[120.3947922, 17.571394], [120.3947309, 17.5712397], [120.3946839, 17.5709827], [120.3946343, 17.5707628], [120.3945807, 17.5705416], [120.394519, 17.5703357], [120.3944372, 17.5700676]]}, "properties": {"city": "vigan", "name": "Vigan City Diversion Road", "highway": "secondary", "v_posted": 60, "posted_imputed": false, "v_safe": 50, "gap": 10, "R": 2.07, "exposure": 0.321, "vru_150m": 1, "sss": 16.5, "recommended": 50, "fatal_reduction_pct": 51.8, "why": "undivided arterial, side-impact intersections", "pop_density": 4879.1, "pop_density_peak": 7293.1, "v_design": 50, "design_gap": 0}}, {"type": "Feature", "geometry": {"type": "LineString", "coordinates": [[120.394559, 17.5700298], [120.3946236, 17.5702284], [120.3947121, 17.5705505], [120.394747, 17.5707474], [120.3947979, 17.5709775], [120.3948516, 17.5712013], [120.3949145, 17.5713574]]}, "properties": {"city": "vigan", "name": "Vigan City Diversion Road", "highway": "secondary", "v_posted": 60, "posted_imputed": false, "v_safe": 50, "gap": 10, "R": 2.07, "exposure": 0.321, "vru_150m": 1, "sss": 16.5, "recommended": 50, "fatal_reduction_pct": 51.8, "why": "undivided arterial, side-impact intersections", "pop_density": 4879.1, "pop_density_peak": 7293.1, "v_design": 50, "design_gap": 0}}, {"type": "Feature", "geometry": {"type": "LineString", "coordinates": [[120.4004922, 17.5824814], [120.4004721, 17.5821887], [120.4004239, 17.5813104], [120.4003903, 17.5810522], [120.4003192, 17.5807248]]}, "properties": {"city": "vigan", "name": "Vigan City Diversion Road", "highway": "secondary", "v_posted": 60, "posted_imputed": false, "v_safe": 50, "gap": 10, "R": 2.07, "exposure": 0.139, "vru_150m": 0, "sss": 14.2, "recommended": 50, "fatal_reduction_pct": 51.8, "why": "undivided arterial, side-impact intersections", "pop_density": 4492.9, "pop_density_peak": 8140.3, "v_design": 50, "design_gap": 0}}, {"type": "Feature", "geometry": {"type": "LineString", "coordinates": [[120.4003528, 17.5805586], [120.400436, 17.5808041], [120.4004989, 17.5811518], [120.4005586, 17.5822447], [120.40057, 17.5825211]]}, "properties": {"city": "vigan", "name": "Vigan City Diversion Road", "highway": "secondary", "v_posted": 60, "posted_imputed": false, "v_safe": 50, "gap": 10, "R": 2.07, "exposure": 0.168, "vru_150m": 0, "sss": 14.6, "recommended": 50, "fatal_reduction_pct": 51.8, "why": "undivided arterial, side-impact intersections", "pop_density": 5426.9, "pop_density_peak": 8140.3, "v_design": 50, "design_gap": 0}}, {"type": "Feature", "geometry": {"type": "LineString", "coordinates": [[120.3958737, 17.5766415], [120.3959391, 17.5767714], [120.395962, 17.576817]]}, "properties": {"city": "vigan", "name": "Vigan City Diversion Road", "highway": "secondary", "v_posted": 60, "posted_imputed": false, "v_safe": 50, "gap": 10, "R": 2.07, "exposure": 0.066, "vru_150m": 0, "sss": 13.3, "recommended": 50, "fatal_reduction_pct": 51.8, "why": "undivided arterial, side-impact intersections", "pop_density": 2118.8, "pop_density_peak": 2118.8, "v_design": 50, "design_gap": 0}}, {"type": "Feature", "geometry": {"type": "LineString", "coordinates": [[120.3956952, 17.5756327], [120.39573, 17.5760724], [120.3957528, 17.5762604], [120.3958737, 17.5766415]]}, "properties": {"city": "vigan", "name": "Vigan City Diversion Road", "highway": "secondary", "v_posted": 60, "posted_imputed": false, "v_safe": 50, "gap": 10, "R": 2.07, "exposure": 0.095, "vru_150m": 0, "sss": 13.7, "recommended": 50, "fatal_reduction_pct": 51.8, "why": "undivided arterial, side-impact intersections", "pop_density": 3068.3, "pop_density_peak": 4017.8, "v_design": 50, "design_gap": 0}}, {"type": "Feature", "geometry": {"type": "LineString", "coordinates": [[120.3957638, 17.5766113], [120.3956562, 17.5762975], [120.3956186, 17.5760239], [120.3955888, 17.5756177]]}, "properties": {"city": "vigan", "name": "Vigan City Diversion Road", "highway": "secondary", "v_posted": 60, "posted_imputed": false, "v_safe": 50, "gap": 10, "R": 2.07, "exposure": 0.095, "vru_150m": 0, "sss": 13.7, "recommended": 50, "fatal_reduction_pct": 51.8, "why": "undivided arterial, side-impact intersections", "pop_density": 3068.3, "pop_density_peak": 4017.8, "v_design": 50, "design_gap": 0}}, {"type": "Feature", "geometry": {"type": "LineString", "coordinates": [[120.3958468, 17.576808], [120.3958011, 17.5767052], [120.3957638, 17.5766113]]}, "properties": {"city": "vigan", "name": "Vigan City Diversion Road", "highway": "secondary", "v_posted": 60, "posted_imputed": false, "v_safe": 50, "gap": 10, "R": 2.07, "exposure": 0.066, "vru_150m": 0, "sss": 13.3, "recommended": 50, "fatal_reduction_pct": 51.8, "why": "undivided arterial, side-impact intersections", "pop_density": 2118.8, "pop_density_peak": 2118.8, "v_design": 50, "design_gap": 0}}, {"type": "Feature", "geometry": {"type": "LineString", "coordinates": [[120.3956499, 17.5746249], [120.3956677, 17.5750541]]}, "properties": {"city": "vigan", "name": "Vigan City Diversion Road", "highway": "secondary", "v_posted": 60, "posted_imputed": false, "v_safe": 50, "gap": 10, "R": 2.07, "exposure": 0.152, "vru_150m": 0, "sss": 14.4, "recommended": 50, "fatal_reduction_pct": 51.8, "why": "undivided arterial, side-impact intersections", "pop_density": 4912.3, "pop_density_peak": 4912.3, "v_design": 50, "design_gap": 0}}, {"type": "Feature", "geometry": {"type": "LineString", "coordinates": [[120.3955888, 17.5756177], [120.3955697, 17.57532]]}, "properties": {"city": "vigan", "name": "Vigan City Diversion Road", "highway": "secondary", "v_posted": 60, "posted_imputed": false, "v_safe": 50, "gap": 10, "R": 2.07, "exposure": 0.124, "vru_150m": 0, "sss": 14.1, "recommended": 50, "fatal_reduction_pct": 51.8, "why": "undivided arterial, side-impact intersections", "pop_density": 4017.8, "pop_density_peak": 4017.8, "v_design": 50, "design_gap": 0}}, {"type": "Feature", "geometry": {"type": "LineString", "coordinates": [[120.3956797, 17.5753086], [120.3956952, 17.5756327]]}, "properties": {"city": "vigan", "name": "Vigan City Diversion Road", "highway": "secondary", "v_posted": 60, "posted_imputed": false, "v_safe": 50, "gap": 10, "R": 2.07, "exposure": 0.124, "vru_150m": 0, "sss": 14.1, "recommended": 50, "fatal_reduction_pct": 51.8, "why": "undivided arterial, side-impact intersections", "pop_density": 4017.8, "pop_density_peak": 4017.8, "v_design": 50, "design_gap": 0}}, {"type": "Feature", "geometry": {"type": "LineString", "coordinates": [[120.3955537, 17.5750567], [120.39555, 17.5749113], [120.395451, 17.5738773]]}, "properties": {"city": "vigan", "name": "Vigan City Diversion Road", "highway": "secondary", "v_posted": 60, "posted_imputed": false, "v_safe": 50, "gap": 10, "R": 2.07, "exposure": 0.145, "vru_150m": 0, "sss": 14.3, "recommended": 50, "fatal_reduction_pct": 51.8, "why": "undivided arterial, side-impact intersections", "pop_density": 4693.3, "pop_density_peak": 4912.3, "v_design": 50, "design_gap": 0}}, {"type": "Feature", "geometry": {"type": "LineString", "coordinates": [[120.3956677, 17.5750541], [120.3956797, 17.5753086]]}, "properties": {"city": "vigan", "name": "Vigan City Diversion Road", "highway": "secondary", "v_posted": 60, "posted_imputed": false, "v_safe": 50, "gap": 10, "R": 2.07, "exposure": 0.138, "vru_150m": 0, "sss": 14.2, "recommended": 50, "fatal_reduction_pct": 51.8, "why": "undivided arterial, side-impact intersections", "pop_density": 4465.0, "pop_density_peak": 4912.3, "v_design": 50, "design_gap": 0}}, {"type": "Feature", "geometry": {"type": "LineString", "coordinates": [[120.3955697, 17.57532], [120.3955537, 17.5750567]]}, "properties": {"city": "vigan", "name": "Vigan City Diversion Road", "highway": "secondary", "v_posted": 60, "posted_imputed": false, "v_safe": 50, "gap": 10, "R": 2.07, "exposure": 0.138, "vru_150m": 0, "sss": 14.2, "recommended": 50, "fatal_reduction_pct": 51.8, "why": "undivided arterial, side-impact intersections", "pop_density": 4465.0, "pop_density_peak": 4912.3, "v_design": 50, "design_gap": 0}}, {"type": "Feature", "geometry": {"type": "LineString", "coordinates": [[120.4003192, 17.5807248], [120.4002066, 17.5804998], [120.3999813, 17.5801981], [120.3997091, 17.5799642], [120.3963429, 17.577434], [120.3962263, 17.5773152], [120.3961055, 17.577177], [120.3958468, 17.576808]]}, "properties": {"city": "vigan", "name": "Vigan City Diversion Road", "highway": "secondary", "v_posted": 60, "posted_imputed": false, "v_safe": 50, "gap": 10, "R": 2.07, "exposure": 0.022, "vru_150m": 0, "sss": 12.8, "recommended": 50, "fatal_reduction_pct": 51.8, "why": "undivided arterial, side-impact intersections", "pop_density": 706.3, "pop_density_peak": 2118.8, "v_design": 50, "design_gap": 0}}, {"type": "Feature", "geometry": {"type": "LineString", "coordinates": [[120.395962, 17.576817], [120.3961726, 17.5771182], [120.3962879, 17.5772518], [120.396416, 17.5773663], [120.3997425, 17.5798874], [120.4000319, 17.5801245], [120.4002643, 17.5804052], [120.4003528, 17.5805586]]}, "properties": {"city": "vigan", "name": "Vigan City Diversion Road", "highway": "secondary", "v_posted": 60, "posted_imputed": false, "v_safe": 50, "gap": 10, "R": 2.07, "exposure": 0.029, "vru_150m": 0, "sss": 12.9, "recommended": 50, "fatal_reduction_pct": 51.8, "why": "undivided arterial, side-impact intersections", "pop_density": 947.0, "pop_density_peak": 2118.8, "v_design": 50, "design_gap": 0}}, {"type": "Feature", "geometry": {"type": "LineString", "coordinates": [[120.3868579, 17.5753048], [120.3868245, 17.5751781]]}, "properties": {"city": "vigan", "name": "Avenida Quezon", "highway": "secondary", "v_posted": 40, "posted_imputed": false, "v_safe": 30, "gap": 10, "R": 3.16, "exposure": 0.816, "vru_150m": 4, "sss": 22.7, "recommended": 30, "fatal_reduction_pct": 68.4, "why": "pedestrian activity (1 VRU site<=50m)", "pop_density": 2585.1, "pop_density_peak": 2585.1, "v_design": 50, "design_gap": 20}}, {"type": "Feature", "geometry": {"type": "LineString", "coordinates": [[120.395451, 17.5738773], [120.3954206, 17.5737003]]}, "properties": {"city": "vigan", "name": "Vigan City Diversion Road", "highway": "secondary", "v_posted": 60, "posted_imputed": false, "v_safe": 50, "gap": 10, "R": 2.07, "exposure": 0.138, "vru_150m": 0, "sss": 14.2, "recommended": 50, "fatal_reduction_pct": 51.8, "why": "undivided arterial, side-impact intersections", "pop_density": 4474.3, "pop_density_peak": 4474.3, "v_design": 50, "design_gap": 0}}]}