{"type": "FeatureCollection", "features": [{"type": "Feature", "geometry": {"type": "LineString", "coordinates": [[120.5754936, 16.3875389], [120.5755332, 16.3875174], [120.5757371, 16.3874839], [120.5763227, 16.3874759], [120.5763637, 16.3874537], [120.5763929, 16.3873971], [120.5764156, 16.3872639], [120.5764103, 16.3870375], [120.5764029, 16.3868612], [120.5763493, 16.3865009], [120.5762595, 16.3863427], [120.5762293, 16.3862687], [120.5762407, 16.3862082], [120.5762906, 16.3861149], [120.576478, 16.385949], [120.5765786, 16.3858731], [120.5767663, 16.3856955], [120.576877, 16.3855804], [120.5770547, 16.3851532], [120.5771472, 16.3849833], [120.5773019, 16.384824], [120.577337, 16.3847537], [120.5774617, 16.3844217], [120.5775187, 16.3843461], [120.5777648, 16.3841496], [120.5779586, 16.3839572], [120.5783026, 16.3835533], [120.5783414, 16.3834194], [120.5783357, 16.3831282]]}, "properties": {"city": "baguio", "name": "Balacbac Feeder Road", "highway": "secondary", "v_posted": 40, "posted_imputed": false, "v_safe": 30, "gap": 10, "R": 3.16, "exposure": 0.22, "vru_150m": 1, "sss": 15.2, "recommended": 30, "fatal_reduction_pct": 68.4, "why": "pedestrian activity (1 VRU site<=50m)", "pop_density": 800.0, "pop_density_peak": 3678.8, "v_design": 45, "design_gap": 15}}, {"type": "Feature", "geometry": {"type": "LineString", "coordinates": [[120.5620095, 16.3984675], [120.5619519, 16.3983401], [120.5618787, 16.3982063], [120.561807, 16.3981394], [120.5616635, 16.3979992], [120.5614014, 16.3977946], [120.5610935, 16.3975283], [120.560891, 16.3973431], [120.5607851, 16.3972659], [120.5607113, 16.3972298], [120.5606201, 16.3972054], [120.5605008, 16.3971938], [120.5602835, 16.3971887], [120.5596773, 16.3972401], [120.5593823, 16.3972659], [120.5591382, 16.397307], [120.5589545, 16.3973752], [120.5587587, 16.3974717], [120.5584998, 16.3976312], [120.5582222, 16.3978319], [120.5580626, 16.3979066], [120.5578923, 16.3979439], [120.5577488, 16.3979516], [120.557325, 16.3979863], [120.5571534, 16.3980121], [120.5569965, 16.3980725], [120.5568583, 16.3981356], [120.556464, 16.398389], [120.5563045, 16.3984958], [120.5561247, 16.3985859], [120.5559142, 16.398636], [120.5556178, 16.3986759], [120.5550385, 16.398721], [120.5546039, 16.3987801], [120.5543089, 16.3988458], [120.5540568, 16.3989358], [120.5537872, 16.399076], [120.5534975, 16.3992665], [120.5532903, 16.3994125], [120.5527599, 16.3997721], [120.5523737, 16.4000088], [120.5519405, 16.4002249], [120.5516924, 16.4003343], [120.5507523, 16.4007563], [120.5501609, 16.4009981], [120.5498336, 16.4011152], [120.5492891, 16.4012722], [120.5486722, 16.4014085], [120.5485435, 16.4014253], [120.548467, 16.401415], [120.5484248, 16.4013944], [120.5483913, 16.4013551], [120.5482591, 16.4011017], [120.5481881, 16.400993], [120.5481089, 16.4009261], [120.5480104, 16.4008875], [120.547895, 16.4008792], [120.5477911, 16.4008901], [120.5474934, 16.4010612], [120.5470897, 16.4012722], [120.5468014, 16.4014291], [120.5465023, 16.4015578], [120.5461054, 16.4016877], [120.5457507, 16.4017729], [120.545583, 16.4017617], [120.545463, 16.4017218], [120.5453912, 16.4016524], [120.5453684, 16.4015726], [120.5453738, 16.4014948], [120.545411, 16.4014206], [120.5456091, 16.4012979], [120.5457875, 16.4011397], [120.5459116, 16.4009994], [120.5460128, 16.4008618], [120.5461295, 16.4006701], [120.5464017, 16.4004694], [120.5467692, 16.4002275], [120.5470455, 16.4000564], [120.5472426, 16.3999728], [120.5474391, 16.3999316], [120.5475819, 16.3999187], [120.5478099, 16.3998969], [120.5482337, 16.4000062], [120.5485462, 16.4001053], [120.5487487, 16.4001773], [120.5489317, 16.400232], [120.5491289, 16.4002693], [120.5492932, 16.4002552], [120.5494407, 16.4002146], [120.5496164, 16.4001317], [120.5498504, 16.3999773], [120.5506892, 16.3993372], [120.5510104, 16.3990953], [120.5513008, 16.3989332], [120.5517333, 16.3986875], [120.5519485, 16.3985781], [120.5520967, 16.3985093]]}, "properties": {"city": "baguio", "name": "Conifer Drive", "highway": "unclassified", "v_posted": 40, "posted_imputed": false, "v_safe": 30, "gap": 10, "R": 3.16, "exposure": 0.0, "vru_150m": 0, "sss": 12.5, "recommended": 30, "fatal_reduction_pct": 68.4, "why": "local road, frontage/pedestrian mixing", "pop_density": 0.0, "pop_density_peak": 0.0, "v_design": 30, "design_gap": 0}}, {"type": "Feature", "geometry": {"type": "LineString", "coordinates": [[120.5542855, 16.3759507], [120.5541441, 16.3760431], [120.553967, 16.3761435], [120.5537793, 16.3762259], [120.5536119, 16.3762739], [120.5533609, 16.3762696], [120.5531218, 16.3762464], [120.5528231, 16.3762376]]}, "properties": {"city": "baguio", "name": "Ben Palispis Highway", "highway": "primary", "v_posted": 60, "posted_imputed": false, "v_safe": 50, "gap": 10, "R": 2.07, "exposure": 0.0, "vru_150m": 0, "sss": 12.5, "recommended": 50, "fatal_reduction_pct": 51.8, "why": "undivided arterial, side-impact intersections", "pop_density": 0.0, "pop_density_peak": 0.0, "v_design": 60, "design_gap": 10}}, {"type": "Feature", "geometry": {"type": "LineString", "coordinates": [[120.5553462, 16.3753584], [120.5551008, 16.3754703], [120.5547769, 16.3756518]]}, "properties": {"city": "baguio", "name": "Ben Palispis Highway", "highway": "primary", "v_posted": 60, "posted_imputed": false, "v_safe": 50, "gap": 10, "R": 2.07, "exposure": 0.0, "vru_150m": 0, "sss": 12.5, "recommended": 50, "fatal_reduction_pct": 51.8, "why": "undivided arterial, side-impact intersections", "pop_density": 0.0, "pop_density_peak": 0.0, "v_design": 60, "design_gap": 10}}, {"type": "Feature", "geometry": {"type": "LineString", "coordinates": [[120.5576692, 16.3794203], [120.5576664, 16.3793485], [120.5576639, 16.3792102]]}, "properties": {"city": "baguio", "name": "Ben Palispis Highway", "highway": "primary", "v_posted": 40, "posted_imputed": false, "v_safe": 30, "gap": 10, "R": 3.16, "exposure": 0.2, "vru_150m": 1, "sss": 15.0, "recommended": 30, "fatal_reduction_pct": 68.4, "why": "pedestrian activity (1 VRU site<=50m)", "pop_density": 0.0, "pop_density_peak": 0.0, "v_design": 60, "design_gap": 30}}, {"type": "Feature", "geometry": {"type": "LineString", "coordinates": [[120.5547769, 16.3756518], [120.5542855, 16.3759507]]}, "properties": {"city": "baguio", "name": "Ben Palispis Highway", "highway": "primary", "v_posted": 60, "posted_imputed": false, "v_safe": 50, "gap": 10, "R": 2.07, "exposure": 0.0, "vru_150m": 0, "sss": 12.5, "recommended": 50, "fatal_reduction_pct": 51.8, "why": "undivided arterial, side-impact intersections", "pop_density": 0.0, "pop_density_peak": 0.0, "v_design": 60, "design_gap": 10}}, {"type": "Feature", "geometry": {"type": "LineString", "coordinates": [[120.5576703, 16.3795413], [120.5576692, 16.3794203]]}, "properties": {"city": "baguio", "name": "Ben Palispis Highway", "highway": "primary", "v_posted": 40, "posted_imputed": false, "v_safe": 30, "gap": 10, "R": 3.16, "exposure": 0.2, "vru_150m": 1, "sss": 15.0, "recommended": 30, "fatal_reduction_pct": 68.4, "why": "pedestrian activity (1 VRU site<=50m)", "pop_density": 0.0, "pop_density_peak": 0.0, "v_design": 60, "design_gap": 30}}, {"type": "Feature", "geometry": {"type": "LineString", "coordinates": [[120.5576678, 16.3798226], [120.5576703, 16.3795413]]}, "properties": {"city": "baguio", "name": "Ben Palispis Highway", "highway": "primary", "v_posted": 40, "posted_imputed": false, "v_safe": 30, "gap": 10, "R": 3.16, "exposure": 0.2, "vru_150m": 1, "sss": 15.0, "recommended": 30, "fatal_reduction_pct": 68.4, "why": "pedestrian activity (1 VRU site<=50m)", "pop_density": 0.0, "pop_density_peak": 0.0, "v_design": 60, "design_gap": 30}}, {"type": "Feature", "geometry": {"type": "LineString", "coordinates": [[120.5556413, 16.375224], [120.5554293, 16.3753198], [120.5553462, 16.3753584]]}, "properties": {"city": "baguio", "name": "Ben Palispis Highway", "highway": "primary", "v_posted": 60, "posted_imputed": false, "v_safe": 50, "gap": 10, "R": 2.07, "exposure": 0.0, "vru_150m": 0, "sss": 12.5, "recommended": 50, "fatal_reduction_pct": 51.8, "why": "undivided arterial, side-impact intersections", "pop_density": 0.0, "pop_density_peak": 0.0, "v_design": 60, "design_gap": 10}}, {"type": "Feature", "geometry": {"type": "LineString", "coordinates": [[120.5942203, 16.3814292], [120.5943484, 16.3813655], [120.594498, 16.3812998]]}, "properties": {"city": "baguio", "name": "Monticello Road", "highway": "secondary", "v_posted": 40, "posted_imputed": false, "v_safe": 30, "gap": 10, "R": 3.16, "exposure": 0.261, "vru_150m": 1, "sss": 15.8, "recommended": 30, "fatal_reduction_pct": 68.4, "why": "pedestrian activity (1 VRU site<=50m)", "pop_density": 2480.0, "pop_density_peak": 2480.0, "v_design": 50, "design_gap": 20}}, {"type": "Feature", "geometry": {"type": "LineString", "coordinates": [[120.594498, 16.3812998], [120.5945313, 16.3812874], [120.5946736, 16.3812297], [120.594764, 16.3811993], [120.5948244, 16.3811911], [120.5948794, 16.3812034], [120.5949431, 16.3812535], [120.5950302, 16.3813745], [120.5951082, 16.381431], [120.5952919, 16.3814796], [120.5954931, 16.3815142], [120.5956821, 16.381545]]}, "properties": {"city": "baguio", "name": "Monticello Road", "highway": "secondary", "v_posted": 40, "posted_imputed": false, "v_safe": 30, "gap": 10, "R": 3.16, "exposure": 0.244, "vru_150m": 1, "sss": 15.5, "recommended": 30, "fatal_reduction_pct": 68.4, "why": "pedestrian activity (1 VRU site<=50m)", "pop_density": 1769.0, "pop_density_peak": 2480.0, "v_design": 50, "design_gap": 20}}, {"type": "Feature", "geometry": {"type": "LineString", "coordinates": [[120.5938903, 16.425533], [120.5940201, 16.4253661]]}, "properties": {"city": "baguio", "name": "M. Roxas Street", "highway": "secondary", "v_posted": 40, "posted_imputed": false, "v_safe": 30, "gap": 10, "R": 3.16, "exposure": 1.0, "vru_150m": 6, "sss": 25.0, "recommended": 30, "fatal_reduction_pct": 68.4, "why": "pedestrian activity (3 VRU site<=50m)", "pop_density": 31937.6, "pop_density_peak": 31937.6, "v_design": 50, "design_gap": 20}}, {"type": "Feature", "geometry": {"type": "LineString", "coordinates": [[120.5940201, 16.4253661], [120.594134, 16.4252772]]}, "properties": {"city": "baguio", "name": "M. Roxas Street", "highway": "secondary", "v_posted": 40, "posted_imputed": false, "v_safe": 30, "gap": 10, "R": 3.16, "exposure": 1.0, "vru_150m": 6, "sss": 25.0, "recommended": 30, "fatal_reduction_pct": 68.4, "why": "pedestrian activity (2 VRU site<=50m)", "pop_density": 31937.6, "pop_density_peak": 31937.6, "v_design": 50, "design_gap": 20}}, {"type": "Feature", "geometry": {"type": "LineString", "coordinates": [[120.5892003, 16.4157902], [120.5892272, 16.4156848], [120.5892279, 16.4156802], [120.5892636, 16.4155864], [120.5892781, 16.4155483], [120.5892748, 16.4154813], [120.5892701, 16.4154517], [120.5892641, 16.4154183], [120.5892601, 16.4153797]]}, "properties": {"city": "baguio", "name": "", "highway": "trunk_link", "v_posted": 60, "posted_imputed": false, "v_safe": 30, "gap": 30, "R": 16.0, "exposure": 0.959, "vru_150m": 4, "sss": 73.5, "recommended": 30, "fatal_reduction_pct": 93.8, "why": "pedestrian activity (2 VRU site<=50m)", "pop_density": 25771.9, "pop_density_peak": 25772.0, "v_design": 55, "design_gap": 25}}, {"type": "Feature", "geometry": {"type": "LineString", "coordinates": [[120.5922788, 16.424553], [120.5924835, 16.4246156]]}, "properties": {"city": "baguio", "name": "", "highway": "trunk_link", "v_posted": 40, "posted_imputed": false, "v_safe": 30, "gap": 10, "R": 3.16, "exposure": 0.994, "vru_150m": 4, "sss": 24.9, "recommended": 30, "fatal_reduction_pct": 68.4, "why": "pedestrian activity (1 VRU site<=50m)", "pop_density": 31447.9, "pop_density_peak": 31447.9, "v_design": 55, "design_gap": 25}}, {"type": "Feature", "geometry": {"type": "LineString", "coordinates": [[120.594134, 16.4252772], [120.5942835, 16.4252344], [120.594359, 16.4252223], [120.5944492, 16.425209]]}, "properties": {"city": "baguio", "name": "M. Roxas Street", "highway": "secondary", "v_posted": 40, "posted_imputed": false, "v_safe": 30, "gap": 10, "R": 3.16, "exposure": 1.0, "vru_150m": 5, "sss": 25.0, "recommended": 30, "fatal_reduction_pct": 68.4, "why": "pedestrian activity (2 VRU site<=50m)", "pop_density": 28833.5, "pop_density_peak": 31937.6, "v_design": 50, "design_gap": 20}}, {"type": "Feature", "geometry": {"type": "LineString", "coordinates": [[120.5969265, 16.4337055], [120.5970258, 16.433492], [120.597074, 16.433362], [120.5971089, 16.4332232], [120.5971144, 16.4331576], [120.5971263, 16.4330341], [120.597125, 16.4325336], [120.5971317, 16.4324359], [120.5971491, 16.4323446], [120.5971814, 16.4322571], [120.5972457, 16.4321271], [120.597329, 16.4319705], [120.5974435, 16.4317551], [120.5974851, 16.4316827]]}, "properties": {"city": "baguio", "name": "La Trinidad Road", "highway": "trunk", "v_posted": 50, "posted_imputed": false, "v_safe": 30, "gap": 20, "R": 7.72, "exposure": 0.659, "vru_150m": 1, "sss": 41.5, "recommended": 30, "fatal_reduction_pct": 87.0, "why": "pedestrian activity (1 VRU site<=50m)", "pop_density": 18552.8, "pop_density_peak": 23093.9, "v_design": 70, "design_gap": 40}}, {"type": "Feature", "geometry": {"type": "LineString", "coordinates": [[120.6416914, 16.4075468], [120.6415625, 16.4076314], [120.6413546, 16.4077279], [120.6413151, 16.4077735], [120.6412902, 16.407863], [120.6412742, 16.4079807], [120.6412453, 16.4081203], [120.6412245, 16.4082438], [120.6411561, 16.4084792], [120.6410341, 16.4087944], [120.6409617, 16.4088806], [120.6408557, 16.4089745]]}, "properties": {"city": "baguio", "name": "", "highway": "residential", "v_posted": 40, "posted_imputed": false, "v_safe": 30, "gap": 10, "R": 3.16, "exposure": 0.75, "vru_150m": 1, "sss": 21.9, "recommended": 30, "fatal_reduction_pct": 68.4, "why": "local road, frontage/pedestrian mixing", "pop_density": 22241.7, "pop_density_peak": 27668.7, "v_design": 35, "design_gap": 5}}, {"type": "Feature", "geometry": {"type": "LineString", "coordinates": [[120.5807957, 16.4447752], [120.5809633, 16.4447984], [120.5811229, 16.4448293], [120.5813604, 16.4449077], [120.5814209, 16.4449296], [120.581666, 16.4450184], [120.5818834, 16.4451025], [120.5820799, 16.4451745], [120.5821812, 16.4451993], [120.5823018, 16.4452061], [120.5825767, 16.4451971], [120.5826385, 16.4451874], [120.582918, 16.4451736], [120.5830608, 16.4451765], [120.5832915, 16.4452036], [120.5838293, 16.445255], [120.5839473, 16.4452563], [120.5840211, 16.4452627], [120.5841659, 16.4452589], [120.5843617, 16.4452486], [120.5847036, 16.4452306], [120.5849545, 16.4452151], [120.5849902, 16.4452128], [120.5850226, 16.4452108], [120.5851154, 16.4452036], [120.5854413, 16.4451817], [120.5855593, 16.4451881], [120.5857122, 16.4451971], [120.5859348, 16.445237], [120.5860876, 16.4452689], [120.5861776, 16.445291], [120.5864686, 16.4453592], [120.5865973, 16.4454235], [120.5867618, 16.4455055], [120.5869018, 16.4455753], [120.5871895, 16.4457367], [120.5872424, 16.4457669], [120.5872987, 16.4458017], [120.5873926, 16.445857], [120.5874875, 16.4459099]]}, "properties": {"city": "baguio", "name": "Pico-Lamtang Road", "highway": "primary", "v_posted": 40, "posted_imputed": false, "v_safe": 30, "gap": 10, "R": 3.16, "exposure": 0.604, "vru_150m": 1, "sss": 20.1, "recommended": 30, "fatal_reduction_pct": 68.4, "why": "pedestrian activity (1 VRU site<=50m)", "pop_density": 16348.3, "pop_density_peak": 19158.2, "v_design": 60, "design_gap": 30}}, {"type": "Feature", "geometry": {"type": "LineString", "coordinates": [[120.580042, 16.4449476], [120.580121, 16.4449165], [120.5802445, 16.4448678], [120.5804095, 16.4448228], [120.5805111, 16.4448033], [120.5805436, 16.4447971], [120.5806629, 16.444785], [120.5806951, 16.4447817], [120.5807957, 16.4447752]]}, "properties": {"city": "baguio", "name": "Pico-Lamtang Road", "highway": "primary", "v_posted": 40, "posted_imputed": false, "v_safe": 30, "gap": 10, "R": 3.16, "exposure": 0.629, "vru_150m": 2, "sss": 20.4, "recommended": 30, "fatal_reduction_pct": 68.4, "why": "pedestrian activity (1 VRU site<=50m)", "pop_density": 12349.6, "pop_density_peak": 12349.6, "v_design": 60, "design_gap": 30}}, {"type": "Feature", "geometry": {"type": "LineString", "coordinates": [[120.5878968, 16.4619998], [120.5881611, 16.4621477], [120.5881892, 16.4621637], [120.5882556, 16.4622017], [120.5883669, 16.462257], [120.588418, 16.4622818]]}, "properties": {"city": "baguio", "name": "Halsema Highway", "highway": "trunk", "v_posted": 50, "posted_imputed": false, "v_safe": 30, "gap": 20, "R": 7.72, "exposure": 0.909, "vru_150m": 1, "sss": 47.7, "recommended": 30, "fatal_reduction_pct": 87.0, "why": "pedestrian activity (1 VRU site<=50m)", "pop_density": 28658.9, "pop_density_peak": 28772.9, "v_design": 70, "design_gap": 40}}, {"type": "Feature", "geometry": {"type": "LineString", "coordinates": [[120.5919007, 16.4437925], [120.5919463, 16.4437205]]}, "properties": {"city": "baguio", "name": "La Trinidad Road", "highway": "trunk", "v_posted": 40, "posted_imputed": false, "v_safe": 30, "gap": 10, "R": 3.16, "exposure": 1.0, "vru_150m": 5, "sss": 25.0, "recommended": 30, "fatal_reduction_pct": 68.4, "why": "pedestrian activity (2 VRU site<=50m)", "pop_density": 15619.9, "pop_density_peak": 15619.9, "v_design": 70, "design_gap": 40}}, {"type": "Feature", "geometry": {"type": "LineString", "coordinates": [[120.5914778, 16.4453468], [120.5914078, 16.4456361], [120.5913637, 16.4458184], [120.5913342, 16.4459117], [120.5910512, 16.4468323], [120.5907531, 16.4474419], [120.5907333, 16.447478], [120.5906375, 16.4476526]]}, "properties": {"city": "baguio", "name": "La Trinidad Road", "highway": "trunk", "v_posted": 40, "posted_imputed": false, "v_safe": 30, "gap": 10, "R": 3.16, "exposure": 0.783, "vru_150m": 3, "sss": 22.3, "recommended": 30, "fatal_reduction_pct": 68.4, "why": "pedestrian activity (2 VRU site<=50m)", "pop_density": 14823.8, "pop_density_peak": 15022.4, "v_design": 70, "design_gap": 40}}, {"type": "Feature", "geometry": {"type": "LineString", "coordinates": [[120.5901499, 16.4585675], [120.5903471, 16.4574662], [120.5906568, 16.4559704]]}, "properties": {"city": "baguio", "name": "", "highway": "unclassified", "v_posted": 45, "posted_imputed": false, "v_safe": 30, "gap": 15, "R": 5.06, "exposure": 0.675, "vru_150m": 0, "sss": 31.4, "recommended": 30, "fatal_reduction_pct": 80.2, "why": "local road, frontage/pedestrian mixing", "pop_density": 21840.1, "pop_density_peak": 24093.2, "v_design": 40, "design_gap": 10}}, {"type": "Feature", "geometry": {"type": "LineString", "coordinates": [[120.5905374, 16.4478352], [120.590512, 16.4479407], [120.5905026, 16.4480059], [120.5905546, 16.4492182], [120.5905268, 16.4493053]]}, "properties": {"city": "baguio", "name": "Benguet Provincial National Road", "highway": "trunk", "v_posted": 40, "posted_imputed": false, "v_safe": 30, "gap": 10, "R": 3.16, "exposure": 1.0, "vru_150m": 5, "sss": 25.0, "recommended": 30, "fatal_reduction_pct": 68.4, "why": "pedestrian activity (1 VRU site<=50m)", "pop_density": 16624.7, "pop_density_peak": 18535.8, "v_design": 70, "design_gap": 40}}, {"type": "Feature", "geometry": {"type": "LineString", "coordinates": [[120.5891468, 16.4560977], [120.589129, 16.4561905], [120.589083, 16.4564186], [120.5890338, 16.4566631], [120.5889637, 16.4570109], [120.5886726, 16.4583905], [120.5886423, 16.4585343], [120.5886278, 16.4585913], [120.588616, 16.4586478], [120.5885467, 16.4589801], [120.5885379, 16.4590224], [120.5884668, 16.4593626], [120.5884074, 16.4596566], [120.5882999, 16.4601883], [120.588252, 16.4604044], [120.5882211, 16.4605243], [120.5881249, 16.4609285], [120.5881168, 16.4609594], [120.5880906, 16.4610736]]}, "properties": {"city": "baguio", "name": "Benguet Provincial National Road", "highway": "trunk", "v_posted": 40, "posted_imputed": false, "v_safe": 30, "gap": 10, "R": 3.16, "exposure": 0.845, "vru_150m": 1, "sss": 23.1, "recommended": 30, "fatal_reduction_pct": 68.4, "why": "pedestrian activity (1 VRU site<=50m)", "pop_density": 26078.6, "pop_density_peak": 27810.0, "v_design": 70, "design_gap": 40}}, {"type": "Feature", "geometry": {"type": "LineString", "coordinates": [[120.5915044, 16.4449065], [120.5915662, 16.4446106], [120.5916006, 16.4444563], [120.5916398, 16.4443096]]}, "properties": {"city": "baguio", "name": "La Trinidad Road", "highway": "trunk", "v_posted": 40, "posted_imputed": false, "v_safe": 30, "gap": 10, "R": 3.16, "exposure": 0.889, "vru_150m": 4, "sss": 23.6, "recommended": 30, "fatal_reduction_pct": 68.4, "why": "pedestrian activity (1 VRU site<=50m)", "pop_density": 14392.9, "pop_density_peak": 14521.4, "v_design": 70, "design_gap": 40}}, {"type": "Feature", "geometry": {"type": "LineString", "coordinates": [[120.6019803, 16.4626767], [120.6021344, 16.4625067]]}, "properties": {"city": "baguio", "name": "Halsema Highway", "highway": "trunk", "v_posted": 50, "posted_imputed": false, "v_safe": 30, "gap": 20, "R": 7.72, "exposure": 0.26, "vru_150m": 1, "sss": 31.5, "recommended": 30, "fatal_reduction_pct": 87.0, "why": "pedestrian activity (1 VRU site<=50m)", "pop_density": 2409.1, "pop_density_peak": 2914.8, "v_design": 70, "design_gap": 40}}, {"type": "Feature", "geometry": {"type": "LineString", "coordinates": [[120.6017021, 16.4631059], [120.6017397, 16.4630455], [120.6018229, 16.462922], [120.6018312, 16.4629091], [120.6018647, 16.4628569], [120.6019368, 16.4627445], [120.6019803, 16.4626767]]}, "properties": {"city": "baguio", "name": "Halsema Highway", "highway": "trunk", "v_posted": 50, "posted_imputed": false, "v_safe": 30, "gap": 20, "R": 7.72, "exposure": 0.272, "vru_150m": 1, "sss": 31.8, "recommended": 30, "fatal_reduction_pct": 87.0, "why": "pedestrian activity (1 VRU site<=50m)", "pop_density": 2914.8, "pop_density_peak": 2914.8, "v_design": 70, "design_gap": 40}}, {"type": "Feature", "geometry": {"type": "LineString", "coordinates": [[120.6021344, 16.4625067], [120.6022228, 16.4624098], [120.6022601, 16.4623689], [120.6024462, 16.462177], [120.6024733, 16.462149], [120.6025645, 16.4620655], [120.6026624, 16.4620101], [120.6028167, 16.4619536], [120.6033531, 16.4617619], [120.6035354, 16.4616641], [120.6036883, 16.4615725], [120.6037071, 16.4615612], [120.6038521, 16.4614723], [120.6041725, 16.4612758], [120.6043441, 16.4611973], [120.6044689, 16.4611497], [120.6045802, 16.461142], [120.6046874, 16.4611626], [120.6047948, 16.4612102], [120.6050013, 16.4613053], [120.605099, 16.4613633], [120.6055364, 16.461623], [120.6057577, 16.4617709], [120.6058226, 16.4618134], [120.6059146, 16.4618738], [120.6059494, 16.4618923], [120.6060112, 16.4619253], [120.6061104, 16.4619471], [120.6062029, 16.4619548], [120.6062928, 16.4619407], [120.6063759, 16.4619073], [120.606392, 16.4619008], [120.606506, 16.4618391], [120.6067072, 16.461713], [120.6068534, 16.4616269], [120.6068718, 16.4616177], [120.6069204, 16.4615934], [120.6069969, 16.4615741], [120.60708, 16.4615626], [120.6071672, 16.4615716], [120.6075963, 16.4616886], [120.6078471, 16.4617632], [120.6079538, 16.4617867], [120.6080241, 16.4617928], [120.6082846, 16.4617748], [120.6083031, 16.4617735], [120.6083678, 16.4617629], [120.6084898, 16.4617429], [120.6086585, 16.4617217], [120.6087778, 16.4617143], [120.6088771, 16.4617233], [120.6089562, 16.4617529], [120.6091882, 16.4618918], [120.6094836, 16.4620658], [120.6095555, 16.4621082], [120.6096335, 16.4621332], [120.6097099, 16.4621362], [120.6097957, 16.4621207], [120.6098641, 16.4620886], [120.6099205, 16.4620526], [120.6100143, 16.4619587], [120.6101096, 16.4617992], [120.610186, 16.4616925], [120.6102343, 16.4616179], [120.6104127, 16.461452], [120.6105079, 16.461369], [120.6106158, 16.4612558], [120.610697, 16.4611574], [120.6108297, 16.4610005], [120.6109142, 16.4609195], [120.6110001, 16.4608436], [120.6110325, 16.4608237], [120.6111047, 16.4607793], [120.6112938, 16.4606803], [120.6115563, 16.4605376], [120.6116344, 16.4604951], [120.6117015, 16.4604655], [120.6117913, 16.4604398], [120.6119455, 16.4604205], [120.6121447, 16.4604012], [120.6122473, 16.4603876], [120.6123398, 16.4603587], [120.612423, 16.4603227], [120.612482, 16.4602829], [120.6125383, 16.4602263], [120.6125812, 16.4600758], [120.6126832, 16.4599214], [120.6127107, 16.4598937], [120.6127636, 16.4598404], [120.6128454, 16.4597903]]}, "properties": {"city": "baguio", "name": "Halsema Highway", "highway": "trunk", "v_posted": 50, "posted_imputed": false, "v_safe": 30, "gap": 20, "R": 7.72, "exposure": 0.556, "vru_150m": 2, "sss": 38.9, "recommended": 30, "fatal_reduction_pct": 87.0, "why": "pedestrian activity (1 VRU site<=50m)", "pop_density": 8407.3, "pop_density_peak": 12026.3, "v_design": 60, "design_gap": 30}}, {"type": "Feature", "geometry": {"type": "LineString", "coordinates": [[120.592416, 16.4431038], [120.5922437, 16.4433731], [120.5922196, 16.4434125], [120.5919726, 16.4438295]]}, "properties": {"city": "baguio", "name": "La Trinidad Road", "highway": "trunk", "v_posted": 40, "posted_imputed": false, "v_safe": 30, "gap": 10, "R": 3.16, "exposure": 1.0, "vru_150m": 5, "sss": 25.0, "recommended": 30, "fatal_reduction_pct": 68.4, "why": "pedestrian activity (2 VRU site<=50m)", "pop_density": 15588.0, "pop_density_peak": 15619.9, "v_design": 70, "design_gap": 40}}, {"type": "Feature", "geometry": {"type": "LineString", "coordinates": [[120.5918757, 16.4439949], [120.5917639, 16.4441856], [120.5917287, 16.4442737], [120.5917069, 16.4443282]]}, "properties": {"city": "baguio", "name": "La Trinidad Road", "highway": "trunk", "v_posted": 40, "posted_imputed": false, "v_safe": 30, "gap": 10, "R": 3.16, "exposure": 0.897, "vru_150m": 4, "sss": 23.7, "recommended": 30, "fatal_reduction_pct": 68.4, "why": "pedestrian activity (1 VRU site<=50m)", "pop_density": 15619.9, "pop_density_peak": 15619.9, "v_design": 70, "design_gap": 40}}, {"type": "Feature", "geometry": {"type": "LineString", "coordinates": [[120.5905268, 16.4493053], [120.5904812, 16.4492217], [120.590449, 16.4485709], [120.5904361, 16.4482641], [120.5904262, 16.448005], [120.5904489, 16.4479021], [120.5904904, 16.4477982]]}, "properties": {"city": "baguio", "name": "Benguet Provincial National Road", "highway": "trunk", "v_posted": 40, "posted_imputed": false, "v_safe": 30, "gap": 10, "R": 3.16, "exposure": 1.0, "vru_150m": 6, "sss": 25.0, "recommended": 30, "fatal_reduction_pct": 68.4, "why": "pedestrian activity (2 VRU site<=50m)", "pop_density": 14713.6, "pop_density_peak": 18535.8, "v_design": 70, "design_gap": 40}}, {"type": "Feature", "geometry": {"type": "LineString", "coordinates": [[120.5905374, 16.4478352], [120.5904904, 16.4477982]]}, "properties": {"city": "baguio", "name": "Pico-Lamtang Road", "highway": "primary", "v_posted": 40, "posted_imputed": false, "v_safe": 30, "gap": 10, "R": 3.16, "exposure": 1.0, "vru_150m": 6, "sss": 25.0, "recommended": 30, "fatal_reduction_pct": 68.4, "why": "pedestrian activity (1 VRU site<=50m)", "pop_density": 12802.5, "pop_density_peak": 12802.5, "v_design": 60, "design_gap": 30}}, {"type": "Feature", "geometry": {"type": "LineString", "coordinates": [[120.589918, 16.4473168], [120.589865, 16.4472738]]}, "properties": {"city": "baguio", "name": "Pico-Lamtang Road", "highway": "primary", "v_posted": 40, "posted_imputed": false, "v_safe": 30, "gap": 10, "R": 3.16, "exposure": 1.0, "vru_150m": 5, "sss": 25.0, "recommended": 30, "fatal_reduction_pct": 68.4, "why": "pedestrian activity (1 VRU site<=50m)", "pop_density": 15318.2, "pop_density_peak": 15318.2, "v_design": 60, "design_gap": 30}}, {"type": "Feature", "geometry": {"type": "LineString", "coordinates": [[120.589865, 16.4472738], [120.5898361, 16.4472487], [120.5898357, 16.447224]]}, "properties": {"city": "baguio", "name": "Pico-Lamtang Road", "highway": "primary", "v_posted": 40, "posted_imputed": false, "v_safe": 30, "gap": 10, "R": 3.16, "exposure": 1.0, "vru_150m": 5, "sss": 25.0, "recommended": 30, "fatal_reduction_pct": 68.4, "why": "pedestrian activity (1 VRU site<=50m)", "pop_density": 15318.2, "pop_density_peak": 15318.2, "v_design": 60, "design_gap": 30}}, {"type": "Feature", "geometry": {"type": "LineString", "coordinates": [[120.5899335, 16.4472477], [120.5903819, 16.4476263], [120.5905178, 16.4477511], [120.5905654, 16.4477842]]}, "properties": {"city": "baguio", "name": "Pico-Lamtang Road", "highway": "primary", "v_posted": 40, "posted_imputed": false, "v_safe": 30, "gap": 10, "R": 3.16, "exposure": 1.0, "vru_150m": 6, "sss": 25.0, "recommended": 30, "fatal_reduction_pct": 68.4, "why": "pedestrian activity (1 VRU site<=50m)", "pop_density": 14060.4, "pop_density_peak": 15318.2, "v_design": 60, "design_gap": 30}}, {"type": "Feature", "geometry": {"type": "LineString", "coordinates": [[120.5904904, 16.4477982], [120.5903763, 16.4477203], [120.5903424, 16.44769], [120.589918, 16.4473168]]}, "properties": {"city": "baguio", "name": "Pico-Lamtang Road", "highway": "primary", "v_posted": 40, "posted_imputed": false, "v_safe": 30, "gap": 10, "R": 3.16, "exposure": 1.0, "vru_150m": 6, "sss": 25.0, "recommended": 30, "fatal_reduction_pct": 68.4, "why": "pedestrian activity (1 VRU site<=50m)", "pop_density": 14060.4, "pop_density_peak": 15318.2, "v_design": 60, "design_gap": 30}}, {"type": "Feature", "geometry": {"type": "LineString", "coordinates": [[120.5894349, 16.4545494], [120.5894096, 16.4546707], [120.5893941, 16.4547384], [120.5892984, 16.4552388], [120.589292, 16.455275], [120.5892743, 16.4553753], [120.589242, 16.4555581], [120.589207, 16.4557565], [120.5891721, 16.4559544], [120.5891676, 16.45598], [120.5891468, 16.4560977]]}, "properties": {"city": "baguio", "name": "Benguet Provincial National Road", "highway": "trunk", "v_posted": 40, "posted_imputed": false, "v_safe": 30, "gap": 10, "R": 3.16, "exposure": 0.926, "vru_150m": 2, "sss": 24.1, "recommended": 30, "fatal_reduction_pct": 68.4, "why": "pedestrian activity (1 VRU site<=50m)", "pop_density": 28333.7, "pop_density_peak": 29084.8, "v_design": 70, "design_gap": 40}}, {"type": "Feature", "geometry": {"type": "LineString", "coordinates": [[120.5906375, 16.4476526], [120.5906302, 16.447666], [120.5905938, 16.4477324]]}, "properties": {"city": "baguio", "name": "La Trinidad Road", "highway": "trunk", "v_posted": 40, "posted_imputed": false, "v_safe": 30, "gap": 10, "R": 3.16, "exposure": 1.0, "vru_150m": 6, "sss": 25.0, "recommended": 30, "fatal_reduction_pct": 68.4, "why": "pedestrian activity (1 VRU site<=50m)", "pop_density": 13912.4, "pop_density_peak": 15022.4, "v_design": 70, "design_gap": 40}}, {"type": "Feature", "geometry": {"type": "LineString", "coordinates": [[120.5905938, 16.4477324], [120.5905654, 16.4477842], [120.5905374, 16.4478352]]}, "properties": {"city": "baguio", "name": "La Trinidad Road", "highway": "trunk", "v_posted": 40, "posted_imputed": false, "v_safe": 30, "gap": 10, "R": 3.16, "exposure": 1.0, "vru_150m": 6, "sss": 25.0, "recommended": 30, "fatal_reduction_pct": 68.4, "why": "pedestrian activity (1 VRU site<=50m)", "pop_density": 12802.5, "pop_density_peak": 12802.5, "v_design": 70, "design_gap": 40}}, {"type": "Feature", "geometry": {"type": "LineString", "coordinates": [[120.5919463, 16.4437205], [120.5920429, 16.4435623], [120.5921571, 16.4433756], [120.592234, 16.4432555], [120.5923581, 16.4430666], [120.5924276, 16.442957]]}, "properties": {"city": "baguio", "name": "La Trinidad Road", "highway": "trunk", "v_posted": 40, "posted_imputed": false, "v_safe": 30, "gap": 10, "R": 3.16, "exposure": 0.896, "vru_150m": 4, "sss": 23.7, "recommended": 30, "fatal_reduction_pct": 68.4, "why": "pedestrian activity (3 VRU site<=50m)", "pop_density": 15588.0, "pop_density_peak": 15619.9, "v_design": 70, "design_gap": 40}}, {"type": "Feature", "geometry": {"type": "LineString", "coordinates": [[120.5924858, 16.4429909], [120.592416, 16.4431038]]}, "properties": {"city": "baguio", "name": "La Trinidad Road", "highway": "trunk", "v_posted": 40, "posted_imputed": false, "v_safe": 30, "gap": 10, "R": 3.16, "exposure": 0.792, "vru_150m": 3, "sss": 22.4, "recommended": 30, "fatal_reduction_pct": 68.4, "why": "pedestrian activity (2 VRU site<=50m)", "pop_density": 15556.1, "pop_density_peak": 15556.1, "v_design": 70, "design_gap": 40}}, {"type": "Feature", "geometry": {"type": "LineString", "coordinates": [[120.5927322, 16.4426028], [120.5924858, 16.4429909]]}, "properties": {"city": "baguio", "name": "La Trinidad Road", "highway": "trunk", "v_posted": 40, "posted_imputed": false, "v_safe": 30, "gap": 10, "R": 3.16, "exposure": 0.791, "vru_150m": 3, "sss": 22.4, "recommended": 30, "fatal_reduction_pct": 68.4, "why": "pedestrian activity (2 VRU site<=50m)", "pop_density": 15444.3, "pop_density_peak": 15556.1, "v_design": 70, "design_gap": 40}}, {"type": "Feature", "geometry": {"type": "LineString", "coordinates": [[120.5917069, 16.4443282], [120.5916627, 16.4444699], [120.5916294, 16.4446163], [120.5915686, 16.4449177]]}, "properties": {"city": "baguio", "name": "La Trinidad Road", "highway": "trunk", "v_posted": 40, "posted_imputed": false, "v_safe": 30, "gap": 10, "R": 3.16, "exposure": 0.786, "vru_150m": 3, "sss": 22.3, "recommended": 30, "fatal_reduction_pct": 68.4, "why": "pedestrian activity (1 VRU site<=50m)", "pop_density": 15070.7, "pop_density_peak": 15619.9, "v_design": 70, "design_gap": 40}}, {"type": "Feature", "geometry": {"type": "LineString", "coordinates": [[120.5916398, 16.4443096], [120.5916598, 16.4442586], [120.5916982, 16.444161], [120.5918069, 16.4439604]]}, "properties": {"city": "baguio", "name": "La Trinidad Road", "highway": "trunk", "v_posted": 40, "posted_imputed": false, "v_safe": 30, "gap": 10, "R": 3.16, "exposure": 1.0, "vru_150m": 5, "sss": 25.0, "recommended": 30, "fatal_reduction_pct": 68.4, "why": "pedestrian activity (1 VRU site<=50m)", "pop_density": 14942.1, "pop_density_peak": 15619.9, "v_design": 70, "design_gap": 40}}, {"type": "Feature", "geometry": {"type": "LineString", "coordinates": [[120.5918069, 16.4439604], [120.5919007, 16.4437925]]}, "properties": {"city": "baguio", "name": "La Trinidad Road", "highway": "trunk", "v_posted": 40, "posted_imputed": false, "v_safe": 30, "gap": 10, "R": 3.16, "exposure": 1.0, "vru_150m": 5, "sss": 25.0, "recommended": 30, "fatal_reduction_pct": 68.4, "why": "pedestrian activity (1 VRU site<=50m)", "pop_density": 15619.9, "pop_density_peak": 15619.9, "v_design": 70, "design_gap": 40}}]}