{"type": "FeatureCollection", "features": [{"type": "Feature", "geometry": {"type": "LineString", "coordinates": [[121.1361523, 14.5587197], [121.1362605, 14.5587512]]}, "properties": {"city": "antipolo", "name": "", "highway": "primary_link", "v_posted": 60, "posted_imputed": false, "v_safe": 50, "gap": 10, "R": 2.07, "exposure": 0.554, "vru_150m": 2, "sss": 19.4, "recommended": 50, "fatal_reduction_pct": 51.8, "why": "undivided arterial, side-impact intersections", "pop_density": 8315.9, "pop_density_peak": 8587.7, "v_design": 45, "design_gap": -5}}, {"type": "Feature", "geometry": {"type": "LineString", "coordinates": [[121.1822615, 14.5629143], [121.182058, 14.5630029], [121.1819309, 14.563046]]}, "properties": {"city": "antipolo", "name": "", "highway": "residential", "v_posted": 40, "posted_imputed": false, "v_safe": 30, "gap": 10, "R": 3.16, "exposure": 0.387, "vru_150m": 1, "sss": 17.3, "recommended": 30, "fatal_reduction_pct": 68.4, "why": "local road, frontage/pedestrian mixing", "pop_density": 7576.3, "pop_density_peak": 7770.7, "v_design": 35, "design_gap": 5}}, {"type": "Feature", "geometry": {"type": "LineString", "coordinates": [[121.1818922, 14.5629582], [121.1820128, 14.562915], [121.1822212, 14.5628211]]}, "properties": {"city": "antipolo", "name": "", "highway": "residential", "v_posted": 40, "posted_imputed": false, "v_safe": 30, "gap": 10, "R": 3.16, "exposure": 0.387, "vru_150m": 1, "sss": 17.3, "recommended": 30, "fatal_reduction_pct": 68.4, "why": "local road, frontage/pedestrian mixing", "pop_density": 7576.3, "pop_density_peak": 7770.6, "v_design": 35, "design_gap": 5}}, {"type": "Feature", "geometry": {"type": "LineString", "coordinates": [[121.1819103, 14.5638275], [121.1821389, 14.5637663], [121.1821523, 14.5637507], [121.1821489, 14.5637308]]}, "properties": {"city": "antipolo", "name": "", "highway": "residential", "v_posted": 40, "posted_imputed": false, "v_safe": 30, "gap": 10, "R": 3.16, "exposure": 0.395, "vru_150m": 1, "sss": 17.4, "recommended": 30, "fatal_reduction_pct": 68.4, "why": "local road, frontage/pedestrian mixing", "pop_density": 7875.9, "pop_density_peak": 8043.8, "v_design": 35, "design_gap": 5}}, {"type": "Feature", "geometry": {"type": "LineString", "coordinates": [[121.1825297, 14.5636787], [121.1825804, 14.5637204], [121.1825989, 14.5637692], [121.1826149, 14.5638098], [121.1826051, 14.563873]]}, "properties": {"city": "antipolo", "name": "Mission Hills Boulevard", "highway": "tertiary", "v_posted": 40, "posted_imputed": false, "v_safe": 30, "gap": 10, "R": 3.16, "exposure": 0.549, "vru_150m": 2, "sss": 19.4, "recommended": 30, "fatal_reduction_pct": 68.4, "why": "pedestrian activity (1 VRU site<=50m)", "pop_density": 8043.8, "pop_density_peak": 8043.8, "v_design": 45, "design_gap": 15}}, {"type": "Feature", "geometry": {"type": "LineString", "coordinates": [[121.1826051, 14.563873], [121.182547, 14.563838], [121.1825265, 14.5637955], [121.1825173, 14.5637658], [121.1825082, 14.5637355], [121.1825297, 14.5636787]]}, "properties": {"city": "antipolo", "name": "Mission Hills Boulevard", "highway": "tertiary", "v_posted": 40, "posted_imputed": false, "v_safe": 30, "gap": 10, "R": 3.16, "exposure": 0.399, "vru_150m": 1, "sss": 17.5, "recommended": 30, "fatal_reduction_pct": 68.4, "why": "pedestrian activity (1 VRU site<=50m)", "pop_density": 8043.8, "pop_density_peak": 8043.8, "v_design": 40, "design_gap": 10}}, {"type": "Feature", "geometry": {"type": "LineString", "coordinates": [[121.1424618, 14.5779593], [121.14199, 14.5781089]]}, "properties": {"city": "antipolo", "name": "Ortigas Avenue Extension", "highway": "primary", "v_posted": 60, "posted_imputed": false, "v_safe": 50, "gap": 10, "R": 2.07, "exposure": 0.719, "vru_150m": 3, "sss": 21.5, "recommended": 50, "fatal_reduction_pct": 51.8, "why": "undivided arterial, side-impact intersections", "pop_density": 9613.6, "pop_density_peak": 9730.5, "v_design": 60, "design_gap": 10}}, {"type": "Feature", "geometry": {"type": "LineString", "coordinates": [[121.1272554, 14.5826148], [121.1272888, 14.5826961]]}, "properties": {"city": "antipolo", "name": "", "highway": "service", "v_posted": 40, "posted_imputed": false, "v_safe": 30, "gap": 10, "R": 3.16, "exposure": 0.917, "vru_150m": 1, "sss": 24.0, "recommended": 30, "fatal_reduction_pct": 68.4, "why": "local road, frontage/pedestrian mixing", "pop_density": 28990.9, "pop_density_peak": 28990.9, "v_design": 25, "design_gap": -5}}, {"type": "Feature", "geometry": {"type": "LineString", "coordinates": [[121.140556, 14.5908645], [121.1406719, 14.5911032], [121.1407415, 14.5912755], [121.1407239, 14.5913884], [121.1406444, 14.5915076], [121.1405251, 14.5916083], [121.1403883, 14.5916783], [121.1386158, 14.59171]]}, "properties": {"city": "antipolo", "name": "Narra Avenue", "highway": "residential", "v_posted": 40, "posted_imputed": false, "v_safe": 30, "gap": 10, "R": 3.16, "exposure": 0.524, "vru_150m": 0, "sss": 19.1, "recommended": 30, "fatal_reduction_pct": 68.4, "why": "local road, frontage/pedestrian mixing", "pop_density": 16949.8, "pop_density_peak": 21819.7, "v_design": 25, "design_gap": -5}}, {"type": "Feature", "geometry": {"type": "LineString", "coordinates": [[121.1308189, 14.5689356], [121.1308557, 14.5689829]]}, "properties": {"city": "antipolo", "name": "Rizal Avenue", "highway": "secondary", "v_posted": 40, "posted_imputed": false, "v_safe": 30, "gap": 10, "R": 3.16, "exposure": 1.0, "vru_150m": 19, "sss": 25.0, "recommended": 30, "fatal_reduction_pct": 68.4, "why": "pedestrian activity (3 VRU site<=50m)", "pop_density": 11724.7, "pop_density_peak": 11724.7, "v_design": 50, "design_gap": 20}}, {"type": "Feature", "geometry": {"type": "LineString", "coordinates": [[121.1417091, 14.5913421], [121.1412767, 14.591256], [121.1411119, 14.5911723], [121.140556, 14.5908645]]}, "properties": {"city": "antipolo", "name": "Narra Drive", "highway": "residential", "v_posted": 40, "posted_imputed": false, "v_safe": 30, "gap": 10, "R": 3.16, "exposure": 0.308, "vru_150m": 0, "sss": 16.3, "recommended": 30, "fatal_reduction_pct": 68.4, "why": "local road, frontage/pedestrian mixing", "pop_density": 9948.9, "pop_density_peak": 12079.8, "v_design": 35, "design_gap": 5}}, {"type": "Feature", "geometry": {"type": "LineString", "coordinates": [[121.1416804, 14.5916616], [121.1416939, 14.5916536], [121.1417026, 14.5916387], [121.1417091, 14.5913421]]}, "properties": {"city": "antipolo", "name": "Narra Drive", "highway": "residential", "v_posted": 40, "posted_imputed": false, "v_safe": 30, "gap": 10, "R": 3.16, "exposure": 0.242, "vru_150m": 0, "sss": 15.5, "recommended": 30, "fatal_reduction_pct": 68.4, "why": "local road, frontage/pedestrian mixing", "pop_density": 7817.9, "pop_density_peak": 7817.9, "v_design": 35, "design_gap": 5}}, {"type": "Feature", "geometry": {"type": "LineString", "coordinates": [[121.1403883, 14.5916783], [121.1416804, 14.5916616]]}, "properties": {"city": "antipolo", "name": "Narra Drive", "highway": "residential", "v_posted": 40, "posted_imputed": false, "v_safe": 30, "gap": 10, "R": 3.16, "exposure": 0.307, "vru_150m": 0, "sss": 16.3, "recommended": 30, "fatal_reduction_pct": 68.4, "why": "local road, frontage/pedestrian mixing", "pop_density": 9930.4, "pop_density_peak": 12042.9, "v_design": 35, "design_gap": 5}}, {"type": "Feature", "geometry": {"type": "LineString", "coordinates": [[121.135501, 14.5801357], [121.1353953, 14.5801697], [121.1350805, 14.580266], [121.1344141, 14.5804753], [121.1335747, 14.5807454]]}, "properties": {"city": "antipolo", "name": "Ortigas Avenue Extension", "highway": "primary", "v_posted": 40, "posted_imputed": false, "v_safe": 30, "gap": 10, "R": 3.16, "exposure": 1.0, "vru_150m": 5, "sss": 25.0, "recommended": 30, "fatal_reduction_pct": 68.4, "why": "pedestrian activity (1 VRU site<=50m)", "pop_density": 16895.4, "pop_density_peak": 22406.4, "v_design": 60, "design_gap": 30}}, {"type": "Feature", "geometry": {"type": "LineString", "coordinates": [[121.1368067, 14.5797252], [121.1364629, 14.5798325], [121.1360775, 14.5799538]]}, "properties": {"city": "antipolo", "name": "Ortigas Avenue Extension", "highway": "primary", "v_posted": 40, "posted_imputed": false, "v_safe": 30, "gap": 10, "R": 3.16, "exposure": 0.605, "vru_150m": 2, "sss": 20.1, "recommended": 30, "fatal_reduction_pct": 68.4, "why": "pedestrian activity (1 VRU site<=50m)", "pop_density": 11068.2, "pop_density_peak": 11384.3, "v_design": 60, "design_gap": 30}}, {"type": "Feature", "geometry": {"type": "LineString", "coordinates": [[121.1409132, 14.5783394], [121.1414523, 14.5781699], [121.1414977, 14.578155]]}, "properties": {"city": "antipolo", "name": "Ortigas Avenue Extension", "highway": "primary", "v_posted": 60, "posted_imputed": false, "v_safe": 30, "gap": 30, "R": 16.0, "exposure": 0.719, "vru_150m": 3, "sss": 64.5, "recommended": 30, "fatal_reduction_pct": 93.8, "why": "pedestrian activity (1 VRU site<=50m)", "pop_density": 9653.9, "pop_density_peak": 9730.5, "v_design": 60, "design_gap": 30}}, {"type": "Feature", "geometry": {"type": "LineString", "coordinates": [[121.1428542, 14.5776883], [121.1429687, 14.5776376], [121.143058, 14.5775879]]}, "properties": {"city": "antipolo", "name": "Ortigas Avenue Extension", "highway": "primary", "v_posted": 60, "posted_imputed": false, "v_safe": 50, "gap": 10, "R": 2.07, "exposure": 0.618, "vru_150m": 2, "sss": 20.2, "recommended": 50, "fatal_reduction_pct": 51.8, "why": "undivided arterial, side-impact intersections", "pop_density": 11757.6, "pop_density_peak": 12146.3, "v_design": 60, "design_gap": 10}}, {"type": "Feature", "geometry": {"type": "LineString", "coordinates": [[121.1429076, 14.577816], [121.1425638, 14.5779243], [121.1424618, 14.5779593]]}, "properties": {"city": "antipolo", "name": "Ortigas Avenue Extension", "highway": "primary", "v_posted": 60, "posted_imputed": false, "v_safe": 30, "gap": 30, "R": 16.0, "exposure": 0.454, "vru_150m": 1, "sss": 54.5, "recommended": 30, "fatal_reduction_pct": 93.8, "why": "pedestrian activity (1 VRU site<=50m)", "pop_density": 10257.3, "pop_density_peak": 11018.0, "v_design": 60, "design_gap": 30}}, {"type": "Feature", "geometry": {"type": "LineString", "coordinates": [[121.142081, 14.5779632], [121.1425473, 14.5778082], [121.1427984, 14.5777109], [121.1428542, 14.5776883]]}, "properties": {"city": "antipolo", "name": "Ortigas Avenue Extension", "highway": "primary", "v_posted": 60, "posted_imputed": false, "v_safe": 30, "gap": 30, "R": 16.0, "exposure": 0.594, "vru_150m": 2, "sss": 59.8, "recommended": 30, "fatal_reduction_pct": 93.8, "why": "pedestrian activity (1 VRU site<=50m)", "pop_density": 10432.7, "pop_density_peak": 11368.8, "v_design": 60, "design_gap": 30}}, {"type": "Feature", "geometry": {"type": "LineString", "coordinates": [[121.1429991, 14.5777877], [121.1429076, 14.577816]]}, "properties": {"city": "antipolo", "name": "Ortigas Avenue Extension", "highway": "primary", "v_posted": 60, "posted_imputed": false, "v_safe": 50, "gap": 10, "R": 2.07, "exposure": 0.604, "vru_150m": 2, "sss": 20.1, "recommended": 50, "fatal_reduction_pct": 51.8, "why": "undivided arterial, side-impact intersections", "pop_density": 11018.0, "pop_density_peak": 11018.0, "v_design": 60, "design_gap": 10}}, {"type": "Feature", "geometry": {"type": "LineString", "coordinates": [[121.1431852, 14.5777355], [121.1430565, 14.5777713], [121.1429991, 14.5777877]]}, "properties": {"city": "antipolo", "name": "Ortigas Avenue Extension", "highway": "primary", "v_posted": 60, "posted_imputed": false, "v_safe": 50, "gap": 10, "R": 2.07, "exposure": 0.604, "vru_150m": 2, "sss": 20.1, "recommended": 50, "fatal_reduction_pct": 51.8, "why": "undivided arterial, side-impact intersections", "pop_density": 11018.0, "pop_density_peak": 11018.0, "v_design": 60, "design_gap": 10}}, {"type": "Feature", "geometry": {"type": "LineString", "coordinates": [[121.1392064, 14.5789798], [121.1389334, 14.5790665], [121.138849, 14.5790875], [121.1387947, 14.5791095]]}, "properties": {"city": "antipolo", "name": "Ortigas Avenue Extension", "highway": "primary", "v_posted": 60, "posted_imputed": false, "v_safe": 30, "gap": 30, "R": 16.0, "exposure": 0.59, "vru_150m": 2, "sss": 59.6, "recommended": 30, "fatal_reduction_pct": 93.8, "why": "pedestrian activity (1 VRU site<=50m)", "pop_density": 10242.8, "pop_density_peak": 10242.8, "v_design": 60, "design_gap": 30}}, {"type": "Feature", "geometry": {"type": "LineString", "coordinates": [[121.1387947, 14.5791095], [121.1386817, 14.5791446]]}, "properties": {"city": "antipolo", "name": "Ortigas Avenue Extension", "highway": "primary", "v_posted": 60, "posted_imputed": false, "v_safe": 30, "gap": 30, "R": 16.0, "exposure": 0.592, "vru_150m": 2, "sss": 59.7, "recommended": 30, "fatal_reduction_pct": 93.8, "why": "pedestrian activity (2 VRU site<=50m)", "pop_density": 10331.7, "pop_density_peak": 10420.7, "v_design": 60, "design_gap": 30}}, {"type": "Feature", "geometry": {"type": "LineString", "coordinates": [[121.1386817, 14.5791446], [121.1383672, 14.5792429], [121.1381037, 14.5793246], [121.137946, 14.5793752]]}, "properties": {"city": "antipolo", "name": "Ortigas Avenue Extension", "highway": "primary", "v_posted": 60, "posted_imputed": false, "v_safe": 30, "gap": 30, "R": 16.0, "exposure": 0.589, "vru_150m": 2, "sss": 59.6, "recommended": 30, "fatal_reduction_pct": 93.8, "why": "pedestrian activity (2 VRU site<=50m)", "pop_density": 10192.7, "pop_density_peak": 10420.7, "v_design": 60, "design_gap": 30}}, {"type": "Feature", "geometry": {"type": "LineString", "coordinates": [[121.1374112, 14.5794301], [121.1375394, 14.5793914], [121.1378681, 14.5792887], [121.1379136, 14.5792745], [121.1387627, 14.5790097]]}, "properties": {"city": "antipolo", "name": "Ortigas Avenue Extension", "highway": "primary", "v_posted": 40, "posted_imputed": false, "v_safe": 30, "gap": 10, "R": 3.16, "exposure": 0.593, "vru_150m": 2, "sss": 19.9, "recommended": 30, "fatal_reduction_pct": 68.4, "why": "pedestrian activity (1 VRU site<=50m)", "pop_density": 10423.3, "pop_density_peak": 10603.8, "v_design": 60, "design_gap": 30}}, {"type": "Feature", "geometry": {"type": "LineString", "coordinates": [[121.1364495, 14.579728], [121.1365559, 14.579695], [121.136584, 14.5796839], [121.1367623, 14.579629], [121.1370286, 14.5795483], [121.1373479, 14.5794492], [121.1374112, 14.5794301]]}, "properties": {"city": "antipolo", "name": "Ortigas Avenue Extension", "highway": "primary", "v_posted": 40, "posted_imputed": false, "v_safe": 30, "gap": 10, "R": 3.16, "exposure": 0.464, "vru_150m": 1, "sss": 18.3, "recommended": 30, "fatal_reduction_pct": 68.4, "why": "pedestrian activity (1 VRU site<=50m)", "pop_density": 10677.9, "pop_density_peak": 10752.0, "v_design": 60, "design_gap": 30}}, {"type": "Feature", "geometry": {"type": "LineString", "coordinates": [[121.137946, 14.5793752], [121.137835, 14.5794077]]}, "properties": {"city": "antipolo", "name": "Ortigas Avenue Extension", "highway": "primary", "v_posted": 60, "posted_imputed": false, "v_safe": 50, "gap": 10, "R": 2.07, "exposure": 0.727, "vru_150m": 3, "sss": 21.6, "recommended": 50, "fatal_reduction_pct": 51.8, "why": "undivided arterial, side-impact intersections", "pop_density": 10284.2, "pop_density_peak": 10603.8, "v_design": 60, "design_gap": 10}}, {"type": "Feature", "geometry": {"type": "LineString", "coordinates": [[121.137835, 14.5794077], [121.1377636, 14.57943], [121.1376556, 14.5794644], [121.1375689, 14.5794914], [121.1374394, 14.5795318]]}, "properties": {"city": "antipolo", "name": "Ortigas Avenue Extension", "highway": "primary", "v_posted": 60, "posted_imputed": false, "v_safe": 50, "gap": 10, "R": 2.07, "exposure": 0.731, "vru_150m": 3, "sss": 21.6, "recommended": 50, "fatal_reduction_pct": 51.8, "why": "undivided arterial, side-impact intersections", "pop_density": 10603.8, "pop_density_peak": 10603.8, "v_design": 60, "design_gap": 10}}, {"type": "Feature", "geometry": {"type": "LineString", "coordinates": [[121.1373811, 14.5795499], [121.1368067, 14.5797252]]}, "properties": {"city": "antipolo", "name": "Ortigas Avenue Extension", "highway": "primary", "v_posted": 60, "posted_imputed": false, "v_safe": 30, "gap": 30, "R": 16.0, "exposure": 0.464, "vru_150m": 1, "sss": 54.9, "recommended": 30, "fatal_reduction_pct": 93.8, "why": "pedestrian activity (1 VRU site<=50m)", "pop_density": 10677.9, "pop_density_peak": 10752.0, "v_design": 60, "design_gap": 30}}, {"type": "Feature", "geometry": {"type": "LineString", "coordinates": [[121.1374394, 14.5795318], [121.1373811, 14.5795499]]}, "properties": {"city": "antipolo", "name": "Ortigas Avenue Extension", "highway": "primary", "v_posted": 60, "posted_imputed": false, "v_safe": 50, "gap": 10, "R": 2.07, "exposure": 0.731, "vru_150m": 3, "sss": 21.6, "recommended": 50, "fatal_reduction_pct": 51.8, "why": "undivided arterial, side-impact intersections", "pop_density": 10603.8, "pop_density_peak": 10603.8, "v_design": 60, "design_gap": 10}}, {"type": "Feature", "geometry": {"type": "LineString", "coordinates": [[121.1414977, 14.578155], [121.1417744, 14.5780677], [121.142081, 14.5779632]]}, "properties": {"city": "antipolo", "name": "Ortigas Avenue Extension", "highway": "primary", "v_posted": 60, "posted_imputed": false, "v_safe": 50, "gap": 10, "R": 2.07, "exposure": 0.719, "vru_150m": 3, "sss": 21.5, "recommended": 50, "fatal_reduction_pct": 51.8, "why": "undivided arterial, side-impact intersections", "pop_density": 9613.6, "pop_density_peak": 9730.5, "v_design": 60, "design_gap": 10}}, {"type": "Feature", "geometry": {"type": "LineString", "coordinates": [[121.1409421, 14.578435], [121.1404437, 14.5785911]]}, "properties": {"city": "antipolo", "name": "Ortigas Avenue Extension", "highway": "primary", "v_posted": 60, "posted_imputed": false, "v_safe": 50, "gap": 10, "R": 2.07, "exposure": 0.575, "vru_150m": 2, "sss": 19.7, "recommended": 50, "fatal_reduction_pct": 51.8, "why": "undivided arterial, side-impact intersections", "pop_density": 9419.0, "pop_density_peak": 9577.4, "v_design": 60, "design_gap": 10}}, {"type": "Feature", "geometry": {"type": "LineString", "coordinates": [[121.14199, 14.5781089], [121.1415273, 14.5782517]]}, "properties": {"city": "antipolo", "name": "Ortigas Avenue Extension", "highway": "primary", "v_posted": 60, "posted_imputed": false, "v_safe": 50, "gap": 10, "R": 2.07, "exposure": 0.72, "vru_150m": 3, "sss": 21.5, "recommended": 50, "fatal_reduction_pct": 51.8, "why": "undivided arterial, side-impact intersections", "pop_density": 9730.5, "pop_density_peak": 9730.5, "v_design": 60, "design_gap": 10}}, {"type": "Feature", "geometry": {"type": "LineString", "coordinates": [[121.1415273, 14.5782517], [121.1414825, 14.5782663], [121.1409421, 14.578435]]}, "properties": {"city": "antipolo", "name": "Ortigas Avenue Extension", "highway": "primary", "v_posted": 60, "posted_imputed": false, "v_safe": 30, "gap": 30, "R": 16.0, "exposure": 0.719, "vru_150m": 3, "sss": 64.5, "recommended": 30, "fatal_reduction_pct": 93.8, "why": "pedestrian activity (1 VRU site<=50m)", "pop_density": 9653.9, "pop_density_peak": 9730.5, "v_design": 60, "design_gap": 30}}, {"type": "Feature", "geometry": {"type": "LineString", "coordinates": [[121.1404437, 14.5785911], [121.1403512, 14.5786205], [121.139978, 14.5787368], [121.1398582, 14.5787741], [121.1395609, 14.5788671], [121.1392064, 14.5789798]]}, "properties": {"city": "antipolo", "name": "Ortigas Avenue Extension", "highway": "primary", "v_posted": 60, "posted_imputed": false, "v_safe": 50, "gap": 10, "R": 2.07, "exposure": 0.581, "vru_150m": 2, "sss": 19.8, "recommended": 50, "fatal_reduction_pct": 51.8, "why": "undivided arterial, side-impact intersections", "pop_density": 9751.7, "pop_density_peak": 10242.8, "v_design": 60, "design_gap": 10}}, {"type": "Feature", "geometry": {"type": "LineString", "coordinates": [[121.1404133, 14.5784951], [121.1406177, 14.5784291], [121.1409132, 14.5783394]]}, "properties": {"city": "antipolo", "name": "Ortigas Avenue Extension", "highway": "primary", "v_posted": 40, "posted_imputed": false, "v_safe": 30, "gap": 10, "R": 3.16, "exposure": 0.578, "vru_150m": 2, "sss": 19.7, "recommended": 30, "fatal_reduction_pct": 68.4, "why": "pedestrian activity (1 VRU site<=50m)", "pop_density": 9577.4, "pop_density_peak": 9577.4, "v_design": 60, "design_gap": 30}}, {"type": "Feature", "geometry": {"type": "LineString", "coordinates": [[121.1386158, 14.59171], [121.1384938, 14.5917112]]}, "properties": {"city": "antipolo", "name": "Narra Avenue", "highway": "residential", "v_posted": 40, "posted_imputed": false, "v_safe": 30, "gap": 10, "R": 3.16, "exposure": 0.805, "vru_150m": 2, "sss": 22.6, "recommended": 30, "fatal_reduction_pct": 68.4, "why": "local road, frontage/pedestrian mixing", "pop_density": 21819.7, "pop_density_peak": 21819.7, "v_design": 35, "design_gap": 5}}, {"type": "Feature", "geometry": {"type": "LineString", "coordinates": [[121.1874985, 14.5778218], [121.1875374, 14.577807]]}, "properties": {"city": "antipolo", "name": "E. Rodriguez Avenue", "highway": "primary", "v_posted": 60, "posted_imputed": false, "v_safe": 50, "gap": 10, "R": 2.07, "exposure": 0.455, "vru_150m": 0, "sss": 18.2, "recommended": 50, "fatal_reduction_pct": 51.8, "why": "undivided arterial, side-impact intersections", "pop_density": 14720.0, "pop_density_peak": 14720.0, "v_design": 60, "design_gap": 10}}, {"type": "Feature", "geometry": {"type": "LineString", "coordinates": [[121.1317462, 14.6387923], [121.1318931, 14.63906], [121.1320469, 14.639331], [121.1321815, 14.6395683], [121.1322002, 14.6396247], [121.1322132, 14.6396819], [121.1322143, 14.6397343], [121.1322082, 14.6397749], [121.1321922, 14.6398122], [121.132163, 14.6398518], [121.1320529, 14.639959]]}, "properties": {"city": "antipolo", "name": "", "highway": "unclassified", "v_posted": 40, "posted_imputed": false, "v_safe": 30, "gap": 10, "R": 3.16, "exposure": 0.367, "vru_150m": 1, "sss": 17.1, "recommended": 30, "fatal_reduction_pct": 68.4, "why": "local road, frontage/pedestrian mixing", "pop_density": 6741.0, "pop_density_peak": 7595.8, "v_design": 35, "design_gap": 5}}, {"type": "Feature", "geometry": {"type": "LineString", "coordinates": [[121.1323473, 14.6369714], [121.1323038, 14.6374229], [121.1322674, 14.6378802], [121.1322753, 14.6379573], [121.1322994, 14.6380909], [121.1323731, 14.6382858]]}, "properties": {"city": "antipolo", "name": "", "highway": "unclassified", "v_posted": 40, "posted_imputed": false, "v_safe": 30, "gap": 10, "R": 3.16, "exposure": 0.198, "vru_150m": 0, "sss": 15.0, "recommended": 30, "fatal_reduction_pct": 68.4, "why": "local road, frontage/pedestrian mixing", "pop_density": 6388.8, "pop_density_peak": 6842.1, "v_design": 40, "design_gap": 10}}, {"type": "Feature", "geometry": {"type": "LineString", "coordinates": [[121.1326307, 14.6278599], [121.1326401, 14.6276984], [121.1326401, 14.6275751], [121.1326307, 14.6274687], [121.1326133, 14.6273779], [121.1323669, 14.6265512], [121.1323031, 14.6263192], [121.1322726, 14.6262204], [121.1322378, 14.6261425], [121.1321955, 14.6260768], [121.1320668, 14.6259212], [121.1319732, 14.6258058], [121.1319041, 14.6257047], [121.1318743, 14.6256313], [121.1318609, 14.6255677], [121.1318555, 14.6255045], [121.1318638, 14.6253307], [121.1318743, 14.6251875], [121.131877, 14.6250512], [121.1318742, 14.6249514], [121.1318609, 14.6248112], [121.1318362, 14.624657], [121.1317877, 14.6243942]]}, "properties": {"city": "antipolo", "name": "TOCS Avenue", "highway": "unclassified", "v_posted": 40, "posted_imputed": false, "v_safe": 30, "gap": 10, "R": 3.16, "exposure": 0.842, "vru_150m": 4, "sss": 23.0, "recommended": 30, "fatal_reduction_pct": 68.4, "why": "pedestrian activity (1 VRU site<=50m)", "pop_density": 6844.8, "pop_density_peak": 7857.4, "v_design": 40, "design_gap": 10}}, {"type": "Feature", "geometry": {"type": "LineString", "coordinates": [[121.1326307, 14.6278599], [121.1334802, 14.6280695], [121.1336929, 14.6281266], [121.1338504, 14.6281857], [121.1339866, 14.6282525], [121.1341491, 14.6283422], [121.1343031, 14.6284478], [121.1344311, 14.628538], [121.1345391, 14.6286223], [121.1346269, 14.6287039]]}, "properties": {"city": "antipolo", "name": "Beach Street", "highway": "unclassified", "v_posted": 40, "posted_imputed": false, "v_safe": 30, "gap": 10, "R": 3.16, "exposure": 0.308, "vru_150m": 1, "sss": 16.4, "recommended": 30, "fatal_reduction_pct": 68.4, "why": "local road, frontage/pedestrian mixing", "pop_density": 4377.8, "pop_density_peak": 5616.4, "v_design": 40, "design_gap": 10}}, {"type": "Feature", "geometry": {"type": "LineString", "coordinates": [[121.1354556, 14.6405488], [121.1354464, 14.6405855], [121.1354329, 14.6406218], [121.1354108, 14.6406582], [121.1353787, 14.6406951], [121.135321, 14.6407548], [121.1352276, 14.6408503], [121.1351547, 14.6409292], [121.1350957, 14.6410157], [121.1350656, 14.641089], [121.1349996, 14.6412925], [121.1349628, 14.6413955], [121.1349146, 14.6414685], [121.1348629, 14.6415152], [121.134678, 14.641655], [121.1345471, 14.6417669], [121.1344382, 14.6418738], [121.1343768, 14.6419486], [121.1343186, 14.6420163], [121.1342183, 14.6421762], [121.1341515, 14.6423087], [121.1341113, 14.6424103], [121.1340932, 14.6425072], [121.1340845, 14.6426136], [121.1340778, 14.6427381], [121.1340657, 14.6428413], [121.1340442, 14.6429522], [121.1340288, 14.643021], [121.1340066, 14.6431026]]}, "properties": {"city": "antipolo", "name": "", "highway": "unclassified", "v_posted": 40, "posted_imputed": false, "v_safe": 30, "gap": 10, "R": 3.16, "exposure": 0.094, "vru_150m": 0, "sss": 13.7, "recommended": 30, "fatal_reduction_pct": 68.4, "why": "local road, frontage/pedestrian mixing", "pop_density": 3043.8, "pop_density_peak": 3320.1, "v_design": 40, "design_gap": 10}}, {"type": "Feature", "geometry": {"type": "LineString", "coordinates": [[121.136993, 14.6399991], [121.1371368, 14.6399594], [121.1373106, 14.6399173], [121.1374922, 14.6398829], [121.1377755, 14.6398259], [121.1379683, 14.6398037], [121.1380944, 14.6397868], [121.1382276, 14.6397531], [121.1384054, 14.6396946], [121.1385873, 14.6396354], [121.1391137, 14.6394625], [121.1392786, 14.6394028], [121.1394073, 14.6393405], [121.1394931, 14.6392678], [121.139543, 14.6391901], [121.1395803, 14.6391082], [121.1396689, 14.6388712], [121.1397104, 14.638754], [121.1397691, 14.6386196]]}, "properties": {"city": "antipolo", "name": "", "highway": "unclassified", "v_posted": 40, "posted_imputed": false, "v_safe": 30, "gap": 10, "R": 3.16, "exposure": 0.078, "vru_150m": 0, "sss": 13.5, "recommended": 30, "fatal_reduction_pct": 68.4, "why": "local road, frontage/pedestrian mixing", "pop_density": 2513.4, "pop_density_peak": 2764.4, "v_design": 40, "design_gap": 10}}, {"type": "Feature", "geometry": {"type": "LineString", "coordinates": [[121.136993, 14.6399991], [121.1363457, 14.6402588], [121.1362024, 14.6403163], [121.1358879, 14.6404479], [121.1357307, 14.6405076], [121.1356515, 14.6405336], [121.1355798, 14.6405498], [121.1355188, 14.640555], [121.1354556, 14.6405488]]}, "properties": {"city": "antipolo", "name": "", "highway": "unclassified", "v_posted": 40, "posted_imputed": false, "v_safe": 30, "gap": 10, "R": 3.16, "exposure": 0.084, "vru_150m": 0, "sss": 13.6, "recommended": 30, "fatal_reduction_pct": 68.4, "why": "local road, frontage/pedestrian mixing", "pop_density": 2728.1, "pop_density_peak": 2764.4, "v_design": 40, "design_gap": 10}}, {"type": "Feature", "geometry": {"type": "LineString", "coordinates": [[121.1320529, 14.639959], [121.1321794, 14.6400996], [121.132218, 14.6401343], [121.1322686, 14.6401625], [121.1323564, 14.6401794], [121.1324529, 14.6401858], [121.1325496, 14.6401883], [121.1327242, 14.6401935], [121.132898, 14.6401898], [121.1329921, 14.6401839], [121.1330955, 14.6401741], [121.1337776, 14.6400503], [121.1338651, 14.6400416], [121.1339281, 14.6400567], [121.134046, 14.640146], [121.1342014, 14.6402414], [121.1342722, 14.6402708], [121.1345277, 14.6403456], [121.1348614, 14.6404219], [121.135216, 14.6404994], [121.1354556, 14.6405488]]}, "properties": {"city": "antipolo", "name": "", "highway": "unclassified", "v_posted": 40, "posted_imputed": false, "v_safe": 30, "gap": 10, "R": 3.16, "exposure": 0.291, "vru_150m": 1, "sss": 16.1, "recommended": 30, "fatal_reduction_pct": 68.4, "why": "local road, frontage/pedestrian mixing", "pop_density": 3662.9, "pop_density_peak": 5886.2, "v_design": 40, "design_gap": 10}}, {"type": "Feature", "geometry": {"type": "LineString", "coordinates": [[121.1317462, 14.6387923], [121.1321905, 14.6385901]]}, "properties": {"city": "antipolo", "name": "Panorama Street", "highway": "unclassified", "v_posted": 40, "posted_imputed": false, "v_safe": 30, "gap": 10, "R": 3.16, "exposure": 0.378, "vru_150m": 1, "sss": 17.2, "recommended": 30, "fatal_reduction_pct": 68.4, "why": "local road, frontage/pedestrian mixing", "pop_density": 7207.6, "pop_density_peak": 7595.8, "v_design": 40, "design_gap": 10}}, {"type": "Feature", "geometry": {"type": "LineString", "coordinates": [[121.1323473, 14.6369714], [121.1321412, 14.6369387], [121.131964, 14.6368906], [121.1317777, 14.6368206], [121.1315927, 14.6367207], [121.1312802, 14.6364625], [121.1311273, 14.6363224], [121.1310925, 14.6362587], [121.1310858, 14.6361757], [121.1310992, 14.6360797], [121.1310965, 14.6360083], [121.1310864, 14.6359694], [121.131071, 14.6359356], [121.1310053, 14.6358526], [121.1309905, 14.6358202], [121.1309865, 14.6357813], [121.1310039, 14.6356995], [121.1310153, 14.635658], [121.1310375, 14.63561], [121.1310643, 14.6355652], [121.1311045, 14.635514], [121.1313902, 14.6352778], [121.1315028, 14.6352096], [121.1316208, 14.63517], [121.1317764, 14.6351519], [121.1318904, 14.6351272], [121.1319843, 14.6350987], [121.1320983, 14.6350377], [121.1322606, 14.6349287], [121.1324644, 14.6347976], [121.132561, 14.6347471], [121.1326789, 14.6347052], [121.1327983, 14.63469], [121.1329579, 14.6346796], [121.1331105, 14.6346811], [121.1337154, 14.6347773], [121.1337888, 14.6347839], [121.1338317, 14.6347769], [121.1338625, 14.63476], [121.1338806, 14.6347321], [121.1338882, 14.6346862], [121.1338895, 14.6346306]]}, "properties": {"city": "antipolo", "name": "", "highway": "unclassified", "v_posted": 40, "posted_imputed": false, "v_safe": 30, "gap": 10, "R": 3.16, "exposure": 0.109, "vru_150m": 0, "sss": 13.9, "recommended": 30, "fatal_reduction_pct": 68.4, "why": "local road, frontage/pedestrian mixing", "pop_density": 3517.2, "pop_density_peak": 5935.4, "v_design": 30, "design_gap": 0}}, {"type": "Feature", "geometry": {"type": "LineString", "coordinates": [[121.1321078, 14.638382], [121.1321905, 14.6385901]]}, "properties": {"city": "antipolo", "name": "", "highway": "unclassified", "v_posted": 40, "posted_imputed": false, "v_safe": 30, "gap": 10, "R": 3.16, "exposure": 0.369, "vru_150m": 1, "sss": 17.1, "recommended": 30, "fatal_reduction_pct": 68.4, "why": "local road, frontage/pedestrian mixing", "pop_density": 6830.7, "pop_density_peak": 6842.2, "v_design": 40, "design_gap": 10}}, {"type": "Feature", "geometry": {"type": "LineString", "coordinates": [[121.1323731, 14.6382858], [121.1321078, 14.638382]]}, "properties": {"city": "antipolo", "name": "", "highway": "unclassified", "v_posted": 40, "posted_imputed": false, "v_safe": 30, "gap": 10, "R": 3.16, "exposure": 0.369, "vru_150m": 1, "sss": 17.1, "recommended": 30, "fatal_reduction_pct": 68.4, "why": "local road, frontage/pedestrian mixing", "pop_density": 6842.1, "pop_density_peak": 6842.2, "v_design": 40, "design_gap": 10}}, {"type": "Feature", "geometry": {"type": "LineString", "coordinates": [[121.1326134, 14.628216], [121.1326307, 14.6278599]]}, "properties": {"city": "antipolo", "name": "TOCS Avenue", "highway": "residential", "v_posted": 40, "posted_imputed": false, "v_safe": 30, "gap": 10, "R": 3.16, "exposure": 0.174, "vru_150m": 0, "sss": 14.7, "recommended": 30, "fatal_reduction_pct": 68.4, "why": "local road, frontage/pedestrian mixing", "pop_density": 5616.4, "pop_density_peak": 5616.4, "v_design": 35, "design_gap": 5}}, {"type": "Feature", "geometry": {"type": "LineString", "coordinates": [[121.1609049, 14.6258147], [121.1606361, 14.6263528], [121.1605997, 14.6264675], [121.1605883, 14.6265537], [121.1605898, 14.6266415], [121.1606086, 14.6267441], [121.1606464, 14.6268444], [121.1607218, 14.6269556], [121.160877, 14.6271417], [121.1613143, 14.627768], [121.1613811, 14.6278725], [121.1614202, 14.6279557], [121.1614517, 14.6280409], [121.1615134, 14.6282428], [121.1615999, 14.6285652], [121.1616668, 14.6288667], [121.161675, 14.6289026], [121.1617426, 14.6291782], [121.1617756, 14.629303], [121.1618189, 14.6294033], [121.1619514, 14.6296348], [121.1620483, 14.629772], [121.1621688, 14.6298953], [121.1623198, 14.630012], [121.1624575, 14.6300901], [121.1626364, 14.6301566], [121.163299, 14.6304072], [121.1634584, 14.6304817], [121.163599, 14.6305557], [121.1636917, 14.6306336], [121.1637843, 14.630727], [121.1638371, 14.6307965], [121.1641736, 14.6312185], [121.1642726, 14.6313285], [121.1643742, 14.6314204], [121.1644992, 14.6315026], [121.1646944, 14.6315851], [121.1648427, 14.631625], [121.1650143, 14.6316471], [121.1651713, 14.6316536], [121.165373, 14.6316525]]}, "properties": {"city": "antipolo", "name": "", "highway": "unclassified", "v_posted": 40, "posted_imputed": false, "v_safe": 30, "gap": 10, "R": 3.16, "exposure": 0.226, "vru_150m": 0, "sss": 15.3, "recommended": 30, "fatal_reduction_pct": 68.4, "why": "local road, frontage/pedestrian mixing", "pop_density": 7302.8, "pop_density_peak": 8440.1, "v_design": 35, "design_gap": 5}}, {"type": "Feature", "geometry": {"type": "LineString", "coordinates": [[121.165373, 14.6316525], [121.165642, 14.6316315], [121.1658405, 14.6316004], [121.1660325, 14.6315552], [121.1662073, 14.6315012], [121.1665234, 14.6313975], [121.1666797, 14.6313372], [121.1668039, 14.6312804], [121.1670403, 14.6311753], [121.1673519, 14.6310164], [121.1677237, 14.6307705], [121.1680439, 14.6305337], [121.1682531, 14.6303676], [121.1684181, 14.6302106], [121.1685595, 14.6300459], [121.1685978, 14.6299433], [121.1686233, 14.6298071], [121.1686286, 14.6296929], [121.168615, 14.6295817], [121.1685723, 14.6294502], [121.1685016, 14.6293425], [121.1684033, 14.6292335], [121.1682734, 14.6291322], [121.1679554, 14.6289558], [121.1676987, 14.6288156], [121.1675879, 14.6287417], [121.1674547, 14.6286345], [121.167368, 14.6285464], [121.1673009, 14.6284491], [121.1672256, 14.6282916], [121.1671259, 14.6280023], [121.1670572, 14.6277852]]}, "properties": {"city": "antipolo", "name": "", "highway": "unclassified", "v_posted": 40, "posted_imputed": false, "v_safe": 30, "gap": 10, "R": 3.16, "exposure": 0.365, "vru_150m": 1, "sss": 17.1, "recommended": 30, "fatal_reduction_pct": 68.4, "why": "local road, frontage/pedestrian mixing", "pop_density": 6679.0, "pop_density_peak": 6940.7, "v_design": 30, "design_gap": 0}}]}