{"type": "FeatureCollection", "features": [{"type": "Feature", "geometry": {"type": "LineString", "coordinates": [[125.3524401, 6.7180728], [125.3523398, 6.7178178]]}, "properties": {"city": "digos", "name": "Davao-GenSan Highway", "highway": "trunk", "v_posted": 60, "posted_imputed": false, "v_safe": 50, "gap": 10, "R": 2.07, "exposure": 0.12, "vru_150m": 0, "sss": 14.0, "recommended": 50, "fatal_reduction_pct": 51.8, "why": "undivided arterial, side-impact intersections", "pop_density": 3889.9, "pop_density_peak": 4137.8, "v_design": 70, "design_gap": 20}}, {"type": "Feature", "geometry": {"type": "LineString", "coordinates": [[125.3524079, 6.7177908], [125.3525195, 6.7180441]]}, "properties": {"city": "digos", "name": "Davao-GenSan Highway", "highway": "trunk", "v_posted": 60, "posted_imputed": false, "v_safe": 50, "gap": 10, "R": 2.07, "exposure": 0.12, "vru_150m": 0, "sss": 14.0, "recommended": 50, "fatal_reduction_pct": 51.8, "why": "undivided arterial, side-impact intersections", "pop_density": 3889.9, "pop_density_peak": 4137.8, "v_design": 70, "design_gap": 20}}, {"type": "Feature", "geometry": {"type": "LineString", "coordinates": [[125.3722584, 6.7239784], [125.3723053, 6.7238898], [125.3723456, 6.7237866], [125.3724119, 6.7235881], [125.3725071, 6.7232699], [125.3725997, 6.7228929], [125.3726596, 6.7225966], [125.3727136, 6.7223295], [125.3727767, 6.7219513], [125.372837, 6.721561], [125.3728813, 6.7212427], [125.3729738, 6.7204782], [125.3730342, 6.7200214], [125.3730932, 6.7196005], [125.3732031, 6.7190131], [125.3732568, 6.7187467], [125.373285, 6.7185769], [125.3733044, 6.7184151], [125.3733239, 6.7181887], [125.3733439, 6.7178916], [125.3733638, 6.7176013], [125.3733829, 6.7173229], [125.3734097, 6.7170419], [125.37345, 6.7167409]]}, "properties": {"city": "digos", "name": "", "highway": "unclassified", "v_posted": 40, "posted_imputed": false, "v_safe": 30, "gap": 10, "R": 3.16, "exposure": 0.002, "vru_150m": 0, "sss": 12.5, "recommended": 30, "fatal_reduction_pct": 68.4, "why": "local road, frontage/pedestrian mixing", "pop_density": 69.9, "pop_density_peak": 419.4, "v_design": 40, "design_gap": 10}}, {"type": "Feature", "geometry": {"type": "LineString", "coordinates": [[125.3746797, 6.7307177], [125.3745356, 6.7304918], [125.3743806, 6.7302489], [125.3741252, 6.7298466], [125.3739756, 6.7296255], [125.3738127, 6.729396], [125.3736323, 6.7291419], [125.3734149, 6.7288358], [125.3731737, 6.7284695], [125.3730147, 6.7282175], [125.3728881, 6.7280169], [125.3727755, 6.7278005], [125.3726466, 6.7275345], [125.3725205, 6.7272455], [125.3724132, 6.7269578], [125.3723529, 6.72677], [125.3722939, 6.7265223], [125.3722492, 6.7262547], [125.3722, 6.7260002], [125.3721477, 6.7257205], [125.3721048, 6.7254728], [125.3720813, 6.7251644], [125.372078, 6.724972], [125.372086, 6.7248015], [125.3721048, 6.7245744], [125.3721316, 6.724364], [125.3721625, 6.7242135], [125.3722201, 6.7240636], [125.3722584, 6.7239784]]}, "properties": {"city": "digos", "name": "", "highway": "unclassified", "v_posted": 40, "posted_imputed": false, "v_safe": 30, "gap": 10, "R": 3.16, "exposure": 0.018, "vru_150m": 0, "sss": 12.7, "recommended": 30, "fatal_reduction_pct": 68.4, "why": "local road, frontage/pedestrian mixing", "pop_density": 571.6, "pop_density_peak": 1131.0, "v_design": 40, "design_gap": 10}}, {"type": "Feature", "geometry": {"type": "LineString", "coordinates": [[125.3240718, 6.7567768], [125.323994, 6.7567955], [125.3239028, 6.7568081], [125.3237868, 6.7568161], [125.3236413, 6.7568214], [125.3226415, 6.7568334], [125.3223753, 6.7568448], [125.3221808, 6.7568634], [125.3220588, 6.756884], [125.3219245, 6.7569228], [125.321892, 6.7569416], [125.321814, 6.7570092], [125.3217289, 6.7570985], [125.321216, 6.7577206], [125.3211388, 6.7578016], [125.3209913, 6.7579268], [125.3208183, 6.7580281], [125.3205424, 6.7581666], [125.3197638, 6.7585446], [125.3196455, 6.7586037], [125.3186229, 6.7591374], [125.3185129, 6.759188], [125.3183963, 6.759228], [125.3182662, 6.7592546], [125.3181401, 6.7592666], [125.3180035, 6.7592624], [125.3173494, 6.7592474]]}, "properties": {"city": "digos", "name": "Governor Douglas R.A. Cagas Road", "highway": "primary", "v_posted": 80, "posted_imputed": false, "v_safe": 50, "gap": 30, "R": 6.55, "exposure": 0.0, "vru_150m": 0, "sss": 37.5, "recommended": 50, "fatal_reduction_pct": 84.7, "why": "undivided arterial, side-impact intersections", "pop_density": 0.0, "pop_density_peak": 0.0, "v_design": 60, "design_gap": 10}}, {"type": "Feature", "geometry": {"type": "LineString", "coordinates": [[125.3353189, 6.7506225], [125.335274, 6.7506339], [125.3352274, 6.7506549], [125.3351855, 6.7506852], [125.3351265, 6.7507351], [125.3348176, 6.7510397], [125.3345532, 6.7513005], [125.3342812, 6.7515669], [125.3341281, 6.7517122], [125.3336647, 6.7521482], [125.3331698, 6.7525913], [125.3327401, 6.752976], [125.3322217, 6.75346], [125.3321144, 6.7535532], [125.3319741, 6.7536504], [125.3318314, 6.7537257], [125.3316705, 6.7537954], [125.3301341, 6.7543553], [125.329465, 6.7545992], [125.3274232, 6.7553591], [125.3252939, 6.7562311], [125.3240718, 6.7567768]]}, "properties": {"city": "digos", "name": "Governor Douglas R.A. Cagas Road", "highway": "primary", "v_posted": 80, "posted_imputed": false, "v_safe": 50, "gap": 30, "R": 6.55, "exposure": 0.044, "vru_150m": 0, "sss": 39.2, "recommended": 50, "fatal_reduction_pct": 84.7, "why": "undivided arterial, side-impact intersections", "pop_density": 1437.5, "pop_density_peak": 3801.0, "v_design": 60, "design_gap": 10}}, {"type": "Feature", "geometry": {"type": "LineString", "coordinates": [[125.3543459, 6.7297414], [125.3548648, 6.7297021], [125.3554342, 6.7296589], [125.3560609, 6.7296114], [125.3566463, 6.729567], [125.3572003, 6.729525], [125.3575043, 6.729502], [125.3579173, 6.72948], [125.3583612, 6.7294564], [125.3587786, 6.7294312], [125.3591041, 6.7294116], [125.3594013, 6.7293882], [125.3596771, 6.7293665], [125.3600298, 6.7293388], [125.360346, 6.7293139]]}, "properties": {"city": "digos", "name": "Lorenzo Catalan Sr. Street", "highway": "residential", "v_posted": 40, "posted_imputed": false, "v_safe": 30, "gap": 10, "R": 3.16, "exposure": 0.148, "vru_150m": 0, "sss": 14.3, "recommended": 30, "fatal_reduction_pct": 68.4, "why": "local road, frontage/pedestrian mixing", "pop_density": 4774.0, "pop_density_peak": 5772.2, "v_design": 35, "design_gap": 5}}, {"type": "Feature", "geometry": {"type": "LineString", "coordinates": [[125.360346, 6.7293139], [125.3605461, 6.7293018], [125.3606478, 6.7292957], [125.3608186, 6.7292911]]}, "properties": {"city": "digos", "name": "Lorenzo Catalan Sr. Street", "highway": "residential", "v_posted": 40, "posted_imputed": false, "v_safe": 30, "gap": 10, "R": 3.16, "exposure": 0.137, "vru_150m": 0, "sss": 14.2, "recommended": 30, "fatal_reduction_pct": 68.4, "why": "local road, frontage/pedestrian mixing", "pop_density": 4438.9, "pop_density_peak": 4438.9, "v_design": 35, "design_gap": 5}}, {"type": "Feature", "geometry": {"type": "LineString", "coordinates": [[125.3806444, 6.7516299], [125.3805525, 6.7511419], [125.3804251, 6.7504971], [125.3803242, 6.7500104], [125.3802574, 6.7496883], [125.380242, 6.7495958], [125.3802506, 6.7494939], [125.3802695, 6.7493846], [125.3802734, 6.7492981], [125.3802627, 6.7491876], [125.3802239, 6.7489412], [125.3801823, 6.7486961], [125.38014, 6.7484367], [125.3800642, 6.7480822], [125.3800405, 6.7479693], [125.3800303, 6.7478806]]}, "properties": {"city": "digos", "name": "Owangon Road", "highway": "residential", "v_posted": 40, "posted_imputed": false, "v_safe": 30, "gap": 10, "R": 3.16, "exposure": 0.003, "vru_150m": 0, "sss": 12.5, "recommended": 30, "fatal_reduction_pct": 68.4, "why": "local road, frontage/pedestrian mixing", "pop_density": 82.3, "pop_density_peak": 329.3, "v_design": 35, "design_gap": 5}}, {"type": "Feature", "geometry": {"type": "LineString", "coordinates": [[125.3800303, 6.7478806], [125.3800273, 6.7478178], [125.3800327, 6.7477599], [125.3800468, 6.7477146], [125.3800784, 6.7476685], [125.380233, 6.7474844], [125.38028, 6.7474239], [125.3802998, 6.7473579], [125.3803026, 6.747287], [125.3802964, 6.7472271], [125.3801581, 6.7465905], [125.3801289, 6.7463729], [125.380125, 6.7462534], [125.3801246, 6.7461377], [125.3801348, 6.7460149], [125.3801726, 6.7456843], [125.3802638, 6.7451589], [125.3803304, 6.7448295], [125.3803805, 6.7445291], [125.3804171, 6.7442628], [125.380466, 6.7438523], [125.380511, 6.7434266], [125.3805528, 6.7430323], [125.3805913, 6.7426524], [125.3806209, 6.7423712], [125.380651, 6.7420856], [125.3806758, 6.7418798]]}, "properties": {"city": "digos", "name": "Owangon Road", "highway": "residential", "v_posted": 40, "posted_imputed": false, "v_safe": 30, "gap": 10, "R": 3.16, "exposure": 0.022, "vru_150m": 0, "sss": 12.8, "recommended": 30, "fatal_reduction_pct": 68.4, "why": "local road, frontage/pedestrian mixing", "pop_density": 724.3, "pop_density_peak": 1398.3, "v_design": 35, "design_gap": 5}}, {"type": "Feature", "geometry": {"type": "LineString", "coordinates": [[125.374503, 6.7600023], [125.3744584, 6.7598899], [125.3744222, 6.7598166], [125.3743666, 6.7597235], [125.3743118, 6.7596382], [125.3742423, 6.7595443], [125.3741809, 6.7594724], [125.3740963, 6.7593891], [125.374032, 6.7593345], [125.3739654, 6.7592838], [125.3738549, 6.7592147], [125.3737531, 6.7591667], [125.3736444, 6.7591214], [125.373509, 6.7590775], [125.3733883, 6.7590536], [125.3732407, 6.7590429], [125.3731147, 6.7590402], [125.3729578, 6.7590669], [125.3727834, 6.7591121], [125.37255, 6.7591854], [125.37231, 6.75926], [125.3722088, 6.7592887], [125.3719904, 6.7593549], [125.3712478, 6.7595544], [125.3710864, 6.7596044], [125.3707647, 6.7596939]]}, "properties": {"city": "digos", "name": "MacArthur Highway", "highway": "trunk", "v_posted": 80, "posted_imputed": false, "v_safe": 50, "gap": 30, "R": 6.55, "exposure": 0.109, "vru_150m": 0, "sss": 41.6, "recommended": 50, "fatal_reduction_pct": 84.7, "why": "undivided arterial, side-impact intersections", "pop_density": 3529.4, "pop_density_peak": 8652.2, "v_design": 60, "design_gap": 10}}, {"type": "Feature", "geometry": {"type": "LineString", "coordinates": [[125.3609481, 6.76268], [125.3610142, 6.7625501], [125.3611761, 6.7624229], [125.3613639, 6.7622818], [125.3615329, 6.7621859], [125.3616831, 6.7621273], [125.3618038, 6.7620953], [125.3619459, 6.762066], [125.3621981, 6.7620527], [125.3627238, 6.762042], [125.3633125, 6.7620338], [125.363456, 6.7620287], [125.363633, 6.7620101], [125.3637671, 6.7619755], [125.3638637, 6.7619408], [125.3639509, 6.7619062], [125.3640126, 6.7618729], [125.3641453, 6.761781], [125.3642359, 6.7617013], [125.3643599, 6.7615679], [125.3644928, 6.7613826], [125.3646576, 6.7611311], [125.3647891, 6.7609447], [125.3648937, 6.7608195], [125.3650331, 6.7606943], [125.3651565, 6.7606011], [125.3653094, 6.7604998], [125.3654569, 6.7604199], [125.3656366, 6.7603347], [125.3658995, 6.7602148], [125.3665486, 6.7599405], [125.3673372, 6.7596075], [125.3675812, 6.7595117], [125.3676805, 6.7594744], [125.3678012, 6.7594397], [125.367946, 6.7594078], [125.3680801, 6.7593945], [125.3682384, 6.7593891], [125.3683591, 6.7593918], [125.3685495, 6.7594078], [125.3687239, 6.7594397], [125.3689411, 6.7594824], [125.3695234, 6.7596139], [125.3697075, 6.7596545], [125.3698316, 6.7596715], [125.3699711, 6.7596795], [125.3700784, 6.7596768], [125.3701937, 6.7596715], [125.3703144, 6.7596608], [125.3704029, 6.7596395], [125.3705263, 6.7596102], [125.3706658, 6.7595729], [125.3707486, 6.75955], [125.371103, 6.7594477], [125.3713692, 6.7593646], [125.3721759, 6.7591414], [125.3723185, 6.7590966], [125.3726104, 6.7590029], [125.3728732, 6.758931], [125.3730449, 6.7588964], [125.373171, 6.7588831], [125.3733024, 6.7588884], [125.3734218, 6.7589017], [125.3735384, 6.7589217], [125.3736511, 6.758955], [125.3737691, 6.7589989], [125.3738737, 6.7590455], [125.3739636, 6.7590948], [125.3740226, 6.7591308], [125.374091, 6.7591814], [125.3741527, 6.7592293]]}, "properties": {"city": "digos", "name": "MacArthur Highway", "highway": "trunk", "v_posted": 80, "posted_imputed": false, "v_safe": 50, "gap": 30, "R": 6.55, "exposure": 0.15, "vru_150m": 0, "sss": 43.1, "recommended": 50, "fatal_reduction_pct": 84.7, "why": "undivided arterial, side-impact intersections", "pop_density": 4859.2, "pop_density_peak": 8652.2, "v_design": 70, "design_gap": 20}}, {"type": "Feature", "geometry": {"type": "LineString", "coordinates": [[125.3434078, 6.7674584], [125.3434133, 6.7676331], [125.3433904, 6.7678832], [125.3433698, 6.768015], [125.3433508, 6.7681049], [125.3433334, 6.7682028], [125.3433281, 6.7682404], [125.3433213, 6.7682887], [125.3433169, 6.7683716], [125.3433191, 6.768436], [125.3433309, 6.7685005], [125.3434038, 6.7688374], [125.3434166, 6.7689885], [125.3434078, 6.7691324], [125.3433817, 6.7693374], [125.3433515, 6.7695652], [125.3433207, 6.7697077], [125.3433022, 6.7697795], [125.3432697, 6.7698568], [125.3431302, 6.7701325], [125.3429446, 6.7704836], [125.342792, 6.7707723], [125.3426917, 6.7709409], [125.3426104, 6.7710575], [125.3424972, 6.7711939], [125.3423546, 6.7713365], [125.3422035, 6.7714483], [125.3419747, 6.7715805], [125.3418159, 6.771652], [125.3410864, 6.7718531], [125.340916, 6.7719204], [125.3407167, 6.7720426], [125.3405201, 6.7722021], [125.3402381, 6.7724601], [125.3398203, 6.7728423], [125.3395951, 6.7730484], [125.3393938, 6.7732361], [125.3391203, 6.7734911], [125.3390741, 6.7735465], [125.3390481, 6.7735959], [125.3390334, 6.7736455], [125.3390305, 6.7736983], [125.3390352, 6.7737755], [125.3390465, 6.7738658]]}, "properties": {"city": "digos", "name": "San Nicolas Road", "highway": "unclassified", "v_posted": 40, "posted_imputed": false, "v_safe": 30, "gap": 10, "R": 3.16, "exposure": 0.274, "vru_150m": 0, "sss": 15.9, "recommended": 30, "fatal_reduction_pct": 68.4, "why": "local road, frontage/pedestrian mixing", "pop_density": 8860.0, "pop_density_peak": 49636.2, "v_design": 35, "design_gap": 5}}, {"type": "Feature", "geometry": {"type": "LineString", "coordinates": [[125.317073, 6.7592418], [125.3173494, 6.7592474]]}, "properties": {"city": "digos", "name": "Governor Douglas R.A. Cagas Road", "highway": "primary", "v_posted": 80, "posted_imputed": false, "v_safe": 50, "gap": 30, "R": 6.55, "exposure": 0.0, "vru_150m": 0, "sss": 37.5, "recommended": 50, "fatal_reduction_pct": 84.7, "why": "undivided arterial, side-impact intersections", "pop_density": 0.0, "pop_density_peak": 0.0, "v_design": 60, "design_gap": 10}}, {"type": "Feature", "geometry": {"type": "LineString", "coordinates": [[125.317073, 6.7592418], [125.3168445, 6.7592352], [125.3167406, 6.75924], [125.3166461, 6.7592573], [125.3165301, 6.7592912], [125.3164544, 6.7593272], [125.3163906, 6.7593664], [125.3163175, 6.7594264], [125.3162256, 6.7595056], [125.3159584, 6.7597583], [125.3157674, 6.7599389], [125.3154042, 6.7602581], [125.3152312, 6.7603939], [125.3151353, 6.7604638], [125.3150394, 6.7605211], [125.3144393, 6.7608161], [125.3131496, 6.7614187], [125.3127998, 6.7615919], [125.3127093, 6.7616351], [125.3125463, 6.7617077], [125.312313, 6.7617949], [125.3122164, 6.7618282], [125.3121299, 6.7618476], [125.3120625, 6.7618546], [125.3119931, 6.7618529], [125.3119334, 6.7618409], [125.311861, 6.7618196], [125.3114761, 6.7616871], [125.3112522, 6.7616271], [125.3110463, 6.7615912], [125.3109068, 6.7615785], [125.3107653, 6.7615745], [125.3106346, 6.7615839], [125.3105105, 6.7616165], [125.3103583, 6.7616624], [125.3098122, 6.7619053], [125.3097636, 6.7619269], [125.3092365, 6.7621512], [125.3089713, 6.7622486], [125.3085499, 6.7623835]]}, "properties": {"city": "digos", "name": "Governor Douglas R.A. Cagas Road", "highway": "primary", "v_posted": 80, "posted_imputed": false, "v_safe": 50, "gap": 30, "R": 6.55, "exposure": 0.025, "vru_150m": 0, "sss": 38.4, "recommended": 50, "fatal_reduction_pct": 84.7, "why": "undivided arterial, side-impact intersections", "pop_density": 803.4, "pop_density_peak": 3213.5, "v_design": 60, "design_gap": 10}}, {"type": "Feature", "geometry": {"type": "LineString", "coordinates": [[125.3442296, 6.7778831], [125.3441368, 6.7777814], [125.3439815, 6.7776075], [125.3438009, 6.7774033], [125.3437145, 6.7772981], [125.343656, 6.7772141], [125.3436007, 6.7771184], [125.3435418, 6.7769937], [125.3434451, 6.7768106], [125.3433752, 6.7766854], [125.3433037, 6.7765659], [125.3432073, 6.776426], [125.3431051, 6.7762775], [125.3429705, 6.7761008], [125.3428604, 6.775975], [125.342809, 6.7759089], [125.3427657, 6.7758404], [125.3427031, 6.7757092], [125.3426187, 6.7755394], [125.3425816, 6.7754751], [125.3425476, 6.7754318], [125.3425212, 6.7754059], [125.34249, 6.7753915], [125.342459, 6.7753858], [125.3424298, 6.7753876], [125.3423959, 6.7754014], [125.3422351, 6.7754862], [125.3421728, 6.7755022], [125.3421171, 6.7755015], [125.3420568, 6.7754809], [125.341932, 6.775369], [125.3412942, 6.7747418], [125.3412299, 6.7746844], [125.3411636, 6.7746472], [125.3411052, 6.7746232], [125.341028, 6.774598], [125.3408463, 6.7745552], [125.3406606, 6.7745093], [125.3405446, 6.7744758], [125.340424, 6.7744317], [125.3403277, 6.7743939], [125.3400824, 6.7742975], [125.3398092, 6.7742038], [125.3393438, 6.7740636], [125.339263, 6.7740314], [125.3392, 6.7739986], [125.3391445, 6.7739586], [125.3390962, 6.7739147], [125.3390465, 6.7738658]]}, "properties": {"city": "digos", "name": "Eco Park Road", "highway": "unclassified", "v_posted": 40, "posted_imputed": false, "v_safe": 30, "gap": 10, "R": 3.16, "exposure": 0.0, "vru_150m": 0, "sss": 12.5, "recommended": 30, "fatal_reduction_pct": 68.4, "why": "local road, frontage/pedestrian mixing", "pop_density": 0.0, "pop_density_peak": 0.0, "v_design": 40, "design_gap": 10}}, {"type": "Feature", "geometry": {"type": "LineString", "coordinates": [[125.3707647, 6.7596939], [125.3705745, 6.7597447], [125.3704218, 6.7597833], [125.3703236, 6.7597991], [125.3702179, 6.7598126], [125.3701119, 6.7598193], [125.3699792, 6.7598233], [125.3698799, 6.7598206], [125.369786, 6.7598126], [125.3696922, 6.759798], [125.3694935, 6.7597459], [125.3692335, 6.7596821], [125.368925, 6.7596115], [125.3687037, 6.7595703], [125.3684771, 6.7595369], [125.3683671, 6.7595276], [125.3682303, 6.759521], [125.3680305, 6.7595289], [125.3678924, 6.7595476], [125.3677636, 6.7595809], [125.3676215, 6.7596275], [125.3673889, 6.7597308], [125.3666063, 6.760063], [125.3658351, 6.7603906], [125.3655643, 6.7605079], [125.3653617, 6.7606171], [125.3651887, 6.7607355], [125.3650801, 6.7608221], [125.3649856, 6.7609121], [125.3649004, 6.7610153], [125.3648441, 6.7610898], [125.3647626, 6.7612126], [125.3646371, 6.7614005], [125.3645844, 6.7614925], [125.3644829, 6.761638], [125.3643997, 6.7617304], [125.3643606, 6.761771], [125.3643124, 6.7618158], [125.3642563, 6.7618656], [125.3641849, 6.7619188], [125.3640537, 6.7620015], [125.3639932, 6.7620307], [125.3639321, 6.7620594], [125.3638797, 6.7620767], [125.3637828, 6.7621062], [125.3636967, 6.7621279], [125.3636371, 6.7621404], [125.363566, 6.7621499], [125.3634724, 6.7621567], [125.3633219, 6.7621629], [125.3631628, 6.7621671], [125.3626529, 6.7621742], [125.3621421, 6.762185], [125.3619996, 6.7621938], [125.3618641, 6.7622152], [125.3617313, 6.7622551], [125.3615892, 6.7623084], [125.3614524, 6.7623843], [125.3613049, 6.7624895], [125.3610929, 6.7626587], [125.3609481, 6.76268]]}, "properties": {"city": "digos", "name": "MacArthur Highway", "highway": "trunk", "v_posted": 80, "posted_imputed": false, "v_safe": 50, "gap": 30, "R": 6.55, "exposure": 0.191, "vru_150m": 0, "sss": 44.7, "recommended": 50, "fatal_reduction_pct": 84.7, "why": "undivided arterial, side-impact intersections", "pop_density": 6170.5, "pop_density_peak": 10994.8, "v_design": 70, "design_gap": 20}}, {"type": "Feature", "geometry": {"type": "LineString", "coordinates": [[125.3425195, 6.7652299], [125.342439, 6.7648661]]}, "properties": {"city": "digos", "name": "MacArthur Highway", "highway": "trunk", "v_posted": 80, "posted_imputed": false, "v_safe": 30, "gap": 50, "R": 50.57, "exposure": 0.512, "vru_150m": 1, "sss": 75.6, "recommended": 30, "fatal_reduction_pct": 98.0, "why": "pedestrian activity (1 VRU site<=50m)", "pop_density": 12626.7, "pop_density_peak": 14128.3, "v_design": 70, "design_gap": 40}}, {"type": "Feature", "geometry": {"type": "LineString", "coordinates": [[125.342439, 6.7648661], [125.3424318, 6.7648339], [125.3423162, 6.7643163], [125.34228, 6.7641796], [125.342245, 6.764046], [125.3422008, 6.7638999], [125.3421432, 6.7637613], [125.3420969, 6.7636654], [125.3420433, 6.7635536]]}, "properties": {"city": "digos", "name": "MacArthur Highway", "highway": "trunk", "v_posted": 80, "posted_imputed": false, "v_safe": 50, "gap": 30, "R": 6.55, "exposure": 0.409, "vru_150m": 1, "sss": 52.8, "recommended": 50, "fatal_reduction_pct": 84.7, "why": "undivided arterial, side-impact intersections", "pop_density": 8449.5, "pop_density_peak": 11125.1, "v_design": 70, "design_gap": 20}}, {"type": "Feature", "geometry": {"type": "LineString", "coordinates": [[125.3547522, 6.7636501], [125.3542616, 6.7636215], [125.3540066, 6.7636095], [125.3537732, 6.7635989], [125.3536433, 6.7635964], [125.3535613, 6.7635949], [125.3534098, 6.7636002], [125.3533253, 6.7636042], [125.3532317, 6.7636132], [125.353073, 6.7636343], [125.3529084, 6.7636585], [125.3527667, 6.7636808], [125.3526135, 6.7637077], [125.3523758, 6.763764], [125.3522468, 6.7637983], [125.3521451, 6.7638253], [125.3517212, 6.7639402], [125.3516085, 6.7639696], [125.351243, 6.7640582], [125.3510012, 6.764101], [125.3507692, 6.7641382], [125.3505667, 6.7641569], [125.3503561, 6.7641675], [125.3500624, 6.7641662], [125.3495744, 6.7641488], [125.3493798, 6.7641369], [125.3491229, 6.7641218], [125.3489098, 6.7641153], [125.3484834, 6.7641096], [125.348277, 6.7641199], [125.3480883, 6.7641409], [125.3478777, 6.7641702], [125.3476068, 6.7642208], [125.3472559, 6.7643166], [125.3467876, 6.7644523], [125.3464508, 6.7645498], [125.3462199, 6.7646167], [125.3458165, 6.7647335], [125.3457368, 6.7647572], [125.3454322, 6.7648476], [125.3450956, 6.7649476], [125.3449367, 6.7649906], [125.3448437, 6.7650177], [125.34458, 6.7650945], [125.3443882, 6.7651557], [125.34423, 6.7652117], [125.3441079, 6.7652636], [125.3437364, 6.76544], [125.3433355, 6.7656319], [125.3432416, 6.7656692], [125.343155, 6.7656891], [125.3430639, 6.7657004], [125.3430159, 6.7656978], [125.3429894, 6.7656964], [125.3429224, 6.7656818], [125.3428694, 6.7656585]]}, "properties": {"city": "digos", "name": "MacArthur Highway", "highway": "trunk", "v_posted": 80, "posted_imputed": false, "v_safe": 50, "gap": 30, "R": 6.55, "exposure": 0.506, "vru_150m": 0, "sss": 56.5, "recommended": 50, "fatal_reduction_pct": 84.7, "why": "undivided arterial, side-impact intersections", "pop_density": 16379.2, "pop_density_peak": 44696.2, "v_design": 70, "design_gap": 20}}, {"type": "Feature", "geometry": {"type": "LineString", "coordinates": [[125.3420433, 6.7635536], [125.3419762, 6.7634624], [125.3419018, 6.7633818], [125.3418504, 6.7633308], [125.3418017, 6.7632908], [125.3417546, 6.763259], [125.341713, 6.7632349], [125.3416429, 6.763198], [125.3415605, 6.7631607], [125.3414739, 6.7631279]]}, "properties": {"city": "digos", "name": "MacArthur Highway", "highway": "trunk", "v_posted": 80, "posted_imputed": false, "v_safe": 50, "gap": 30, "R": 6.55, "exposure": 0.402, "vru_150m": 1, "sss": 52.6, "recommended": 50, "fatal_reduction_pct": 84.7, "why": "undivided arterial, side-impact intersections", "pop_density": 8158.3, "pop_density_peak": 10542.8, "v_design": 70, "design_gap": 20}}, {"type": "Feature", "geometry": {"type": "LineString", "coordinates": [[125.3428694, 6.7656585], [125.3427836, 6.7656285], [125.3427205, 6.7655932], [125.3426494, 6.7655273], [125.3425991, 6.7654567], [125.3425663, 6.7653921], [125.3425423, 6.7653186], [125.3425195, 6.7652299]]}, "properties": {"city": "digos", "name": "MacArthur Highway", "highway": "trunk", "v_posted": 80, "posted_imputed": false, "v_safe": 50, "gap": 30, "R": 6.55, "exposure": 0.927, "vru_150m": 1, "sss": 72.3, "recommended": 50, "fatal_reduction_pct": 84.7, "why": "undivided arterial, side-impact intersections", "pop_density": 29412.3, "pop_density_peak": 44696.2, "v_design": 70, "design_gap": 20}}, {"type": "Feature", "geometry": {"type": "LineString", "coordinates": [[125.3420433, 6.7635536], [125.3421298, 6.7636515], [125.3421887, 6.7637367], [125.3422719, 6.7638719], [125.3423323, 6.7640011], [125.3423853, 6.7641462], [125.3424271, 6.7642841], [125.3425054, 6.7646551], [125.342545, 6.7648429]]}, "properties": {"city": "digos", "name": "MacArthur Highway", "highway": "trunk", "v_posted": 80, "posted_imputed": false, "v_safe": 50, "gap": 30, "R": 6.55, "exposure": 0.446, "vru_150m": 1, "sss": 54.2, "recommended": 50, "fatal_reduction_pct": 84.7, "why": "undivided arterial, side-impact intersections", "pop_density": 9951.1, "pop_density_peak": 14128.3, "v_design": 70, "design_gap": 20}}, {"type": "Feature", "geometry": {"type": "LineString", "coordinates": [[125.3426255, 6.7652067], [125.3426481, 6.7652869], [125.3426682, 6.7653541], [125.3427259, 6.7654793], [125.3427708, 6.7655486], [125.3428138, 6.7656025], [125.3428694, 6.7656585]]}, "properties": {"city": "digos", "name": "MacArthur Highway", "highway": "trunk", "v_posted": 80, "posted_imputed": false, "v_safe": 50, "gap": 30, "R": 6.55, "exposure": 0.927, "vru_150m": 1, "sss": 72.3, "recommended": 50, "fatal_reduction_pct": 84.7, "why": "undivided arterial, side-impact intersections", "pop_density": 29412.3, "pop_density_peak": 44696.2, "v_design": 70, "design_gap": 20}}, {"type": "Feature", "geometry": {"type": "LineString", "coordinates": [[125.342545, 6.7648429], [125.3426255, 6.7652067]]}, "properties": {"city": "digos", "name": "MacArthur Highway", "highway": "trunk", "v_posted": 80, "posted_imputed": false, "v_safe": 50, "gap": 30, "R": 6.55, "exposure": 0.549, "vru_150m": 1, "sss": 58.1, "recommended": 50, "fatal_reduction_pct": 84.7, "why": "undivided arterial, side-impact intersections", "pop_density": 14128.3, "pop_density_peak": 14128.3, "v_design": 70, "design_gap": 20}}, {"type": "Feature", "geometry": {"type": "LineString", "coordinates": [[125.3473011, 6.7867245], [125.3473413, 6.786586], [125.3473735, 6.7864049], [125.3474084, 6.7861865], [125.3474312, 6.7860693], [125.3474647, 6.7859601], [125.3475063, 6.7858749], [125.3475425, 6.7857883], [125.3475746, 6.7856738], [125.3475907, 6.785498], [125.3475867, 6.7852503], [125.3475907, 6.7848122], [125.3476015, 6.7845405], [125.3476363, 6.7842302], [125.3476899, 6.7838361], [125.3477434, 6.7833603], [125.3477903, 6.7829428], [125.3477973, 6.7828129], [125.3477979, 6.7826474], [125.3477933, 6.7824617], [125.3477758, 6.782238], [125.3477476, 6.7821129], [125.3477141, 6.7820169], [125.3476551, 6.7819197], [125.3475451, 6.7818119], [125.3474284, 6.7817133], [125.3472917, 6.7815748], [125.3471093, 6.7813684], [125.3469193, 6.7811584], [125.3466305, 6.7807931], [125.3464924, 6.7806433], [125.3463328, 6.7804674], [125.3462443, 6.7803869], [125.3461035, 6.7802923], [125.3459519, 6.7801978], [125.3458366, 6.7801099], [125.3457715, 6.7800233], [125.3457306, 6.7799388], [125.3457212, 6.7798662], [125.3457313, 6.7798029], [125.3457709, 6.7797264], [125.345852, 6.7796105], [125.3458942, 6.7795299], [125.3459191, 6.7794434], [125.345915, 6.7793641], [125.3458963, 6.7792902], [125.3458527, 6.7791963], [125.3457514, 6.7790478], [125.3456374, 6.7789293], [125.3454983, 6.7788259], [125.3452084, 6.7786443], [125.3448938, 6.7784463], [125.3447115, 6.7783142], [125.3445593, 6.7781965], [125.3444105, 6.7780745], [125.3443189, 6.777981], [125.3442296, 6.7778831]]}, "properties": {"city": "digos", "name": "Eco Park Road", "highway": "unclassified", "v_posted": 80, "posted_imputed": false, "v_safe": 30, "gap": 50, "R": 50.57, "exposure": 0.0, "vru_150m": 0, "sss": 50.0, "recommended": 30, "fatal_reduction_pct": 98.0, "why": "local road, frontage/pedestrian mixing", "pop_density": 0.0, "pop_density_peak": 0.0, "v_design": 35, "design_gap": 5}}, {"type": "Feature", "geometry": {"type": "LineString", "coordinates": [[125.3470868, 6.7878772], [125.347116, 6.7878236], [125.3471355, 6.7877506], [125.3471368, 6.7876701], [125.3471073, 6.7874756], [125.3470979, 6.7873784], [125.3471126, 6.7872832], [125.3471502, 6.7871434], [125.3472018, 6.7869869], [125.3473011, 6.7867245]]}, "properties": {"city": "digos", "name": "Eco Park Road", "highway": "unclassified", "v_posted": 80, "posted_imputed": false, "v_safe": 30, "gap": 50, "R": 50.57, "exposure": 0.0, "vru_150m": 0, "sss": 50.0, "recommended": 30, "fatal_reduction_pct": 98.0, "why": "local road, frontage/pedestrian mixing", "pop_density": 0.0, "pop_density_peak": 0.0, "v_design": 40, "design_gap": 10}}, {"type": "Feature", "geometry": {"type": "LineString", "coordinates": [[125.3414739, 6.7631279], [125.3413707, 6.7631028], [125.3412466, 6.7630855], [125.3411212, 6.7630834]]}, "properties": {"city": "digos", "name": "MacArthur Highway", "highway": "trunk", "v_posted": 80, "posted_imputed": false, "v_safe": 50, "gap": 30, "R": 6.55, "exposure": 0.596, "vru_150m": 2, "sss": 59.8, "recommended": 50, "fatal_reduction_pct": 84.7, "why": "undivided arterial, side-impact intersections", "pop_density": 10542.8, "pop_density_peak": 10542.8, "v_design": 70, "design_gap": 20}}, {"type": "Feature", "geometry": {"type": "LineString", "coordinates": [[125.3430639, 6.7657004], [125.3431246, 6.7659779], [125.3431826, 6.7662427], [125.3432354, 6.7664841], [125.3432854, 6.7667123], [125.3433069, 6.7668333], [125.3433485, 6.7670673], [125.3433744, 6.7672106], [125.3433958, 6.7673292], [125.3434078, 6.7674584]]}, "properties": {"city": "digos", "name": "San Nicolas Road", "highway": "unclassified", "v_posted": 40, "posted_imputed": false, "v_safe": 30, "gap": 10, "R": 3.16, "exposure": 1.0, "vru_150m": 1, "sss": 25.0, "recommended": 30, "fatal_reduction_pct": 68.4, "why": "local road, frontage/pedestrian mixing", "pop_density": 46903.0, "pop_density_peak": 49636.2, "v_design": 40, "design_gap": 10}}, {"type": "Feature", "geometry": {"type": "LineString", "coordinates": [[125.359788, 6.7635802], [125.3596674, 6.7636442], [125.3595252, 6.7636988], [125.359371, 6.7637414], [125.3591631, 6.763776], [125.3589713, 6.763784], [125.3587984, 6.763784], [125.3585294, 6.76377], [125.3584767, 6.7637657], [125.3583357, 6.763756]]}, "properties": {"city": "digos", "name": "MacArthur Highway", "highway": "trunk", "v_posted": 80, "posted_imputed": false, "v_safe": 50, "gap": 30, "R": 6.55, "exposure": 1.0, "vru_150m": 1, "sss": 75.0, "recommended": 50, "fatal_reduction_pct": 84.7, "why": "undivided arterial, side-impact intersections", "pop_density": 49098.4, "pop_density_peak": 64639.8, "v_design": 70, "design_gap": 20}}, {"type": "Feature", "geometry": {"type": "LineString", "coordinates": [[125.3609481, 6.76268], [125.3608385, 6.7627677], [125.3601978, 6.763271], [125.3600947, 6.7633572], [125.3599471, 6.7634761], [125.359788, 6.7635802]]}, "properties": {"city": "digos", "name": "MacArthur Highway", "highway": "trunk", "v_posted": 80, "posted_imputed": false, "v_safe": 50, "gap": 30, "R": 6.55, "exposure": 0.573, "vru_150m": 0, "sss": 59.0, "recommended": 50, "fatal_reduction_pct": 84.7, "why": "undivided arterial, side-impact intersections", "pop_density": 18540.3, "pop_density_peak": 33557.0, "v_design": 70, "design_gap": 20}}, {"type": "Feature", "geometry": {"type": "LineString", "coordinates": [[125.3553919, 6.7636854], [125.3553173, 6.7636808], [125.3552052, 6.7636759], [125.35507, 6.763667], [125.354992, 6.7636636], [125.3547522, 6.7636501]]}, "properties": {"city": "digos", "name": "MacArthur Highway", "highway": "trunk", "v_posted": 80, "posted_imputed": false, "v_safe": 50, "gap": 30, "R": 6.55, "exposure": 0.384, "vru_150m": 1, "sss": 51.9, "recommended": 50, "fatal_reduction_pct": 84.7, "why": "undivided arterial, side-impact intersections", "pop_density": 7432.1, "pop_density_peak": 7929.4, "v_design": 70, "design_gap": 20}}, {"type": "Feature", "geometry": {"type": "LineString", "coordinates": [[125.3583357, 6.763756], [125.358223, 6.7638], [125.3578247, 6.7637866], [125.3577706, 6.7637844], [125.3577147, 6.7637832], [125.3572536, 6.7637782], [125.3570905, 6.7637752], [125.3568186, 6.7637684], [125.3567152, 6.7637704]]}, "properties": {"city": "digos", "name": "MacArthur Highway", "highway": "trunk", "v_posted": 80, "posted_imputed": false, "v_safe": 50, "gap": 30, "R": 6.55, "exposure": 1.0, "vru_150m": 1, "sss": 75.0, "recommended": 50, "fatal_reduction_pct": 84.7, "why": "undivided arterial, side-impact intersections", "pop_density": 51237.5, "pop_density_peak": 64639.8, "v_design": 70, "design_gap": 20}}, {"type": "Feature", "geometry": {"type": "LineString", "coordinates": [[125.3553919, 6.7636854], [125.3554821, 6.7636428], [125.3565507, 6.7636681], [125.3567151, 6.7636728], [125.3570251, 6.7636755], [125.3577174, 6.7636815], [125.3577736, 6.7636839], [125.3582096, 6.7636988], [125.3583357, 6.763756]]}, "properties": {"city": "digos", "name": "MacArthur Highway", "highway": "trunk", "v_posted": 80, "posted_imputed": false, "v_safe": 50, "gap": 30, "R": 6.55, "exposure": 1.0, "vru_150m": 1, "sss": 75.0, "recommended": 50, "fatal_reduction_pct": 84.7, "why": "undivided arterial, side-impact intersections", "pop_density": 37423.2, "pop_density_peak": 64639.8, "v_design": 70, "design_gap": 20}}, {"type": "Feature", "geometry": {"type": "LineString", "coordinates": [[125.3567152, 6.7637704], [125.3565659, 6.7637681], [125.3563442, 6.7637645], [125.3559673, 6.7637568], [125.355481, 6.7637389], [125.3553919, 6.7636854]]}, "properties": {"city": "digos", "name": "MacArthur Highway", "highway": "trunk", "v_posted": 80, "posted_imputed": false, "v_safe": 50, "gap": 30, "R": 6.55, "exposure": 0.849, "vru_150m": 1, "sss": 69.3, "recommended": 50, "fatal_reduction_pct": 84.7, "why": "undivided arterial, side-impact intersections", "pop_density": 26232.9, "pop_density_peak": 44536.4, "v_design": 70, "design_gap": 20}}, {"type": "Feature", "geometry": {"type": "LineString", "coordinates": [[125.3882054, 6.7949884], [125.3883429, 6.7948186], [125.3888968, 6.7944377], [125.3891355, 6.7942686], [125.38935, 6.7941128], [125.3894762, 6.7940083], [125.3895654, 6.7938971], [125.3896344, 6.7937879], [125.3896813, 6.7937013], [125.3897296, 6.7935988], [125.3897698, 6.7934882], [125.3897953, 6.7933604], [125.3898141, 6.7932179], [125.3898181, 6.7930262], [125.389806, 6.7927971], [125.3897764, 6.7925653], [125.389747, 6.7924402], [125.3897014, 6.7922884], [125.3896451, 6.7921405], [125.3895887, 6.7920168], [125.389203, 6.7913608], [125.3890201, 6.7910443], [125.3889908, 6.7909933], [125.3882904, 6.7897741], [125.3879807, 6.7892282], [125.3879079, 6.7891022], [125.3877031, 6.7887754], [125.3875114, 6.7884837], [125.3873974, 6.7883226], [125.3872687, 6.7881641], [125.3870876, 6.7879683], [125.3868248, 6.7876967], [125.3866705, 6.7875502], [125.3865163, 6.7874329], [125.3862521, 6.7872386], [125.3860295, 6.7870895], [125.3857974, 6.7869509], [125.3856834, 6.7868804], [125.3855118, 6.7867871], [125.3853616, 6.7867112], [125.3851122, 6.7865993], [125.3848452, 6.7865115], [125.384565, 6.7864103], [125.3844228, 6.7863543], [125.3840983, 6.7862278], [125.3838194, 6.78612], [125.3835886, 6.7860293], [125.3833808, 6.7859295], [125.3832065, 6.7858416], [125.3831005, 6.785771], [125.3829234, 6.7856312], [125.3827746, 6.7855047], [125.3826498, 6.7853688], [125.3825399, 6.7852383], [125.3824554, 6.7851172], [125.382336, 6.7849253], [125.3822261, 6.784719], [125.3821604, 6.7845805], [125.3821316, 6.784509], [125.3821108, 6.7844526], [125.3820799, 6.7843555], [125.3820357, 6.7842183], [125.381756, 6.783219], [125.3815206, 6.7824351], [125.3814613, 6.7822438], [125.3814323, 6.7821583], [125.3813214, 6.7817609], [125.3812892, 6.7816543], [125.381164, 6.7812432], [125.3810587, 6.7808902], [125.3809991, 6.7807104], [125.3807026, 6.779741], [125.3806142, 6.7794455], [125.3804317, 6.7788434], [125.3802892, 6.7783598], [125.3802693, 6.7782991], [125.3800186, 6.7775223], [125.3798678, 6.7770118], [125.3798068, 6.7768139], [125.3797496, 6.7766042], [125.3795931, 6.7760784], [125.3794556, 6.7755985], [125.3792652, 6.7749666], [125.3789307, 6.7738677], [125.3789078, 6.7737962], [125.3787683, 6.7733375], [125.3786728, 6.7730097], [125.3786228, 6.7728385], [125.3784684, 6.7723105], [125.3783525, 6.7719007], [125.3780772, 6.7709594], [125.3780031, 6.7707155], [125.3779773, 6.7706353], [125.3779393, 6.7705059], [125.3778386, 6.7701724], [125.3777961, 6.7700195], [125.3777351, 6.7698091], [125.3776747, 6.7696097], [125.3776115, 6.7693993], [125.3775167, 6.7690973], [125.3773696, 6.768599], [125.3773335, 6.7684646], [125.3772146, 6.7681057], [125.3771688, 6.7679764], [125.3771044, 6.7678312], [125.3769531, 6.7675721], [125.3766517, 6.7670526], [125.3763636, 6.766559], [125.3762052, 6.7662766], [125.3760709, 6.7660362], [125.3759971, 6.7659024], [125.3759387, 6.7658028], [125.3757164, 6.7654194], [125.3756458, 6.765293], [125.3755581, 6.7651051], [125.3755096, 6.7649925], [125.3754613, 6.7648598], [125.3754267, 6.7647482], [125.3753972, 6.764623], [125.3753658, 6.7644971], [125.3753381, 6.7643506], [125.3752084, 6.763684], [125.3751156, 6.7632], [125.37508, 6.7630147], [125.3749253, 6.7622113], [125.3747265, 6.7611402], [125.3747048, 6.7610249], [125.3746018, 6.7605069], [125.3745764, 6.7603787], [125.3745263, 6.7601171], [125.374503, 6.7600023]]}, "properties": {"city": "digos", "name": "Davao-Cotabato Highway", "highway": "trunk", "v_posted": 80, "posted_imputed": false, "v_safe": 50, "gap": 30, "R": 6.55, "exposure": 0.156, "vru_150m": 0, "sss": 43.4, "recommended": 50, "fatal_reduction_pct": 84.7, "why": "undivided arterial, side-impact intersections", "pop_density": 5048.4, "pop_density_peak": 15296.2, "v_design": 70, "design_gap": 20}}, {"type": "Feature", "geometry": {"type": "LineString", "coordinates": [[125.3746609, 6.7601136], [125.3747065, 6.760352], [125.3747199, 6.7604333], [125.3748259, 6.7609926], [125.3748492, 6.7611174], [125.3750458, 6.7621726], [125.3751987, 6.7629756], [125.3752336, 6.7631581], [125.3753288, 6.7636441], [125.3754588, 6.7643247], [125.3754871, 6.7644738], [125.3755179, 6.7646097], [125.375542, 6.7647109], [125.3755742, 6.7648175], [125.3756185, 6.7649293], [125.3756681, 6.7650439], [125.3757539, 6.765225], [125.3759758, 6.7656106], [125.376108, 6.7658402], [125.3761804, 6.7659761], [125.3762515, 6.7661066], [125.3764728, 6.7664955], [125.3767611, 6.7669936], [125.3770663, 6.7675144], [125.3772171, 6.767778], [125.3772855, 6.7679391], [125.377323, 6.7680417], [125.3774491, 6.7684159], [125.3774869, 6.7685462], [125.3775567, 6.7687867], [125.377624, 6.7690174], [125.3776999, 6.7692589], [125.3779185, 6.769982], [125.3780942, 6.7705773], [125.3784644, 6.7718358], [125.3787464, 6.772803], [125.3787875, 6.7729438], [125.3790262, 6.7737509], [125.3790504, 6.7738254], [125.3793883, 6.7749281], [125.3797129, 6.7760335], [125.3799275, 6.7767792], [125.38013, 6.7774598], [125.3803942, 6.7782788], [125.3804129, 6.7783374], [125.3805551, 6.7788088], [125.3807388, 6.7794121], [125.3808233, 6.7796984], [125.3811144, 6.7806572], [125.381176, 6.7808477], [125.381282, 6.7811952], [125.3814073, 6.7816077], [125.3814375, 6.781712], [125.3815797, 6.782202], [125.3816413, 6.7823951], [125.3818747, 6.7831795], [125.382155, 6.7841717], [125.3822476, 6.7844553], [125.3822717, 6.7845219], [125.3823388, 6.7846657], [125.3824487, 6.7848642], [125.382556, 6.7850386], [125.3826472, 6.785173], [125.3827518, 6.7852996], [125.3828685, 6.7854234], [125.3830147, 6.785542], [125.3831837, 6.7856751], [125.3832668, 6.7857311], [125.3834224, 6.785811], [125.3836464, 6.7859188], [125.3838864, 6.7860161], [125.38416, 6.7861173], [125.3844792, 6.7862398], [125.3846213, 6.7862984], [125.3849003, 6.7863996], [125.3851578, 6.7864875], [125.385367, 6.7865807], [125.3854206, 6.7866047], [125.3855896, 6.7866872], [125.3858685, 6.7868497], [125.3861234, 6.7870042], [125.3863299, 6.7871427], [125.3864801, 6.7872546], [125.3865914, 6.7873371], [125.3867564, 6.7874623], [125.3869227, 6.7876194], [125.3871775, 6.7878805], [125.3873599, 6.7880762], [125.3874939, 6.7882427], [125.3876039, 6.7883918], [125.3878105, 6.7887061], [125.3880076, 6.7890244], [125.3884004, 6.7897102], [125.3890999, 6.7909317], [125.3891293, 6.790983], [125.3893166, 6.791303], [125.3897095, 6.7919741], [125.3897725, 6.7921299], [125.3898141, 6.7922404], [125.389865, 6.7924029], [125.3898999, 6.7925494], [125.3899335, 6.7928437], [125.3899441, 6.7930275], [125.3899375, 6.7932206], [125.3899213, 6.7933683], [125.3898945, 6.7935189], [125.3898516, 6.7936347], [125.3898087, 6.7937319], [125.389747, 6.7938465], [125.3896518, 6.7939903], [125.3895673, 6.7940941], [125.3894358, 6.7942034], [125.3889598, 6.7945443], [125.388414, 6.7949131], [125.3882054, 6.7949884]]}, "properties": {"city": "digos", "name": "Davao-Cotabato Highway", "highway": "trunk", "v_posted": 80, "posted_imputed": false, "v_safe": 50, "gap": 30, "R": 6.55, "exposure": 0.135, "vru_150m": 0, "sss": 42.5, "recommended": 50, "fatal_reduction_pct": 84.7, "why": "undivided arterial, side-impact intersections", "pop_density": 4354.9, "pop_density_peak": 13338.4, "v_design": 70, "design_gap": 20}}, {"type": "Feature", "geometry": {"type": "LineString", "coordinates": [[125.3744128, 6.7595157], [125.3744853, 6.7596302], [125.3745376, 6.7597154], [125.3745764, 6.7597927], [125.3746184, 6.7598862]]}, "properties": {"city": "digos", "name": "MacArthur Highway", "highway": "trunk", "v_posted": 80, "posted_imputed": false, "v_safe": 50, "gap": 30, "R": 6.55, "exposure": 0.028, "vru_150m": 0, "sss": 38.5, "recommended": 50, "fatal_reduction_pct": 84.7, "why": "undivided arterial, side-impact intersections", "pop_density": 901.8, "pop_density_peak": 1803.5, "v_design": 70, "design_gap": 20}}, {"type": "Feature", "geometry": {"type": "LineString", "coordinates": [[125.3741527, 6.7592293], [125.3742143, 6.7592866], [125.3742599, 6.7593279], [125.3743404, 6.7594158], [125.3744128, 6.7595157]]}, "properties": {"city": "digos", "name": "MacArthur Highway", "highway": "trunk", "v_posted": 80, "posted_imputed": false, "v_safe": 50, "gap": 30, "R": 6.55, "exposure": 0.056, "vru_150m": 0, "sss": 39.6, "recommended": 50, "fatal_reduction_pct": 84.7, "why": "undivided arterial, side-impact intersections", "pop_density": 1803.5, "pop_density_peak": 1803.5, "v_design": 70, "design_gap": 20}}, {"type": "Feature", "geometry": {"type": "LineString", "coordinates": [[125.3880076, 6.7890244], [125.3879079, 6.7891022]]}, "properties": {"city": "digos", "name": "Bato-Matutungan-Binaton Road", "highway": "tertiary", "v_posted": 80, "posted_imputed": false, "v_safe": 50, "gap": 30, "R": 6.55, "exposure": 0.302, "vru_150m": 1, "sss": 48.8, "recommended": 50, "fatal_reduction_pct": 84.7, "why": "undivided arterial, side-impact intersections", "pop_density": 4142.1, "pop_density_peak": 4142.1, "v_design": 45, "design_gap": -5}}]}