{"type": "FeatureCollection", "features": [{"type": "Feature", "geometry": {"type": "LineString", "coordinates": [[123.4087614, 7.8366939], [123.4085768, 7.8368913], [123.4084462, 7.8370068], [123.4083061, 7.837112], [123.4082224, 7.8371648], [123.4080998, 7.8372379], [123.4080101, 7.8373148], [123.4078333, 7.8374873], [123.4077327, 7.8375723], [123.4076417, 7.8376317], [123.4075315, 7.8376841], [123.4070363, 7.8379154], [123.4068916, 7.8379683], [123.4066597, 7.8380318], [123.4064506, 7.8380799], [123.406289, 7.8381187], [123.4061341, 7.8381343], [123.4060042, 7.8381341], [123.4057684, 7.8381246], [123.4055332, 7.8381236], [123.4053317, 7.8381334], [123.4050923, 7.838156], [123.4048918, 7.8382038], [123.4047112, 7.8382554], [123.404514, 7.8383217], [123.4041938, 7.8384379], [123.4039313, 7.8385116], [123.4037222, 7.8385576], [123.4034144, 7.8386303], [123.4032164, 7.8386867], [123.4030569, 7.8387441], [123.4028698, 7.83881], [123.402686, 7.8388856], [123.4025493, 7.838958], [123.4024217, 7.8390337]]}, "properties": {"city": "pagadian", "name": "Regional Government Center Road", "highway": "unclassified", "v_posted": 40, "posted_imputed": false, "v_safe": 30, "gap": 10, "R": 3.16, "exposure": 0.004, "vru_150m": 0, "sss": 12.6, "recommended": 30, "fatal_reduction_pct": 68.4, "why": "local road, frontage/pedestrian mixing", "pop_density": 133.2, "pop_density_peak": 799.4, "v_design": 40, "design_gap": 10}}, {"type": "Feature", "geometry": {"type": "LineString", "coordinates": [[123.4245295, 7.825221], [123.4243919, 7.8252137], [123.4242028, 7.8252058], [123.4240057, 7.8252191], [123.4238943, 7.8252443], [123.4237656, 7.8252908], [123.4235537, 7.8254037], [123.423437, 7.8254529], [123.423276, 7.8255108], [123.4231178, 7.8255246], [123.4228925, 7.8255127], [123.4224969, 7.8254542], [123.421011, 7.8251944], [123.4205657, 7.8251327], [123.4201969, 7.8250716], [123.4199166, 7.8250264], [123.4197772, 7.8250065], [123.4196216, 7.8249799], [123.4195016, 7.8249613], [123.4193138, 7.8249291], [123.4191193, 7.8249088], [123.4189765, 7.8249062], [123.418831, 7.8249248], [123.4187277, 7.8249487], [123.4185702, 7.8250237], [123.4183811, 7.8251686], [123.418141, 7.8253944], [123.4180123, 7.8255193], [123.4177963, 7.8257372], [123.4176797, 7.8258342], [123.4175415, 7.8259166], [123.4173524, 7.8260029], [123.4170037, 7.8261199]]}, "properties": {"city": "pagadian", "name": "J. P. Rizal Avenue", "highway": "primary", "v_posted": 60, "posted_imputed": false, "v_safe": 50, "gap": 10, "R": 2.07, "exposure": 0.711, "vru_150m": 2, "sss": 21.4, "recommended": 50, "fatal_reduction_pct": 51.8, "why": "undivided arterial, side-impact intersections", "pop_density": 16768.6, "pop_density_peak": 21283.0, "v_design": 60, "design_gap": 10}}, {"type": "Feature", "geometry": {"type": "LineString", "coordinates": [[123.4095035, 7.8310641], [123.4092353, 7.8312237], [123.4090728, 7.831311], [123.4089471, 7.8313347], [123.408825, 7.8313172], [123.4087294, 7.8312786], [123.4086541, 7.8312255], [123.4085947, 7.8311477], [123.4085582, 7.8310716], [123.4085316, 7.8309782], [123.4085267, 7.8308896], [123.4085443, 7.8307786], [123.4085839, 7.830668], [123.4091876, 7.8298217], [123.4092285, 7.8297201], [123.4092474, 7.8296016], [123.4092386, 7.8294894], [123.4092096, 7.8293984], [123.4091719, 7.8293148], [123.409105, 7.8292327], [123.4090007, 7.8291353], [123.4088648, 7.8290368], [123.4087037, 7.8289532], [123.4085098, 7.8288884], [123.4083575, 7.8288622], [123.4081171, 7.8288522], [123.4078241, 7.828868], [123.4076678, 7.8289008], [123.407508, 7.8289669], [123.407411, 7.8290355], [123.4073314, 7.8291378], [123.4072739, 7.8292587], [123.407255, 7.8293822], [123.4072242, 7.8298853], [123.4071946, 7.8300368], [123.4071557, 7.8301403], [123.4071101, 7.8302279]]}, "properties": {"city": "pagadian", "name": "J. P. Rizal Avenue", "highway": "primary", "v_posted": 60, "posted_imputed": false, "v_safe": 50, "gap": 10, "R": 2.07, "exposure": 0.052, "vru_150m": 0, "sss": 13.2, "recommended": 50, "fatal_reduction_pct": 51.8, "why": "undivided arterial, side-impact intersections", "pop_density": 1688.4, "pop_density_peak": 7723.8, "v_design": 45, "design_gap": -5}}, {"type": "Feature", "geometry": {"type": "LineString", "coordinates": [[123.3957285, 7.8257093], [123.3954911, 7.8253811], [123.3952121, 7.824953], [123.3951223, 7.8248152], [123.3950102, 7.8246394], [123.3949134, 7.8245003], [123.3948481, 7.8244396], [123.394775, 7.8243906], [123.394508, 7.8242888], [123.3942953, 7.824232], [123.394205, 7.8242067], [123.3940749, 7.8241934], [123.3939448, 7.8242027], [123.3938147, 7.8242532], [123.3936538, 7.8243541], [123.3933909, 7.8245707], [123.3932367, 7.8246584], [123.3930503, 7.8247182], [123.3928364, 7.8247388], [123.3925628, 7.8247202], [123.3923589, 7.824685], [123.3921403, 7.8245973], [123.3919553, 7.8244654], [123.3917729, 7.824295], [123.391628, 7.8241143], [123.3915375, 7.8239612], [123.3914195, 7.8237018], [123.3912358, 7.8232142], [123.391038, 7.8227418], [123.3908623, 7.8223426], [123.3907791, 7.8222224], [123.3906534, 7.8220875], [123.3904948, 7.8219613], [123.3902802, 7.8218616], [123.389896, 7.8217367], [123.3892445, 7.8215603], [123.3889376, 7.8214772], [123.3888707, 7.8214591], [123.3886774, 7.8213731], [123.388461, 7.821281], [123.3880399, 7.8210591], [123.3872862, 7.8206479], [123.3866358, 7.8202779], [123.3859974, 7.8199245], [123.385414, 7.8195697], [123.3848541, 7.8192741], [123.3846986, 7.8192183], [123.3844659, 7.8191579], [123.384309, 7.8191658], [123.3840635, 7.8192283], [123.3839174, 7.8193053], [123.3837283, 7.8194568], [123.383401, 7.8198182], [123.3830591, 7.8202659], [123.3829451, 7.8204586], [123.3829142, 7.8206021], [123.3829209, 7.8207828], [123.3829357, 7.8210924], [123.3829249, 7.8212305], [123.3828901, 7.8213647], [123.3828083, 7.8214843], [123.3826903, 7.8215929], [123.3825528, 7.8216922], [123.3823489, 7.8217587], [123.3821431, 7.8217832]]}, "properties": {"city": "pagadian", "name": "Pagadian-Zamboanga City Highway", "highway": "trunk", "v_posted": 60, "posted_imputed": false, "v_safe": 50, "gap": 10, "R": 2.07, "exposure": 0.031, "vru_150m": 0, "sss": 12.9, "recommended": 50, "fatal_reduction_pct": 51.8, "why": "undivided arterial, side-impact intersections", "pop_density": 996.5, "pop_density_peak": 6765.6, "v_design": 60, "design_gap": 10}}, {"type": "Feature", "geometry": {"type": "LineString", "coordinates": [[123.406537, 7.8306653], [123.4063586, 7.830728], [123.4061739, 7.8307641], [123.4060054, 7.8307607], [123.4057747, 7.8307314], [123.405426, 7.8306477], [123.4051225, 7.8305585]]}, "properties": {"city": "pagadian", "name": "Pagadian-Zamboanga City Highway", "highway": "trunk", "v_posted": 60, "posted_imputed": false, "v_safe": 50, "gap": 10, "R": 2.07, "exposure": 0.0, "vru_150m": 0, "sss": 12.5, "recommended": 50, "fatal_reduction_pct": 51.8, "why": "undivided arterial, side-impact intersections", "pop_density": 0.0, "pop_density_peak": 0.0, "v_design": 70, "design_gap": 20}}, {"type": "Feature", "geometry": {"type": "LineString", "coordinates": [[123.4071101, 7.8302279], [123.407062, 7.8303028], [123.4070033, 7.8303807], [123.4069365, 7.8304495], [123.4068669, 7.8305041], [123.4067868, 7.8305517], [123.4066633, 7.8306099], [123.406537, 7.8306653]]}, "properties": {"city": "pagadian", "name": "J. P. Rizal Avenue", "highway": "primary", "v_posted": 60, "posted_imputed": false, "v_safe": 50, "gap": 10, "R": 2.07, "exposure": 0.0, "vru_150m": 0, "sss": 12.5, "recommended": 50, "fatal_reduction_pct": 51.8, "why": "undivided arterial, side-impact intersections", "pop_density": 0.0, "pop_density_peak": 0.0, "v_design": 60, "design_gap": 10}}, {"type": "Feature", "geometry": {"type": "LineString", "coordinates": [[123.4170037, 7.8261199], [123.4165166, 7.8262569], [123.4155728, 7.8265224], [123.4150605, 7.8266473], [123.414862, 7.8267098], [123.4147172, 7.8267788], [123.4145918, 7.8268606], [123.4144666, 7.8269889], [123.4141577, 7.827416], [123.4139327, 7.8276876], [123.4135397, 7.8280928], [123.4130475, 7.8286004], [123.4126425, 7.8290096], [123.4123206, 7.8293019], [123.412047, 7.8295251], [123.411819, 7.8296898], [123.4114087, 7.8299529], [123.4106807, 7.8303546], [123.4095035, 7.8310641]]}, "properties": {"city": "pagadian", "name": "J. P. Rizal Avenue", "highway": "primary", "v_posted": 60, "posted_imputed": false, "v_safe": 50, "gap": 10, "R": 2.07, "exposure": 0.21, "vru_150m": 0, "sss": 15.1, "recommended": 50, "fatal_reduction_pct": 51.8, "why": "undivided arterial, side-impact intersections", "pop_density": 6798.0, "pop_density_peak": 12300.6, "v_design": 60, "design_gap": 10}}, {"type": "Feature", "geometry": {"type": "LineString", "coordinates": [[123.3973096, 7.8267469], [123.3969301, 7.8266752], [123.3967329, 7.8266101], [123.3965814, 7.8265171], [123.3963815, 7.8263616], [123.3961549, 7.8261663], [123.3959148, 7.8259391], [123.3957285, 7.8257093]]}, "properties": {"city": "pagadian", "name": "Pagadian-Zamboanga City Highway", "highway": "trunk", "v_posted": 60, "posted_imputed": false, "v_safe": 50, "gap": 10, "R": 2.07, "exposure": 0.396, "vru_150m": 1, "sss": 17.4, "recommended": 50, "fatal_reduction_pct": 51.8, "why": "undivided arterial, side-impact intersections", "pop_density": 7907.6, "pop_density_peak": 10191.6, "v_design": 70, "design_gap": 20}}, {"type": "Feature", "geometry": {"type": "LineString", "coordinates": [[123.4051225, 7.8305585], [123.404966, 7.8305322], [123.4047917, 7.8305215], [123.4046468, 7.8305322], [123.4044738, 7.8305773], [123.4040407, 7.8307342], [123.4039665, 7.8307614], [123.4038865, 7.8307908], [123.4037157, 7.8308384], [123.4036593, 7.8308396], [123.4035952, 7.8308549], [123.4034867, 7.8308606], [123.4033284, 7.8308518], [123.402431, 7.8306986], [123.4018063, 7.8305876], [123.4016057, 7.8305588], [123.4014535, 7.8305506], [123.4013544, 7.8305561], [123.4012552, 7.830576], [123.4011374, 7.8306135], [123.4010031, 7.830671], [123.4005551, 7.830888], [123.4000951, 7.83113], [123.3997974, 7.8312682], [123.399615, 7.8313081], [123.3994675, 7.8313107], [123.3992904, 7.8312735], [123.3992437, 7.8312469], [123.3991134, 7.8311725], [123.3988586, 7.8309175], [123.3986011, 7.8306491], [123.3984268, 7.8303621], [123.3983409, 7.8300751], [123.3983088, 7.8298227], [123.3983436, 7.8295357], [123.3984026, 7.8293178], [123.3985689, 7.8288927], [123.3988195, 7.8282678], [123.3988451, 7.828204], [123.3990316, 7.8277607], [123.3990584, 7.8276265], [123.3990598, 7.8274857], [123.3990168, 7.8273325], [123.3989471, 7.8272266], [123.3988345, 7.8271083], [123.398695, 7.8270167], [123.3985528, 7.8269688], [123.3983623, 7.8269286], [123.3979925, 7.8268617], [123.3979506, 7.8268568], [123.3977311, 7.8268201], [123.3976248, 7.8268043], [123.3975572, 7.8267887], [123.3973096, 7.8267469]]}, "properties": {"city": "pagadian", "name": "Pagadian-Zamboanga City Highway", "highway": "trunk", "v_posted": 60, "posted_imputed": false, "v_safe": 50, "gap": 10, "R": 2.07, "exposure": 0.09, "vru_150m": 0, "sss": 13.6, "recommended": 50, "fatal_reduction_pct": 51.8, "why": "undivided arterial, side-impact intersections", "pop_density": 2901.6, "pop_density_peak": 10191.6, "v_design": 50, "design_gap": 0}}, {"type": "Feature", "geometry": {"type": "LineString", "coordinates": [[123.4123944, 7.8348447], [123.4123566, 7.8348831], [123.4122831, 7.8349577], [123.4121248, 7.8350959], [123.4118217, 7.8353443], [123.4115964, 7.8355184], [123.4115388, 7.8355489], [123.411412, 7.8356614], [123.4112551, 7.8357873], [123.4108232, 7.8361206], [123.4106288, 7.8362681], [123.410256, 7.8365512], [123.4101748, 7.8366119], [123.4101143, 7.8366502], [123.4100655, 7.8366732], [123.4099989, 7.8366845], [123.409877, 7.8366826], [123.4090799, 7.8366307], [123.4089631, 7.8366244], [123.4088914, 7.8366291], [123.4088266, 7.8366499], [123.4087614, 7.8366939]]}, "properties": {"city": "pagadian", "name": "Regional Government Center Road", "highway": "unclassified", "v_posted": 40, "posted_imputed": false, "v_safe": 30, "gap": 10, "R": 3.16, "exposure": 0.2, "vru_150m": 1, "sss": 15.0, "recommended": 30, "fatal_reduction_pct": 68.4, "why": "local road, frontage/pedestrian mixing", "pop_density": 0.0, "pop_density_peak": 0.0, "v_design": 40, "design_gap": 10}}, {"type": "Feature", "geometry": {"type": "LineString", "coordinates": [[123.4130703, 7.833479], [123.4129898, 7.8337301], [123.4128503, 7.8341087], [123.4127082, 7.8344289], [123.4126291, 7.8345897], [123.4125493, 7.834682], [123.4125167, 7.8347146], [123.4123944, 7.8348447]]}, "properties": {"city": "pagadian", "name": "Regional Government Center Road", "highway": "unclassified", "v_posted": 40, "posted_imputed": false, "v_safe": 30, "gap": 10, "R": 3.16, "exposure": 0.03, "vru_150m": 0, "sss": 12.9, "recommended": 30, "fatal_reduction_pct": 68.4, "why": "local road, frontage/pedestrian mixing", "pop_density": 985.9, "pop_density_peak": 2957.6, "v_design": 40, "design_gap": 10}}, {"type": "Feature", "geometry": {"type": "LineString", "coordinates": [[123.4477985, 7.8335503], [123.4477714, 7.8339028], [123.447634, 7.835528], [123.4476037, 7.8358386], [123.4475985, 7.835913], [123.4476024, 7.8359561], [123.4476363, 7.8360864], [123.4476815, 7.8361866], [123.4481401, 7.8370142], [123.4484574, 7.8375596], [123.4485761, 7.8377637], [123.4486565, 7.8378646], [123.4487517, 7.8379497], [123.4488402, 7.8380041], [123.4500459, 7.838493], [123.4503557, 7.8385748], [123.4506012, 7.8386155], [123.4507443, 7.8386419], [123.4513783, 7.8387589], [123.4516659, 7.8388119], [123.4521685, 7.838893], [123.4523094, 7.8389236], [123.4527438, 7.8389821], [123.4527805, 7.8389878], [123.4528443, 7.8389976], [123.4535774, 7.8391112], [123.4548627, 7.8393102], [123.4550362, 7.8393371], [123.4556575, 7.8394333], [123.4556959, 7.8394391], [123.4562094, 7.8395476], [123.4564385, 7.8396187], [123.4566215, 7.8397081], [123.4568608, 7.8398414], [123.4570217, 7.8399583], [123.4570696, 7.8399931], [123.4571004, 7.8400157], [123.4571824, 7.8400758]]}, "properties": {"city": "pagadian", "name": "J. P. Rizal Avenue", "highway": "primary", "v_posted": 60, "posted_imputed": false, "v_safe": 50, "gap": 10, "R": 2.07, "exposure": 0.422, "vru_150m": 0, "sss": 17.8, "recommended": 50, "fatal_reduction_pct": 51.8, "why": "undivided arterial, side-impact intersections", "pop_density": 13656.7, "pop_density_peak": 19748.7, "v_design": 55, "design_gap": 5}}, {"type": "Feature", "geometry": {"type": "LineString", "coordinates": [[123.428756, 7.8248463], [123.4282668, 7.8249963], [123.4282183, 7.8250087], [123.4280652, 7.8250443], [123.4278882, 7.8250643], [123.4277219, 7.825057], [123.4275468, 7.825037], [123.4272887, 7.8250091], [123.4271318, 7.8250078], [123.426999, 7.8250291], [123.426818, 7.8250915], [123.426449, 7.8252767], [123.4263049, 7.8253411], [123.4262185, 7.8253712], [123.4261527, 7.8253843], [123.4259765, 7.8253948], [123.4258672, 7.8253901], [123.4255828, 7.8253639], [123.4250048, 7.8253054], [123.424762, 7.8252822], [123.4246662, 7.8252689], [123.424589, 7.8252529], [123.4245295, 7.825221]]}, "properties": {"city": "pagadian", "name": "J. P. Rizal Avenue", "highway": "primary", "v_posted": 60, "posted_imputed": false, "v_safe": 50, "gap": 10, "R": 2.07, "exposure": 0.668, "vru_150m": 0, "sss": 20.9, "recommended": 50, "fatal_reduction_pct": 51.8, "why": "undivided arterial, side-impact intersections", "pop_density": 21613.9, "pop_density_peak": 25475.6, "v_design": 60, "design_gap": 10}}, {"type": "Feature", "geometry": {"type": "LineString", "coordinates": [[123.4443852, 7.8285118], [123.4445259, 7.8286077], [123.4449818, 7.8289247], [123.4453876, 7.8292069], [123.4455641, 7.8293334], [123.4457383, 7.829452], [123.4461637, 7.8297444], [123.4462305, 7.8297886], [123.4466071, 7.8300512], [123.4470057, 7.8303182], [123.4470764, 7.830368], [123.4471545, 7.8304198], [123.4473539, 7.830556], [123.4474629, 7.8306477], [123.4475689, 7.8307447], [123.447652, 7.8308577], [123.4477291, 7.8309998], [123.447758, 7.8310968], [123.4477834, 7.8312682], [123.4478047, 7.831534], [123.4478369, 7.8323045], [123.4478587, 7.8328254], [123.4478624, 7.8329143], [123.4478699, 7.8331847], [123.4478639, 7.8332518], [123.4478545, 7.8333096], [123.4477985, 7.8335503]]}, "properties": {"city": "pagadian", "name": "J. P. Rizal Avenue", "highway": "primary", "v_posted": 60, "posted_imputed": false, "v_safe": 50, "gap": 10, "R": 2.07, "exposure": 0.817, "vru_150m": 2, "sss": 22.7, "recommended": 50, "fatal_reduction_pct": 51.8, "why": "undivided arterial, side-impact intersections", "pop_density": 22500.2, "pop_density_peak": 31476.5, "v_design": 55, "design_gap": 5}}, {"type": "Feature", "geometry": {"type": "LineString", "coordinates": [[123.4245295, 7.825221], [123.4245696, 7.8252104], [123.4246252, 7.8252078], [123.4254856, 7.8252828], [123.4258275, 7.8253141], [123.4259241, 7.82532], [123.4260193, 7.82532], [123.4261152, 7.8253134], [123.4262025, 7.8252979], [123.4263592, 7.8252379], [123.4267701, 7.8250206], [123.4269523, 7.8249532], [123.4271135, 7.8249183], [123.4272417, 7.8249214], [123.4276347, 7.8249686], [123.4278707, 7.8249826], [123.4280021, 7.8249799], [123.4281617, 7.824952], [123.428241, 7.8249238], [123.4287334, 7.8247672]]}, "properties": {"city": "pagadian", "name": "J. P. Rizal Avenue", "highway": "primary", "v_posted": 60, "posted_imputed": false, "v_safe": 50, "gap": 10, "R": 2.07, "exposure": 0.671, "vru_150m": 0, "sss": 20.9, "recommended": 50, "fatal_reduction_pct": 51.8, "why": "undivided arterial, side-impact intersections", "pop_density": 21696.6, "pop_density_peak": 25475.6, "v_design": 60, "design_gap": 10}}, {"type": "Feature", "geometry": {"type": "LineString", "coordinates": [[123.4477985, 7.8335503], [123.4477714, 7.8333401], [123.447762, 7.8332465], [123.4477606, 7.8331634], [123.4477667, 7.8328326], [123.4477487, 7.8323074], [123.4477231, 7.8315638], [123.447707, 7.8312682], [123.4476936, 7.8311699], [123.447662, 7.8310484], [123.4475675, 7.8308842], [123.4474911, 7.8307932], [123.4473959, 7.8306969], [123.447305, 7.8306226], [123.4470975, 7.8304847], [123.4469545, 7.8303868], [123.4465661, 7.8301257], [123.446557, 7.8301195], [123.4461681, 7.8298579], [123.4461088, 7.8298165], [123.445515, 7.8294019], [123.445335, 7.8292762], [123.4449313, 7.8289943], [123.4444759, 7.8286764], [123.4443407, 7.828582]]}, "properties": {"city": "pagadian", "name": "J. P. Rizal Avenue", "highway": "primary", "v_posted": 60, "posted_imputed": false, "v_safe": 50, "gap": 10, "R": 2.07, "exposure": 0.82, "vru_150m": 2, "sss": 22.8, "recommended": 50, "fatal_reduction_pct": 51.8, "why": "undivided arterial, side-impact intersections", "pop_density": 22660.5, "pop_density_peak": 31476.5, "v_design": 55, "design_gap": 5}}, {"type": "Feature", "geometry": {"type": "LineString", "coordinates": [[123.4651239, 7.8363726], [123.4651065, 7.8364331], [123.465083, 7.8365268], [123.4650435, 7.8366736], [123.4649657, 7.8368968], [123.4647364, 7.8373684], [123.4644568, 7.837968], [123.4643761, 7.8381516], [123.4641949, 7.838564], [123.4637737, 7.8394896]]}, "properties": {"city": "pagadian", "name": "Pagadian Airport Road", "highway": "unclassified", "v_posted": 40, "posted_imputed": false, "v_safe": 30, "gap": 10, "R": 3.16, "exposure": 0.314, "vru_150m": 0, "sss": 16.4, "recommended": 30, "fatal_reduction_pct": 68.4, "why": "local road, frontage/pedestrian mixing", "pop_density": 10163.0, "pop_density_peak": 12282.6, "v_design": 40, "design_gap": 10}}, {"type": "Feature", "geometry": {"type": "LineString", "coordinates": [[123.4628771, 7.8323101], [123.4632916, 7.8330708], [123.4643823, 7.835056], [123.4650082, 7.8361053], [123.4650663, 7.8362424], [123.4651239, 7.8363726]]}, "properties": {"city": "pagadian", "name": "Pagadian Airport Road", "highway": "unclassified", "v_posted": 40, "posted_imputed": false, "v_safe": 30, "gap": 10, "R": 3.16, "exposure": 0.12, "vru_150m": 0, "sss": 14.0, "recommended": 30, "fatal_reduction_pct": 68.4, "why": "local road, frontage/pedestrian mixing", "pop_density": 3885.7, "pop_density_peak": 7426.7, "v_design": 40, "design_gap": 10}}, {"type": "Feature", "geometry": {"type": "LineString", "coordinates": [[123.4631106, 7.8308846], [123.4630801, 7.8308928], [123.4629963, 7.8309287], [123.4629782, 7.8309573], [123.4629815, 7.8309965], [123.4630238, 7.8311413], [123.4630284, 7.8311772], [123.4630298, 7.8312283], [123.4630043, 7.8312582], [123.4625071, 7.8314469], [123.4624923, 7.8314559], [123.4624796, 7.8314701], [123.4624749, 7.8314887], [123.4624772, 7.8315137], [123.4624856, 7.8315403], [123.4628771, 7.8323101]]}, "properties": {"city": "pagadian", "name": "Pagadian Airport Road", "highway": "unclassified", "v_posted": 40, "posted_imputed": false, "v_safe": 30, "gap": 10, "R": 3.16, "exposure": 0.021, "vru_150m": 0, "sss": 12.8, "recommended": 30, "fatal_reduction_pct": 68.4, "why": "local road, frontage/pedestrian mixing", "pop_density": 688.5, "pop_density_peak": 746.3, "v_design": 30, "design_gap": 0}}, {"type": "Feature", "geometry": {"type": "LineString", "coordinates": [[123.4741654, 7.8432339], [123.4741106, 7.8432054], [123.4739326, 7.8431132], [123.4737593, 7.8430235], [123.4730784, 7.8426616], [123.4726314, 7.8424442], [123.4726103, 7.8424334], [123.4723352, 7.8422929], [123.4705514, 7.8413814], [123.4701926, 7.841206], [123.4701568, 7.8411906], [123.469791, 7.8410333], [123.4694731, 7.8409575], [123.4691057, 7.8409124], [123.4686015, 7.8408699], [123.4677209, 7.8408164], [123.4671721, 7.8407918], [123.4654417, 7.8406958], [123.464684, 7.8406436], [123.4644696, 7.8406289], [123.4639413, 7.8405925], [123.4638199, 7.840586], [123.4635372, 7.8405708], [123.4634539, 7.8405663]]}, "properties": {"city": "pagadian", "name": "Tukuran-Pagadian Highway", "highway": "trunk", "v_posted": 60, "posted_imputed": false, "v_safe": 50, "gap": 10, "R": 2.07, "exposure": 0.32, "vru_150m": 0, "sss": 16.5, "recommended": 50, "fatal_reduction_pct": 51.8, "why": "undivided arterial, side-impact intersections", "pop_density": 10361.3, "pop_density_peak": 16922.7, "v_design": 70, "design_gap": 20}}, {"type": "Feature", "geometry": {"type": "LineString", "coordinates": [[123.4571824, 7.8400758], [123.4572823, 7.8401327], [123.4573228, 7.8401551], [123.4573571, 7.8401742], [123.4574081, 7.8401942]]}, "properties": {"city": "pagadian", "name": "J. P. Rizal Avenue", "highway": "trunk", "v_posted": 60, "posted_imputed": false, "v_safe": 50, "gap": 10, "R": 2.07, "exposure": 0.447, "vru_150m": 0, "sss": 18.1, "recommended": 50, "fatal_reduction_pct": 51.8, "why": "undivided arterial, side-impact intersections", "pop_density": 14455.4, "pop_density_peak": 14455.4, "v_design": 70, "design_gap": 20}}, {"type": "Feature", "geometry": {"type": "LineString", "coordinates": [[123.5003541, 7.8567944], [123.5002442, 7.8567335], [123.4991866, 7.8561468], [123.4981728, 7.8556127], [123.4976578, 7.8553576], [123.4968021, 7.8549033], [123.4958366, 7.8544091], [123.4946859, 7.8538219], [123.4941012, 7.8535136], [123.4922424, 7.8525677], [123.4915531, 7.8522064], [123.4914806, 7.8521689], [123.4881678, 7.8504559], [123.4849564, 7.8488134], [123.4841233, 7.8483802], [123.4829177, 7.8477637], [123.4814302, 7.8469941], [123.4807807, 7.8466462], [123.4796119, 7.8460539]]}, "properties": {"city": "pagadian", "name": "Tukuran-Pagadian Highway", "highway": "trunk", "v_posted": 80, "posted_imputed": false, "v_safe": 50, "gap": 30, "R": 6.55, "exposure": 0.024, "vru_150m": 0, "sss": 38.4, "recommended": 50, "fatal_reduction_pct": 84.7, "why": "undivided arterial, side-impact intersections", "pop_density": 768.3, "pop_density_peak": 5721.7, "v_design": 70, "design_gap": 20}}, {"type": "Feature", "geometry": {"type": "LineString", "coordinates": [[123.4743553, 7.8433334], [123.4741654, 7.8432339]]}, "properties": {"city": "pagadian", "name": "Tukuran-Pagadian Highway", "highway": "trunk", "v_posted": 60, "posted_imputed": false, "v_safe": 50, "gap": 10, "R": 2.07, "exposure": 0.608, "vru_150m": 1, "sss": 20.1, "recommended": 50, "fatal_reduction_pct": 51.8, "why": "undivided arterial, side-impact intersections", "pop_density": 16480.5, "pop_density_peak": 16480.5, "v_design": 70, "design_gap": 20}}, {"type": "Feature", "geometry": {"type": "LineString", "coordinates": [[123.479296, 7.8458872], [123.478053, 7.8452358], [123.4774941, 7.8449428], [123.4773029, 7.8448427], [123.4770473, 7.8447087], [123.4767603, 7.8445598], [123.4761597, 7.8442481], [123.4759252, 7.8441264], [123.4752666, 7.8437955], [123.4748516, 7.843587], [123.474795, 7.8435581], [123.4746807, 7.8434997], [123.4745605, 7.8434383], [123.4743553, 7.8433334]]}, "properties": {"city": "pagadian", "name": "Tukuran-Pagadian Highway", "highway": "trunk", "v_posted": 60, "posted_imputed": false, "v_safe": 50, "gap": 10, "R": 2.07, "exposure": 0.201, "vru_150m": 0, "sss": 15.0, "recommended": 50, "fatal_reduction_pct": 51.8, "why": "undivided arterial, side-impact intersections", "pop_density": 6510.8, "pop_density_peak": 16480.5, "v_design": 70, "design_gap": 20}}, {"type": "Feature", "geometry": {"type": "LineString", "coordinates": [[123.4796119, 7.8460539], [123.479296, 7.8458872]]}, "properties": {"city": "pagadian", "name": "Tukuran-Pagadian Highway", "highway": "trunk", "v_posted": 60, "posted_imputed": false, "v_safe": 50, "gap": 10, "R": 2.07, "exposure": 0.045, "vru_150m": 0, "sss": 13.1, "recommended": 50, "fatal_reduction_pct": 51.8, "why": "undivided arterial, side-impact intersections", "pop_density": 1466.5, "pop_density_peak": 1960.9, "v_design": 70, "design_gap": 20}}, {"type": "Feature", "geometry": {"type": "LineString", "coordinates": [[123.4634539, 7.8405663], [123.4628272, 7.8405245], [123.4626771, 7.8405178], [123.4625175, 7.8405107], [123.4624423, 7.8405068], [123.46216, 7.8404966], [123.4621149, 7.840495], [123.4614419, 7.8404567], [123.4606875, 7.8404075], [123.4601148, 7.8403881], [123.4596683, 7.840367], [123.4592328, 7.8403473], [123.4584929, 7.8403065], [123.4577116, 7.8402533], [123.4574081, 7.8401942]]}, "properties": {"city": "pagadian", "name": "Tukuran-Pagadian Highway", "highway": "trunk", "v_posted": 60, "posted_imputed": false, "v_safe": 50, "gap": 10, "R": 2.07, "exposure": 0.416, "vru_150m": 0, "sss": 17.7, "recommended": 50, "fatal_reduction_pct": 51.8, "why": "undivided arterial, side-impact intersections", "pop_density": 13466.9, "pop_density_peak": 14455.4, "v_design": 70, "design_gap": 20}}]}