{"type": "FeatureCollection", "features": [{"type": "Feature", "geometry": {"type": "LineString", "coordinates": [[120.845992, 14.8116003], [120.8452772, 14.8114506], [120.8450601, 14.8114016], [120.844869, 14.8113347], [120.8446946, 14.8112575], [120.8440492, 14.8109685], [120.8438279, 14.8109001], [120.8436319, 14.8108773], [120.8435023, 14.8108784], [120.8432698, 14.8108984], [120.8428021, 14.8111188], [120.8426404, 14.811195], [120.8425389, 14.8112428], [120.8420964, 14.8114852], [120.8418455, 14.8116456], [120.8413677, 14.8121016], [120.8411736, 14.8122906], [120.8407609, 14.8126922], [120.8403703, 14.8130724], [120.8401925, 14.8132455], [120.8400535, 14.8133785], [120.8399338, 14.8134966], [120.8397718, 14.813669], [120.8391605, 14.8145833], [120.8388745, 14.8148943], [120.8380014, 14.8158903], [120.8375112, 14.8164217], [120.8368577, 14.8171301], [120.8365068, 14.8174874], [120.8356551, 14.8183337], [120.8346174, 14.8191699], [120.8335949, 14.8199782], [120.8333752, 14.8201244], [120.833152, 14.8202254], [120.8323989, 14.8204778], [120.831461, 14.8207499], [120.8308153, 14.820942], [120.8303985, 14.8210583], [120.8303179, 14.8210843], [120.8300829, 14.8211901], [120.8299044, 14.8213208], [120.829648, 14.8215133], [120.829314, 14.8217265], [120.8284277, 14.8220817], [120.8265939, 14.8226854], [120.8262497, 14.8228234], [120.8256547, 14.8230602], [120.8252781, 14.823279], [120.8251101, 14.8234174], [120.8249413, 14.8235824], [120.824807, 14.8237675], [120.8246759, 14.8240037], [120.824519, 14.8243328], [120.8243017, 14.8248114], [120.8240711, 14.8253273], [120.8240245, 14.8254267], [120.8238444, 14.825811], [120.8238247, 14.825853], [120.8232709, 14.8265607], [120.8232178, 14.8266275], [120.8229765, 14.826947], [120.8228436, 14.8271564], [120.822796, 14.8272353], [120.8227269, 14.8273496], [120.8226837, 14.8274394], [120.8226023, 14.8276086], [120.8225041, 14.8277861], [120.8224333, 14.8279006], [120.8223336, 14.8280499]]}, "properties": {"city": "malolos", "name": "Camino Street", "highway": "secondary", "v_posted": 60, "posted_imputed": false, "v_safe": 50, "gap": 10, "R": 2.07, "exposure": 0.245, "vru_150m": 0, "sss": 15.6, "recommended": 50, "fatal_reduction_pct": 51.8, "why": "undivided arterial, side-impact intersections", "pop_density": 7939.0, "pop_density_peak": 16325.3, "v_design": 50, "design_gap": 0}}, {"type": "Feature", "geometry": {"type": "LineString", "coordinates": [[120.8582977, 14.8074548], [120.8580949, 14.8075], [120.8578766, 14.807588], [120.8578291, 14.8076137], [120.8576001, 14.8077377], [120.8573965, 14.8078007], [120.8573471, 14.8078228], [120.8572195, 14.8078528], [120.8570784, 14.8078649], [120.8567563, 14.8078846], [120.8562139, 14.8079287], [120.856006, 14.8079385], [120.8550541, 14.8080326], [120.853656, 14.8081499], [120.8522251, 14.8082699], [120.8521661, 14.8082772], [120.8521448, 14.8082799], [120.8518406, 14.8083177], [120.8517485, 14.8083291], [120.851457, 14.8084573], [120.8510999, 14.8087391], [120.8510601, 14.8087716], [120.850498, 14.8092309], [120.8503257, 14.8093999], [120.8501936, 14.8095829], [120.8499153, 14.8099799]]}, "properties": {"city": "malolos", "name": "Malolos-Bulakan Road", "highway": "secondary", "v_posted": 60, "posted_imputed": false, "v_safe": 50, "gap": 10, "R": 2.07, "exposure": 0.26, "vru_150m": 0, "sss": 15.7, "recommended": 50, "fatal_reduction_pct": 51.8, "why": "undivided arterial, side-impact intersections", "pop_density": 8400.2, "pop_density_peak": 10832.4, "v_design": 50, "design_gap": 0}}, {"type": "Feature", "geometry": {"type": "LineString", "coordinates": [[120.8670474, 14.798005], [120.867036, 14.7980484], [120.8669849, 14.7984252], [120.8669867, 14.7987215], [120.8670082, 14.7992756], [120.8670129, 14.8002042], [120.8670165, 14.8003996], [120.8670113, 14.8006533], [120.8669924, 14.8009006], [120.8669794, 14.8010868], [120.8669741, 14.8011131], [120.8669642, 14.8011622], [120.8668698, 14.8014839], [120.8667851, 14.801684], [120.8665811, 14.8019745], [120.8663977, 14.8021657], [120.8663554, 14.8022077], [120.8661995, 14.8023627], [120.8658107, 14.802727], [120.865634, 14.8028926], [120.865551, 14.8029485], [120.8650522, 14.8033439], [120.864791, 14.8035617], [120.86458, 14.8037377], [120.8643629, 14.8038982], [120.8639706, 14.8041609], [120.8633869, 14.8045012], [120.8629474, 14.8048024], [120.8626316, 14.8051069], [120.8622204, 14.8055102], [120.8620547, 14.8056635], [120.861411, 14.8061202], [120.8608594, 14.8065444], [120.8606952, 14.8066806], [120.8604859, 14.8068246], [120.8602492, 14.806967], [120.8598593, 14.8071897], [120.8593627, 14.8073401], [120.8591467, 14.8074001], [120.8587908, 14.807432], [120.8585608, 14.8074394], [120.8584072, 14.8074465], [120.858343, 14.8074474], [120.8582977, 14.8074548]]}, "properties": {"city": "malolos", "name": "Malolos-Bulakan Road", "highway": "secondary", "v_posted": 60, "posted_imputed": false, "v_safe": 50, "gap": 10, "R": 2.07, "exposure": 0.154, "vru_150m": 0, "sss": 14.4, "recommended": 50, "fatal_reduction_pct": 51.8, "why": "undivided arterial, side-impact intersections", "pop_density": 4969.2, "pop_density_peak": 9131.9, "v_design": 45, "design_gap": -5}}, {"type": "Feature", "geometry": {"type": "LineString", "coordinates": [[120.8461447, 14.8116344], [120.845992, 14.8116003]]}, "properties": {"city": "malolos", "name": "Malolos-Bulakan Road", "highway": "secondary", "v_posted": 60, "posted_imputed": false, "v_safe": 50, "gap": 10, "R": 2.07, "exposure": 0.385, "vru_150m": 0, "sss": 17.3, "recommended": 50, "fatal_reduction_pct": 51.8, "why": "undivided arterial, side-impact intersections", "pop_density": 12446.1, "pop_density_peak": 12446.1, "v_design": 50, "design_gap": 0}}, {"type": "Feature", "geometry": {"type": "LineString", "coordinates": [[120.8499153, 14.8099799], [120.8496889, 14.8102253], [120.8494853, 14.8104274], [120.8492186, 14.810648], [120.8491507, 14.8106966], [120.8488952, 14.8109464], [120.8484348, 14.8114377], [120.8482935, 14.8115574], [120.8482191, 14.8116105], [120.8480719, 14.8116633], [120.8479406, 14.811682], [120.8471939, 14.8117235], [120.8470356, 14.8117282], [120.8468248, 14.8117157], [120.8465471, 14.8116993], [120.8461806, 14.8116414], [120.8461447, 14.8116344]]}, "properties": {"city": "malolos", "name": "Malolos-Bulakan Road", "highway": "secondary", "v_posted": 60, "posted_imputed": false, "v_safe": 50, "gap": 10, "R": 2.07, "exposure": 0.352, "vru_150m": 0, "sss": 16.9, "recommended": 50, "fatal_reduction_pct": 51.8, "why": "undivided arterial, side-impact intersections", "pop_density": 11375.5, "pop_density_peak": 12560.0, "v_design": 50, "design_gap": 0}}, {"type": "Feature", "geometry": {"type": "LineString", "coordinates": [[120.8111039, 14.8434855], [120.8111407, 14.8433392], [120.8112352, 14.8429025], [120.8112539, 14.8428161], [120.8113409, 14.8424362], [120.8114156, 14.8422186], [120.8116247, 14.841879]]}, "properties": {"city": "malolos", "name": "F. Estrella Street", "highway": "secondary", "v_posted": 40, "posted_imputed": false, "v_safe": 30, "gap": 10, "R": 3.16, "exposure": 1.0, "vru_150m": 6, "sss": 25.0, "recommended": 30, "fatal_reduction_pct": 68.4, "why": "pedestrian activity (1 VRU site<=50m)", "pop_density": 2861.3, "pop_density_peak": 3329.9, "v_design": 50, "design_gap": 20}}, {"type": "Feature", "geometry": {"type": "LineString", "coordinates": [[120.8177856, 14.8329725], [120.8173823, 14.8334888], [120.8168972, 14.8340949], [120.8168491, 14.8341612], [120.8167679, 14.8342732], [120.81643, 14.8347452], [120.8161185, 14.8351701], [120.8160334, 14.8352746], [120.8157694, 14.8355925], [120.8156558, 14.8357227], [120.8152919, 14.8361329], [120.8146522, 14.8368316], [120.8142927, 14.837227], [120.81405, 14.837546], [120.8139245, 14.837721], [120.8138511, 14.8378235], [120.8138385, 14.837841], [120.8138301, 14.8378527], [120.8135538, 14.8382382]]}, "properties": {"city": "malolos", "name": "F. Estrella Street", "highway": "secondary", "v_posted": 60, "posted_imputed": false, "v_safe": 50, "gap": 10, "R": 2.07, "exposure": 0.24, "vru_150m": 0, "sss": 15.5, "recommended": 50, "fatal_reduction_pct": 51.8, "why": "undivided arterial, side-impact intersections", "pop_density": 7750.9, "pop_density_peak": 9274.7, "v_design": 50, "design_gap": 0}}, {"type": "Feature", "geometry": {"type": "LineString", "coordinates": [[120.8223336, 14.8280499], [120.8222422, 14.8281875]]}, "properties": {"city": "malolos", "name": "F. Estrella Street", "highway": "secondary", "v_posted": 60, "posted_imputed": false, "v_safe": 30, "gap": 30, "R": 16.0, "exposure": 0.483, "vru_150m": 2, "sss": 55.6, "recommended": 30, "fatal_reduction_pct": 93.8, "why": "pedestrian activity (1 VRU site<=50m)", "pop_density": 4457.6, "pop_density_peak": 4457.6, "v_design": 50, "design_gap": 20}}, {"type": "Feature", "geometry": {"type": "LineString", "coordinates": [[120.8222422, 14.8281875], [120.82209, 14.8283891], [120.8218538, 14.8287605], [120.8215806, 14.82913], [120.8214088, 14.8293625], [120.8212243, 14.8295747], [120.8207604, 14.8300045], [120.820433, 14.8303424], [120.8200394, 14.8307]]}, "properties": {"city": "malolos", "name": "F. Estrella Street", "highway": "secondary", "v_posted": 60, "posted_imputed": false, "v_safe": 30, "gap": 30, "R": 16.0, "exposure": 0.827, "vru_150m": 4, "sss": 68.5, "recommended": 30, "fatal_reduction_pct": 93.8, "why": "pedestrian activity (1 VRU site<=50m)", "pop_density": 4348.6, "pop_density_peak": 5384.8, "v_design": 50, "design_gap": 20}}, {"type": "Feature", "geometry": {"type": "LineString", "coordinates": [[120.8200394, 14.8307], [120.8197249, 14.8309872], [120.8196434, 14.8310617], [120.8192677, 14.8314217]]}, "properties": {"city": "malolos", "name": "F. Estrella Street", "highway": "secondary", "v_posted": 60, "posted_imputed": false, "v_safe": 50, "gap": 10, "R": 2.07, "exposure": 0.499, "vru_150m": 2, "sss": 18.7, "recommended": 50, "fatal_reduction_pct": 51.8, "why": "undivided arterial, side-impact intersections", "pop_density": 5326.7, "pop_density_peak": 5384.8, "v_design": 50, "design_gap": 0}}, {"type": "Feature", "geometry": {"type": "LineString", "coordinates": [[120.8135538, 14.8382382], [120.8133574, 14.8385698], [120.8130504, 14.8390882], [120.8127487, 14.8395975], [120.8126939, 14.83969], [120.8126477, 14.8397679], [120.8124997, 14.8399992], [120.8124184, 14.8401217], [120.8123947, 14.8401573], [120.8121624, 14.8404944], [120.8120785, 14.8406162], [120.8120414, 14.8406694], [120.8119315, 14.8408854], [120.8117866, 14.8412609], [120.8116247, 14.841879]]}, "properties": {"city": "malolos", "name": "F. Estrella Street", "highway": "secondary", "v_posted": 40, "posted_imputed": false, "v_safe": 30, "gap": 10, "R": 3.16, "exposure": 1.0, "vru_150m": 7, "sss": 25.0, "recommended": 30, "fatal_reduction_pct": 68.4, "why": "pedestrian activity (2 VRU site<=50m)", "pop_density": 3835.2, "pop_density_peak": 6803.1, "v_design": 50, "design_gap": 20}}, {"type": "Feature", "geometry": {"type": "LineString", "coordinates": [[120.8176322, 14.8514811], [120.8174409, 14.8516697], [120.8171638, 14.8518353], [120.8170263, 14.8519389], [120.8169991, 14.8519593], [120.8166666, 14.852222], [120.8164802, 14.8523707], [120.8162481, 14.8525824], [120.8160731, 14.8527471], [120.8160326, 14.852788]]}, "properties": {"city": "malolos", "name": "MacArthur Highway", "highway": "secondary", "v_posted": 40, "posted_imputed": false, "v_safe": 30, "gap": 10, "R": 3.16, "exposure": 1.0, "vru_150m": 5, "sss": 25.0, "recommended": 30, "fatal_reduction_pct": 68.4, "why": "pedestrian activity (1 VRU site<=50m)", "pop_density": 7561.8, "pop_density_peak": 9080.6, "v_design": 50, "design_gap": 20}}, {"type": "Feature", "geometry": {"type": "LineString", "coordinates": [[120.8192677, 14.8314217], [120.8190811, 14.8316104], [120.8188781, 14.8318148], [120.8181486, 14.8325915], [120.8179321, 14.832812], [120.8177856, 14.8329725]]}, "properties": {"city": "malolos", "name": "F. Estrella Street", "highway": "secondary", "v_posted": 60, "posted_imputed": false, "v_safe": 50, "gap": 10, "R": 2.07, "exposure": 0.4, "vru_150m": 1, "sss": 17.5, "recommended": 50, "fatal_reduction_pct": 51.8, "why": "undivided arterial, side-impact intersections", "pop_density": 8080.0, "pop_density_peak": 9696.6, "v_design": 50, "design_gap": 0}}, {"type": "Feature", "geometry": {"type": "LineString", "coordinates": [[120.8157733, 14.8514323], [120.8158121, 14.851508]]}, "properties": {"city": "malolos", "name": "Paseo del Congreso", "highway": "secondary", "v_posted": 40, "posted_imputed": false, "v_safe": 30, "gap": 10, "R": 3.16, "exposure": 0.697, "vru_150m": 3, "sss": 21.2, "recommended": 30, "fatal_reduction_pct": 68.4, "why": "pedestrian activity (1 VRU site<=50m)", "pop_density": 7833.1, "pop_density_peak": 7833.1, "v_design": 50, "design_gap": 20}}, {"type": "Feature", "geometry": {"type": "LineString", "coordinates": [[120.8162073, 14.8534587], [120.8162724, 14.8536988], [120.8163348, 14.8539475], [120.8164954, 14.8542909], [120.8167066, 14.8546073], [120.8170537, 14.8550182], [120.8172794, 14.8553563], [120.8174242, 14.8556324], [120.817573, 14.855972], [120.8176831, 14.8563207], [120.817726, 14.8565333], [120.8177823, 14.8568275], [120.8178559, 14.8572009], [120.8179104, 14.8575079], [120.8181315, 14.8586616], [120.8181197, 14.85904], [120.8181148, 14.8594494], [120.8181718, 14.8597159], [120.8182537, 14.8599271], [120.8183989, 14.8602543], [120.818494, 14.8604869], [120.8185653, 14.8607422], [120.8186349, 14.8611883], [120.8186601, 14.8613281], [120.8187284, 14.8615083], [120.8188147, 14.8616528], [120.8189678, 14.8618611], [120.8190928, 14.8620494], [120.8192186, 14.8623152], [120.8193621, 14.862671], [120.8194761, 14.8629854], [120.8195471, 14.8632161], [120.8195693, 14.8632835], [120.819582, 14.8633464], [120.819629, 14.8636477], [120.8196404, 14.8637113], [120.8196437, 14.863769], [120.819657, 14.8640626], [120.8196598, 14.8641254], [120.8196739, 14.8642654], [120.81969, 14.8643497], [120.8197195, 14.8644158], [120.8197511, 14.8644644], [120.8200675, 14.8647955], [120.8204016, 14.8650261], [120.8205297, 14.8651112], [120.8210011, 14.8654957], [120.8210711, 14.865635], [120.8210881, 14.8657356], [120.8210857, 14.8658428], [120.8210563, 14.8659534], [120.8209799, 14.8662027], [120.8209018, 14.8664887], [120.8209013, 14.866601], [120.8209224, 14.8667173], [120.8209739, 14.8668706], [120.8210381, 14.8670586], [120.8210835, 14.8671853], [120.8211636, 14.8674582], [120.8211914, 14.8676822], [120.82119, 14.8678637], [120.8211788, 14.8680171], [120.8211688, 14.8681865], [120.8211331, 14.8687925], [120.8211357, 14.8689722], [120.82119, 14.8692351], [120.8212979, 14.8694762], [120.821492, 14.8697864], [120.8216622, 14.8700413], [120.8217319, 14.8701995], [120.8217507, 14.8702876], [120.8217376, 14.8704879], [120.8217306, 14.8706525], [120.8216974, 14.8709526], [120.821682, 14.8710951], [120.8216541, 14.8713543], [120.8216366, 14.8716114], [120.8216429, 14.8718174], [120.8216658, 14.8721577], [120.8216736, 14.8722556], [120.8217372, 14.8727898], [120.8218118, 14.8733761], [120.8218322, 14.8735687], [120.821863, 14.8738336], [120.8218998, 14.8740276], [120.8219635, 14.8741558], [120.8220494, 14.8742466], [120.8221328, 14.8743138], [120.8224732, 14.8744704], [120.8225655, 14.8745054], [120.8228286, 14.8746039], [120.8232222, 14.8747225], [120.8233357, 14.8747567], [120.8234105, 14.8747792], [120.8240466, 14.8749674], [120.8245586, 14.8750826], [120.8253338, 14.8753218], [120.8256881, 14.8754599], [120.8260515, 14.8756059], [120.8264561, 14.8758256], [120.8267958, 14.8760413], [120.8271566, 14.8763187], [120.828362, 14.8772495], [120.8301276, 14.8786452], [120.8308114, 14.8791274], [120.8310893, 14.8793351], [120.8313026, 14.879483], [120.8318329, 14.879869], [120.831903, 14.8799166], [120.8332834, 14.8804559], [120.8340679, 14.8807324], [120.834228, 14.8807881], [120.8348178, 14.8810357]]}, "properties": {"city": "malolos", "name": "Mabini Street", "highway": "secondary", "v_posted": 60, "posted_imputed": false, "v_safe": 50, "gap": 10, "R": 2.07, "exposure": 0.316, "vru_150m": 1, "sss": 16.5, "recommended": 50, "fatal_reduction_pct": 51.8, "why": "undivided arterial, side-impact intersections", "pop_density": 4707.0, "pop_density_peak": 7043.5, "v_design": 45, "design_gap": -5}}, {"type": "Feature", "geometry": {"type": "LineString", "coordinates": [[120.8369765, 14.8821326], [120.8372883, 14.8822861]]}, "properties": {"city": "malolos", "name": "Governor Padilla Street", "highway": "secondary", "v_posted": 60, "posted_imputed": false, "v_safe": 50, "gap": 10, "R": 2.07, "exposure": 0.17, "vru_150m": 0, "sss": 14.6, "recommended": 50, "fatal_reduction_pct": 51.8, "why": "undivided arterial, side-impact intersections", "pop_density": 5500.5, "pop_density_peak": 5500.5, "v_design": 50, "design_gap": 0}}, {"type": "Feature", "geometry": {"type": "LineString", "coordinates": [[120.8375548, 14.8824174], [120.8379119, 14.8826208], [120.8382368, 14.882835], [120.8382635, 14.8828487], [120.8388637, 14.8831574], [120.839112, 14.8832971], [120.8395402, 14.88352], [120.8396039, 14.8835532], [120.8410169, 14.8842966], [120.8410846, 14.8843303], [120.8413819, 14.8844928], [120.8421374, 14.8849056], [120.842477, 14.8850682], [120.8426199, 14.8851288], [120.8427496, 14.8851788], [120.842856, 14.8851989], [120.8430652, 14.8852384], [120.8436613, 14.8853463], [120.8449172, 14.8855716], [120.8456585, 14.8856378], [120.8464096, 14.885688], [120.8471945, 14.8856952]]}, "properties": {"city": "malolos", "name": "Governor Padilla Street", "highway": "secondary", "v_posted": 60, "posted_imputed": false, "v_safe": 50, "gap": 10, "R": 2.07, "exposure": 0.24, "vru_150m": 0, "sss": 15.5, "recommended": 50, "fatal_reduction_pct": 51.8, "why": "undivided arterial, side-impact intersections", "pop_density": 7755.9, "pop_density_peak": 15096.2, "v_design": 50, "design_gap": 0}}, {"type": "Feature", "geometry": {"type": "LineString", "coordinates": [[120.8538107, 14.8848588], [120.8539438, 14.8848864]]}, "properties": {"city": "malolos", "name": "Governor Padilla Street", "highway": "secondary", "v_posted": 60, "posted_imputed": false, "v_safe": 50, "gap": 10, "R": 2.07, "exposure": 0.317, "vru_150m": 0, "sss": 16.5, "recommended": 50, "fatal_reduction_pct": 51.8, "why": "undivided arterial, side-impact intersections", "pop_density": 10265.0, "pop_density_peak": 10265.0, "v_design": 50, "design_gap": 0}}, {"type": "Feature", "geometry": {"type": "LineString", "coordinates": [[120.8480095, 14.8855233], [120.8492447, 14.8849846], [120.8503511, 14.884505], [120.8507655, 14.8844162], [120.8511891, 14.8844207]]}, "properties": {"city": "malolos", "name": "Governor Padilla Street", "highway": "secondary", "v_posted": 60, "posted_imputed": false, "v_safe": 50, "gap": 10, "R": 2.07, "exposure": 0.343, "vru_150m": 1, "sss": 16.8, "recommended": 50, "fatal_reduction_pct": 51.8, "why": "undivided arterial, side-impact intersections", "pop_density": 5762.8, "pop_density_peak": 6023.2, "v_design": 50, "design_gap": 0}}, {"type": "Feature", "geometry": {"type": "LineString", "coordinates": [[120.8471945, 14.8856952], [120.8474421, 14.8856689], [120.8475991, 14.8856417], [120.8476269, 14.8856341], [120.8478442, 14.8855744], [120.8480095, 14.8855233]]}, "properties": {"city": "malolos", "name": "Governor Padilla Street", "highway": "secondary", "v_posted": 60, "posted_imputed": false, "v_safe": 50, "gap": 10, "R": 2.07, "exposure": 0.149, "vru_150m": 0, "sss": 14.4, "recommended": 50, "fatal_reduction_pct": 51.8, "why": "undivided arterial, side-impact intersections", "pop_density": 4805.3, "pop_density_peak": 5307.8, "v_design": 50, "design_gap": 0}}, {"type": "Feature", "geometry": {"type": "LineString", "coordinates": [[120.8511891, 14.8844207], [120.8515843, 14.8844436], [120.8519483, 14.884503], [120.8522527, 14.8845608], [120.8526269, 14.8846384], [120.8526523, 14.8846437], [120.8530396, 14.8847156], [120.8537105, 14.8848402], [120.8537434, 14.8848462], [120.853799, 14.8848564]]}, "properties": {"city": "malolos", "name": "Governor Padilla Street", "highway": "secondary", "v_posted": 60, "posted_imputed": false, "v_safe": 50, "gap": 10, "R": 2.07, "exposure": 0.247, "vru_150m": 0, "sss": 15.6, "recommended": 50, "fatal_reduction_pct": 51.8, "why": "undivided arterial, side-impact intersections", "pop_density": 7977.4, "pop_density_peak": 10265.0, "v_design": 50, "design_gap": 0}}, {"type": "Feature", "geometry": {"type": "LineString", "coordinates": [[120.8372883, 14.8822861], [120.8375548, 14.8824174]]}, "properties": {"city": "malolos", "name": "Governor Padilla Street", "highway": "secondary", "v_posted": 60, "posted_imputed": false, "v_safe": 50, "gap": 10, "R": 2.07, "exposure": 0.17, "vru_150m": 0, "sss": 14.6, "recommended": 50, "fatal_reduction_pct": 51.8, "why": "undivided arterial, side-impact intersections", "pop_density": 5500.5, "pop_density_peak": 5500.5, "v_design": 50, "design_gap": 0}}, {"type": "Feature", "geometry": {"type": "LineString", "coordinates": [[120.853799, 14.8848564], [120.8538107, 14.8848588]]}, "properties": {"city": "malolos", "name": "Governor Padilla Street", "highway": "secondary", "v_posted": 60, "posted_imputed": false, "v_safe": 50, "gap": 10, "R": 2.07, "exposure": 0.317, "vru_150m": 0, "sss": 16.5, "recommended": 50, "fatal_reduction_pct": 51.8, "why": "undivided arterial, side-impact intersections", "pop_density": 10265.0, "pop_density_peak": 10265.0, "v_design": 50, "design_gap": 0}}, {"type": "Feature", "geometry": {"type": "LineString", "coordinates": [[120.8348178, 14.8810357], [120.8351489, 14.8812049], [120.8355247, 14.8813969], [120.8360151, 14.8816461], [120.8362399, 14.8817613], [120.8366922, 14.8819876], [120.8369765, 14.8821326]]}, "properties": {"city": "malolos", "name": "Mabini Street", "highway": "secondary", "v_posted": 60, "posted_imputed": false, "v_safe": 50, "gap": 10, "R": 2.07, "exposure": 0.136, "vru_150m": 0, "sss": 14.2, "recommended": 50, "fatal_reduction_pct": 51.8, "why": "undivided arterial, side-impact intersections", "pop_density": 4406.8, "pop_density_peak": 5500.5, "v_design": 50, "design_gap": 0}}]}