{"type": "FeatureCollection", "features": [{"type": "Feature", "geometry": {"type": "LineString", "coordinates": [[121.0730709, 13.7242456], [121.0738092, 13.724112], [121.0741793, 13.7240404], [121.074543, 13.7239552], [121.0747044, 13.7239115], [121.0748284, 13.7238677], [121.0748908, 13.7238274], [121.0749582, 13.7237499], [121.0749818, 13.7236751], [121.0750848, 13.7231673], [121.0751611, 13.7228514], [121.0751724, 13.7226972], [121.0751779, 13.7225417], [121.0751095, 13.722359], [121.0749618, 13.7222067], [121.0748573, 13.7221291], [121.074741, 13.7220751], [121.0743655, 13.7219457], [121.0735018, 13.7216946], [121.0733371, 13.7216412]]}, "properties": {"city": "batangas", "name": "Batangas-Tabangao-Lobo Road", "highway": "primary", "v_posted": 40, "posted_imputed": false, "v_safe": 30, "gap": 10, "R": 3.16, "exposure": 0.301, "vru_150m": 1, "sss": 16.3, "recommended": 30, "fatal_reduction_pct": 68.4, "why": "pedestrian activity (1 VRU site<=50m)", "pop_density": 4068.7, "pop_density_peak": 7551.7, "v_design": 45, "design_gap": 15}}, {"type": "Feature", "geometry": {"type": "LineString", "coordinates": [[121.0539597, 13.7003125], [121.0538831, 13.700253], [121.053817, 13.7001594], [121.053726, 13.6999727]]}, "properties": {"city": "batangas", "name": "Batangas-Tabangao-Lobo Road", "highway": "primary", "v_posted": 60, "posted_imputed": false, "v_safe": 50, "gap": 10, "R": 2.07, "exposure": 0.0, "vru_150m": 0, "sss": 12.5, "recommended": 50, "fatal_reduction_pct": 51.8, "why": "undivided arterial, side-impact intersections", "pop_density": 0.0, "pop_density_peak": 0.0, "v_design": 60, "design_gap": 10}}, {"type": "Feature", "geometry": {"type": "LineString", "coordinates": [[121.0542586, 13.7005376], [121.0542078, 13.7004832], [121.0541325, 13.7004263], [121.0539597, 13.7003125]]}, "properties": {"city": "batangas", "name": "Batangas-Tabangao-Lobo Road", "highway": "primary", "v_posted": 60, "posted_imputed": false, "v_safe": 50, "gap": 10, "R": 2.07, "exposure": 0.0, "vru_150m": 0, "sss": 12.5, "recommended": 50, "fatal_reduction_pct": 51.8, "why": "undivided arterial, side-impact intersections", "pop_density": 0.0, "pop_density_peak": 0.0, "v_design": 60, "design_gap": 10}}, {"type": "Feature", "geometry": {"type": "LineString", "coordinates": [[121.055038, 13.7013663], [121.0548916, 13.7011963], [121.0548162, 13.7010989], [121.0547414, 13.7010276], [121.0545603, 13.7008615], [121.0544819, 13.7007846], [121.0544094, 13.7007064], [121.0542586, 13.7005376]]}, "properties": {"city": "batangas", "name": "Batangas-Tabangao-Lobo Road", "highway": "primary", "v_posted": 60, "posted_imputed": false, "v_safe": 50, "gap": 10, "R": 2.07, "exposure": 0.0, "vru_150m": 0, "sss": 12.5, "recommended": 50, "fatal_reduction_pct": 51.8, "why": "undivided arterial, side-impact intersections", "pop_density": 0.0, "pop_density_peak": 0.0, "v_design": 60, "design_gap": 10}}, {"type": "Feature", "geometry": {"type": "LineString", "coordinates": [[121.0567206, 13.7024863], [121.0563674, 13.7027455], [121.0562863, 13.7027683], [121.0562219, 13.7027611], [121.0561529, 13.7027286], [121.0560877, 13.7026913], [121.0559494, 13.7025406], [121.0558894, 13.7024439], [121.0558632, 13.7023352], [121.0558167, 13.7018475], [121.0558129, 13.7018165], [121.0558086, 13.7017911], [121.0558018, 13.7017651], [121.055791, 13.7017399], [121.0557727, 13.7017175], [121.0557505, 13.7016999], [121.05572, 13.7016833], [121.0556894, 13.7016729], [121.0554822, 13.7016249], [121.055426, 13.7016068], [121.0553657, 13.7015872], [121.0553118, 13.7015651], [121.0552599, 13.7015412], [121.0552094, 13.701513], [121.0551544, 13.7014752], [121.0550974, 13.701427], [121.055038, 13.7013663]]}, "properties": {"city": "batangas", "name": "Batangas-Tabangao-Lobo Road", "highway": "primary", "v_posted": 60, "posted_imputed": false, "v_safe": 50, "gap": 10, "R": 2.07, "exposure": 0.0, "vru_150m": 0, "sss": 12.5, "recommended": 50, "fatal_reduction_pct": 51.8, "why": "undivided arterial, side-impact intersections", "pop_density": 0.0, "pop_density_peak": 0.0, "v_design": 45, "design_gap": -5}}, {"type": "Feature", "geometry": {"type": "LineString", "coordinates": [[121.0735588, 13.7192447], [121.0734303, 13.7192086], [121.0732629, 13.7191682], [121.0731225, 13.7191292]]}, "properties": {"city": "batangas", "name": "Batangas-Tabangao-Lobo Road", "highway": "primary", "v_posted": 40, "posted_imputed": false, "v_safe": 30, "gap": 10, "R": 3.16, "exposure": 0.526, "vru_150m": 2, "sss": 19.1, "recommended": 30, "fatal_reduction_pct": 68.4, "why": "pedestrian activity (1 VRU site<=50m)", "pop_density": 6795.7, "pop_density_peak": 6919.6, "v_design": 60, "design_gap": 30}}, {"type": "Feature", "geometry": {"type": "LineString", "coordinates": [[121.0552478, 13.7654171], [121.0553289, 13.765302], [121.055493, 13.7650787], [121.0556799, 13.7648557], [121.0560325, 13.764385], [121.0561198, 13.7642887], [121.0561654, 13.764233], [121.0562672, 13.7641169], [121.0563606, 13.7640151], [121.0564319, 13.7639373], [121.0565608, 13.7637967], [121.0566347, 13.763722], [121.0566922, 13.7636493], [121.056726, 13.7636122], [121.0567627, 13.7635556], [121.0568057, 13.7634886], [121.0568459, 13.7633677], [121.0568792, 13.7632551], [121.0569267, 13.7630711]]}, "properties": {"city": "batangas", "name": "National Highway 436", "highway": "primary", "v_posted": 40, "posted_imputed": false, "v_safe": 30, "gap": 10, "R": 3.16, "exposure": 0.863, "vru_150m": 4, "sss": 23.3, "recommended": 30, "fatal_reduction_pct": 68.4, "why": "pedestrian activity (1 VRU site<=50m)", "pop_density": 10163.1, "pop_density_peak": 10807.2, "v_design": 60, "design_gap": 30}}, {"type": "Feature", "geometry": {"type": "LineString", "coordinates": [[121.0570493, 13.7624825], [121.0570569, 13.7624468], [121.0571145, 13.762146]]}, "properties": {"city": "batangas", "name": "National Highway 436", "highway": "primary", "v_posted": 40, "posted_imputed": false, "v_safe": 30, "gap": 10, "R": 3.16, "exposure": 1.0, "vru_150m": 6, "sss": 25.0, "recommended": 30, "fatal_reduction_pct": 68.4, "why": "pedestrian activity (3 VRU site<=50m)", "pop_density": 11006.1, "pop_density_peak": 12333.6, "v_design": 60, "design_gap": 30}}, {"type": "Feature", "geometry": {"type": "LineString", "coordinates": [[121.0298205, 13.7827562], [121.030341, 13.7825577], [121.0305192, 13.782486], [121.0307061, 13.7824092], [121.0310576, 13.7822878], [121.0315214, 13.782121], [121.0324126, 13.7818268], [121.0324401, 13.7818176], [121.033027, 13.7816165], [121.0335867, 13.781425], [121.0336933, 13.7813866], [121.033967, 13.7812959], [121.0340749, 13.7812595], [121.0343523, 13.7811683], [121.0347147, 13.7810427], [121.0347893, 13.7810134], [121.0349474, 13.7809633], [121.035382, 13.7807957], [121.0354541, 13.7807679], [121.035526, 13.7807367], [121.0355984, 13.7807087], [121.035642, 13.7806924], [121.0357332, 13.7806533], [121.036083, 13.7804951], [121.0367927, 13.7802128], [121.0371502, 13.7800706], [121.0374017, 13.779972], [121.037602, 13.7798801], [121.0379764, 13.7796943], [121.0382401, 13.7795659], [121.0386392, 13.7793707], [121.0387894, 13.7792971], [121.0388949, 13.7792424], [121.0394393, 13.7789652], [121.0397154, 13.7788157], [121.0399717, 13.7786763], [121.0400885, 13.7786125], [121.0403462, 13.7784819], [121.0404934, 13.7783962], [121.0408713, 13.7781868], [121.0409934, 13.778123], [121.0411339, 13.7780478], [121.0411652, 13.7780334], [121.0414613, 13.7778594], [121.0417783, 13.7776662], [121.042013, 13.7775224], [121.0423738, 13.7773061], [121.0426099, 13.7771613], [121.0426544, 13.7771349], [121.042908, 13.7769557], [121.043085, 13.7768345], [121.0434334, 13.7765686], [121.0437672, 13.7763214], [121.0439625, 13.7761722], [121.0441738, 13.7760202], [121.0442215, 13.7759821], [121.0443936, 13.7758572], [121.0444778, 13.7757972], [121.0447308, 13.7756256], [121.0448494, 13.775546], [121.0451412, 13.775343], [121.0452333, 13.775283], [121.0455527, 13.7750617], [121.0461242, 13.7746628], [121.0466192, 13.7743217], [121.0470391, 13.7740225], [121.0471109, 13.7739241], [121.0473185, 13.7738028], [121.0476448, 13.7735728], [121.0478554, 13.7734312], [121.0482941, 13.7731522], [121.0485271, 13.7729974], [121.0488893, 13.7726996], [121.0491396, 13.7724847], [121.0492199, 13.7724101], [121.0494965, 13.7722513], [121.0497571, 13.7720284], [121.0499177, 13.7719001], [121.0505128, 13.7714426], [121.0506827, 13.7713069]]}, "properties": {"city": "batangas", "name": "National Highway 436", "highway": "primary", "v_posted": 40, "posted_imputed": false, "v_safe": 30, "gap": 10, "R": 3.16, "exposure": 0.753, "vru_150m": 3, "sss": 21.9, "recommended": 30, "fatal_reduction_pct": 68.4, "why": "pedestrian activity (2 VRU site<=50m)", "pop_density": 12336.7, "pop_density_peak": 16849.0, "v_design": 60, "design_gap": 30}}, {"type": "Feature", "geometry": {"type": "LineString", "coordinates": [[121.0572507, 13.7562299], [121.0569724, 13.7562026], [121.0566322, 13.7561641]]}, "properties": {"city": "batangas", "name": "Rizal Avenue", "highway": "secondary", "v_posted": 40, "posted_imputed": false, "v_safe": 30, "gap": 10, "R": 3.16, "exposure": 1.0, "vru_150m": 7, "sss": 25.0, "recommended": 30, "fatal_reduction_pct": 68.4, "why": "pedestrian activity (1 VRU site<=50m)", "pop_density": 6249.7, "pop_density_peak": 7025.5, "v_design": 50, "design_gap": 20}}, {"type": "Feature", "geometry": {"type": "LineString", "coordinates": [[121.0583575, 13.7563791], [121.0582921, 13.7563735], [121.0581573, 13.756357], [121.0575403, 13.7562722], [121.0573337, 13.7562426], [121.0572507, 13.7562299]]}, "properties": {"city": "batangas", "name": "Rizal Avenue", "highway": "secondary", "v_posted": 40, "posted_imputed": false, "v_safe": 30, "gap": 10, "R": 3.16, "exposure": 1.0, "vru_150m": 7, "sss": 25.0, "recommended": 30, "fatal_reduction_pct": 68.4, "why": "pedestrian activity (1 VRU site<=50m)", "pop_density": 5727.1, "pop_density_peak": 5980.3, "v_design": 50, "design_gap": 20}}, {"type": "Feature", "geometry": {"type": "LineString", "coordinates": [[121.0580687, 13.757688], [121.0580913, 13.7575619], [121.0581379, 13.7573398], [121.058159, 13.7572388], [121.0581811, 13.7571263], [121.0582187, 13.7569551]]}, "properties": {"city": "batangas", "name": "P. Burgos Street", "highway": "secondary", "v_posted": 40, "posted_imputed": false, "v_safe": 30, "gap": 10, "R": 3.16, "exposure": 1.0, "vru_150m": 11, "sss": 25.0, "recommended": 30, "fatal_reduction_pct": 68.4, "why": "pedestrian activity (1 VRU site<=50m)", "pop_density": 14842.3, "pop_density_peak": 17796.6, "v_design": 50, "design_gap": 20}}, {"type": "Feature", "geometry": {"type": "LineString", "coordinates": [[121.056004, 13.7560689], [121.0559377, 13.7560548], [121.0558267, 13.7560344], [121.0554081, 13.7559567], [121.0552282, 13.7559241], [121.0549975, 13.7558817], [121.0548371, 13.755852]]}, "properties": {"city": "batangas", "name": "Rizal Avenue", "highway": "secondary", "v_posted": 40, "posted_imputed": false, "v_safe": 30, "gap": 10, "R": 3.16, "exposure": 1.0, "vru_150m": 7, "sss": 25.0, "recommended": 30, "fatal_reduction_pct": 68.4, "why": "pedestrian activity (1 VRU site<=50m)", "pop_density": 7552.2, "pop_density_peak": 8597.0, "v_design": 50, "design_gap": 20}}, {"type": "Feature", "geometry": {"type": "LineString", "coordinates": [[121.0539673, 13.7556808], [121.0536967, 13.7556265], [121.0532922, 13.7555524], [121.0528303, 13.7554661], [121.0527912, 13.7554594], [121.0527397, 13.7554401], [121.0526325, 13.7553839]]}, "properties": {"city": "batangas", "name": "Rizal Avenue", "highway": "secondary", "v_posted": 40, "posted_imputed": false, "v_safe": 30, "gap": 10, "R": 3.16, "exposure": 0.569, "vru_150m": 2, "sss": 19.6, "recommended": 30, "fatal_reduction_pct": 68.4, "why": "pedestrian activity (1 VRU site<=50m)", "pop_density": 9099.6, "pop_density_peak": 11659.3, "v_design": 50, "design_gap": 20}}, {"type": "Feature", "geometry": {"type": "LineString", "coordinates": [[121.0548473, 13.7557877], [121.0550064, 13.7558165], [121.0552047, 13.7558521], [121.0553432, 13.7558769], [121.0553954, 13.755886], [121.0554169, 13.7558894], [121.0558372, 13.7559655], [121.0559347, 13.7560037], [121.056004, 13.7560689]]}, "properties": {"city": "batangas", "name": "Rizal Avenue", "highway": "secondary", "v_posted": 40, "posted_imputed": false, "v_safe": 30, "gap": 10, "R": 3.16, "exposure": 1.0, "vru_150m": 7, "sss": 25.0, "recommended": 30, "fatal_reduction_pct": 68.4, "why": "pedestrian activity (1 VRU site<=50m)", "pop_density": 7012.9, "pop_density_peak": 7518.3, "v_design": 50, "design_gap": 20}}, {"type": "Feature", "geometry": {"type": "LineString", "coordinates": [[121.0569267, 13.7630711], [121.0569621, 13.7628808]]}, "properties": {"city": "batangas", "name": "National Highway 436", "highway": "primary", "v_posted": 40, "posted_imputed": false, "v_safe": 30, "gap": 10, "R": 3.16, "exposure": 1.0, "vru_150m": 6, "sss": 25.0, "recommended": 30, "fatal_reduction_pct": 68.4, "why": "pedestrian activity (3 VRU site<=50m)", "pop_density": 11570.4, "pop_density_peak": 12333.7, "v_design": 60, "design_gap": 30}}, {"type": "Feature", "geometry": {"type": "LineString", "coordinates": [[121.0579049, 13.7584022], [121.0579831, 13.7580612], [121.0580453, 13.75779], [121.0580687, 13.757688]]}, "properties": {"city": "batangas", "name": "P. Burgos Street", "highway": "secondary", "v_posted": 40, "posted_imputed": false, "v_safe": 30, "gap": 10, "R": 3.16, "exposure": 1.0, "vru_150m": 10, "sss": 25.0, "recommended": 30, "fatal_reduction_pct": 68.4, "why": "pedestrian activity (2 VRU site<=50m)", "pop_density": 21464.6, "pop_density_peak": 25132.6, "v_design": 50, "design_gap": 20}}, {"type": "Feature", "geometry": {"type": "LineString", "coordinates": [[121.0577384, 13.7592537], [121.0577643, 13.759141], [121.0578043, 13.7589445], [121.0578919, 13.7584742], [121.0579049, 13.7584022]]}, "properties": {"city": "batangas", "name": "P. Burgos Street", "highway": "secondary", "v_posted": 40, "posted_imputed": false, "v_safe": 30, "gap": 10, "R": 3.16, "exposure": 1.0, "vru_150m": 10, "sss": 25.0, "recommended": 30, "fatal_reduction_pct": 68.4, "why": "pedestrian activity (1 VRU site<=50m)", "pop_density": 52826.1, "pop_density_peak": 80519.6, "v_design": 50, "design_gap": 20}}, {"type": "Feature", "geometry": {"type": "LineString", "coordinates": [[121.0575129, 13.7602443], [121.0575224, 13.7602024], [121.0575336, 13.7601535], [121.0575707, 13.7599906], [121.0576115, 13.7598112], [121.0576352, 13.7597069], [121.0577041, 13.7594046], [121.0577169, 13.7593483], [121.0577384, 13.7592537]]}, "properties": {"city": "batangas", "name": "P. Burgos Street", "highway": "secondary", "v_posted": 40, "posted_imputed": false, "v_safe": 30, "gap": 10, "R": 3.16, "exposure": 1.0, "vru_150m": 7, "sss": 25.0, "recommended": 30, "fatal_reduction_pct": 68.4, "why": "pedestrian activity (1 VRU site<=50m)", "pop_density": 78785.7, "pop_density_peak": 80519.6, "v_design": 50, "design_gap": 20}}, {"type": "Feature", "geometry": {"type": "LineString", "coordinates": [[121.0566322, 13.7561641], [121.0565692, 13.7561581], [121.0563594, 13.7561247], [121.0561024, 13.7560852], [121.056004, 13.7560689]]}, "properties": {"city": "batangas", "name": "Rizal Avenue", "highway": "secondary", "v_posted": 40, "posted_imputed": false, "v_safe": 30, "gap": 10, "R": 3.16, "exposure": 1.0, "vru_150m": 8, "sss": 25.0, "recommended": 30, "fatal_reduction_pct": 68.4, "why": "pedestrian activity (3 VRU site<=50m)", "pop_density": 6766.5, "pop_density_peak": 7025.5, "v_design": 50, "design_gap": 20}}, {"type": "Feature", "geometry": {"type": "LineString", "coordinates": [[121.0526325, 13.7553839], [121.0527526, 13.755391], [121.0528048, 13.7553982], [121.0528366, 13.7554048], [121.0530819, 13.7554493], [121.0535768, 13.7555405], [121.0536195, 13.7555484], [121.0537103, 13.7555662], [121.0539847, 13.7556156]]}, "properties": {"city": "batangas", "name": "Rizal Avenue", "highway": "secondary", "v_posted": 40, "posted_imputed": false, "v_safe": 30, "gap": 10, "R": 3.16, "exposure": 0.569, "vru_150m": 2, "sss": 19.6, "recommended": 30, "fatal_reduction_pct": 68.4, "why": "pedestrian activity (1 VRU site<=50m)", "pop_density": 9099.6, "pop_density_peak": 11659.3, "v_design": 50, "design_gap": 20}}, {"type": "Feature", "geometry": {"type": "LineString", "coordinates": [[121.0702886, 13.7529483], [121.0702867, 13.7527099], [121.070283, 13.7525795], [121.0702625, 13.7524703], [121.0702258, 13.7523742], [121.0701772, 13.7522977], [121.0700855, 13.7521698], [121.0699038, 13.7519304], [121.0696132, 13.7515438], [121.0694185, 13.7513467], [121.0692635, 13.7512163], [121.0691483, 13.7511354], [121.0688809, 13.7509641], [121.0687719, 13.7508767], [121.0686684, 13.750754], [121.0685678, 13.7505981]]}, "properties": {"city": "batangas", "name": "National Highway 439", "highway": "primary", "v_posted": 40, "posted_imputed": false, "v_safe": 30, "gap": 10, "R": 3.16, "exposure": 0.302, "vru_150m": 1, "sss": 16.3, "recommended": 30, "fatal_reduction_pct": 68.4, "why": "pedestrian activity (1 VRU site<=50m)", "pop_density": 4115.5, "pop_density_peak": 6634.1, "v_design": 60, "design_gap": 30}}, {"type": "Feature", "geometry": {"type": "LineString", "coordinates": [[121.068457, 13.7504152], [121.0684213, 13.7503582], [121.0683676, 13.7502676], [121.0682705, 13.7500936], [121.0681466, 13.7498597], [121.0679688, 13.7495352], [121.0677466, 13.7490993], [121.0677023, 13.7489916]]}, "properties": {"city": "batangas", "name": "National Highway 439", "highway": "primary", "v_posted": 40, "posted_imputed": false, "v_safe": 30, "gap": 10, "R": 3.16, "exposure": 0.723, "vru_150m": 3, "sss": 21.5, "recommended": 30, "fatal_reduction_pct": 68.4, "why": "pedestrian activity (1 VRU site<=50m)", "pop_density": 9931.8, "pop_density_peak": 11580.7, "v_design": 60, "design_gap": 30}}, {"type": "Feature", "geometry": {"type": "LineString", "coordinates": [[121.0572011, 13.7616945], [121.057259, 13.7614263], [121.0573055, 13.7612126], [121.0573165, 13.7611634], [121.0574128, 13.7607322]]}, "properties": {"city": "batangas", "name": "P. Burgos Street", "highway": "secondary", "v_posted": 40, "posted_imputed": false, "v_safe": 30, "gap": 10, "R": 3.16, "exposure": 1.0, "vru_150m": 4, "sss": 25.0, "recommended": 30, "fatal_reduction_pct": 68.4, "why": "pedestrian activity (1 VRU site<=50m)", "pop_density": 43365.2, "pop_density_peak": 77052.0, "v_design": 50, "design_gap": 20}}, {"type": "Feature", "geometry": {"type": "LineString", "coordinates": [[121.0684841, 13.7471969], [121.068528, 13.7471495], [121.0689038, 13.7467526], [121.0691914, 13.7464351], [121.0697088, 13.7458876], [121.0698447, 13.7457274], [121.0699315, 13.7454582], [121.070011, 13.7451351]]}, "properties": {"city": "batangas", "name": "National Highway 439", "highway": "primary", "v_posted": 40, "posted_imputed": false, "v_safe": 30, "gap": 10, "R": 3.16, "exposure": 0.655, "vru_150m": 2, "sss": 20.7, "recommended": 30, "fatal_reduction_pct": 68.4, "why": "pedestrian activity (1 VRU site<=50m)", "pop_density": 13761.8, "pop_density_peak": 18671.7, "v_design": 60, "design_gap": 30}}, {"type": "Feature", "geometry": {"type": "LineString", "coordinates": [[121.057475, 13.7604362], [121.0575129, 13.7602443]]}, "properties": {"city": "batangas", "name": "P. Burgos Street", "highway": "secondary", "v_posted": 40, "posted_imputed": false, "v_safe": 30, "gap": 10, "R": 3.16, "exposure": 1.0, "vru_150m": 6, "sss": 25.0, "recommended": 30, "fatal_reduction_pct": 68.4, "why": "pedestrian activity (1 VRU site<=50m)", "pop_density": 77051.9, "pop_density_peak": 77051.9, "v_design": 50, "design_gap": 20}}, {"type": "Feature", "geometry": {"type": "LineString", "coordinates": [[121.0570156, 13.7626462], [121.0570493, 13.7624825]]}, "properties": {"city": "batangas", "name": "National Highway 436", "highway": "primary", "v_posted": 40, "posted_imputed": false, "v_safe": 30, "gap": 10, "R": 3.16, "exposure": 1.0, "vru_150m": 6, "sss": 25.0, "recommended": 30, "fatal_reduction_pct": 68.4, "why": "pedestrian activity (3 VRU site<=50m)", "pop_density": 12333.6, "pop_density_peak": 12333.6, "v_design": 60, "design_gap": 30}}, {"type": "Feature", "geometry": {"type": "LineString", "coordinates": [[121.0508569, 13.7711596], [121.0509951, 13.7710476], [121.0511865, 13.770878], [121.0513941, 13.7707014], [121.0515959, 13.7705157]]}, "properties": {"city": "batangas", "name": "National Highway 436", "highway": "primary", "v_posted": 40, "posted_imputed": false, "v_safe": 30, "gap": 10, "R": 3.16, "exposure": 0.89, "vru_150m": 4, "sss": 23.6, "recommended": 30, "fatal_reduction_pct": 68.4, "why": "pedestrian activity (1 VRU site<=50m)", "pop_density": 14626.4, "pop_density_peak": 16849.0, "v_design": 60, "design_gap": 30}}, {"type": "Feature", "geometry": {"type": "LineString", "coordinates": [[121.0569621, 13.7628808], [121.056999, 13.76272], [121.0570156, 13.7626462]]}, "properties": {"city": "batangas", "name": "National Highway 436", "highway": "primary", "v_posted": 40, "posted_imputed": false, "v_safe": 30, "gap": 10, "R": 3.16, "exposure": 1.0, "vru_150m": 6, "sss": 25.0, "recommended": 30, "fatal_reduction_pct": 68.4, "why": "pedestrian activity (3 VRU site<=50m)", "pop_density": 12333.6, "pop_density_peak": 12333.7, "v_design": 60, "design_gap": 30}}, {"type": "Feature", "geometry": {"type": "LineString", "coordinates": [[121.029546, 13.7828715], [121.0292601, 13.7830239], [121.0289113, 13.7832424], [121.0288419, 13.7832823], [121.0277466, 13.7839388], [121.0274959, 13.7840831], [121.0271017, 13.7843116], [121.0264293, 13.7846983], [121.0260724, 13.7849137], [121.0255169, 13.7852413], [121.0254478, 13.7852864], [121.0253793, 13.7853234], [121.0244049, 13.785897], [121.0238087, 13.7862399], [121.0227561, 13.786867], [121.0220071, 13.7873005], [121.0217115, 13.7874922], [121.0214389, 13.7876398], [121.0210527, 13.7878583], [121.0209501, 13.7879042], [121.0208116, 13.7879723]]}, "properties": {"city": "batangas", "name": "National Highway 436", "highway": "primary", "v_posted": 40, "posted_imputed": false, "v_safe": 30, "gap": 10, "R": 3.16, "exposure": 1.0, "vru_150m": 6, "sss": 25.0, "recommended": 30, "fatal_reduction_pct": 68.4, "why": "pedestrian activity (3 VRU site<=50m)", "pop_density": 9404.2, "pop_density_peak": 14128.8, "v_design": 60, "design_gap": 30}}, {"type": "Feature", "geometry": {"type": "LineString", "coordinates": [[121.0123503, 13.7902177], [121.0109898, 13.7905383], [121.0107157, 13.7905967], [121.0101903, 13.7907087]]}, "properties": {"city": "batangas", "name": "Kapitan Ponso Street", "highway": "primary", "v_posted": 40, "posted_imputed": false, "v_safe": 30, "gap": 10, "R": 3.16, "exposure": 0.758, "vru_150m": 3, "sss": 22.0, "recommended": 30, "fatal_reduction_pct": 68.4, "why": "pedestrian activity (1 VRU site<=50m)", "pop_density": 12788.9, "pop_density_peak": 17570.9, "v_design": 60, "design_gap": 30}}]}