{"type": "FeatureCollection", "features": [{"type": "Feature", "geometry": {"type": "LineString", "coordinates": [[120.6482469, 15.005253], [120.6483407, 15.0053235]]}, "properties": {"city": "sanfernando-pampanga", "name": "Jose Abad Santos Avenue", "highway": "trunk", "v_posted": 80, "posted_imputed": false, "v_safe": 70, "gap": 10, "R": 1.71, "exposure": 0.457, "vru_150m": 2, "sss": 18.2, "recommended": 70, "fatal_reduction_pct": 41.4, "why": "trunk highway (head-on only; no at-grade ped mixing assumed)", "pop_density": 3072.8, "pop_density_peak": 3103.1}}, {"type": "Feature", "geometry": {"type": "LineString", "coordinates": [[120.6527513, 15.0086917], [120.6516369, 15.0078457], [120.6502626, 15.0067948], [120.6501623, 15.0067181], [120.6497071, 15.0063677], [120.6492698, 15.006031], [120.6483407, 15.0053235]]}, "properties": {"city": "sanfernando-pampanga", "name": "Jose Abad Santos Avenue", "highway": "trunk", "v_posted": 80, "posted_imputed": false, "v_safe": 70, "gap": 10, "R": 1.71, "exposure": 0.057, "vru_150m": 0, "sss": 13.2, "recommended": 70, "fatal_reduction_pct": 41.4, "why": "trunk highway (head-on only; no at-grade ped mixing assumed)", "pop_density": 1849.7, "pop_density_peak": 3042.6}}, {"type": "Feature", "geometry": {"type": "LineString", "coordinates": [[120.6397287, 14.99845], [120.6398597, 14.9985466], [120.6406099, 14.9991622], [120.6408412, 14.999352], [120.6413032, 14.9997311], [120.6416196, 15.0000032], [120.6430522, 15.0011706], [120.6432757, 15.0013507], [120.6438577, 15.001829], [120.6442088, 15.0021218], [120.6446461, 15.0024655], [120.6450957, 15.0028347], [120.6452428, 15.0029541], [120.6458665, 15.0034371], [120.6462443, 15.0037278], [120.6463341, 15.0037872], [120.6470065, 15.0043062], [120.6481843, 15.0052024], [120.6482469, 15.005253]]}, "properties": {"city": "sanfernando-pampanga", "name": "Jose Abad Santos Avenue", "highway": "trunk", "v_posted": 80, "posted_imputed": false, "v_safe": 70, "gap": 10, "R": 1.71, "exposure": 0.251, "vru_150m": 1, "sss": 15.6, "recommended": 70, "fatal_reduction_pct": 41.4, "why": "trunk highway (head-on only; no at-grade ped mixing assumed)", "pop_density": 2056.8, "pop_density_peak": 3103.1}}, {"type": "Feature", "geometry": {"type": "LineString", "coordinates": [[120.6552568, 15.010573], [120.6551739, 15.0105119], [120.6544595, 15.0099854], [120.6543193, 15.0098821], [120.6527513, 15.0086917]]}, "properties": {"city": "sanfernando-pampanga", "name": "Jose Abad Santos Avenue", "highway": "trunk", "v_posted": 80, "posted_imputed": false, "v_safe": 70, "gap": 10, "R": 1.71, "exposure": 0.064, "vru_150m": 0, "sss": 13.3, "recommended": 70, "fatal_reduction_pct": 41.4, "why": "trunk highway (head-on only; no at-grade ped mixing assumed)", "pop_density": 2065.3, "pop_density_peak": 3105.6}}, {"type": "Feature", "geometry": {"type": "LineString", "coordinates": [[120.680754, 14.9757644], [120.6810204, 14.9756705], [120.6812364, 14.9755902], [120.6815059, 14.975484], [120.6820156, 14.9752457], [120.6822113, 14.9751238], [120.6823509, 14.9750046], [120.6825064, 14.974844], [120.6826244, 14.9747222], [120.682721, 14.9746704], [120.6828269, 14.97466], [120.6830267, 14.9746885], [120.6832306, 14.9747222], [120.6833487, 14.9747351], [120.6834747, 14.9747196], [120.6835632, 14.9746911], [120.6836946, 14.9745927], [120.6838495, 14.9744249], [120.6839005, 14.9743821], [120.6839756, 14.9743568], [120.6840447, 14.9743471], [120.6841291, 14.9743498], [120.6842572, 14.9743653], [120.6843972, 14.9743911], [120.6850101, 14.9745278], [120.6851616, 14.9745653], [120.6854365, 14.9746379], [120.685636, 14.9747137]]}, "properties": {"city": "sanfernando-pampanga", "name": "Guagua-Minalin Road", "highway": "secondary", "v_posted": 80, "posted_imputed": false, "v_safe": 50, "gap": 30, "R": 6.55, "exposure": 0.092, "vru_150m": 0, "sss": 40.9, "recommended": 50, "fatal_reduction_pct": 84.7, "why": "undivided arterial, side-impact intersections", "pop_density": 2965.4, "pop_density_peak": 5782.5}}, {"type": "Feature", "geometry": {"type": "LineString", "coordinates": [[120.680754, 14.9757644], [120.6806941, 14.9756575], [120.6805245, 14.9753544], [120.6803875, 14.9751225], [120.6799961, 14.9744604], [120.6792774, 14.9732338], [120.6785761, 14.9720367], [120.6781532, 14.9713151], [120.6779186, 14.9709146], [120.6778528, 14.9708368], [120.6777763, 14.9707668], [120.6771564, 14.9703218], [120.6743022, 14.9684419], [120.6734258, 14.9678737], [120.6730465, 14.9676737], [120.6726131, 14.9674786], [120.6721355, 14.9673588], [120.6697509, 14.9669215], [120.669086, 14.9668684], [120.668453, 14.9668943], [120.6679058, 14.966972], [120.6675084, 14.9670721], [120.6660047, 14.9675057], [120.665404, 14.967614], [120.6651632, 14.96761], [120.6649995, 14.967574], [120.6645496, 14.9673471], [120.664169, 14.9670365], [120.6633934, 14.9664483]]}, "properties": {"city": "sanfernando-pampanga", "name": "Guagua-Minalin Road", "highway": "secondary", "v_posted": 80, "posted_imputed": false, "v_safe": 50, "gap": 30, "R": 6.55, "exposure": 0.282, "vru_150m": 0, "sss": 48.1, "recommended": 50, "fatal_reduction_pct": 84.7, "why": "undivided arterial, side-impact intersections", "pop_density": 9114.3, "pop_density_peak": 45378.8}}, {"type": "Feature", "geometry": {"type": "LineString", "coordinates": [[120.685636, 14.9747137], [120.6856965, 14.9747403]]}, "properties": {"city": "sanfernando-pampanga", "name": "Guagua-Minalin Road", "highway": "secondary", "v_posted": 80, "posted_imputed": false, "v_safe": 50, "gap": 30, "R": 6.55, "exposure": 0.048, "vru_150m": 0, "sss": 39.3, "recommended": 50, "fatal_reduction_pct": 84.7, "why": "undivided arterial, side-impact intersections", "pop_density": 1545.6, "pop_density_peak": 1545.6}}, {"type": "Feature", "geometry": {"type": "LineString", "coordinates": [[120.6833514, 14.9799922], [120.682997, 14.9795222], [120.6826397, 14.9790137], [120.6823428, 14.9785349], [120.6818584, 14.977705], [120.6814134, 14.9769427], [120.6810017, 14.9761836], [120.6808854, 14.9759868], [120.680754, 14.9757644]]}, "properties": {"city": "sanfernando-pampanga", "name": "", "highway": "tertiary", "v_posted": 80, "posted_imputed": false, "v_safe": 50, "gap": 30, "R": 6.55, "exposure": 0.046, "vru_150m": 0, "sss": 39.2, "recommended": 50, "fatal_reduction_pct": 84.7, "why": "undivided arterial, side-impact intersections", "pop_density": 1492.8, "pop_density_peak": 4948.6}}, {"type": "Feature", "geometry": {"type": "LineString", "coordinates": [[120.7415619, 14.988263], [120.7415501, 14.9882325], [120.7415234, 14.9881637], [120.7414913, 14.9880807], [120.7414116, 14.9878753], [120.7406875, 14.9860076], [120.7404892, 14.9854962], [120.7397174, 14.9835055], [120.739512, 14.9829758], [120.7394711, 14.9828701], [120.7393713, 14.9826127], [120.7389701, 14.9815779], [120.7389367, 14.9814919], [120.7388968, 14.981389], [120.7387967, 14.9811308], [120.7386484, 14.9807484], [120.738367, 14.9800223], [120.7383025, 14.979856], [120.7381105, 14.9793609], [120.7380118, 14.9790993], [120.7378049, 14.9785725], [120.7375246, 14.9778497], [120.7375081, 14.9778072], [120.7374784, 14.9777305], [120.7370303, 14.9765781], [120.7370007, 14.9764984], [120.7367191, 14.9757719], [120.7365778, 14.9754074], [120.7364769, 14.9751471], [120.7364238, 14.9750102], [120.7362931, 14.974673], [120.7360712, 14.9741009], [120.7358722, 14.9735874], [120.7354946, 14.9726135], [120.7354771, 14.9725684], [120.7354398, 14.9724722], [120.7352668, 14.9720259], [120.735183, 14.9718097]]}, "properties": {"city": "sanfernando-pampanga", "name": "Santa Maria Road", "highway": "secondary", "v_posted": 60, "posted_imputed": false, "v_safe": 50, "gap": 10, "R": 2.07, "exposure": 0.471, "vru_150m": 2, "sss": 18.4, "recommended": 50, "fatal_reduction_pct": 51.8, "why": "undivided arterial, side-impact intersections", "pop_density": 3827.3, "pop_density_peak": 7464.6}}, {"type": "Feature", "geometry": {"type": "LineString", "coordinates": [[120.7439464, 14.977448], [120.7436433, 14.9773943], [120.7434884, 14.9773606], [120.7433403, 14.9773969], [120.7423566, 14.9779501], [120.7416585, 14.9783309]]}, "properties": {"city": "sanfernando-pampanga", "name": "", "highway": "residential", "v_posted": 40, "posted_imputed": false, "v_safe": 30, "gap": 10, "R": 3.16, "exposure": 0.031, "vru_150m": 0, "sss": 12.9, "recommended": 30, "fatal_reduction_pct": 68.4, "why": "local road, frontage/pedestrian mixing", "pop_density": 1010.2, "pop_density_peak": 1665.7}}, {"type": "Feature", "geometry": {"type": "LineString", "coordinates": [[120.7434074, 14.9915152], [120.7434958, 14.9915946], [120.7436037, 14.9916804], [120.7438137, 14.9918462], [120.7439847, 14.9919576], [120.7441939, 14.9920716], [120.7443139, 14.992106], [120.7445419, 14.9921319], [120.7448404, 14.9921257], [120.7449866, 14.9921206], [120.7451268, 14.992109], [120.7455149, 14.9920726], [120.7457555, 14.9920501]]}, "properties": {"city": "sanfernando-pampanga", "name": "Santo Domingo Boulevard", "highway": "unclassified", "v_posted": 60, "posted_imputed": false, "v_safe": 30, "gap": 30, "R": 16.0, "exposure": 0.146, "vru_150m": 0, "sss": 43.0, "recommended": 30, "fatal_reduction_pct": 93.8, "why": "local road, frontage/pedestrian mixing", "pop_density": 4709.2, "pop_density_peak": 5836.8}}, {"type": "Feature", "geometry": {"type": "LineString", "coordinates": [[120.7422936, 14.990208], [120.7421574, 14.9898267], [120.7419155, 14.9892193], [120.7417944, 14.9888893], [120.7415619, 14.988263]]}, "properties": {"city": "sanfernando-pampanga", "name": "Santo Domingo Boulevard", "highway": "secondary", "v_posted": 60, "posted_imputed": false, "v_safe": 50, "gap": 10, "R": 2.07, "exposure": 0.273, "vru_150m": 1, "sss": 15.9, "recommended": 50, "fatal_reduction_pct": 51.8, "why": "undivided arterial, side-impact intersections", "pop_density": 2947.6, "pop_density_peak": 4475.6}}, {"type": "Feature", "geometry": {"type": "LineString", "coordinates": [[120.7434074, 14.9915152], [120.7431086, 14.9912168], [120.7424054, 14.9903826], [120.7422936, 14.990208]]}, "properties": {"city": "sanfernando-pampanga", "name": "Santo Domingo Boulevard", "highway": "secondary", "v_posted": 60, "posted_imputed": false, "v_safe": 50, "gap": 10, "R": 2.07, "exposure": 0.491, "vru_150m": 2, "sss": 18.6, "recommended": 50, "fatal_reduction_pct": 51.8, "why": "undivided arterial, side-impact intersections", "pop_density": 4929.3, "pop_density_peak": 5836.8}}, {"type": "Feature", "geometry": {"type": "LineString", "coordinates": [[120.7416585, 14.9783309], [120.7409293, 14.9787339], [120.7399118, 14.9792704], [120.7397874, 14.9793413]]}, "properties": {"city": "sanfernando-pampanga", "name": "H. S. Boulevard", "highway": "residential", "v_posted": 40, "posted_imputed": false, "v_safe": 30, "gap": 10, "R": 3.16, "exposure": 0.437, "vru_150m": 2, "sss": 18.0, "recommended": 30, "fatal_reduction_pct": 68.4, "why": "local road, frontage/pedestrian mixing", "pop_density": 1979.8, "pop_density_peak": 2696.7}}, {"type": "Feature", "geometry": {"type": "LineString", "coordinates": [[120.7397874, 14.9793413], [120.7392568, 14.9795392], [120.7388626, 14.9796775], [120.7383025, 14.979856]]}, "properties": {"city": "sanfernando-pampanga", "name": "H. S. Boulevard", "highway": "residential", "v_posted": 40, "posted_imputed": false, "v_safe": 30, "gap": 10, "R": 3.16, "exposure": 0.494, "vru_150m": 2, "sss": 18.7, "recommended": 30, "fatal_reduction_pct": 68.4, "why": "local road, frontage/pedestrian mixing", "pop_density": 5080.6, "pop_density_peak": 7464.6}}, {"type": "Feature", "geometry": {"type": "LineString", "coordinates": [[120.727203, 15.0116105], [120.728258, 15.0085846]]}, "properties": {"city": "sanfernando-pampanga", "name": "Pampanga Circumferential Road", "highway": "unclassified", "v_posted": 60, "posted_imputed": false, "v_safe": 30, "gap": 30, "R": 16.0, "exposure": 0.068, "vru_150m": 0, "sss": 40.1, "recommended": 30, "fatal_reduction_pct": 93.8, "why": "local road, frontage/pedestrian mixing", "pop_density": 2209.4, "pop_density_peak": 4418.8}}, {"type": "Feature", "geometry": {"type": "LineString", "coordinates": [[120.728333, 15.0086641], [120.7273067, 15.0116012]]}, "properties": {"city": "sanfernando-pampanga", "name": "Pampanga Circumferential Road", "highway": "unclassified", "v_posted": 60, "posted_imputed": false, "v_safe": 30, "gap": 30, "R": 16.0, "exposure": 0.068, "vru_150m": 0, "sss": 40.1, "recommended": 30, "fatal_reduction_pct": 93.8, "why": "local road, frontage/pedestrian mixing", "pop_density": 2209.4, "pop_density_peak": 4418.8}}, {"type": "Feature", "geometry": {"type": "LineString", "coordinates": [[120.7295717, 14.9997739], [120.729651, 14.9999459], [120.7299428, 15.0004863], [120.7302898, 15.0012142], [120.7303518, 15.0015083], [120.7304127, 15.0018785], [120.7304332, 15.0022677], [120.7303434, 15.0028184], [120.73018, 15.003322], [120.728482, 15.0082241], [120.7284288, 15.0083789]]}, "properties": {"city": "sanfernando-pampanga", "name": "Pampanga Circumferential Road", "highway": "unclassified", "v_posted": 60, "posted_imputed": false, "v_safe": 30, "gap": 30, "R": 16.0, "exposure": 0.673, "vru_150m": 0, "sss": 62.7, "recommended": 30, "fatal_reduction_pct": 93.8, "why": "local road, frontage/pedestrian mixing", "pop_density": 21770.8, "pop_density_peak": 84256.9}}, {"type": "Feature", "geometry": {"type": "LineString", "coordinates": [[120.7284288, 15.0083789], [120.728333, 15.0086641]]}, "properties": {"city": "sanfernando-pampanga", "name": "Pampanga Circumferential Road", "highway": "unclassified", "v_posted": 60, "posted_imputed": false, "v_safe": 30, "gap": 30, "R": 16.0, "exposure": 0.0, "vru_150m": 0, "sss": 37.5, "recommended": 30, "fatal_reduction_pct": 93.8, "why": "local road, frontage/pedestrian mixing", "pop_density": 0.0, "pop_density_peak": 0.0}}, {"type": "Feature", "geometry": {"type": "LineString", "coordinates": [[120.7283555, 15.0083056], [120.7283938, 15.0081955], [120.7300916, 15.0032944], [120.7302526, 15.0027978], [120.7303398, 15.0022629], [120.7303201, 15.0018879], [120.7302602, 15.0015243], [120.7302008, 15.0012424], [120.7298592, 15.0005259], [120.7295673, 14.9999851], [120.7295317, 14.9999084], [120.7294873, 14.9998128]]}, "properties": {"city": "sanfernando-pampanga", "name": "Pampanga Circumferential Road", "highway": "unclassified", "v_posted": 60, "posted_imputed": false, "v_safe": 30, "gap": 30, "R": 16.0, "exposure": 0.775, "vru_150m": 0, "sss": 66.6, "recommended": 30, "fatal_reduction_pct": 93.8, "why": "local road, frontage/pedestrian mixing", "pop_density": 25082.6, "pop_density_peak": 84256.9}}, {"type": "Feature", "geometry": {"type": "LineString", "coordinates": [[120.728258, 15.0085846], [120.7283555, 15.0083056]]}, "properties": {"city": "sanfernando-pampanga", "name": "Pampanga Circumferential Road", "highway": "unclassified", "v_posted": 60, "posted_imputed": false, "v_safe": 30, "gap": 30, "R": 16.0, "exposure": 0.0, "vru_150m": 0, "sss": 37.5, "recommended": 30, "fatal_reduction_pct": 93.8, "why": "local road, frontage/pedestrian mixing", "pop_density": 0.0, "pop_density_peak": 0.0}}, {"type": "Feature", "geometry": {"type": "LineString", "coordinates": [[120.6634828, 15.0455984], [120.6636156, 15.0455102], [120.664136, 15.0451757], [120.664505, 15.0448005], [120.6646257, 15.0446596]]}, "properties": {"city": "sanfernando-pampanga", "name": "Zircon Street", "highway": "residential", "v_posted": 40, "posted_imputed": false, "v_safe": 30, "gap": 10, "R": 3.16, "exposure": 0.053, "vru_150m": 0, "sss": 13.2, "recommended": 30, "fatal_reduction_pct": 68.4, "why": "local road, frontage/pedestrian mixing", "pop_density": 1729.1, "pop_density_peak": 1823.1}}, {"type": "Feature", "geometry": {"type": "LineString", "coordinates": [[120.664136, 15.0451757], [120.6646201, 15.0454727], [120.665108, 15.0458136], [120.6656122, 15.0461374], [120.6661149, 15.046449], [120.6666079, 15.046777], [120.6671289, 15.0470814], [120.6676276, 15.0474174], [120.6677464, 15.0474828], [120.6678255, 15.0475424], [120.6678609, 15.0475792]]}, "properties": {"city": "sanfernando-pampanga", "name": "Diamond Street", "highway": "residential", "v_posted": 40, "posted_imputed": false, "v_safe": 30, "gap": 10, "R": 3.16, "exposure": 0.229, "vru_150m": 1, "sss": 15.4, "recommended": 30, "fatal_reduction_pct": 68.4, "why": "local road, frontage/pedestrian mixing", "pop_density": 1176.9, "pop_density_peak": 1635.2}}, {"type": "Feature", "geometry": {"type": "LineString", "coordinates": [[120.664505, 15.0448005], [120.6660822, 15.0458003], [120.6670952, 15.0464329]]}, "properties": {"city": "sanfernando-pampanga", "name": "Opal Street", "highway": "residential", "v_posted": 40, "posted_imputed": false, "v_safe": 30, "gap": 10, "R": 3.16, "exposure": 0.029, "vru_150m": 0, "sss": 12.9, "recommended": 30, "fatal_reduction_pct": 68.4, "why": "local road, frontage/pedestrian mixing", "pop_density": 928.4, "pop_density_peak": 1635.2}}, {"type": "Feature", "geometry": {"type": "LineString", "coordinates": [[120.6649238, 15.0466353], [120.6654903, 15.0462272], [120.6656122, 15.0461374], [120.6660822, 15.0458003]]}, "properties": {"city": "sanfernando-pampanga", "name": "Pearl Street", "highway": "residential", "v_posted": 40, "posted_imputed": false, "v_safe": 30, "gap": 10, "R": 3.16, "exposure": 0.027, "vru_150m": 0, "sss": 12.8, "recommended": 30, "fatal_reduction_pct": 68.4, "why": "local road, frontage/pedestrian mixing", "pop_density": 864.0, "pop_density_peak": 1152.4}}, {"type": "Feature", "geometry": {"type": "LineString", "coordinates": [[120.6646201, 15.0454727], [120.6639724, 15.0459454]]}, "properties": {"city": "sanfernando-pampanga", "name": "Zaphire Street", "highway": "residential", "v_posted": 40, "posted_imputed": false, "v_safe": 30, "gap": 10, "R": 3.16, "exposure": 0.05, "vru_150m": 0, "sss": 13.1, "recommended": 30, "fatal_reduction_pct": 68.4, "why": "local road, frontage/pedestrian mixing", "pop_density": 1610.6, "pop_density_peak": 1823.1}}, {"type": "Feature", "geometry": {"type": "LineString", "coordinates": [[120.665108, 15.0458136], [120.6644214, 15.0462708]]}, "properties": {"city": "sanfernando-pampanga", "name": "Topaz Street", "highway": "residential", "v_posted": 40, "posted_imputed": false, "v_safe": 30, "gap": 10, "R": 3.16, "exposure": 0.036, "vru_150m": 0, "sss": 12.9, "recommended": 30, "fatal_reduction_pct": 68.4, "why": "local road, frontage/pedestrian mixing", "pop_density": 1159.7, "pop_density_peak": 1398.1}}, {"type": "Feature", "geometry": {"type": "LineString", "coordinates": [[120.6681713, 15.0457099], [120.6691383, 15.0462218]]}, "properties": {"city": "sanfernando-pampanga", "name": "Jasmin Street", "highway": "residential", "v_posted": 40, "posted_imputed": false, "v_safe": 30, "gap": 10, "R": 3.16, "exposure": 0.417, "vru_150m": 2, "sss": 17.7, "recommended": 30, "fatal_reduction_pct": 68.4, "why": "local road, frontage/pedestrian mixing", "pop_density": 913.4, "pop_density_peak": 1264.7}}, {"type": "Feature", "geometry": {"type": "LineString", "coordinates": [[120.6659257, 15.0444182], [120.6676604, 15.0456334]]}, "properties": {"city": "sanfernando-pampanga", "name": "Road 3", "highway": "residential", "v_posted": 40, "posted_imputed": false, "v_safe": 30, "gap": 10, "R": 3.16, "exposure": 0.02, "vru_150m": 0, "sss": 12.7, "recommended": 30, "fatal_reduction_pct": 68.4, "why": "local road, frontage/pedestrian mixing", "pop_density": 642.1, "pop_density_peak": 721.9}}, {"type": "Feature", "geometry": {"type": "LineString", "coordinates": [[120.6656766, 15.044736], [120.6656903, 15.0447484], [120.6657068, 15.0447641], [120.6657416, 15.0447963], [120.6665306, 15.045395], [120.666983, 15.0457084], [120.6674039, 15.0459806]]}, "properties": {"city": "sanfernando-pampanga", "name": "Road 1 Saint Jude Village", "highway": "residential", "v_posted": 40, "posted_imputed": false, "v_safe": 30, "gap": 10, "R": 3.16, "exposure": 0.019, "vru_150m": 0, "sss": 12.7, "recommended": 30, "fatal_reduction_pct": 68.4, "why": "local road, frontage/pedestrian mixing", "pop_density": 603.0, "pop_density_peak": 1066.6}}, {"type": "Feature", "geometry": {"type": "LineString", "coordinates": [[120.6668694, 15.0439422], [120.6681834, 15.0448849]]}, "properties": {"city": "sanfernando-pampanga", "name": "Saint Scholastica Street", "highway": "residential", "v_posted": 40, "posted_imputed": false, "v_safe": 30, "gap": 10, "R": 3.16, "exposure": 0.013, "vru_150m": 0, "sss": 12.7, "recommended": 30, "fatal_reduction_pct": 68.4, "why": "local road, frontage/pedestrian mixing", "pop_density": 423.0, "pop_density_peak": 451.3}}, {"type": "Feature", "geometry": {"type": "LineString", "coordinates": [[120.6665864, 15.0443295], [120.6668694, 15.0439422], [120.6671419, 15.0435732], [120.6674707, 15.0431095], [120.6677932, 15.0426684], [120.6680514, 15.0422957]]}, "properties": {"city": "sanfernando-pampanga", "name": "Saint Anne Street", "highway": "residential", "v_posted": 40, "posted_imputed": false, "v_safe": 30, "gap": 10, "R": 3.16, "exposure": 0.016, "vru_150m": 0, "sss": 12.7, "recommended": 30, "fatal_reduction_pct": 68.4, "why": "local road, frontage/pedestrian mixing", "pop_density": 522.1, "pop_density_peak": 721.9}}, {"type": "Feature", "geometry": {"type": "LineString", "coordinates": [[120.6673156, 15.046088], [120.6674039, 15.0459806], [120.6676604, 15.0456334], [120.6679435, 15.0452552], [120.6681834, 15.0448849], [120.6681773, 15.0448346], [120.6682261, 15.0443322]]}, "properties": {"city": "sanfernando-pampanga", "name": "Saint Rita Street", "highway": "residential", "v_posted": 40, "posted_imputed": false, "v_safe": 30, "gap": 10, "R": 3.16, "exposure": 0.012, "vru_150m": 0, "sss": 12.7, "recommended": 30, "fatal_reduction_pct": 68.4, "why": "local road, frontage/pedestrian mixing", "pop_density": 397.9, "pop_density_peak": 427.6}}, {"type": "Feature", "geometry": {"type": "LineString", "coordinates": [[120.6665146, 15.04125], [120.6672426, 15.0417523], [120.6676435, 15.0420354], [120.6680514, 15.0422957], [120.668569, 15.0425417], [120.6690868, 15.0428354]]}, "properties": {"city": "sanfernando-pampanga", "name": "Saint Claire Street", "highway": "residential", "v_posted": 40, "posted_imputed": false, "v_safe": 30, "gap": 10, "R": 3.16, "exposure": 0.411, "vru_150m": 2, "sss": 17.6, "recommended": 30, "fatal_reduction_pct": 68.4, "why": "local road, frontage/pedestrian mixing", "pop_density": 601.8, "pop_density_peak": 749.1}}, {"type": "Feature", "geometry": {"type": "LineString", "coordinates": [[120.6672426, 15.0417523], [120.6669125, 15.0422145], [120.6665845, 15.0426354], [120.6658288, 15.0437297]]}, "properties": {"city": "sanfernando-pampanga", "name": "Saint Zita Street", "highway": "residential", "v_posted": 40, "posted_imputed": false, "v_safe": 30, "gap": 10, "R": 3.16, "exposure": 0.023, "vru_150m": 0, "sss": 12.8, "recommended": 30, "fatal_reduction_pct": 68.4, "why": "local road, frontage/pedestrian mixing", "pop_density": 748.6, "pop_density_peak": 782.9}}, {"type": "Feature", "geometry": {"type": "LineString", "coordinates": [[120.6650716, 15.0430292], [120.6653926, 15.0426998], [120.665457, 15.0426493], [120.6657713, 15.0424455], [120.6664695, 15.04199], [120.6665191, 15.0419771], [120.6665735, 15.0419839], [120.6669125, 15.0422145]]}, "properties": {"city": "sanfernando-pampanga", "name": "Saint Emma Street", "highway": "residential", "v_posted": 40, "posted_imputed": false, "v_safe": 30, "gap": 10, "R": 3.16, "exposure": 0.026, "vru_150m": 0, "sss": 12.8, "recommended": 30, "fatal_reduction_pct": 68.4, "why": "local road, frontage/pedestrian mixing", "pop_density": 828.1, "pop_density_peak": 1279.4}}, {"type": "Feature", "geometry": {"type": "LineString", "coordinates": [[120.6767184, 15.0347219], [120.6776786, 15.0355053]]}, "properties": {"city": "sanfernando-pampanga", "name": "", "highway": "residential", "v_posted": 40, "posted_imputed": false, "v_safe": 30, "gap": 10, "R": 3.16, "exposure": 0.054, "vru_150m": 0, "sss": 13.2, "recommended": 30, "fatal_reduction_pct": 68.4, "why": "local road, frontage/pedestrian mixing", "pop_density": 1742.2, "pop_density_peak": 1828.0}}, {"type": "Feature", "geometry": {"type": "LineString", "coordinates": [[120.6759873, 15.03359], [120.6766628, 15.0339838]]}, "properties": {"city": "sanfernando-pampanga", "name": "3rd Street", "highway": "residential", "v_posted": 40, "posted_imputed": false, "v_safe": 30, "gap": 10, "R": 3.16, "exposure": 0.053, "vru_150m": 0, "sss": 13.2, "recommended": 30, "fatal_reduction_pct": 68.4, "why": "local road, frontage/pedestrian mixing", "pop_density": 1713.7, "pop_density_peak": 1850.7}}, {"type": "Feature", "geometry": {"type": "LineString", "coordinates": [[120.6758639, 15.0340406], [120.6765097, 15.0344093]]}, "properties": {"city": "sanfernando-pampanga", "name": "2nd Street", "highway": "residential", "v_posted": 40, "posted_imputed": false, "v_safe": 30, "gap": 10, "R": 3.16, "exposure": 0.05, "vru_150m": 0, "sss": 13.1, "recommended": 30, "fatal_reduction_pct": 68.4, "why": "local road, frontage/pedestrian mixing", "pop_density": 1632.6, "pop_density_peak": 1632.6}}, {"type": "Feature", "geometry": {"type": "LineString", "coordinates": [[120.6574378, 15.0122067], [120.6573919, 15.0122014], [120.6573406, 15.0121881], [120.6572926, 15.0121671], [120.6572336, 15.0121302], [120.6566982, 15.0117221], [120.6566653, 15.0116962]]}, "properties": {"city": "sanfernando-pampanga", "name": "Jose Abad Santos Avenue", "highway": "trunk", "v_posted": 80, "posted_imputed": false, "v_safe": 70, "gap": 10, "R": 1.71, "exposure": 0.054, "vru_150m": 0, "sss": 13.2, "recommended": 70, "fatal_reduction_pct": 41.4, "why": "trunk highway (head-on only; no at-grade ped mixing assumed)", "pop_density": 1755.7, "pop_density_peak": 1942.8}}, {"type": "Feature", "geometry": {"type": "LineString", "coordinates": [[120.6552568, 15.010573], [120.6553455, 15.0105669], [120.6554223, 15.0106233], [120.6558841, 15.0109909], [120.6559207, 15.0110233]]}, "properties": {"city": "sanfernando-pampanga", "name": "Jose Abad Santos Avenue", "highway": "trunk", "v_posted": 80, "posted_imputed": false, "v_safe": 70, "gap": 10, "R": 1.71, "exposure": 0.079, "vru_150m": 0, "sss": 13.5, "recommended": 70, "fatal_reduction_pct": 41.4, "why": "trunk highway (head-on only; no at-grade ped mixing assumed)", "pop_density": 2564.0, "pop_density_peak": 3105.6}}, {"type": "Feature", "geometry": {"type": "LineString", "coordinates": [[120.6661149, 15.046449], [120.666015, 15.0465177], [120.6654666, 15.0468947], [120.6654369, 15.0469105]]}, "properties": {"city": "sanfernando-pampanga", "name": "Jade Street", "highway": "residential", "v_posted": 40, "posted_imputed": false, "v_safe": 30, "gap": 10, "R": 3.16, "exposure": 0.02, "vru_150m": 0, "sss": 12.7, "recommended": 30, "fatal_reduction_pct": 68.4, "why": "local road, frontage/pedestrian mixing", "pop_density": 631.1, "pop_density_peak": 756.3}}, {"type": "Feature", "geometry": {"type": "LineString", "coordinates": [[120.6679071, 15.0460664], [120.6687062, 15.0465203]]}, "properties": {"city": "sanfernando-pampanga", "name": "Camia Street", "highway": "residential", "v_posted": 40, "posted_imputed": false, "v_safe": 30, "gap": 10, "R": 3.16, "exposure": 0.613, "vru_150m": 3, "sss": 20.2, "recommended": 30, "fatal_reduction_pct": 68.4, "why": "local road, frontage/pedestrian mixing", "pop_density": 1072.8, "pop_density_peak": 1583.4}}, {"type": "Feature", "geometry": {"type": "LineString", "coordinates": [[120.6671419, 15.0435732], [120.6682261, 15.0443322]]}, "properties": {"city": "sanfernando-pampanga", "name": "Saint Catherine Street", "highway": "residential", "v_posted": 40, "posted_imputed": false, "v_safe": 30, "gap": 10, "R": 3.16, "exposure": 0.014, "vru_150m": 0, "sss": 12.7, "recommended": 30, "fatal_reduction_pct": 68.4, "why": "local road, frontage/pedestrian mixing", "pop_density": 446.4, "pop_density_peak": 465.2}}, {"type": "Feature", "geometry": {"type": "LineString", "coordinates": [[120.6705992, 15.0381791], [120.6709716, 15.0383468], [120.6709931, 15.0383818], [120.6709927, 15.0384185], [120.6704202, 15.0396222], [120.6699018, 15.040911], [120.6697135, 15.0413455]]}, "properties": {"city": "sanfernando-pampanga", "name": "Saint John Street", "highway": "residential", "v_posted": 40, "posted_imputed": false, "v_safe": 30, "gap": 10, "R": 3.16, "exposure": 0.031, "vru_150m": 0, "sss": 12.9, "recommended": 30, "fatal_reduction_pct": 68.4, "why": "local road, frontage/pedestrian mixing", "pop_density": 1002.4, "pop_density_peak": 1457.7}}, {"type": "Feature", "geometry": {"type": "LineString", "coordinates": [[120.6708965, 15.035012], [120.670609, 15.035503], [120.6705793, 15.0355858], [120.670571, 15.0356295], [120.670574, 15.0356654], [120.670794, 15.0363115], [120.6708556, 15.0366451], [120.6708737, 15.0368638], [120.6708707, 15.0370653], [120.6708576, 15.0372627], [120.6708329, 15.0374618], [120.6707972, 15.037637], [120.6707476, 15.0378041], [120.6705992, 15.0381791], [120.6700165, 15.0393997], [120.6692019, 15.0409738]]}, "properties": {"city": "sanfernando-pampanga", "name": "Saint Peter Street", "highway": "residential", "v_posted": 40, "posted_imputed": false, "v_safe": 30, "gap": 10, "R": 3.16, "exposure": 0.032, "vru_150m": 0, "sss": 12.9, "recommended": 30, "fatal_reduction_pct": 68.4, "why": "local road, frontage/pedestrian mixing", "pop_density": 1030.3, "pop_density_peak": 1346.2}}, {"type": "Feature", "geometry": {"type": "LineString", "coordinates": [[120.6690868, 15.0428354], [120.6691754, 15.0428886], [120.6695293, 15.043085], [120.6708386, 15.0438491], [120.6709745, 15.0439408], [120.6710011, 15.043969], [120.6711285, 15.0442672], [120.6717499, 15.0448222]]}, "properties": {"city": "sanfernando-pampanga", "name": "Concepcion Street", "highway": "residential", "v_posted": 40, "posted_imputed": false, "v_safe": 30, "gap": 10, "R": 3.16, "exposure": 0.424, "vru_150m": 2, "sss": 17.8, "recommended": 30, "fatal_reduction_pct": 68.4, "why": "pedestrian activity (1 VRU site<=50m)", "pop_density": 1320.0, "pop_density_peak": 1715.4}}, {"type": "Feature", "geometry": {"type": "LineString", "coordinates": [[120.6701532, 15.0416168], [120.6701107, 15.0417148], [120.6697259, 15.0426018], [120.6695293, 15.043085]]}, "properties": {"city": "sanfernando-pampanga", "name": "Our Lady of Guadalupe Street", "highway": "residential", "v_posted": 40, "posted_imputed": false, "v_safe": 30, "gap": 10, "R": 3.16, "exposure": 0.226, "vru_150m": 1, "sss": 15.3, "recommended": 30, "fatal_reduction_pct": 68.4, "why": "local road, frontage/pedestrian mixing", "pop_density": 1056.4, "pop_density_peak": 1471.3}}, {"type": "Feature", "geometry": {"type": "LineString", "coordinates": [[120.6686818, 15.0406171], [120.6692019, 15.0409738], [120.6697135, 15.0413455]]}, "properties": {"city": "sanfernando-pampanga", "name": "Saint Jude Street Main Road", "highway": "residential", "v_posted": 40, "posted_imputed": false, "v_safe": 30, "gap": 10, "R": 3.16, "exposure": 0.233, "vru_150m": 1, "sss": 15.4, "recommended": 30, "fatal_reduction_pct": 68.4, "why": "local road, frontage/pedestrian mixing", "pop_density": 1353.8, "pop_density_peak": 1457.7}}, {"type": "Feature", "geometry": {"type": "LineString", "coordinates": [[120.6697135, 15.0413455], [120.6690868, 15.0428354], [120.6688167, 15.0433442], [120.6685217, 15.043818], [120.6682261, 15.0443322]]}, "properties": {"city": "sanfernando-pampanga", "name": "Saint Rita Street", "highway": "residential", "v_posted": 40, "posted_imputed": false, "v_safe": 30, "gap": 10, "R": 3.16, "exposure": 0.026, "vru_150m": 0, "sss": 12.8, "recommended": 30, "fatal_reduction_pct": 68.4, "why": "local road, frontage/pedestrian mixing", "pop_density": 842.7, "pop_density_peak": 1457.7}}, {"type": "Feature", "geometry": {"type": "LineString", "coordinates": [[120.6672982, 15.0411256], [120.6674599, 15.0409794], [120.6675873, 15.0408643], [120.6677452, 15.0407382], [120.6679216, 15.0406578], [120.6681295, 15.0405864], [120.6683422, 15.0405133], [120.6683906, 15.0405071], [120.6684375, 15.0405045], [120.6684818, 15.0405214], [120.668519, 15.0405383], [120.6686818, 15.0406171]]}, "properties": {"city": "sanfernando-pampanga", "name": "Saint Jude Street", "highway": "residential", "v_posted": 40, "posted_imputed": false, "v_safe": 30, "gap": 10, "R": 3.16, "exposure": 0.227, "vru_150m": 1, "sss": 15.3, "recommended": 30, "fatal_reduction_pct": 68.4, "why": "local road, frontage/pedestrian mixing", "pop_density": 1081.4, "pop_density_peak": 1249.9}}, {"type": "Feature", "geometry": {"type": "LineString", "coordinates": [[120.6676289, 15.0381622], [120.6677167, 15.0382022], [120.6678055, 15.0382378], [120.6682886, 15.0384774], [120.6686933, 15.038681], [120.6691708, 15.0389386], [120.6696062, 15.0391706], [120.6700165, 15.0393997], [120.6704202, 15.0396222]]}, "properties": {"city": "sanfernando-pampanga", "name": "Saint Leo Street", "highway": "residential", "v_posted": 40, "posted_imputed": false, "v_safe": 30, "gap": 10, "R": 3.16, "exposure": 0.022, "vru_150m": 0, "sss": 12.8, "recommended": 30, "fatal_reduction_pct": 68.4, "why": "local road, frontage/pedestrian mixing", "pop_density": 698.9, "pop_density_peak": 1063.2}}, {"type": "Feature", "geometry": {"type": "LineString", "coordinates": [[120.6691768, 15.0369048], [120.6682886, 15.0384774]]}, "properties": {"city": "sanfernando-pampanga", "name": "Saint Joseph Street", "highway": "residential", "v_posted": 40, "posted_imputed": false, "v_safe": 30, "gap": 10, "R": 3.16, "exposure": 0.042, "vru_150m": 0, "sss": 13.0, "recommended": 30, "fatal_reduction_pct": 68.4, "why": "local road, frontage/pedestrian mixing", "pop_density": 1356.6, "pop_density_peak": 1650.1}}, {"type": "Feature", "geometry": {"type": "LineString", "coordinates": [[120.6695802, 15.0371197], [120.6686933, 15.038681]]}, "properties": {"city": "sanfernando-pampanga", "name": "Saint Francis Street", "highway": "residential", "v_posted": 40, "posted_imputed": false, "v_safe": 30, "gap": 10, "R": 3.16, "exposure": 0.041, "vru_150m": 0, "sss": 13.0, "recommended": 30, "fatal_reduction_pct": 68.4, "why": "local road, frontage/pedestrian mixing", "pop_density": 1332.5, "pop_density_peak": 1650.1}}, {"type": "Feature", "geometry": {"type": "LineString", "coordinates": [[120.6698851, 15.0372787], [120.6698089, 15.0375489], [120.6697357, 15.0377327], [120.6691708, 15.0389386]]}, "properties": {"city": "sanfernando-pampanga", "name": "Saint Basil Street", "highway": "residential", "v_posted": 40, "posted_imputed": false, "v_safe": 30, "gap": 10, "R": 3.16, "exposure": 0.029, "vru_150m": 0, "sss": 12.9, "recommended": 30, "fatal_reduction_pct": 68.4, "why": "local road, frontage/pedestrian mixing", "pop_density": 922.3, "pop_density_peak": 1319.8}}, {"type": "Feature", "geometry": {"type": "LineString", "coordinates": [[120.6686415, 15.0448675], [120.6690998, 15.0451387], [120.669825, 15.0455487]]}, "properties": {"city": "sanfernando-pampanga", "name": "Rosal Street", "highway": "residential", "v_posted": 40, "posted_imputed": false, "v_safe": 30, "gap": 10, "R": 3.16, "exposure": 0.417, "vru_150m": 2, "sss": 17.7, "recommended": 30, "fatal_reduction_pct": 68.4, "why": "local road, frontage/pedestrian mixing", "pop_density": 920.9, "pop_density_peak": 1264.6}}, {"type": "Feature", "geometry": {"type": "LineString", "coordinates": [[120.6704985, 15.0264652], [120.670531, 15.0264768], [120.6711704, 15.0273752], [120.6715496, 15.02791], [120.6715821, 15.027961], [120.672149, 15.0289557], [120.6730251, 15.0304967]]}, "properties": {"city": "sanfernando-pampanga", "name": "Alamosa Gold Street", "highway": "residential", "v_posted": 40, "posted_imputed": false, "v_safe": 30, "gap": 10, "R": 3.16, "exposure": 0.055, "vru_150m": 0, "sss": 13.2, "recommended": 30, "fatal_reduction_pct": 68.4, "why": "local road, frontage/pedestrian mixing", "pop_density": 1777.7, "pop_density_peak": 2115.4}}, {"type": "Feature", "geometry": {"type": "LineString", "coordinates": [[120.6783412, 15.0460768], [120.6778758, 15.045592], [120.6775299, 15.0452557], [120.677302, 15.0450302], [120.6768251, 15.0445706], [120.6763611, 15.0441309], [120.676192, 15.0439667], [120.6758867, 15.043683], [120.6753839, 15.0431792]]}, "properties": {"city": "sanfernando-pampanga", "name": "Do\u00f1a Consolacion Street", "highway": "residential", "v_posted": 60, "posted_imputed": false, "v_safe": 30, "gap": 30, "R": 16.0, "exposure": 0.038, "vru_150m": 0, "sss": 38.9, "recommended": 30, "fatal_reduction_pct": 93.8, "why": "local road, frontage/pedestrian mixing", "pop_density": 1217.1, "pop_density_peak": 1976.3}}, {"type": "Feature", "geometry": {"type": "LineString", "coordinates": [[120.6698659, 15.0464365], [120.6695473, 15.0459687], [120.6684425, 15.0453016]]}, "properties": {"city": "sanfernando-pampanga", "name": "Sampaguita Street", "highway": "residential", "v_posted": 40, "posted_imputed": false, "v_safe": 30, "gap": 10, "R": 3.16, "exposure": 0.422, "vru_150m": 2, "sss": 17.8, "recommended": 30, "fatal_reduction_pct": 68.4, "why": "pedestrian activity (2 VRU site<=50m)", "pop_density": 1176.9, "pop_density_peak": 1776.5}}, {"type": "Feature", "geometry": {"type": "LineString", "coordinates": [[120.6697135, 15.0413455], [120.6698904, 15.0414578], [120.6701532, 15.0416168], [120.67063, 15.0419067], [120.6712888, 15.0423], [120.6717559, 15.0425879], [120.6722717, 15.0429002]]}, "properties": {"city": "sanfernando-pampanga", "name": "Perpetual Help Street", "highway": "residential", "v_posted": 40, "posted_imputed": false, "v_safe": 30, "gap": 10, "R": 3.16, "exposure": 0.048, "vru_150m": 0, "sss": 13.1, "recommended": 30, "fatal_reduction_pct": 68.4, "why": "local road, frontage/pedestrian mixing", "pop_density": 1568.3, "pop_density_peak": 1841.1}}, {"type": "Feature", "geometry": {"type": "LineString", "coordinates": [[120.6738508, 15.0292772], [120.673702, 15.0293523], [120.6736597, 15.0293925], [120.6735257, 15.0296229], [120.6733549, 15.0299064], [120.673179, 15.0302123], [120.6730251, 15.0304967], [120.6729971, 15.030564], [120.6729537, 15.0306559], [120.6728183, 15.0310012], [120.6727139, 15.0314178], [120.6726063, 15.0318267], [120.6725474, 15.0320858], [120.6725253, 15.0321272], [120.6721061, 15.0325793], [120.6717186, 15.033033]]}, "properties": {"city": "sanfernando-pampanga", "name": "Red Wood Street", "highway": "residential", "v_posted": 40, "posted_imputed": false, "v_safe": 30, "gap": 10, "R": 3.16, "exposure": 0.04, "vru_150m": 0, "sss": 13.0, "recommended": 30, "fatal_reduction_pct": 68.4, "why": "local road, frontage/pedestrian mixing", "pop_density": 1292.2, "pop_density_peak": 1607.4}}, {"type": "Feature", "geometry": {"type": "LineString", "coordinates": [[120.6681295, 15.0405864], [120.6682273, 15.0409093], [120.6683139, 15.0410773]]}, "properties": {"city": "sanfernando-pampanga", "name": "", "highway": "residential", "v_posted": 40, "posted_imputed": false, "v_safe": 30, "gap": 10, "R": 3.16, "exposure": 0.225, "vru_150m": 1, "sss": 15.3, "recommended": 30, "fatal_reduction_pct": 68.4, "why": "local road, frontage/pedestrian mixing", "pop_density": 1030.3, "pop_density_peak": 1249.9}}, {"type": "Feature", "geometry": {"type": "LineString", "coordinates": [[120.6675948, 15.041328], [120.6677731, 15.0411553], [120.6678998, 15.0410304], [120.6679574, 15.0409997], [120.6682273, 15.0409093]]}, "properties": {"city": "sanfernando-pampanga", "name": "", "highway": "residential", "v_posted": 40, "posted_imputed": false, "v_safe": 30, "gap": 10, "R": 3.16, "exposure": 0.22, "vru_150m": 1, "sss": 15.3, "recommended": 30, "fatal_reduction_pct": 68.4, "why": "local road, frontage/pedestrian mixing", "pop_density": 817.4, "pop_density_peak": 824.1}}, {"type": "Feature", "geometry": {"type": "LineString", "coordinates": [[120.6770578, 15.0334894], [120.6769957, 15.03353], [120.6768979, 15.0335779], [120.6768644, 15.0335805], [120.6760949, 15.0331339]]}, "properties": {"city": "sanfernando-pampanga", "name": "", "highway": "residential", "v_posted": 40, "posted_imputed": false, "v_safe": 30, "gap": 10, "R": 3.16, "exposure": 0.053, "vru_150m": 0, "sss": 13.2, "recommended": 30, "fatal_reduction_pct": 68.4, "why": "local road, frontage/pedestrian mixing", "pop_density": 1700.9, "pop_density_peak": 1850.7}}, {"type": "Feature", "geometry": {"type": "LineString", "coordinates": [[120.6762857, 15.0347266], [120.675766, 15.0344057]]}, "properties": {"city": "sanfernando-pampanga", "name": "1st Street", "highway": "residential", "v_posted": 40, "posted_imputed": false, "v_safe": 30, "gap": 10, "R": 3.16, "exposure": 0.045, "vru_150m": 0, "sss": 13.1, "recommended": 30, "fatal_reduction_pct": 68.4, "why": "local road, frontage/pedestrian mixing", "pop_density": 1465.9, "pop_density_peak": 1467.8}}, {"type": "Feature", "geometry": {"type": "LineString", "coordinates": [[120.6422873, 15.0369862], [120.6425555, 15.0365924], [120.6428861, 15.0360946], [120.6432964, 15.0354884], [120.6438134, 15.0347248], [120.6442942, 15.0340145], [120.6446831, 15.033442], [120.6450345, 15.0329213], [120.6452457, 15.0326058], [120.6455461, 15.0321419], [120.6456575, 15.0319699], [120.6459679, 15.0315134], [120.6462475, 15.0311021], [120.6464173, 15.030854], [120.6465855, 15.030606], [120.6467378, 15.0303787], [120.6468553, 15.0302176], [120.6469037, 15.0301428], [120.6470543, 15.0299034], [120.6471468, 15.0297674], [120.6472386, 15.0296346], [120.6475345, 15.0291979], [120.6476242, 15.0290654], [120.6479138, 15.0286458], [120.6481696, 15.0282695], [120.6482357, 15.0281691], [120.6485301, 15.0277332], [120.6489023, 15.0271925], [120.6493099, 15.0265967], [120.6495822, 15.0261926], [120.649788, 15.02589], [120.6500006, 15.0255761], [120.6502675, 15.0251836], [120.6505445, 15.02478], [120.6507737, 15.0244355], [120.6509978, 15.0241091], [120.651207, 15.0237943], [120.6513612, 15.0235857], [120.6516704, 15.0231389], [120.6519708, 15.0226959], [120.6522115, 15.022341], [120.6524744, 15.0219609], [120.6527144, 15.0216131], [120.6528854, 15.0213605], [120.6531423, 15.0209817], [120.6536163, 15.0202692], [120.653898, 15.0198353], [120.6540629, 15.0195957], [120.65437, 15.0191294], [120.6546242, 15.0187551], [120.6547784, 15.0185368], [120.6550312, 15.018165], [120.6552974, 15.0177842], [120.6555435, 15.0174274], [120.6557541, 15.017121], [120.6559806, 15.0167953], [120.656369, 15.0162415], [120.6566197, 15.0158724], [120.6570764, 15.0152111], [120.6574787, 15.0146619], [120.6577416, 15.0143011], [120.6579916, 15.0139413], [120.6581062, 15.0137895], [120.6582179, 15.0136357]]}, "properties": {"city": "sanfernando-pampanga", "name": "Megadike Road", "highway": "secondary", "v_posted": 60, "posted_imputed": false, "v_safe": 50, "gap": 10, "R": 2.07, "exposure": 0.007, "vru_150m": 0, "sss": 12.6, "recommended": 50, "fatal_reduction_pct": 51.8, "why": "undivided arterial, side-impact intersections", "pop_density": 230.4, "pop_density_peak": 1419.6}}, {"type": "Feature", "geometry": {"type": "LineString", "coordinates": [[120.6559207, 15.0110233], [120.6567209, 15.0116322]]}, "properties": {"city": "sanfernando-pampanga", "name": "Jose Abad Santos Avenue", "highway": "trunk", "v_posted": 80, "posted_imputed": false, "v_safe": 70, "gap": 10, "R": 1.71, "exposure": 0.061, "vru_150m": 0, "sss": 13.3, "recommended": 70, "fatal_reduction_pct": 41.4, "why": "trunk highway (head-on only; no at-grade ped mixing assumed)", "pop_density": 1982.5, "pop_density_peak": 2022.3}}, {"type": "Feature", "geometry": {"type": "LineString", "coordinates": [[120.6566653, 15.0116962], [120.6558623, 15.0110934]]}, "properties": {"city": "sanfernando-pampanga", "name": "Jose Abad Santos Avenue", "highway": "trunk", "v_posted": 80, "posted_imputed": false, "v_safe": 70, "gap": 10, "R": 1.71, "exposure": 0.061, "vru_150m": 0, "sss": 13.3, "recommended": 70, "fatal_reduction_pct": 41.4, "why": "trunk highway (head-on only; no at-grade ped mixing assumed)", "pop_density": 1982.5, "pop_density_peak": 2022.3}}, {"type": "Feature", "geometry": {"type": "LineString", "coordinates": [[120.6567209, 15.0116322], [120.6567867, 15.0116863], [120.657417, 15.012125], [120.6574378, 15.0122067]]}, "properties": {"city": "sanfernando-pampanga", "name": "Jose Abad Santos Avenue", "highway": "trunk", "v_posted": 80, "posted_imputed": false, "v_safe": 70, "gap": 10, "R": 1.71, "exposure": 0.054, "vru_150m": 0, "sss": 13.2, "recommended": 70, "fatal_reduction_pct": 41.4, "why": "trunk highway (head-on only; no at-grade ped mixing assumed)", "pop_density": 1755.7, "pop_density_peak": 1942.8}}, {"type": "Feature", "geometry": {"type": "LineString", "coordinates": [[120.6574378, 15.0122067], [120.6576228, 15.0123493], [120.6576641, 15.0123811], [120.6579425, 15.0125957], [120.6586113, 15.0131077], [120.6587258, 15.0131908], [120.6589887, 15.013386], [120.6596601, 15.0139122], [120.6608091, 15.0147607]]}, "properties": {"city": "sanfernando-pampanga", "name": "Jose Abad Santos Avenue", "highway": "trunk", "v_posted": 80, "posted_imputed": false, "v_safe": 70, "gap": 10, "R": 1.71, "exposure": 0.023, "vru_150m": 0, "sss": 12.8, "recommended": 70, "fatal_reduction_pct": 41.4, "why": "trunk highway (head-on only; no at-grade ped mixing assumed)", "pop_density": 745.6, "pop_density_peak": 1568.6}}, {"type": "Feature", "geometry": {"type": "LineString", "coordinates": [[120.6558623, 15.0110934], [120.6553759, 15.0107176], [120.65531, 15.0106708], [120.6552568, 15.010573]]}, "properties": {"city": "sanfernando-pampanga", "name": "Jose Abad Santos Avenue", "highway": "trunk", "v_posted": 80, "posted_imputed": false, "v_safe": 70, "gap": 10, "R": 1.71, "exposure": 0.079, "vru_150m": 0, "sss": 13.5, "recommended": 70, "fatal_reduction_pct": 41.4, "why": "trunk highway (head-on only; no at-grade ped mixing assumed)", "pop_density": 2564.0, "pop_density_peak": 3105.6}}, {"type": "Feature", "geometry": {"type": "LineString", "coordinates": [[120.6754562, 15.0306173], [120.6754164, 15.0306172], [120.6753863, 15.0306075], [120.67534, 15.0305895]]}, "properties": {"city": "sanfernando-pampanga", "name": "Lazatin Boulevard", "highway": "trunk_link", "v_posted": 80, "posted_imputed": false, "v_safe": 70, "gap": 10, "R": 1.71, "exposure": 0.061, "vru_150m": 0, "sss": 13.3, "recommended": 70, "fatal_reduction_pct": 41.4, "why": "trunk highway (head-on only; no at-grade ped mixing assumed)", "pop_density": 1962.9, "pop_density_peak": 1962.9}}, {"type": "Feature", "geometry": {"type": "LineString", "coordinates": [[120.6754562, 15.0306173], [120.6754729, 15.0306144], [120.6755044, 15.0306324]]}, "properties": {"city": "sanfernando-pampanga", "name": "Lazatin Boulevard", "highway": "trunk_link", "v_posted": 80, "posted_imputed": false, "v_safe": 70, "gap": 10, "R": 1.71, "exposure": 0.061, "vru_150m": 0, "sss": 13.3, "recommended": 70, "fatal_reduction_pct": 41.4, "why": "trunk highway (head-on only; no at-grade ped mixing assumed)", "pop_density": 1962.9, "pop_density_peak": 1962.9}}, {"type": "Feature", "geometry": {"type": "LineString", "coordinates": [[120.6762468, 15.0320368], [120.6763606, 15.0322328], [120.6765428, 15.0325835]]}, "properties": {"city": "sanfernando-pampanga", "name": "Lazatin Flyover", "highway": "trunk", "v_posted": 80, "posted_imputed": false, "v_safe": 70, "gap": 10, "R": 1.71, "exposure": 0.058, "vru_150m": 0, "sss": 13.2, "recommended": 70, "fatal_reduction_pct": 41.4, "why": "trunk highway (head-on only; no at-grade ped mixing assumed)", "pop_density": 1885.0, "pop_density_peak": 1964.3}}, {"type": "Feature", "geometry": {"type": "LineString", "coordinates": [[120.669946, 15.046554], [120.6698659, 15.0464365]]}, "properties": {"city": "sanfernando-pampanga", "name": "Sampaguita Street", "highway": "residential", "v_posted": 40, "posted_imputed": false, "v_safe": 30, "gap": 10, "R": 3.16, "exposure": 0.433, "vru_150m": 2, "sss": 17.9, "recommended": 30, "fatal_reduction_pct": 68.4, "why": "pedestrian activity (1 VRU site<=50m)", "pop_density": 1776.5, "pop_density_peak": 1776.5}}, {"type": "Feature", "geometry": {"type": "LineString", "coordinates": [[120.6752549, 15.0430456], [120.675187, 15.0429578]]}, "properties": {"city": "sanfernando-pampanga", "name": "Do\u00f1a Consolacion Street", "highway": "residential", "v_posted": 60, "posted_imputed": false, "v_safe": 30, "gap": 30, "R": 16.0, "exposure": 0.425, "vru_150m": 2, "sss": 53.5, "recommended": 30, "fatal_reduction_pct": 93.8, "why": "local road, frontage/pedestrian mixing", "pop_density": 1372.5, "pop_density_peak": 1490.9}}, {"type": "Feature", "geometry": {"type": "LineString", "coordinates": [[120.6753839, 15.0431792], [120.6752549, 15.0430456]]}, "properties": {"city": "sanfernando-pampanga", "name": "Do\u00f1a Consolacion Street", "highway": "residential", "v_posted": 60, "posted_imputed": false, "v_safe": 30, "gap": 30, "R": 16.0, "exposure": 0.423, "vru_150m": 2, "sss": 53.4, "recommended": 30, "fatal_reduction_pct": 93.8, "why": "local road, frontage/pedestrian mixing", "pop_density": 1254.1, "pop_density_peak": 1254.1}}, {"type": "Feature", "geometry": {"type": "LineString", "coordinates": [[120.6582179, 15.0136357], [120.6583385, 15.0134768]]}, "properties": {"city": "sanfernando-pampanga", "name": "Megadike Road", "highway": "secondary", "v_posted": 60, "posted_imputed": false, "v_safe": 50, "gap": 10, "R": 2.07, "exposure": 0.031, "vru_150m": 0, "sss": 12.9, "recommended": 50, "fatal_reduction_pct": 51.8, "why": "undivided arterial, side-impact intersections", "pop_density": 1009.9, "pop_density_peak": 1419.6}}, {"type": "Feature", "geometry": {"type": "LineString", "coordinates": [[120.6583385, 15.0134768], [120.658484, 15.0132835], [120.6586113, 15.0131077]]}, "properties": {"city": "sanfernando-pampanga", "name": "Megadike Road", "highway": "secondary", "v_posted": 60, "posted_imputed": false, "v_safe": 50, "gap": 10, "R": 2.07, "exposure": 0.019, "vru_150m": 0, "sss": 12.7, "recommended": 50, "fatal_reduction_pct": 51.8, "why": "undivided arterial, side-impact intersections", "pop_density": 600.1, "pop_density_peak": 600.1}}, {"type": "Feature", "geometry": {"type": "LineString", "coordinates": [[120.6934712, 15.0304085], [120.6945076, 15.0303965]]}, "properties": {"city": "sanfernando-pampanga", "name": "General Hizon Avenue", "highway": "residential", "v_posted": 40, "posted_imputed": false, "v_safe": 30, "gap": 10, "R": 3.16, "exposure": 0.829, "vru_150m": 4, "sss": 22.9, "recommended": 30, "fatal_reduction_pct": 68.4, "why": "pedestrian activity (2 VRU site<=50m)", "pop_density": 4740.5, "pop_density_peak": 5240.5}}, {"type": "Feature", "geometry": {"type": "LineString", "coordinates": [[120.6806778, 15.0492787], [120.6803656, 15.0488583], [120.679773, 15.0480399], [120.6794006, 15.0475196], [120.6783412, 15.0460768]]}, "properties": {"city": "sanfernando-pampanga", "name": "Do\u00f1a Consolacion Extension", "highway": "residential", "v_posted": 60, "posted_imputed": false, "v_safe": 30, "gap": 30, "R": 16.0, "exposure": 0.044, "vru_150m": 0, "sss": 39.2, "recommended": 30, "fatal_reduction_pct": 93.8, "why": "local road, frontage/pedestrian mixing", "pop_density": 1432.7, "pop_density_peak": 1976.3}}, {"type": "Feature", "geometry": {"type": "LineString", "coordinates": [[120.6855571, 15.0279805], [120.6851996, 15.0284312], [120.6849171, 15.0287679], [120.6847729, 15.0290032], [120.6846231, 15.0292296], [120.6844526, 15.0294988], [120.6843859, 15.0296061], [120.6842661, 15.0298165], [120.6841612, 15.029941], [120.6840729, 15.0300303], [120.6838907, 15.0301771], [120.6836479, 15.0303249], [120.6834769, 15.0304182], [120.6832837, 15.0304998], [120.6830782, 15.030583], [120.6827464, 15.0306549], [120.6826112, 15.0306728], [120.6824899, 15.0306851], [120.6823878, 15.0306901], [120.6823102, 15.0306905], [120.6822571, 15.0306902], [120.6821084, 15.0306806], [120.6819874, 15.0306747], [120.6818619, 15.0306643], [120.6817548, 15.0306391], [120.6816413, 15.0306194], [120.6815337, 15.030593], [120.6811753, 15.0304591], [120.6810833, 15.030443], [120.6806867, 15.0301962]]}, "properties": {"city": "sanfernando-pampanga", "name": "", "highway": "residential", "v_posted": 40, "posted_imputed": false, "v_safe": 30, "gap": 10, "R": 3.16, "exposure": 0.047, "vru_150m": 0, "sss": 13.1, "recommended": 30, "fatal_reduction_pct": 68.4, "why": "local road, frontage/pedestrian mixing", "pop_density": 1532.8, "pop_density_peak": 2043.3}}, {"type": "Feature", "geometry": {"type": "LineString", "coordinates": [[120.6934271, 15.0278074], [120.6932932, 15.0279355], [120.6931987, 15.0280225], [120.6927843, 15.0284123], [120.6926584, 15.0285294]]}, "properties": {"city": "sanfernando-pampanga", "name": "General Hizon Avenue", "highway": "secondary", "v_posted": 40, "posted_imputed": false, "v_safe": 30, "gap": 10, "R": 3.16, "exposure": 1.0, "vru_150m": 6, "sss": 25.0, "recommended": 30, "fatal_reduction_pct": 68.4, "why": "pedestrian activity (1 VRU site<=50m)", "pop_density": 3533.3, "pop_density_peak": 3618.2}}, {"type": "Feature", "geometry": {"type": "LineString", "coordinates": [[120.6936659, 15.0273942], [120.6934271, 15.0278074]]}, "properties": {"city": "sanfernando-pampanga", "name": "General Hizon Avenue", "highway": "secondary", "v_posted": 40, "posted_imputed": false, "v_safe": 30, "gap": 10, "R": 3.16, "exposure": 1.0, "vru_150m": 5, "sss": 25.0, "recommended": 30, "fatal_reduction_pct": 68.4, "why": "pedestrian activity (2 VRU site<=50m)", "pop_density": 3618.2, "pop_density_peak": 3618.2}}, {"type": "Feature", "geometry": {"type": "LineString", "coordinates": [[120.6937526, 15.0272408], [120.6936659, 15.0273942]]}, "properties": {"city": "sanfernando-pampanga", "name": "General Hizon Avenue", "highway": "secondary", "v_posted": 40, "posted_imputed": false, "v_safe": 30, "gap": 10, "R": 3.16, "exposure": 0.645, "vru_150m": 3, "sss": 20.6, "recommended": 30, "fatal_reduction_pct": 68.4, "why": "pedestrian activity (2 VRU site<=50m)", "pop_density": 3618.2, "pop_density_peak": 3618.2}}, {"type": "Feature", "geometry": {"type": "LineString", "coordinates": [[120.6810621, 15.0390157], [120.6811613, 15.0391187], [120.6812919, 15.0392191]]}, "properties": {"city": "sanfernando-pampanga", "name": "Jose Abad Santos Avenue", "highway": "trunk", "v_posted": 80, "posted_imputed": false, "v_safe": 70, "gap": 10, "R": 1.71, "exposure": 0.252, "vru_150m": 1, "sss": 15.7, "recommended": 70, "fatal_reduction_pct": 41.4, "why": "trunk highway (head-on only; no at-grade ped mixing assumed)", "pop_density": 2113.6, "pop_density_peak": 2113.6}}, {"type": "Feature", "geometry": {"type": "LineString", "coordinates": [[120.6808922, 15.038841], [120.6810621, 15.0390157]]}, "properties": {"city": "sanfernando-pampanga", "name": "Jose Abad Santos Avenue", "highway": "trunk", "v_posted": 80, "posted_imputed": false, "v_safe": 70, "gap": 10, "R": 1.71, "exposure": 0.252, "vru_150m": 1, "sss": 15.7, "recommended": 70, "fatal_reduction_pct": 41.4, "why": "trunk highway (head-on only; no at-grade ped mixing assumed)", "pop_density": 2113.6, "pop_density_peak": 2113.6}}, {"type": "Feature", "geometry": {"type": "LineString", "coordinates": [[120.7145801, 15.0315774], [120.7146426, 15.0315259], [120.7148846, 15.0313257], [120.7150167, 15.0312133]]}, "properties": {"city": "sanfernando-pampanga", "name": "", "highway": "service", "v_posted": 40, "posted_imputed": false, "v_safe": 30, "gap": 10, "R": 3.16, "exposure": 0.491, "vru_150m": 0, "sss": 18.6, "recommended": 30, "fatal_reduction_pct": 68.4, "why": "local road, frontage/pedestrian mixing", "pop_density": 15895.3, "pop_density_peak": 25285.4}}, {"type": "Feature", "geometry": {"type": "LineString", "coordinates": [[120.7150167, 15.0312133], [120.7156008, 15.0307513]]}, "properties": {"city": "sanfernando-pampanga", "name": "", "highway": "service", "v_posted": 40, "posted_imputed": false, "v_safe": 30, "gap": 10, "R": 3.16, "exposure": 0.782, "vru_150m": 0, "sss": 22.3, "recommended": 30, "fatal_reduction_pct": 68.4, "why": "local road, frontage/pedestrian mixing", "pop_density": 25285.4, "pop_density_peak": 25285.4}}, {"type": "Feature", "geometry": {"type": "LineString", "coordinates": [[120.7156008, 15.0307513], [120.7161467, 15.030323]]}, "properties": {"city": "sanfernando-pampanga", "name": "", "highway": "service", "v_posted": 40, "posted_imputed": false, "v_safe": 30, "gap": 10, "R": 3.16, "exposure": 0.736, "vru_150m": 0, "sss": 21.7, "recommended": 30, "fatal_reduction_pct": 68.4, "why": "local road, frontage/pedestrian mixing", "pop_density": 23798.0, "pop_density_peak": 25285.3}}, {"type": "Feature", "geometry": {"type": "LineString", "coordinates": [[120.7242915, 15.0287617], [120.724177, 15.0287827], [120.7240707, 15.0288066], [120.7239813, 15.0288356], [120.7239093, 15.0288672], [120.7238496, 15.0289044], [120.7237942, 15.0289488], [120.7237402, 15.0290012], [120.72361, 15.0291389], [120.7229693, 15.0298213], [120.7223497, 15.0304437], [120.7218523, 15.0309275]]}, "properties": {"city": "sanfernando-pampanga", "name": "Pampanga Circumferential Road", "highway": "unclassified", "v_posted": 60, "posted_imputed": false, "v_safe": 30, "gap": 30, "R": 16.0, "exposure": 0.249, "vru_150m": 0, "sss": 46.8, "recommended": 30, "fatal_reduction_pct": 93.8, "why": "local road, frontage/pedestrian mixing", "pop_density": 8051.9, "pop_density_peak": 11089.0}}, {"type": "Feature", "geometry": {"type": "LineString", "coordinates": [[120.7161467, 15.030323], [120.7163645, 15.0301215], [120.7171242, 15.0294823], [120.7172491, 15.0293594], [120.7173832, 15.0292324], [120.7176661, 15.0289799]]}, "properties": {"city": "sanfernando-pampanga", "name": "", "highway": "service", "v_posted": 40, "posted_imputed": false, "v_safe": 30, "gap": 10, "R": 3.16, "exposure": 0.245, "vru_150m": 0, "sss": 15.6, "recommended": 30, "fatal_reduction_pct": 68.4, "why": "local road, frontage/pedestrian mixing", "pop_density": 7912.2, "pop_density_peak": 22310.7}}, {"type": "Feature", "geometry": {"type": "LineString", "coordinates": [[120.7268018, 15.0130267], [120.7257679, 15.0159226], [120.7256082, 15.0164781], [120.7255359, 15.017042]]}, "properties": {"city": "sanfernando-pampanga", "name": "Pampanga Circumferential Road", "highway": "unclassified", "v_posted": 60, "posted_imputed": false, "v_safe": 30, "gap": 30, "R": 16.0, "exposure": 0.079, "vru_150m": 0, "sss": 40.5, "recommended": 30, "fatal_reduction_pct": 93.8, "why": "local road, frontage/pedestrian mixing", "pop_density": 2560.9, "pop_density_peak": 7682.6}}, {"type": "Feature", "geometry": {"type": "LineString", "coordinates": [[120.7254301, 15.0170306], [120.725517, 15.0164595], [120.7256791, 15.015896], [120.7267197, 15.0129759]]}, "properties": {"city": "sanfernando-pampanga", "name": "Pampanga Circumferential Road", "highway": "unclassified", "v_posted": 60, "posted_imputed": false, "v_safe": 30, "gap": 30, "R": 16.0, "exposure": 0.119, "vru_150m": 0, "sss": 42.0, "recommended": 30, "fatal_reduction_pct": 93.8, "why": "local road, frontage/pedestrian mixing", "pop_density": 3841.3, "pop_density_peak": 7682.6}}, {"type": "Feature", "geometry": {"type": "LineString", "coordinates": [[120.7267197, 15.0129759], [120.7268062, 15.0127256]]}, "properties": {"city": "sanfernando-pampanga", "name": "Pampanga Circumferential Road", "highway": "unclassified", "v_posted": 60, "posted_imputed": false, "v_safe": 30, "gap": 30, "R": 16.0, "exposure": 0.237, "vru_150m": 0, "sss": 46.4, "recommended": 30, "fatal_reduction_pct": 93.8, "why": "local road, frontage/pedestrian mixing", "pop_density": 7657.6, "pop_density_peak": 7682.6}}, {"type": "Feature", "geometry": {"type": "LineString", "coordinates": [[120.726891, 15.0127768], [120.7268018, 15.0130267]]}, "properties": {"city": "sanfernando-pampanga", "name": "Pampanga Circumferential Road", "highway": "unclassified", "v_posted": 60, "posted_imputed": false, "v_safe": 30, "gap": 30, "R": 16.0, "exposure": 0.237, "vru_150m": 0, "sss": 46.4, "recommended": 30, "fatal_reduction_pct": 93.8, "why": "local road, frontage/pedestrian mixing", "pop_density": 7657.6, "pop_density_peak": 7682.6}}, {"type": "Feature", "geometry": {"type": "LineString", "coordinates": [[120.7268062, 15.0127256], [120.7270405, 15.0120775]]}, "properties": {"city": "sanfernando-pampanga", "name": "Pampanga Circumferential Road", "highway": "unclassified", "v_posted": 60, "posted_imputed": false, "v_safe": 30, "gap": 30, "R": 16.0, "exposure": 0.186, "vru_150m": 0, "sss": 44.5, "recommended": 30, "fatal_reduction_pct": 93.8, "why": "local road, frontage/pedestrian mixing", "pop_density": 6025.7, "pop_density_peak": 7632.7}}, {"type": "Feature", "geometry": {"type": "LineString", "coordinates": [[120.727141, 15.012076], [120.726891, 15.0127768]]}, "properties": {"city": "sanfernando-pampanga", "name": "Pampanga Circumferential Road", "highway": "unclassified", "v_posted": 60, "posted_imputed": false, "v_safe": 30, "gap": 30, "R": 16.0, "exposure": 0.186, "vru_150m": 0, "sss": 44.5, "recommended": 30, "fatal_reduction_pct": 93.8, "why": "local road, frontage/pedestrian mixing", "pop_density": 6025.7, "pop_density_peak": 7632.7}}, {"type": "Feature", "geometry": {"type": "LineString", "coordinates": [[120.7273067, 15.0116012], [120.727141, 15.012076]]}, "properties": {"city": "sanfernando-pampanga", "name": "Pampanga Circumferential Road", "highway": "unclassified", "v_posted": 60, "posted_imputed": false, "v_safe": 30, "gap": 30, "R": 16.0, "exposure": 0.137, "vru_150m": 0, "sss": 42.6, "recommended": 30, "fatal_reduction_pct": 93.8, "why": "local road, frontage/pedestrian mixing", "pop_density": 4418.8, "pop_density_peak": 4418.8}}, {"type": "Feature", "geometry": {"type": "LineString", "coordinates": [[120.7270405, 15.0120775], [120.727203, 15.0116105]]}, "properties": {"city": "sanfernando-pampanga", "name": "Pampanga Circumferential Road", "highway": "unclassified", "v_posted": 60, "posted_imputed": false, "v_safe": 30, "gap": 30, "R": 16.0, "exposure": 0.137, "vru_150m": 0, "sss": 42.6, "recommended": 30, "fatal_reduction_pct": 93.8, "why": "local road, frontage/pedestrian mixing", "pop_density": 4418.8, "pop_density_peak": 4418.8}}, {"type": "Feature", "geometry": {"type": "LineString", "coordinates": [[120.6529102, 15.059957], [120.6527008, 15.0601983], [120.6525018, 15.0604278], [120.652325, 15.0606358], [120.6521486, 15.0608302], [120.6519574, 15.0610633], [120.6517556, 15.0612733], [120.6516244, 15.0613948], [120.6515431, 15.0615139], [120.6512381, 15.0618825], [120.6512105, 15.0619143], [120.6511999, 15.0619234], [120.6511912, 15.0619325], [120.6511123, 15.0620233]]}, "properties": {"city": "sanfernando-pampanga", "name": "Gregorio Del Pillar Street", "highway": "residential", "v_posted": 40, "posted_imputed": false, "v_safe": 30, "gap": 10, "R": 3.16, "exposure": 0.004, "vru_150m": 0, "sss": 12.5, "recommended": 30, "fatal_reduction_pct": 68.4, "why": "local road, frontage/pedestrian mixing", "pop_density": 129.3, "pop_density_peak": 162.0}}, {"type": "Feature", "geometry": {"type": "LineString", "coordinates": [[120.6567398, 15.0594117], [120.6568585, 15.0595037], [120.6570214, 15.0596209], [120.6570952, 15.0596798], [120.6571528, 15.0597284], [120.6572092, 15.0597679], [120.6572868, 15.0598195], [120.6574029, 15.0598696], [120.6580372, 15.0599861], [120.6584413, 15.0600544], [120.658777, 15.0601182], [120.6588617, 15.0601326], [120.6597059, 15.0602763], [120.6601391, 15.0603549], [120.6607115, 15.0604761], [120.6612, 15.060557], [120.6612273, 15.0605612], [120.6613823, 15.0605777], [120.6614995, 15.0605897]]}, "properties": {"city": "sanfernando-pampanga", "name": "San Miguel Boulevard", "highway": "unclassified", "v_posted": 40, "posted_imputed": false, "v_safe": 30, "gap": 10, "R": 3.16, "exposure": 0.103, "vru_150m": 0, "sss": 13.8, "recommended": 30, "fatal_reduction_pct": 68.4, "why": "local road, frontage/pedestrian mixing", "pop_density": 3347.6, "pop_density_peak": 6143.1}}, {"type": "Feature", "geometry": {"type": "LineString", "coordinates": [[120.6519574, 15.0610633], [120.653197, 15.0620975]]}, "properties": {"city": "sanfernando-pampanga", "name": "Jose Abad Santos Street", "highway": "residential", "v_posted": 40, "posted_imputed": false, "v_safe": 30, "gap": 10, "R": 3.16, "exposure": 0.203, "vru_150m": 1, "sss": 15.0, "recommended": 30, "fatal_reduction_pct": 68.4, "why": "local road, frontage/pedestrian mixing", "pop_density": 132.7, "pop_density_peak": 147.9}}, {"type": "Feature", "geometry": {"type": "LineString", "coordinates": [[120.653742, 15.0614634], [120.6525018, 15.0604278]]}, "properties": {"city": "sanfernando-pampanga", "name": "Miguel Malvar Street", "highway": "residential", "v_posted": 40, "posted_imputed": false, "v_safe": 30, "gap": 10, "R": 3.16, "exposure": 0.006, "vru_150m": 0, "sss": 12.6, "recommended": 30, "fatal_reduction_pct": 68.4, "why": "local road, frontage/pedestrian mixing", "pop_density": 200.3, "pop_density_peak": 238.6}}, {"type": "Feature", "geometry": {"type": "LineString", "coordinates": [[120.6772432, 15.0720549], [120.6779445, 15.072409], [120.6784917, 15.0726706], [120.6785896, 15.0727263], [120.6786385, 15.0728028], [120.678652, 15.0728364], [120.6786586, 15.0728739], [120.6786367, 15.0729364], [120.6780416, 15.0740723], [120.6779741, 15.0742059], [120.6773198, 15.0756268], [120.6767475, 15.0768612], [120.67664, 15.077082], [120.6765906, 15.0771722], [120.6765378, 15.0772241], [120.6764719, 15.0772757], [120.6764002, 15.0773167], [120.676242, 15.0774164], [120.676153, 15.0774857], [120.6760128, 15.0776022], [120.6759345, 15.0776915], [120.6758859, 15.0777697], [120.6758647, 15.07782], [120.6758046, 15.078004], [120.6757631, 15.0781405], [120.6757282, 15.0782706], [120.6756547, 15.0786142], [120.6756284, 15.0786798], [120.6755783, 15.0787941], [120.6755211, 15.0788729], [120.6754464, 15.0789557], [120.6752791, 15.0791236], [120.6750264, 15.0793718], [120.6748414, 15.0795657], [120.6747188, 15.0796828], [120.674531, 15.0798646], [120.6744334, 15.0799364], [120.6743048, 15.0800138], [120.6741734, 15.0800815], [120.6741086, 15.0801067], [120.6737826, 15.0802476], [120.6735427, 15.0803399], [120.6734038, 15.0803863], [120.6732856, 15.0804397], [120.6729333, 15.0806102], [120.6721668, 15.0809359], [120.6721116, 15.0809549], [120.6720646, 15.0809733], [120.6720279, 15.0809828], [120.6719893, 15.0809919], [120.6719469, 15.0809902], [120.6718943, 15.0809734], [120.6717688, 15.0808917], [120.6717332, 15.0808595], [120.6714169, 15.0805679]]}, "properties": {"city": "sanfernando-pampanga", "name": "", "highway": "tertiary", "v_posted": 60, "posted_imputed": false, "v_safe": 50, "gap": 10, "R": 2.07, "exposure": 0.696, "vru_150m": 1, "sss": 21.2, "recommended": 50, "fatal_reduction_pct": 51.8, "why": "undivided arterial, side-impact intersections", "pop_density": 20037.8, "pop_density_peak": 76209.6}}, {"type": "Feature", "geometry": {"type": "LineString", "coordinates": [[120.6525018, 15.0604278], [120.6522964, 15.0602613], [120.6521063, 15.0601072]]}, "properties": {"city": "sanfernando-pampanga", "name": "Miguel Malvar Street", "highway": "residential", "v_posted": 40, "posted_imputed": false, "v_safe": 30, "gap": 10, "R": 3.16, "exposure": 0.006, "vru_150m": 0, "sss": 12.6, "recommended": 30, "fatal_reduction_pct": 68.4, "why": "local road, frontage/pedestrian mixing", "pop_density": 194.0, "pop_density_peak": 225.9}}, {"type": "Feature", "geometry": {"type": "LineString", "coordinates": [[120.6557682, 15.0930776], [120.6561909, 15.0929046], [120.6564598, 15.0927895], [120.656796, 15.0926304], [120.6570134, 15.0925205], [120.6575958, 15.0922551], [120.6576707, 15.092221], [120.6577415, 15.0921797], [120.6579676, 15.0920631], [120.6581081, 15.0919776], [120.658202, 15.0919097], [120.6583147, 15.0918271], [120.6584349, 15.0917206], [120.658646, 15.0915402], [120.6586889, 15.0914967], [120.6589927, 15.0911891], [120.6590869, 15.0910938], [120.6591586, 15.0910282], [120.6592719, 15.0909116], [120.6593309, 15.0908566], [120.659402, 15.0907818], [120.6595105, 15.0906678], [120.6596421, 15.0905294], [120.6601218, 15.0900437], [120.6603788, 15.0897954], [120.6605561, 15.089633], [120.6607873, 15.0894335], [120.6609109, 15.0893218], [120.6610608, 15.0892216], [120.661102, 15.0891928], [120.6612449, 15.0890928], [120.66156, 15.0889089], [120.6617206, 15.0888202], [120.6618266, 15.088773], [120.6619573, 15.0887179], [120.6620127, 15.0886962], [120.6620723, 15.0886768], [120.6622182, 15.0886241], [120.6623057, 15.0885916], [120.6623711, 15.0885762], [120.6624374, 15.0885606], [120.6625253, 15.0885586], [120.6626068, 15.0885625], [120.6627238, 15.08858], [120.6628023, 15.0885887], [120.6631534, 15.0886356], [120.6632334, 15.0886501], [120.6632874, 15.0886583], [120.6635814, 15.0887096], [120.6637741, 15.0887377], [120.6639588, 15.0887596], [120.664348, 15.0888139], [120.6645967, 15.0888189], [120.6647247, 15.0888135], [120.6648876, 15.0887846], [120.6650345, 15.0887477], [120.6651301, 15.0887065], [120.6653448, 15.0886267], [120.6654612, 15.0885819], [120.6658742, 15.0884426], [120.6661968, 15.0883212], [120.6663456, 15.088265], [120.6664549, 15.0882193], [120.6665929, 15.0881638], [120.6667969, 15.0880751], [120.6669081, 15.0880267], [120.6670103, 15.0879833], [120.6670712, 15.0879538], [120.6671296, 15.0879225], [120.6671677, 15.0878918], [120.6671924, 15.0878654], [120.6672219, 15.0878238], [120.6672512, 15.0877675], [120.667309, 15.0876432], [120.6673734, 15.0874943], [120.6674108, 15.08741], [120.6675195, 15.087165], [120.6675672, 15.0870592], [120.6676235, 15.0869349], [120.6676785, 15.0868054], [120.6678124, 15.0864858], [120.6679852, 15.0861156], [120.6681838, 15.0856477], [120.6683151, 15.0853552], [120.6683494, 15.0852737], [120.6685584, 15.0847805], [120.6688271, 15.0840738], [120.6688834, 15.0839482], [120.669043, 15.0836148], [120.6691215, 15.0834413], [120.6691899, 15.0833027], [120.6692918, 15.0831091], [120.6693877, 15.0829505], [120.6694614, 15.0828475], [120.6695091, 15.0827809], [120.6696352, 15.0826274], [120.6697485, 15.082496], [120.6700717, 15.0821205], [120.6702393, 15.0819172], [120.6705041, 15.0816019], [120.6707261, 15.0813591], [120.6708941, 15.0811684], [120.6710088, 15.0810381], [120.6711526, 15.0808748], [120.6713413, 15.0806556], [120.6714169, 15.0805679], [120.6718607, 15.0799243], [120.6720511, 15.0796739], [120.6721762, 15.0795122], [120.6722906, 15.0793704], [120.6726529, 15.0789181], [120.6728706, 15.0786423], [120.6735257, 15.0778576], [120.6736806, 15.0776918], [120.6741098, 15.0771816], [120.6742124, 15.0770502], [120.6743129, 15.0769233], [120.6744169, 15.0767867], [120.6745811, 15.0765587], [120.6748166, 15.0762428], [120.6749653, 15.0760434], [120.6750752, 15.0758926], [120.6751277, 15.0758233], [120.6753838, 15.0754827], [120.675633, 15.0751321], [120.675703, 15.0750423], [120.6758378, 15.0748384], [120.6759254, 15.0746975], [120.6760061, 15.0745412], [120.6760919, 15.0743768], [120.6761899, 15.0741959], [120.6762397, 15.0741042], [120.6763099, 15.0739776], [120.6765352, 15.0734958], [120.6765745, 15.0734342], [120.676598, 15.0733887], [120.6766205, 15.0733439], [120.6769812, 15.0726027], [120.6770218, 15.0725078], [120.677116, 15.0723334], [120.6772432, 15.0720549], [120.6772711, 15.0720016], [120.677315, 15.0719107], [120.677374, 15.0717921], [120.6775256, 15.0714864], [120.6779762, 15.0706395], [120.6779963, 15.0705922], [120.6789538, 15.0686368], [120.6790638, 15.068418], [120.6794098, 15.0677336], [120.6797706, 15.0670679], [120.6799065, 15.0667771], [120.6800666, 15.066464], [120.6801783, 15.066256], [120.6802051, 15.066197], [120.6805055, 15.0655942], [120.6805833, 15.0654388], [120.6808635, 15.0648987], [120.6809333, 15.0647615], [120.6810419, 15.0645349], [120.6817423, 15.0631727], [120.6819458, 15.0627963], [120.6820571, 15.0625645], [120.6820907, 15.0624862], [120.6821141, 15.0623923], [120.6821282, 15.0623189], [120.6821269, 15.0621922], [120.6821148, 15.062042], [120.6820719, 15.0617027], [120.6820726, 15.0615278], [120.6820826, 15.061375], [120.6821014, 15.0611911], [120.6821255, 15.0610085], [120.682155, 15.0607949], [120.6822181, 15.0604452], [120.6822959, 15.0600942], [120.6823321, 15.0599466], [120.6823911, 15.0597407], [120.6824876, 15.0594325], [120.6826314, 15.0589845], [120.6826542, 15.058908], [120.6826901, 15.058772], [120.6827116, 15.0586185], [120.682725, 15.058366], [120.6827364, 15.0581873], [120.6827559, 15.057688], [120.6827746, 15.0570522], [120.6828162, 15.056564], [120.6828377, 15.0562933], [120.6829047, 15.0557364], [120.6829745, 15.0552973], [120.6830026, 15.0550513], [120.683016, 15.0548965], [120.6830266, 15.054554], [120.6830294, 15.0544646], [120.6830274, 15.0542101], [120.6830221, 15.0539751], [120.6829908, 15.0537271], [120.6829718, 15.0535762], [120.6829302, 15.0532848], [120.6829154, 15.0530478], [120.682894, 15.0527868], [120.6828692, 15.0524598], [120.6828685, 15.0523051], [120.6828605, 15.0521665], [120.6828561, 15.052048], [120.6828566, 15.0519321], [120.6828598, 15.0518096], [120.6828665, 15.0516986], [120.6828931, 15.0515837], [120.6829436, 15.0514303], [120.6830492, 15.0511884], [120.6831513, 15.0509819], [120.6832735, 15.0507814], [120.6834519, 15.0504939], [120.68359, 15.0502867], [120.6837577, 15.0500432], [120.6839139, 15.0498599], [120.6841238, 15.0496145], [120.6842505, 15.0494494], [120.6843578, 15.0492833], [120.684385, 15.049224], [120.6844042, 15.0491662], [120.6844175, 15.049101]]}, "properties": {"city": "sanfernando-pampanga", "name": "Calulut - Del Carmen Road", "highway": "secondary", "v_posted": 60, "posted_imputed": false, "v_safe": 50, "gap": 10, "R": 2.07, "exposure": 0.355, "vru_150m": 0, "sss": 16.9, "recommended": 50, "fatal_reduction_pct": 51.8, "why": "undivided arterial, side-impact intersections", "pop_density": 11486.2, "pop_density_peak": 25565.7}}, {"type": "Feature", "geometry": {"type": "LineString", "coordinates": [[120.6615653, 15.0606907], [120.6614416, 15.0606775], [120.6611705, 15.060649], [120.6606973, 15.0605488], [120.6601301, 15.0604536], [120.6596839, 15.0603723], [120.6588811, 15.0602345], [120.6587945, 15.0602164], [120.6584059, 15.0601607], [120.6580102, 15.0600688], [120.6575082, 15.0599727], [120.6574117, 15.0599505], [120.6573102, 15.0599129], [120.6572551, 15.0598885], [120.6572105, 15.0598637], [120.6570569, 15.0597698], [120.6568544, 15.0596047], [120.6566821, 15.0594781]]}, "properties": {"city": "sanfernando-pampanga", "name": "San Miguel Boulevard", "highway": "unclassified", "v_posted": 40, "posted_imputed": false, "v_safe": 30, "gap": 10, "R": 3.16, "exposure": 0.084, "vru_150m": 0, "sss": 13.5, "recommended": 30, "fatal_reduction_pct": 68.4, "why": "local road, frontage/pedestrian mixing", "pop_density": 2711.2, "pop_density_peak": 6143.1}}, {"type": "Feature", "geometry": {"type": "LineString", "coordinates": [[120.6678609, 15.0475792], [120.6678803, 15.0475993], [120.6679289, 15.0476562], [120.6680588, 15.0478504]]}, "properties": {"city": "sanfernando-pampanga", "name": "Diamond Street", "highway": "residential", "v_posted": 40, "posted_imputed": false, "v_safe": 30, "gap": 10, "R": 3.16, "exposure": 0.429, "vru_150m": 2, "sss": 17.9, "recommended": 30, "fatal_reduction_pct": 68.4, "why": "local road, frontage/pedestrian mixing", "pop_density": 1576.6, "pop_density_peak": 1576.6}}, {"type": "Feature", "geometry": {"type": "LineString", "coordinates": [[120.6614995, 15.0605897], [120.6620624, 15.0606865], [120.6621212, 15.0606735], [120.6621672, 15.0606589], [120.6623601, 15.060585], [120.6624378, 15.0605566], [120.6626146, 15.0604713], [120.6630666, 15.0602531], [120.6632299, 15.0601737], [120.6633431, 15.0601195], [120.66347, 15.0600457]]}, "properties": {"city": "sanfernando-pampanga", "name": "San Miguel Boulevard", "highway": "service", "v_posted": 40, "posted_imputed": false, "v_safe": 30, "gap": 10, "R": 3.16, "exposure": 0.116, "vru_150m": 0, "sss": 14.0, "recommended": 30, "fatal_reduction_pct": 68.4, "why": "local road, frontage/pedestrian mixing", "pop_density": 3756.0, "pop_density_peak": 6143.1}}, {"type": "Feature", "geometry": {"type": "LineString", "coordinates": [[120.6635222, 15.0601274], [120.6633823, 15.0601926], [120.6632711, 15.060242], [120.6631053, 15.0603215], [120.6626543, 15.0605473], [120.6624766, 15.0606363], [120.6623956, 15.0606609], [120.6622142, 15.0607245], [120.6621025, 15.0607494], [120.6620106, 15.060765], [120.661988, 15.0607688], [120.6615941, 15.0606915], [120.6615653, 15.0606907]]}, "properties": {"city": "sanfernando-pampanga", "name": "San Miguel Boulevard", "highway": "service", "v_posted": 40, "posted_imputed": false, "v_safe": 30, "gap": 10, "R": 3.16, "exposure": 0.161, "vru_150m": 0, "sss": 14.5, "recommended": 30, "fatal_reduction_pct": 68.4, "why": "local road, frontage/pedestrian mixing", "pop_density": 5197.1, "pop_density_peak": 6641.6}}, {"type": "Feature", "geometry": {"type": "LineString", "coordinates": [[120.710108, 15.0562659], [120.7101012, 15.0562739], [120.7100825, 15.0562994], [120.710047, 15.0563473], [120.7097689, 15.0566299], [120.7080703, 15.0583563], [120.7079472, 15.0584768], [120.7077977, 15.05862], [120.7077186, 15.0586885], [120.7075052, 15.0588018], [120.7072436, 15.0589184], [120.7067315, 15.0591405], [120.7066238, 15.0591983], [120.7064967, 15.0593204], [120.7059565, 15.0599406], [120.7057627, 15.0601638], [120.7053202, 15.0606776], [120.7052255, 15.0607716], [120.7051017, 15.060883], [120.7049177, 15.0610248], [120.7046288, 15.0611888], [120.7030834, 15.0620472], [120.7025089, 15.0623863], [120.7022275, 15.0625303], [120.7019596, 15.0626644], [120.7015703, 15.0628242], [120.7013209, 15.0629448], [120.7009062, 15.0631932], [120.700673, 15.063374], [120.6999006, 15.0642721], [120.699809, 15.0643541], [120.6997584, 15.0644171], [120.6995123, 15.0646917], [120.6992589, 15.0649539], [120.6990449, 15.0652077], [120.6989698, 15.0653019], [120.6988291, 15.0654965], [120.6986894, 15.0657438], [120.6985113, 15.0660306], [120.6983992, 15.0662517], [120.6983176, 15.066555], [120.6982952, 15.0667389], [120.6982704, 15.0668316], [120.6982211, 15.0670441], [120.6980919, 15.0676591]]}, "properties": {"city": "sanfernando-pampanga", "name": "", "highway": "tertiary", "v_posted": 60, "posted_imputed": false, "v_safe": 50, "gap": 10, "R": 2.07, "exposure": 0.211, "vru_150m": 0, "sss": 15.1, "recommended": 50, "fatal_reduction_pct": 51.8, "why": "undivided arterial, side-impact intersections", "pop_density": 6810.3, "pop_density_peak": 12707.4}}, {"type": "Feature", "geometry": {"type": "LineString", "coordinates": [[120.7032906, 15.062324], [120.7030834, 15.0620472], [120.7026665, 15.0615991], [120.7025871, 15.0614979], [120.70223, 15.0610803], [120.7017548, 15.0603982], [120.7016453, 15.0602566], [120.7014031, 15.0599277]]}, "properties": {"city": "sanfernando-pampanga", "name": "", "highway": "residential", "v_posted": 60, "posted_imputed": false, "v_safe": 30, "gap": 30, "R": 16.0, "exposure": 0.04, "vru_150m": 0, "sss": 39.0, "recommended": 30, "fatal_reduction_pct": 93.8, "why": "local road, frontage/pedestrian mixing", "pop_density": 1309.1, "pop_density_peak": 1754.9}}, {"type": "Feature", "geometry": {"type": "LineString", "coordinates": [[120.6980574, 15.0798093], [120.698441, 15.0796496], [120.6985137, 15.0796317], [120.6986715, 15.0795881], [120.6989526, 15.0794815], [120.6990142, 15.0794457], [120.6990838, 15.079405], [120.6991691, 15.0793549], [120.6992757, 15.0792186], [120.6993378, 15.0790497], [120.6993902, 15.0788736], [120.6994146, 15.0786926], [120.6994424, 15.0783157], [120.6994509, 15.0782013], [120.6995656, 15.0768103], [120.699543, 15.0763907], [120.6994814, 15.0762343]]}, "properties": {"city": "sanfernando-pampanga", "name": "", "highway": "tertiary", "v_posted": 60, "posted_imputed": false, "v_safe": 50, "gap": 10, "R": 2.07, "exposure": 0.152, "vru_150m": 0, "sss": 14.4, "recommended": 50, "fatal_reduction_pct": 51.8, "why": "undivided arterial, side-impact intersections", "pop_density": 4900.8, "pop_density_peak": 8004.9}}, {"type": "Feature", "geometry": {"type": "LineString", "coordinates": [[120.6980574, 15.0798093], [120.698211, 15.0802398], [120.6983113, 15.0805562], [120.6984662, 15.0810153], [120.6987251, 15.0819276], [120.6987687, 15.0820951], [120.6989647, 15.0827219], [120.6990852, 15.0830918], [120.6993372, 15.0836478]]}, "properties": {"city": "sanfernando-pampanga", "name": "", "highway": "tertiary", "v_posted": 60, "posted_imputed": false, "v_safe": 50, "gap": 10, "R": 2.07, "exposure": 0.037, "vru_150m": 0, "sss": 13.0, "recommended": 50, "fatal_reduction_pct": 51.8, "why": "undivided arterial, side-impact intersections", "pop_density": 1189.4, "pop_density_peak": 3101.6}}, {"type": "Feature", "geometry": {"type": "LineString", "coordinates": [[120.6998338, 15.0582908], [120.6997222, 15.0582125], [120.6996158, 15.058132], [120.6993599, 15.0579872], [120.6986505, 15.0575923], [120.698229, 15.0573598], [120.697819, 15.057153], [120.697016, 15.0567121], [120.6968694, 15.0566461], [120.6966143, 15.0565058], [120.6961985, 15.0562916], [120.6960461, 15.0562035], [120.6958825, 15.0561336]]}, "properties": {"city": "sanfernando-pampanga", "name": "", "highway": "residential", "v_posted": 60, "posted_imputed": false, "v_safe": 30, "gap": 30, "R": 16.0, "exposure": 0.502, "vru_150m": 2, "sss": 56.3, "recommended": 30, "fatal_reduction_pct": 93.8, "why": "local road, frontage/pedestrian mixing", "pop_density": 5509.1, "pop_density_peak": 6902.9}}, {"type": "Feature", "geometry": {"type": "LineString", "coordinates": [[120.7014031, 15.0599277], [120.7005546, 15.0590222], [120.7004479, 15.0589247], [120.7000693, 15.0585054]]}, "properties": {"city": "sanfernando-pampanga", "name": "", "highway": "residential", "v_posted": 60, "posted_imputed": false, "v_safe": 30, "gap": 30, "R": 16.0, "exposure": 0.037, "vru_150m": 0, "sss": 38.9, "recommended": 30, "fatal_reduction_pct": 93.8, "why": "local road, frontage/pedestrian mixing", "pop_density": 1197.6, "pop_density_peak": 1593.4}}, {"type": "Feature", "geometry": {"type": "LineString", "coordinates": [[120.6980919, 15.0676591], [120.6981911, 15.0678516], [120.6983788, 15.068667], [120.6985125, 15.069158], [120.6987028, 15.0698562], [120.6988936, 15.0706242], [120.6989589, 15.0709712], [120.6989623, 15.0714943], [120.6990396, 15.0720326]]}, "properties": {"city": "sanfernando-pampanga", "name": "", "highway": "tertiary", "v_posted": 60, "posted_imputed": false, "v_safe": 50, "gap": 10, "R": 2.07, "exposure": 0.134, "vru_150m": 0, "sss": 14.2, "recommended": 50, "fatal_reduction_pct": 51.8, "why": "undivided arterial, side-impact intersections", "pop_density": 4322.5, "pop_density_peak": 8880.6}}, {"type": "Feature", "geometry": {"type": "LineString", "coordinates": [[120.6999758, 15.0584143], [120.6998338, 15.0582908]]}, "properties": {"city": "sanfernando-pampanga", "name": "", "highway": "residential", "v_posted": 60, "posted_imputed": false, "v_safe": 30, "gap": 30, "R": 16.0, "exposure": 0.07, "vru_150m": 0, "sss": 40.1, "recommended": 30, "fatal_reduction_pct": 93.8, "why": "local road, frontage/pedestrian mixing", "pop_density": 2266.4, "pop_density_peak": 3533.0}}, {"type": "Feature", "geometry": {"type": "LineString", "coordinates": [[120.7000693, 15.0585054], [120.6999758, 15.0584143]]}, "properties": {"city": "sanfernando-pampanga", "name": "", "highway": "residential", "v_posted": 60, "posted_imputed": false, "v_safe": 30, "gap": 30, "R": 16.0, "exposure": 0.031, "vru_150m": 0, "sss": 38.7, "recommended": 30, "fatal_reduction_pct": 93.8, "why": "local road, frontage/pedestrian mixing", "pop_density": 999.7, "pop_density_peak": 999.7}}, {"type": "Feature", "geometry": {"type": "LineString", "coordinates": [[120.7101648, 15.0562046], [120.7101345, 15.0562356], [120.710108, 15.0562659]]}, "properties": {"city": "sanfernando-pampanga", "name": "", "highway": "tertiary", "v_posted": 60, "posted_imputed": false, "v_safe": 50, "gap": 10, "R": 2.07, "exposure": 0.44, "vru_150m": 1, "sss": 18.0, "recommended": 50, "fatal_reduction_pct": 51.8, "why": "undivided arterial, side-impact intersections", "pop_density": 9708.5, "pop_density_peak": 9708.5}}, {"type": "Feature", "geometry": {"type": "LineString", "coordinates": [[120.7112145, 15.0556645], [120.7110598, 15.0557536], [120.7108232, 15.0558609], [120.7104478, 15.0560415], [120.7102672, 15.0561316], [120.7101648, 15.0562046]]}, "properties": {"city": "sanfernando-pampanga", "name": "", "highway": "tertiary", "v_posted": 60, "posted_imputed": false, "v_safe": 50, "gap": 10, "R": 2.07, "exposure": 0.421, "vru_150m": 1, "sss": 17.8, "recommended": 50, "fatal_reduction_pct": 51.8, "why": "undivided arterial, side-impact intersections", "pop_density": 8929.1, "pop_density_peak": 9708.5}}, {"type": "Feature", "geometry": {"type": "LineString", "coordinates": [[120.6991492, 15.0734616], [120.6990828, 15.0729747], [120.6990426, 15.072338], [120.6990396, 15.0720326]]}, "properties": {"city": "sanfernando-pampanga", "name": "", "highway": "tertiary", "v_posted": 60, "posted_imputed": false, "v_safe": 50, "gap": 10, "R": 2.07, "exposure": 0.116, "vru_150m": 0, "sss": 13.9, "recommended": 50, "fatal_reduction_pct": 51.8, "why": "undivided arterial, side-impact intersections", "pop_density": 3744.6, "pop_density_peak": 4789.6}}, {"type": "Feature", "geometry": {"type": "LineString", "coordinates": [[120.6991485, 15.0735778], [120.6991492, 15.0734616]]}, "properties": {"city": "sanfernando-pampanga", "name": "", "highway": "tertiary", "v_posted": 60, "posted_imputed": false, "v_safe": 50, "gap": 10, "R": 2.07, "exposure": 0.148, "vru_150m": 0, "sss": 14.4, "recommended": 50, "fatal_reduction_pct": 51.8, "why": "undivided arterial, side-impact intersections", "pop_density": 4789.6, "pop_density_peak": 4789.6}}, {"type": "Feature", "geometry": {"type": "LineString", "coordinates": [[120.6994814, 15.0762343], [120.699441, 15.076219], [120.6993467, 15.0761185], [120.699226, 15.0759838], [120.6991396, 15.075819], [120.699124, 15.075541], [120.6991328, 15.0750148], [120.6991956, 15.0740925], [120.6991957, 15.0739338], [120.6991485, 15.0735778]]}, "properties": {"city": "sanfernando-pampanga", "name": "", "highway": "tertiary", "v_posted": 60, "posted_imputed": false, "v_safe": 50, "gap": 10, "R": 2.07, "exposure": 0.343, "vru_150m": 1, "sss": 16.8, "recommended": 50, "fatal_reduction_pct": 51.8, "why": "undivided arterial, side-impact intersections", "pop_density": 5762.3, "pop_density_peak": 8004.9}}, {"type": "Feature", "geometry": {"type": "LineString", "coordinates": [[120.7453552, 15.0724242], [120.7449912, 15.0722929], [120.7448363, 15.0722396], [120.7445729, 15.072147], [120.7443263, 15.0720602], [120.7442748, 15.0720474], [120.7441912, 15.0720205], [120.7435855, 15.0718317], [120.7429292, 15.0715885], [120.7428324, 15.0715521], [120.7427189, 15.0715076], [120.7424855, 15.0714225], [120.742097, 15.0712741], [120.7416807, 15.0711245], [120.7411863, 15.0709443], [120.74114, 15.0709284], [120.740935, 15.0708583], [120.7407382, 15.0707904], [120.7404906, 15.0707082], [120.7403312, 15.0706545], [120.7400925, 15.070573], [120.7395992, 15.0703925], [120.7395378, 15.0703686], [120.7391137, 15.0702036], [120.7389906, 15.0701557], [120.7389751, 15.0701497], [120.7389149, 15.0701263], [120.7385298, 15.0699898], [120.738388, 15.0699386], [120.7383571, 15.0699275], [120.7381103, 15.0698385], [120.7373314, 15.0695308], [120.7372788, 15.06951], [120.7372518, 15.0694993], [120.7371973, 15.0694777], [120.7370685, 15.0694538], [120.7369347, 15.06945], [120.7367106, 15.0694792], [120.7362936, 15.0695708]]}, "properties": {"city": "sanfernando-pampanga", "name": "Jose Abad Santos Avenue", "highway": "trunk", "v_posted": 80, "posted_imputed": false, "v_safe": 70, "gap": 10, "R": 1.71, "exposure": 0.112, "vru_150m": 0, "sss": 13.9, "recommended": 70, "fatal_reduction_pct": 41.4, "why": "trunk highway (head-on only; no at-grade ped mixing assumed)", "pop_density": 3634.0, "pop_density_peak": 5347.8}}, {"type": "Feature", "geometry": {"type": "LineString", "coordinates": [[120.7324743, 15.0691341], [120.7322835, 15.0690646], [120.7320387, 15.0689472], [120.7319608, 15.0689073], [120.7315602, 15.0686997], [120.7314251, 15.0686289], [120.731342, 15.0685893], [120.7309398, 15.0684053], [120.7307617, 15.06833]]}, "properties": {"city": "sanfernando-pampanga", "name": "Jose Abad Santos Avenue", "highway": "trunk", "v_posted": 80, "posted_imputed": false, "v_safe": 70, "gap": 10, "R": 1.71, "exposure": 0.057, "vru_150m": 0, "sss": 13.2, "recommended": 70, "fatal_reduction_pct": 41.4, "why": "trunk highway (head-on only; no at-grade ped mixing assumed)", "pop_density": 1827.7, "pop_density_peak": 2400.7}}, {"type": "Feature", "geometry": {"type": "LineString", "coordinates": [[120.7360659, 15.069626], [120.7359882, 15.0696499], [120.7358246, 15.0696906]]}, "properties": {"city": "sanfernando-pampanga", "name": "Jose Abad Santos Avenue", "highway": "trunk", "v_posted": 80, "posted_imputed": false, "v_safe": 70, "gap": 10, "R": 1.71, "exposure": 0.291, "vru_150m": 1, "sss": 16.1, "recommended": 70, "fatal_reduction_pct": 41.4, "why": "trunk highway (head-on only; no at-grade ped mixing assumed)", "pop_density": 3664.4, "pop_density_peak": 4005.4}}, {"type": "Feature", "geometry": {"type": "LineString", "coordinates": [[120.7362936, 15.0695708], [120.7360659, 15.069626]]}, "properties": {"city": "sanfernando-pampanga", "name": "Jose Abad Santos Avenue", "highway": "trunk", "v_posted": 80, "posted_imputed": false, "v_safe": 70, "gap": 10, "R": 1.71, "exposure": 0.282, "vru_150m": 1, "sss": 16.0, "recommended": 70, "fatal_reduction_pct": 41.4, "why": "trunk highway (head-on only; no at-grade ped mixing assumed)", "pop_density": 3323.5, "pop_density_peak": 3323.5}}, {"type": "Feature", "geometry": {"type": "LineString", "coordinates": [[120.7281523, 15.0671964], [120.7280665, 15.0671603], [120.7279415, 15.0671132], [120.7279065, 15.0671005], [120.7278249, 15.0670708], [120.7276386, 15.0669963], [120.7273926, 15.0669004], [120.727338, 15.0668773], [120.727165, 15.0668041], [120.7266246, 15.0665609]]}, "properties": {"city": "sanfernando-pampanga", "name": "Jose Abad Santos Avenue", "highway": "trunk", "v_posted": 80, "posted_imputed": false, "v_safe": 70, "gap": 10, "R": 1.71, "exposure": 0.233, "vru_150m": 1, "sss": 15.4, "recommended": 70, "fatal_reduction_pct": 41.4, "why": "trunk highway (head-on only; no at-grade ped mixing assumed)", "pop_density": 1325.0, "pop_density_peak": 1741.5}}, {"type": "Feature", "geometry": {"type": "LineString", "coordinates": [[120.7292159, 15.0676517], [120.7286012, 15.0673955], [120.7283278, 15.0672742], [120.7281523, 15.0671964]]}, "properties": {"city": "sanfernando-pampanga", "name": "Jose Abad Santos Avenue", "highway": "trunk", "v_posted": 80, "posted_imputed": false, "v_safe": 70, "gap": 10, "R": 1.71, "exposure": 0.422, "vru_150m": 2, "sss": 17.8, "recommended": 70, "fatal_reduction_pct": 41.4, "why": "trunk highway (head-on only; no at-grade ped mixing assumed)", "pop_density": 1209.5, "pop_density_peak": 1510.4}}, {"type": "Feature", "geometry": {"type": "LineString", "coordinates": [[120.7358246, 15.0696906], [120.7355296, 15.0697421], [120.7353835, 15.0697524], [120.735189, 15.0697395], [120.7349731, 15.0697097], [120.7346774, 15.0696482], [120.7338493, 15.0694546], [120.7337802, 15.0694379], [120.7329601, 15.0692571], [120.7326429, 15.0691827], [120.7324743, 15.0691341]]}, "properties": {"city": "sanfernando-pampanga", "name": "Jose Abad Santos Avenue", "highway": "trunk", "v_posted": 80, "posted_imputed": false, "v_safe": 70, "gap": 10, "R": 1.71, "exposure": 0.089, "vru_150m": 0, "sss": 13.6, "recommended": 70, "fatal_reduction_pct": 41.4, "why": "trunk highway (head-on only; no at-grade ped mixing assumed)", "pop_density": 2888.0, "pop_density_peak": 4005.4}}, {"type": "Feature", "geometry": {"type": "LineString", "coordinates": [[120.7266246, 15.0665609], [120.7262814, 15.0664239]]}, "properties": {"city": "sanfernando-pampanga", "name": "Jose Abad Santos Avenue", "highway": "trunk", "v_posted": 80, "posted_imputed": false, "v_safe": 70, "gap": 10, "R": 1.71, "exposure": 0.054, "vru_150m": 0, "sss": 13.2, "recommended": 70, "fatal_reduction_pct": 41.4, "why": "trunk highway (head-on only; no at-grade ped mixing assumed)", "pop_density": 1741.5, "pop_density_peak": 1741.5}}, {"type": "Feature", "geometry": {"type": "LineString", "coordinates": [[120.7123002, 15.0546445], [120.7122116, 15.0547394], [120.7119171, 15.055084], [120.7118702, 15.0551308], [120.7115353, 15.0554151], [120.7113731, 15.0555516], [120.7112145, 15.0556645]]}, "properties": {"city": "sanfernando-pampanga", "name": "", "highway": "tertiary", "v_posted": 60, "posted_imputed": false, "v_safe": 50, "gap": 10, "R": 2.07, "exposure": 0.44, "vru_150m": 1, "sss": 18.0, "recommended": 50, "fatal_reduction_pct": 51.8, "why": "undivided arterial, side-impact intersections", "pop_density": 9686.7, "pop_density_peak": 11223.8}}]}