{"type": "FeatureCollection", "features": [{"type": "Feature", "geometry": {"type": "LineString", "coordinates": [[124.9911806, 11.2060199], [124.9908369, 11.2060231], [124.9907296, 11.2060389], [124.9905794, 11.2060968], [124.990456, 11.2061915], [124.9903863, 11.2062757], [124.9903164, 11.2064084], [124.9902762, 11.2065046], [124.9902417, 11.206587], [124.9899521, 11.2073566], [124.9899195, 11.2074387], [124.9899148, 11.2075032], [124.9899423, 11.2076962], [124.9899615, 11.2078834], [124.9899942, 11.2080392], [124.9900175, 11.2081583], [124.9900222, 11.2083186], [124.9900082, 11.2084744], [124.9899615, 11.208621], [124.9899054, 11.2087859], [124.9897046, 11.2092211], [124.9896357, 11.2093411], [124.9895599, 11.209473], [124.9893357, 11.209812], [124.9892843, 11.2099265], [124.9892236, 11.2100548], [124.9891676, 11.2102563], [124.9889126, 11.2112658], [124.9887286, 11.2119604], [124.9886118, 11.2124323], [124.9884904, 11.2129087], [124.9882709, 11.213779], [124.9882196, 11.2139623], [124.9881635, 11.2140997], [124.9880781, 11.2142553], [124.9880373, 11.2143112], [124.9877619, 11.2147181], [124.9872856, 11.2154648], [124.9871315, 11.2157076], [124.9870381, 11.2158908], [124.986968, 11.2160374], [124.9869166, 11.2161794], [124.9866925, 11.2170223], [124.9864543, 11.2178239], [124.9864258, 11.2179146], [124.9863422, 11.2181812], [124.9862161, 11.218532], [124.9861738, 11.2186498], [124.9860987, 11.218882], [124.9859002, 11.2192503], [124.9857704, 11.2194492], [124.9854619, 11.2199219], [124.9853557, 11.2201251], [124.9852565, 11.2203474], [124.9851063, 11.2207092], [124.9850647, 11.2208486], [124.9850392, 11.221017], [124.9850366, 11.2211472], [124.9850526, 11.2212774], [124.9851218, 11.2215721], [124.9852082, 11.2220417], [124.9852403, 11.2223325], [124.985176, 11.2225442], [124.9851251, 11.2227008], [124.9848998, 11.2231533], [124.9848729, 11.2233019], [124.9848817, 11.2235107], [124.9848944, 11.2235982], [124.984991, 11.2242635], [124.9850084, 11.2244043], [124.9850225, 11.2245677], [124.9850195, 11.224666], [124.9849986, 11.224707], [124.9849574, 11.2247503], [124.984877, 11.2248446], [124.9847804, 11.2249475], [124.9846819, 11.2250447], [124.9846556, 11.2250706], [124.9845725, 11.2251764], [124.9845057, 11.225322], [124.9844844, 11.2253684], [124.9844471, 11.2254497], [124.9844212, 11.2256298], [124.9843904, 11.2257238], [124.9842989, 11.2260025], [124.9842105, 11.2261473], [124.9840884, 11.2263564], [124.9839154, 11.2266734], [124.9837759, 11.2269102], [124.9836197, 11.2272206], [124.9835243, 11.2276389], [124.9835043, 11.2277718], [124.9834889, 11.2278843], [124.9834675, 11.2279527], [124.9834131, 11.228125], [124.9833919, 11.2282072], [124.9833615, 11.2283769], [124.9833768, 11.2285508], [124.983435, 11.2287169], [124.9835707, 11.2290701], [124.9836338, 11.2292767], [124.9836539, 11.2294727], [124.9836579, 11.2296713], [124.9836284, 11.229866], [124.9835788, 11.2301054], [124.9835379, 11.2303691], [124.9835079, 11.2305511], [124.9834151, 11.2310469], [124.983342, 11.2315243], [124.9833173, 11.2316747], [124.9832904, 11.2318681], [124.9832448, 11.2320575], [124.983159, 11.2323296], [124.9830893, 11.2326363], [124.9830296, 11.2328414], [124.9830239, 11.2328577], [124.9830025, 11.2329188], [124.9829337, 11.2331151], [124.9828863, 11.2332294], [124.9826622, 11.23377], [124.982565, 11.2339986], [124.9824764, 11.2342068], [124.982273, 11.2346271], [124.9820494, 11.2350268], [124.9819243, 11.235219], [124.981743, 11.2355462], [124.9816905, 11.2356354], [124.9815845, 11.2359235], [124.981539, 11.2362063], [124.9814947, 11.2367574], [124.9814518, 11.2375638], [124.9814263, 11.2379742], [124.9813431, 11.2382609], [124.9811903, 11.2385214], [124.9809086, 11.2388002], [124.979715, 11.2398815], [124.9790444, 11.2404614], [124.9786153, 11.2408154], [124.9782753, 11.2411079], [124.9779038, 11.2413976], [124.9773534, 11.2418597], [124.9769182, 11.2422207], [124.9765019, 11.2425727], [124.9761805, 11.2427693], [124.9759183, 11.2429101], [124.9757581, 11.2429831], [124.9755617, 11.2430615], [124.9752162, 11.2431548], [124.9743139, 11.2434172], [124.9740059, 11.2434941], [124.9736652, 11.2435699], [124.9730866, 11.2436698], [124.9727947, 11.2437178], [124.9726158, 11.2437652], [124.9724314, 11.2438429], [124.9722978, 11.2439205], [124.9721955, 11.2439948], [124.9720745, 11.2441266], [124.972003, 11.2442144], [124.9719467, 11.2443058], [124.9718835, 11.2444085], [124.9718374, 11.2445279], [124.9717972, 11.2446534], [124.9717503, 11.2448021], [124.9716932, 11.2449318], [124.9716229, 11.2450303], [124.971535, 11.2451454], [124.9714269, 11.2452468], [124.9713085, 11.2453513], [124.9711468, 11.2454713], [124.9707254, 11.2457389], [124.9705844, 11.2458402], [124.9705166, 11.2459072], [124.9704548, 11.2460105], [124.9704334, 11.2460958], [124.9704193, 11.2461612], [124.970424, 11.2462771], [124.9704454, 11.2464206], [124.9705739, 11.2469383], [124.9707051, 11.2474159], [124.9708443, 11.2479433], [124.9708988, 11.2481472], [124.9709338, 11.2483248], [124.9709949, 11.2486499], [124.971006, 11.2491498], [124.9709996, 11.2496735], [124.9710221, 11.250384], [124.9710467, 11.250685], [124.9710619, 11.2509129], [124.9710744, 11.2511346], [124.9710583, 11.2513161], [124.9710366, 11.2514456], [124.9709892, 11.2516369], [124.9709383, 11.2518085], [124.970863, 11.25203], [124.9707686, 11.2522887], [124.9706903, 11.2524755], [124.970636, 11.2525999], [124.9706163, 11.2526597], [124.9705604, 11.2527932], [124.9704875, 11.25297], [124.9703916, 11.2531871], [124.9702729, 11.2533944], [124.9702316, 11.2534684], [124.9699347, 11.2537871]]}, "properties": {"city": "tacloban", "name": "Tacloban City Bypass Road", "highway": "trunk", "v_posted": 60, "posted_imputed": false, "v_safe": 50, "gap": 10, "R": 2.07, "exposure": 0.085, "vru_150m": 0, "sss": 13.6, "recommended": 50, "fatal_reduction_pct": 51.8, "why": "undivided arterial, side-impact intersections", "pop_density": 2743.4, "pop_density_peak": 12703.3, "v_design": 70, "design_gap": 20}}, {"type": "Feature", "geometry": {"type": "LineString", "coordinates": [[124.9911806, 11.2060199], [124.9913898, 11.2060239]]}, "properties": {"city": "tacloban", "name": "Tacloban City Bypass Road", "highway": "trunk", "v_posted": 60, "posted_imputed": false, "v_safe": 50, "gap": 10, "R": 2.07, "exposure": 0.097, "vru_150m": 0, "sss": 13.7, "recommended": 50, "fatal_reduction_pct": 51.8, "why": "undivided arterial, side-impact intersections", "pop_density": 3133.8, "pop_density_peak": 3133.8, "v_design": 70, "design_gap": 20}}, {"type": "Feature", "geometry": {"type": "LineString", "coordinates": [[124.9922344, 11.2223652], [124.9923121, 11.222176], [124.9923323, 11.2221268]]}, "properties": {"city": "tacloban", "name": "Maharlika Highway", "highway": "primary", "v_posted": 50, "posted_imputed": false, "v_safe": 30, "gap": 20, "R": 7.72, "exposure": 0.838, "vru_150m": 4, "sss": 45.9, "recommended": 30, "fatal_reduction_pct": 87.0, "why": "pedestrian activity (1 VRU site<=50m)", "pop_density": 6078.5, "pop_density_peak": 6078.5, "v_design": 60, "design_gap": 30}}, {"type": "Feature", "geometry": {"type": "LineString", "coordinates": [[124.983161, 11.2457286], [124.9830384, 11.245765], [124.9829879, 11.2457797], [124.9828635, 11.2458178], [124.9827361, 11.2458584], [124.9826631, 11.2458884], [124.9825172, 11.2459157]]}, "properties": {"city": "tacloban", "name": "Maharlika Highway", "highway": "primary", "v_posted": 50, "posted_imputed": false, "v_safe": 30, "gap": 20, "R": 7.72, "exposure": 0.63, "vru_150m": 3, "sss": 40.7, "recommended": 30, "fatal_reduction_pct": 87.0, "why": "pedestrian activity (1 VRU site<=50m)", "pop_density": 2394.5, "pop_density_peak": 3436.0, "v_design": 60, "design_gap": 30}}, {"type": "Feature", "geometry": {"type": "LineString", "coordinates": [[124.9664358, 11.262581], [124.966613, 11.2620837], [124.9669118, 11.2612996], [124.9669528, 11.261175], [124.9670032, 11.2610201], [124.9670192, 11.2609713], [124.9670921, 11.2607634], [124.9671538, 11.2605743], [124.9672686, 11.2602607], [124.9673047, 11.2601553], [124.9674486, 11.2597301], [124.9675911, 11.2593113], [124.9677826, 11.2587997], [124.9678644, 11.2586306], [124.9679563, 11.2584573], [124.9680817, 11.2582854], [124.9682424, 11.2580939], [124.9684148, 11.2579449], [124.9686747, 11.257731]]}, "properties": {"city": "tacloban", "name": "Maharlika Highway", "highway": "trunk", "v_posted": 60, "posted_imputed": false, "v_safe": 50, "gap": 10, "R": 2.07, "exposure": 0.451, "vru_150m": 2, "sss": 18.1, "recommended": 50, "fatal_reduction_pct": 51.8, "why": "undivided arterial, side-impact intersections", "pop_density": 2733.0, "pop_density_peak": 4077.6, "v_design": 70, "design_gap": 20}}, {"type": "Feature", "geometry": {"type": "LineString", "coordinates": [[124.9686747, 11.257731], [124.9690237, 11.2574301]]}, "properties": {"city": "tacloban", "name": "Maharlika Highway", "highway": "trunk", "v_posted": 60, "posted_imputed": false, "v_safe": 50, "gap": 10, "R": 2.07, "exposure": 0.436, "vru_150m": 2, "sss": 18.0, "recommended": 50, "fatal_reduction_pct": 51.8, "why": "undivided arterial, side-impact intersections", "pop_density": 1957.0, "pop_density_peak": 1957.0, "v_design": 70, "design_gap": 20}}, {"type": "Feature", "geometry": {"type": "LineString", "coordinates": [[124.983161, 11.2457286], [124.9830268, 11.2457419], [124.9829592, 11.2457242], [124.9829049, 11.2456872], [124.9828659, 11.2456124], [124.9828445, 11.2455529], [124.9828431, 11.2454706]]}, "properties": {"city": "tacloban", "name": "Naga-Naga Rotonda", "highway": "primary", "v_posted": 50, "posted_imputed": false, "v_safe": 30, "gap": 20, "R": 7.72, "exposure": 0.617, "vru_150m": 3, "sss": 40.4, "recommended": 30, "fatal_reduction_pct": 87.0, "why": "pedestrian activity (1 VRU site<=50m)", "pop_density": 1353.0, "pop_density_peak": 1353.0, "v_design": 55, "design_gap": 25}}, {"type": "Feature", "geometry": {"type": "LineString", "coordinates": [[124.9690237, 11.2574301], [124.9695689, 11.2569498], [124.9701104, 11.2565016], [124.9703742, 11.2562633], [124.9705014, 11.2561581], [124.9706266, 11.2560546], [124.9708408, 11.255876], [124.9711571, 11.2555878]]}, "properties": {"city": "tacloban", "name": "Maharlika Highway", "highway": "trunk", "v_posted": 60, "posted_imputed": false, "v_safe": 30, "gap": 30, "R": 16.0, "exposure": 0.623, "vru_150m": 3, "sss": 60.9, "recommended": 30, "fatal_reduction_pct": 93.8, "why": "pedestrian activity (1 VRU site<=50m)", "pop_density": 1894.9, "pop_density_peak": 1957.0, "v_design": 70, "design_gap": 40}}, {"type": "Feature", "geometry": {"type": "LineString", "coordinates": [[124.97125, 11.2555033], [124.9713332, 11.2554361]]}, "properties": {"city": "tacloban", "name": "Maharlika Highway", "highway": "primary", "v_posted": 80, "posted_imputed": false, "v_safe": 50, "gap": 30, "R": 6.55, "exposure": 0.433, "vru_150m": 2, "sss": 53.7, "recommended": 50, "fatal_reduction_pct": 84.7, "why": "undivided arterial, side-impact intersections", "pop_density": 1773.7, "pop_density_peak": 1773.7, "v_design": 60, "design_gap": 10}}, {"type": "Feature", "geometry": {"type": "LineString", "coordinates": [[124.9825172, 11.2459157], [124.9825624, 11.2458154], [124.9826284, 11.2457348], [124.9826855, 11.2456585], [124.9828431, 11.2454706]]}, "properties": {"city": "tacloban", "name": "Maharlika Highway", "highway": "primary", "v_posted": 50, "posted_imputed": false, "v_safe": 30, "gap": 20, "R": 7.72, "exposure": 0.63, "vru_150m": 3, "sss": 40.7, "recommended": 30, "fatal_reduction_pct": 87.0, "why": "pedestrian activity (1 VRU site<=50m)", "pop_density": 2394.5, "pop_density_peak": 3436.0, "v_design": 60, "design_gap": 30}}, {"type": "Feature", "geometry": {"type": "LineString", "coordinates": [[124.98303, 11.2452192], [124.9831428, 11.2449993], [124.9832951, 11.2447445]]}, "properties": {"city": "tacloban", "name": "Maharlika Highway", "highway": "primary", "v_posted": 50, "posted_imputed": false, "v_safe": 30, "gap": 20, "R": 7.72, "exposure": 0.611, "vru_150m": 3, "sss": 40.3, "recommended": 30, "fatal_reduction_pct": 87.0, "why": "pedestrian activity (1 VRU site<=50m)", "pop_density": 876.9, "pop_density_peak": 876.9, "v_design": 60, "design_gap": 30}}, {"type": "Feature", "geometry": {"type": "LineString", "coordinates": [[124.9832951, 11.2447445], [124.9833413, 11.2446184]]}, "properties": {"city": "tacloban", "name": "Maharlika Highway", "highway": "primary", "v_posted": 50, "posted_imputed": false, "v_safe": 30, "gap": 20, "R": 7.72, "exposure": 0.222, "vru_150m": 1, "sss": 30.5, "recommended": 30, "fatal_reduction_pct": 87.0, "why": "pedestrian activity (1 VRU site<=50m)", "pop_density": 876.9, "pop_density_peak": 876.9, "v_design": 60, "design_gap": 30}}, {"type": "Feature", "geometry": {"type": "LineString", "coordinates": [[124.9808627, 11.2473182], [124.9813898, 11.2468676], [124.9815364, 11.2467533], [124.9822727, 11.2461309]]}, "properties": {"city": "tacloban", "name": "Maharlika Highway", "highway": "primary", "v_posted": 50, "posted_imputed": false, "v_safe": 30, "gap": 20, "R": 7.72, "exposure": 0.734, "vru_150m": 3, "sss": 43.4, "recommended": 30, "fatal_reduction_pct": 87.0, "why": "pedestrian activity (1 VRU site<=50m)", "pop_density": 10857.9, "pop_density_peak": 18279.8, "v_design": 60, "design_gap": 30}}, {"type": "Feature", "geometry": {"type": "LineString", "coordinates": [[124.9699559, 11.2541795], [124.9698758, 11.2542351], [124.9697808, 11.2542593], [124.9696833, 11.2542489], [124.9695958, 11.2542052], [124.9695298, 11.254134], [124.9694938, 11.2540444], [124.9694904, 11.2539628], [124.9695123, 11.2538839], [124.9695575, 11.2538153], [124.9696218, 11.2537633], [124.969699, 11.2537327], [124.9697821, 11.2537265], [124.9698632, 11.2537452], [124.9699347, 11.2537871]]}, "properties": {"city": "tacloban", "name": "Tacloban City Bypass Road", "highway": "trunk", "v_posted": 60, "posted_imputed": false, "v_safe": 50, "gap": 10, "R": 2.07, "exposure": 0.035, "vru_150m": 0, "sss": 12.9, "recommended": 50, "fatal_reduction_pct": 51.8, "why": "undivided arterial, side-impact intersections", "pop_density": 1121.5, "pop_density_peak": 1121.5, "v_design": 50, "design_gap": 0}}, {"type": "Feature", "geometry": {"type": "LineString", "coordinates": [[124.9699559, 11.2541795], [124.97125, 11.2555033]]}, "properties": {"city": "tacloban", "name": "Tacloban City Bypass Road", "highway": "trunk", "v_posted": 60, "posted_imputed": false, "v_safe": 50, "gap": 10, "R": 2.07, "exposure": 0.427, "vru_150m": 2, "sss": 17.8, "recommended": 50, "fatal_reduction_pct": 51.8, "why": "undivided arterial, side-impact intersections", "pop_density": 1447.6, "pop_density_peak": 1773.7, "v_design": 70, "design_gap": 20}}, {"type": "Feature", "geometry": {"type": "LineString", "coordinates": [[124.9713332, 11.2554361], [124.9714665, 11.2553229], [124.9717145, 11.2551157], [124.9722916, 11.2546318], [124.9724366, 11.2545063], [124.9725395, 11.2544192], [124.9727645, 11.2542185], [124.9729381, 11.2540711], [124.9731141, 11.2539426], [124.9734418, 11.2536723], [124.9736012, 11.2535409], [124.974123, 11.2530975], [124.9742309, 11.2530058], [124.9743044, 11.2529434], [124.9745361, 11.2527466], [124.9746887, 11.2526181], [124.9748572, 11.2524855], [124.9749077, 11.2524434], [124.9751595, 11.2522161], [124.9754405, 11.2519629], [124.9754798, 11.2519275], [124.9756548, 11.2517808], [124.9758491, 11.2516179], [124.9762611, 11.2512634], [124.9764321, 11.2511171], [124.976664, 11.2509186], [124.9768803, 11.2507335], [124.9770055, 11.2506264], [124.977326, 11.2503521], [124.9773527, 11.2503292], [124.9777131, 11.2500208], [124.9784747, 11.2493571], [124.9789655, 11.2489606], [124.9790647, 11.2488598], [124.9796204, 11.2483902]]}, "properties": {"city": "tacloban", "name": "Maharlika Highway", "highway": "primary", "v_posted": 60, "posted_imputed": false, "v_safe": 50, "gap": 10, "R": 2.07, "exposure": 0.736, "vru_150m": 3, "sss": 21.7, "recommended": 50, "fatal_reduction_pct": 51.8, "why": "undivided arterial, side-impact intersections", "pop_density": 10999.6, "pop_density_peak": 18318.8, "v_design": 60, "design_gap": 10}}, {"type": "Feature", "geometry": {"type": "LineString", "coordinates": [[124.9711571, 11.2555878], [124.971188, 11.2555598], [124.97125, 11.2555033]]}, "properties": {"city": "tacloban", "name": "Maharlika Highway", "highway": "trunk", "v_posted": 80, "posted_imputed": false, "v_safe": 50, "gap": 30, "R": 6.55, "exposure": 0.433, "vru_150m": 2, "sss": 53.7, "recommended": 50, "fatal_reduction_pct": 84.7, "why": "undivided arterial, side-impact intersections", "pop_density": 1773.7, "pop_density_peak": 1773.7, "v_design": 70, "design_gap": 20}}, {"type": "Feature", "geometry": {"type": "LineString", "coordinates": [[124.9824079, 11.2460149], [124.9825172, 11.2459157]]}, "properties": {"city": "tacloban", "name": "Maharlika Highway", "highway": "primary", "v_posted": 50, "posted_imputed": false, "v_safe": 30, "gap": 20, "R": 7.72, "exposure": 0.642, "vru_150m": 3, "sss": 41.1, "recommended": 30, "fatal_reduction_pct": 87.0, "why": "pedestrian activity (1 VRU site<=50m)", "pop_density": 3436.0, "pop_density_peak": 3436.0, "v_design": 60, "design_gap": 30}}, {"type": "Feature", "geometry": {"type": "LineString", "coordinates": [[124.9833413, 11.2446184], [124.9833769, 11.2445254]]}, "properties": {"city": "tacloban", "name": "Maharlika Highway", "highway": "primary", "v_posted": 50, "posted_imputed": false, "v_safe": 30, "gap": 20, "R": 7.72, "exposure": 0.222, "vru_150m": 1, "sss": 30.5, "recommended": 30, "fatal_reduction_pct": 87.0, "why": "pedestrian activity (1 VRU site<=50m)", "pop_density": 879.1, "pop_density_peak": 881.3, "v_design": 60, "design_gap": 30}}, {"type": "Feature", "geometry": {"type": "LineString", "coordinates": [[124.9699347, 11.2537871], [124.9699934, 11.2538535], [124.970027, 11.253935], [124.9700317, 11.2540228], [124.9700071, 11.2541073], [124.9699559, 11.2541795]]}, "properties": {"city": "tacloban", "name": "Tacloban City Bypass Road", "highway": "trunk", "v_posted": 60, "posted_imputed": false, "v_safe": 50, "gap": 10, "R": 2.07, "exposure": 0.035, "vru_150m": 0, "sss": 12.9, "recommended": 50, "fatal_reduction_pct": 51.8, "why": "undivided arterial, side-impact intersections", "pop_density": 1121.5, "pop_density_peak": 1121.5, "v_design": 60, "design_gap": 10}}, {"type": "Feature", "geometry": {"type": "LineString", "coordinates": [[124.9855726, 11.2390365], [124.9858889, 11.2382507], [124.9860539, 11.2378409]]}, "properties": {"city": "tacloban", "name": "Maharlika Highway", "highway": "primary", "v_posted": 50, "posted_imputed": false, "v_safe": 30, "gap": 20, "R": 7.72, "exposure": 1.0, "vru_150m": 6, "sss": 50.0, "recommended": 30, "fatal_reduction_pct": 87.0, "why": "pedestrian activity (1 VRU site<=50m)", "pop_density": 7389.0, "pop_density_peak": 8137.1, "v_design": 60, "design_gap": 30}}, {"type": "Feature", "geometry": {"type": "LineString", "coordinates": [[124.9822727, 11.2461309], [124.9824079, 11.2460149]]}, "properties": {"city": "tacloban", "name": "Maharlika Highway", "highway": "primary", "v_posted": 50, "posted_imputed": false, "v_safe": 30, "gap": 20, "R": 7.72, "exposure": 0.642, "vru_150m": 3, "sss": 41.1, "recommended": 30, "fatal_reduction_pct": 87.0, "why": "pedestrian activity (1 VRU site<=50m)", "pop_density": 3436.0, "pop_density_peak": 3436.0, "v_design": 60, "design_gap": 30}}, {"type": "Feature", "geometry": {"type": "LineString", "coordinates": [[125.0250686, 11.2276479], [125.0249191, 11.227719], [125.0245779, 11.2278813], [125.0243071, 11.2280091], [125.0239883, 11.2281597]]}, "properties": {"city": "tacloban", "name": "", "highway": "unclassified", "v_posted": 40, "posted_imputed": false, "v_safe": 30, "gap": 10, "R": 3.16, "exposure": 0.466, "vru_150m": 0, "sss": 18.3, "recommended": 30, "fatal_reduction_pct": 68.4, "why": "local road, frontage/pedestrian mixing", "pop_density": 15072.3, "pop_density_peak": 19728.2, "v_design": 40, "design_gap": 10}}, {"type": "Feature", "geometry": {"type": "LineString", "coordinates": [[125.0239883, 11.2281597], [125.0234947, 11.2283881], [125.0230323, 11.2286049], [125.0227953, 11.2283004], [125.0225539, 11.2279901], [125.0224212, 11.2278175], [125.0222986, 11.2276561], [125.0221742, 11.2274922], [125.0220178, 11.2272848], [125.0219398, 11.2271764], [125.021978, 11.2271156], [125.0221717, 11.2268327], [125.0222848, 11.2266622], [125.0223742, 11.2265274], [125.0224674, 11.2263768], [125.022601, 11.2261533]]}, "properties": {"city": "tacloban", "name": "", "highway": "unclassified", "v_posted": 40, "posted_imputed": false, "v_safe": 30, "gap": 10, "R": 3.16, "exposure": 0.294, "vru_150m": 0, "sss": 16.2, "recommended": 30, "fatal_reduction_pct": 68.4, "why": "local road, frontage/pedestrian mixing", "pop_density": 9524.1, "pop_density_peak": 10466.3, "v_design": 30, "design_gap": 0}}, {"type": "Feature", "geometry": {"type": "LineString", "coordinates": [[124.9969867, 11.2392377], [124.9965041, 11.2394731], [124.9965838, 11.2396242], [124.9966098, 11.2396734]]}, "properties": {"city": "tacloban", "name": "", "highway": "service", "v_posted": 40, "posted_imputed": false, "v_safe": 30, "gap": 10, "R": 3.16, "exposure": 0.421, "vru_150m": 1, "sss": 17.8, "recommended": 30, "fatal_reduction_pct": 68.4, "why": "local road, frontage/pedestrian mixing", "pop_density": 8931.4, "pop_density_peak": 10474.0, "v_design": 20, "design_gap": -10}}, {"type": "Feature", "geometry": {"type": "LineString", "coordinates": [[124.9580619, 11.2926385], [124.958079, 11.2923463], [124.9580936, 11.2920963], [124.9581302, 11.2915983], [124.9581596, 11.2913244], [124.9583286, 11.2898564], [124.9585317, 11.2881751]]}, "properties": {"city": "tacloban", "name": "Maharlika Highway", "highway": "trunk", "v_posted": 60, "posted_imputed": false, "v_safe": 30, "gap": 30, "R": 16.0, "exposure": 0.283, "vru_150m": 1, "sss": 48.1, "recommended": 30, "fatal_reduction_pct": 93.8, "why": "pedestrian activity (1 VRU site<=50m)", "pop_density": 3337.9, "pop_density_peak": 4667.2, "v_design": 70, "design_gap": 40}}, {"type": "Feature", "geometry": {"type": "LineString", "coordinates": [[124.9658592, 11.2641903], [124.9659474, 11.2639572]]}, "properties": {"city": "tacloban", "name": "Maharlika Highway", "highway": "trunk", "v_posted": 60, "posted_imputed": false, "v_safe": 50, "gap": 10, "R": 2.07, "exposure": 0.37, "vru_150m": 1, "sss": 17.1, "recommended": 50, "fatal_reduction_pct": 51.8, "why": "undivided arterial, side-impact intersections", "pop_density": 6867.4, "pop_density_peak": 6867.4, "v_design": 70, "design_gap": 20}}, {"type": "Feature", "geometry": {"type": "LineString", "coordinates": [[124.9586765, 11.2870341], [124.9587498, 11.286185], [124.9587596, 11.2861183], [124.9588537, 11.2853887], [124.9589397, 11.2846362], [124.9590198, 11.2839916], [124.9590779, 11.2834728], [124.9591028, 11.2832646], [124.9591083, 11.2832094], [124.9591986, 11.282385], [124.9592262, 11.2822129], [124.9592528, 11.2820273], [124.9593286, 11.2813451], [124.9593615, 11.2810908], [124.959491, 11.2800337], [124.9595561, 11.2796027], [124.9596399, 11.2792705], [124.9596912, 11.2790758], [124.9598034, 11.278768], [124.9599715, 11.2782656], [124.9603819, 11.2770798], [124.9606281, 11.2763464], [124.9607544, 11.2759919], [124.9609279, 11.2754844], [124.9610504, 11.2751262], [124.961218, 11.2747777], [124.96179, 11.2737117], [124.9619145, 11.2734708], [124.9622567, 11.2727912], [124.9626302, 11.2720623], [124.9628656, 11.2716467], [124.9631957, 11.2711243], [124.9632957, 11.2709948], [124.9634204, 11.2708343], [124.9641006, 11.2699022], [124.9643473, 11.2695621], [124.9648313, 11.2688829], [124.9648729, 11.2688257], [124.9650522, 11.2685731], [124.9650715, 11.268546], [124.9653245, 11.2681924], [124.965622, 11.267783], [124.9657347, 11.2676003], [124.9657967, 11.2674864], [124.9658482, 11.2673714], [124.9659172, 11.267183], [124.9659582, 11.2669963], [124.9659691, 11.2669084], [124.9659861, 11.2667671], [124.9659954, 11.2666684], [124.9659953, 11.2665817], [124.9659867, 11.2664398], [124.965949, 11.2662636], [124.9658858, 11.2659767], [124.9658597, 11.265874], [124.9658119, 11.2656633], [124.9657682, 11.2654732], [124.9657354, 11.2652797], [124.9657159, 11.2650877], [124.9657106, 11.2649431], [124.9657082, 11.264812], [124.9657061, 11.2646805], [124.9657161, 11.2645966], [124.965736, 11.2645043], [124.9658592, 11.2641903]]}, "properties": {"city": "tacloban", "name": "Maharlika Highway", "highway": "trunk", "v_posted": 60, "posted_imputed": false, "v_safe": 30, "gap": 30, "R": 16.0, "exposure": 0.506, "vru_150m": 2, "sss": 56.5, "recommended": 30, "fatal_reduction_pct": 93.8, "why": "pedestrian activity (2 VRU site<=50m)", "pop_density": 5730.2, "pop_density_peak": 10241.0, "v_design": 70, "design_gap": 40}}, {"type": "Feature", "geometry": {"type": "LineString", "coordinates": [[124.9639704, 11.2960113], [124.9639317, 11.295983], [124.9638942, 11.2959556], [124.9635923, 11.2957482], [124.9634327, 11.2956483], [124.9632496, 11.2955433], [124.9627098, 11.2952652], [124.9625978, 11.2952091], [124.9618449, 11.2948248], [124.9609182, 11.2943672], [124.9603901, 11.2941088], [124.9599233, 11.2939048], [124.9593179, 11.2934096], [124.9588607, 11.2931775], [124.9584769, 11.2929989], [124.958408, 11.2928672], [124.9583178, 11.292739], [124.9581823, 11.2926574], [124.9580619, 11.2926385]]}, "properties": {"city": "tacloban", "name": "Maharlika Highway", "highway": "trunk", "v_posted": 60, "posted_imputed": false, "v_safe": 50, "gap": 10, "R": 2.07, "exposure": 0.08, "vru_150m": 0, "sss": 13.5, "recommended": 50, "fatal_reduction_pct": 51.8, "why": "undivided arterial, side-impact intersections", "pop_density": 2593.3, "pop_density_peak": 3189.3, "v_design": 70, "design_gap": 20}}, {"type": "Feature", "geometry": {"type": "LineString", "coordinates": [[124.9586633, 11.2871549], [124.9586765, 11.2870341]]}, "properties": {"city": "tacloban", "name": "Maharlika Highway", "highway": "trunk", "v_posted": 60, "posted_imputed": false, "v_safe": 50, "gap": 10, "R": 2.07, "exposure": 0.471, "vru_150m": 2, "sss": 18.4, "recommended": 50, "fatal_reduction_pct": 51.8, "why": "undivided arterial, side-impact intersections", "pop_density": 3821.7, "pop_density_peak": 3821.7, "v_design": 70, "design_gap": 20}}, {"type": "Feature", "geometry": {"type": "LineString", "coordinates": [[124.9585317, 11.2881751], [124.9585815, 11.2877892], [124.9586495, 11.2872555], [124.9586633, 11.2871549]]}, "properties": {"city": "tacloban", "name": "Maharlika Highway", "highway": "trunk", "v_posted": 60, "posted_imputed": false, "v_safe": 50, "gap": 10, "R": 2.07, "exposure": 0.652, "vru_150m": 3, "sss": 20.7, "recommended": 50, "fatal_reduction_pct": 51.8, "why": "undivided arterial, side-impact intersections", "pop_density": 4244.4, "pop_density_peak": 4667.2, "v_design": 70, "design_gap": 20}}, {"type": "Feature", "geometry": {"type": "LineString", "coordinates": [[124.9659474, 11.2639572], [124.9662312, 11.2631546], [124.9662755, 11.2630336], [124.9663316, 11.2628816], [124.9663547, 11.2628186], [124.9664358, 11.262581]]}, "properties": {"city": "tacloban", "name": "Maharlika Highway", "highway": "trunk", "v_posted": 60, "posted_imputed": false, "v_safe": 30, "gap": 30, "R": 16.0, "exposure": 0.668, "vru_150m": 3, "sss": 62.5, "recommended": 30, "fatal_reduction_pct": 93.8, "why": "pedestrian activity (2 VRU site<=50m)", "pop_density": 5472.5, "pop_density_peak": 6867.3, "v_design": 70, "design_gap": 40}}]}