{"type": "FeatureCollection", "features": [{"type": "Feature", "geometry": {"type": "LineString", "coordinates": [[120.3022903, 15.9914498], [120.2995369, 15.9941176], [120.2981321, 15.9954667], [120.2979112, 15.9956908], [120.2977798, 15.9957958], [120.2974928, 15.9959955], [120.2973083, 15.996098], [120.296896, 15.9962534], [120.2961436, 15.9965486], [120.2959397, 15.9966272], [120.2953698, 15.9968631], [120.2948977, 15.9970604], [120.2946362, 15.9971893], [120.2943733, 15.9973543], [120.2939858, 15.9975915], [120.2935374, 15.99786], [120.2932549, 15.9980105], [120.2931194, 15.9980672], [120.2929579, 15.9981123], [120.2926755, 15.998151], [120.292477, 15.9981949], [120.2923081, 15.9982618], [120.2921391, 15.9983508], [120.2920204, 15.9984234], [120.2917461, 15.9985971], [120.2908847, 15.999146]]}, "properties": {"city": "dagupan", "name": "Carmen-Bayambang-Manat Road", "highway": "primary", "v_posted": 80, "posted_imputed": false, "v_safe": 50, "gap": 30, "R": 6.55, "exposure": 0.205, "vru_150m": 1, "sss": 45.2, "recommended": 50, "fatal_reduction_pct": 84.7, "why": "undivided arterial, side-impact intersections", "pop_density": 220.3, "pop_density_peak": 1762.1, "v_design": 60, "design_gap": 10}}, {"type": "Feature", "geometry": {"type": "LineString", "coordinates": [[120.3147955, 16.0165728], [120.3148079, 16.0165781], [120.3157988, 16.0170038], [120.3160333, 16.0171045], [120.316293, 16.0172161], [120.3166628, 16.017375], [120.3167011, 16.0173914], [120.3168343, 16.0174486], [120.31711, 16.0175892]]}, "properties": {"city": "dagupan", "name": "Lucao Road", "highway": "trunk", "v_posted": 50, "posted_imputed": false, "v_safe": 30, "gap": 20, "R": 7.72, "exposure": 0.441, "vru_150m": 1, "sss": 36.0, "recommended": 30, "fatal_reduction_pct": 87.0, "why": "pedestrian activity (1 VRU site<=50m)", "pop_density": 9750.2, "pop_density_peak": 15104.5, "v_design": 70, "design_gap": 40}}, {"type": "Feature", "geometry": {"type": "LineString", "coordinates": [[120.2907175, 15.9992622], [120.2897109, 15.9999229], [120.2891738, 16.0002717], [120.2887809, 16.0005437], [120.2884805, 16.0008157], [120.2882503, 16.0010821], [120.2879878, 16.0014011], [120.2878873, 16.0015637], [120.2876207, 16.0019891], [120.2875828, 16.0020507], [120.2872628, 16.0025766], [120.2870992, 16.0028487], [120.2860692, 16.0045258], [120.2859217, 16.0047888], [120.2858117, 16.0050453], [120.2856615, 16.00557], [120.2856052, 16.0058342], [120.2855771, 16.0060986], [120.2855811, 16.0063577], [120.2856253, 16.0069068], [120.2858466, 16.0090222], [120.2858573, 16.0093497], [120.2858064, 16.0096577], [120.2857313, 16.0098949], [120.2856052, 16.0101218], [120.2854161, 16.0104377]]}, "properties": {"city": "dagupan", "name": "Carmen-Bayambang-Manat Road", "highway": "primary", "v_posted": 80, "posted_imputed": false, "v_safe": 50, "gap": 30, "R": 6.55, "exposure": 0.015, "vru_150m": 0, "sss": 38.1, "recommended": 50, "fatal_reduction_pct": 84.7, "why": "undivided arterial, side-impact intersections", "pop_density": 494.6, "pop_density_peak": 2031.8, "v_design": 60, "design_gap": 10}}, {"type": "Feature", "geometry": {"type": "LineString", "coordinates": [[120.2908847, 15.999146], [120.2907175, 15.9992622]]}, "properties": {"city": "dagupan", "name": "Carmen-Bayambang-Manat Road", "highway": "primary", "v_posted": 80, "posted_imputed": false, "v_safe": 50, "gap": 30, "R": 6.55, "exposure": 0.0, "vru_150m": 0, "sss": 37.5, "recommended": 50, "fatal_reduction_pct": 84.7, "why": "undivided arterial, side-impact intersections", "pop_density": 0.0, "pop_density_peak": 0.0, "v_design": 60, "design_gap": 10}}, {"type": "Feature", "geometry": {"type": "LineString", "coordinates": [[120.3527712, 16.0213262], [120.3527482, 16.0213212], [120.3525743, 16.0212832], [120.3524076, 16.0212468], [120.3522645, 16.0212348], [120.3522313, 16.0212353], [120.3519805, 16.0212691], [120.351541, 16.0213901], [120.3513431, 16.0214446], [120.3511129, 16.0215158], [120.3508737, 16.0215778], [120.3507854, 16.0215909], [120.3506836, 16.0216059], [120.3505832, 16.0216115], [120.3503839, 16.0216035], [120.3502034, 16.021583], [120.3500641, 16.0215621], [120.3492411, 16.0214212], [120.349153, 16.0214092], [120.3491, 16.0214023], [120.34886, 16.0213708], [120.3483641, 16.0213318], [120.3479853, 16.021352], [120.3475595, 16.021398], [120.347169, 16.0214232], [120.3470251, 16.0214216], [120.3469022, 16.021417]]}, "properties": {"city": "dagupan", "name": "De Venecia Avenue", "highway": "trunk", "v_posted": 60, "posted_imputed": false, "v_safe": 50, "gap": 10, "R": 2.07, "exposure": 0.392, "vru_150m": 1, "sss": 17.4, "recommended": 50, "fatal_reduction_pct": 51.8, "why": "undivided arterial, side-impact intersections", "pop_density": 7742.7, "pop_density_peak": 9547.4, "v_design": 70, "design_gap": 20}}, {"type": "Feature", "geometry": {"type": "LineString", "coordinates": [[120.3273004, 16.0250725], [120.3276662, 16.0249026], [120.3278321, 16.0247919], [120.3279211, 16.0247073], [120.3279841, 16.0246364], [120.3281048, 16.0244444], [120.3282148, 16.0241672], [120.3282441, 16.0240661], [120.3283267, 16.0237812], [120.3283381, 16.0237419], [120.3284508, 16.0234467], [120.3286139, 16.023184], [120.3295127, 16.0215481], [120.3296185, 16.0213475], [120.3298067, 16.0210037], [120.3302496, 16.0202171], [120.3302985, 16.0201303], [120.3303535, 16.0200261], [120.3305584, 16.0196339], [120.3310763, 16.0187277]]}, "properties": {"city": "dagupan", "name": "De Venecia Avenue", "highway": "trunk", "v_posted": 60, "posted_imputed": false, "v_safe": 50, "gap": 10, "R": 2.07, "exposure": 0.395, "vru_150m": 0, "sss": 17.4, "recommended": 50, "fatal_reduction_pct": 51.8, "why": "undivided arterial, side-impact intersections", "pop_density": 12785.3, "pop_density_peak": 14017.4, "v_design": 70, "design_gap": 20}}, {"type": "Feature", "geometry": {"type": "LineString", "coordinates": [[120.3224679, 16.0209241], [120.3224578, 16.0209821], [120.3223035, 16.021693], [120.322147, 16.0221261], [120.3217184, 16.0230246], [120.3213977, 16.0236052], [120.3213587, 16.0236936], [120.3212674, 16.0239062], [120.3212302, 16.0240996], [120.3212219, 16.0243162], [120.3212635, 16.024534], [120.3213447, 16.0247267], [120.3216152, 16.0251862], [120.3217278, 16.0253724], [120.322382, 16.0265049], [120.3224673, 16.0266526], [120.322494, 16.0266989], [120.3242525, 16.0297431], [120.3243876, 16.0299774], [120.3244276, 16.0300471], [120.3246993, 16.0304529], [120.3250095, 16.0310245], [120.3251451, 16.0313538], [120.3251946, 16.0314654], [120.3252459, 16.0316718], [120.3252657, 16.0317515], [120.3252872, 16.0318289], [120.32533, 16.0320828], [120.3253488, 16.0322555], [120.3253636, 16.0325236], [120.3252804, 16.0347818], [120.325271, 16.035407], [120.3252228, 16.0360604], [120.3252026, 16.0364871], [120.3251903, 16.0370504], [120.3251503, 16.0388819], [120.3251399, 16.039182], [120.3251302, 16.0394593]]}, "properties": {"city": "dagupan", "name": "Jose de Venecia Avenue", "highway": "trunk", "v_posted": 60, "posted_imputed": false, "v_safe": 50, "gap": 10, "R": 2.07, "exposure": 0.129, "vru_150m": 0, "sss": 14.1, "recommended": 50, "fatal_reduction_pct": 51.8, "why": "undivided arterial, side-impact intersections", "pop_density": 4176.1, "pop_density_peak": 11461.2, "v_design": 70, "design_gap": 20}}, {"type": "Feature", "geometry": {"type": "LineString", "coordinates": [[120.3269923, 16.0251919], [120.3270628, 16.0251565], [120.3271794, 16.0250979], [120.327233, 16.0250786], [120.3272649, 16.0250734], [120.3273004, 16.0250725]]}, "properties": {"city": "dagupan", "name": "De Venecia Avenue", "highway": "trunk", "v_posted": 60, "posted_imputed": false, "v_safe": 50, "gap": 10, "R": 2.07, "exposure": 0.418, "vru_150m": 0, "sss": 17.7, "recommended": 50, "fatal_reduction_pct": 51.8, "why": "undivided arterial, side-impact intersections", "pop_density": 13505.8, "pop_density_peak": 14017.4, "v_design": 70, "design_gap": 20}}, {"type": "Feature", "geometry": {"type": "LineString", "coordinates": [[120.3224981, 16.0207116], [120.3224858, 16.0206248], [120.3224806, 16.0205648], [120.3224679, 16.0204901], [120.3224461, 16.0204437], [120.3224148, 16.0203825], [120.3223617, 16.0202796]]}, "properties": {"city": "dagupan", "name": "", "highway": "trunk_link", "v_posted": 60, "posted_imputed": false, "v_safe": 50, "gap": 10, "R": 2.07, "exposure": 0.097, "vru_150m": 0, "sss": 13.7, "recommended": 50, "fatal_reduction_pct": 51.8, "why": "undivided arterial, side-impact intersections", "pop_density": 3138.9, "pop_density_peak": 3262.6, "v_design": 55, "design_gap": 5}}, {"type": "Feature", "geometry": {"type": "LineString", "coordinates": [[120.3310763, 16.0187277], [120.3314284, 16.0180982], [120.3315651, 16.0178538], [120.3317698, 16.0175965], [120.3319805, 16.0174287], [120.331994, 16.0174213], [120.3321409, 16.0173414], [120.3322713, 16.0172705], [120.3324616, 16.0172232], [120.3326759, 16.0171956], [120.3328423, 16.0171908], [120.3328755, 16.0171899], [120.3334166, 16.0171658], [120.3335095, 16.0171676], [120.3336582, 16.0171706], [120.3340699, 16.0171719], [120.3354269, 16.0171635], [120.3356947, 16.017177], [120.33608, 16.0172775], [120.3364625, 16.0174192], [120.3368726, 16.0175947], [120.3370015, 16.0176451], [120.3370565, 16.0176666]]}, "properties": {"city": "dagupan", "name": "De Venecia Avenue", "highway": "trunk", "v_posted": 60, "posted_imputed": false, "v_safe": 50, "gap": 10, "R": 2.07, "exposure": 0.562, "vru_150m": 1, "sss": 19.5, "recommended": 50, "fatal_reduction_pct": 51.8, "why": "undivided arterial, side-impact intersections", "pop_density": 14639.8, "pop_density_peak": 18323.0, "v_design": 60, "design_gap": 10}}, {"type": "Feature", "geometry": {"type": "LineString", "coordinates": [[120.3469022, 16.021417], [120.3467053, 16.0213771], [120.3461054, 16.0211433]]}, "properties": {"city": "dagupan", "name": "De Venecia Avenue", "highway": "trunk", "v_posted": 60, "posted_imputed": false, "v_safe": 50, "gap": 10, "R": 2.07, "exposure": 0.374, "vru_150m": 1, "sss": 17.2, "recommended": 50, "fatal_reduction_pct": 51.8, "why": "undivided arterial, side-impact intersections", "pop_density": 7034.0, "pop_density_peak": 7546.8, "v_design": 70, "design_gap": 20}}, {"type": "Feature", "geometry": {"type": "LineString", "coordinates": [[120.3224679, 16.0209241], [120.3224632, 16.0208427], [120.3224981, 16.0207116]]}, "properties": {"city": "dagupan", "name": "Jose de Venecia Avenue", "highway": "trunk", "v_posted": 60, "posted_imputed": false, "v_safe": 50, "gap": 10, "R": 2.07, "exposure": 0.101, "vru_150m": 0, "sss": 13.8, "recommended": 50, "fatal_reduction_pct": 51.8, "why": "undivided arterial, side-impact intersections", "pop_density": 3262.6, "pop_density_peak": 3262.6, "v_design": 70, "design_gap": 20}}, {"type": "Feature", "geometry": {"type": "LineString", "coordinates": [[120.3273004, 16.0250725], [120.3272763, 16.0251053], [120.3272555, 16.0251285], [120.3272116, 16.025161], [120.3271606, 16.0251829], [120.3270892, 16.025215], [120.3270128, 16.0252491]]}, "properties": {"city": "dagupan", "name": "De Venecia Avenue", "highway": "trunk", "v_posted": 60, "posted_imputed": false, "v_safe": 50, "gap": 10, "R": 2.07, "exposure": 0.418, "vru_150m": 0, "sss": 17.7, "recommended": 50, "fatal_reduction_pct": 51.8, "why": "undivided arterial, side-impact intersections", "pop_density": 13505.8, "pop_density_peak": 14017.4, "v_design": 70, "design_gap": 20}}, {"type": "Feature", "geometry": {"type": "LineString", "coordinates": [[120.3270128, 16.0252491], [120.3269243, 16.0253589], [120.3268998, 16.0253989], [120.3268431, 16.025484]]}, "properties": {"city": "dagupan", "name": "", "highway": "trunk_link", "v_posted": 60, "posted_imputed": false, "v_safe": 50, "gap": 10, "R": 2.07, "exposure": 0.402, "vru_150m": 0, "sss": 17.5, "recommended": 50, "fatal_reduction_pct": 51.8, "why": "undivided arterial, side-impact intersections", "pop_density": 12994.2, "pop_density_peak": 12994.2, "v_design": 55, "design_gap": 5}}, {"type": "Feature", "geometry": {"type": "LineString", "coordinates": [[120.3461054, 16.0211433], [120.3451304, 16.020747]]}, "properties": {"city": "dagupan", "name": "De Venecia Avenue", "highway": "trunk", "v_posted": 60, "posted_imputed": false, "v_safe": 50, "gap": 10, "R": 2.07, "exposure": 0.326, "vru_150m": 1, "sss": 16.6, "recommended": 50, "fatal_reduction_pct": 51.8, "why": "undivided arterial, side-impact intersections", "pop_density": 5082.3, "pop_density_peak": 6521.2, "v_design": 70, "design_gap": 20}}, {"type": "Feature", "geometry": {"type": "LineString", "coordinates": [[120.3226234, 16.0204171], [120.3225956, 16.0205141], [120.3225484, 16.0207233]]}, "properties": {"city": "dagupan", "name": "Jose de Venecia Avenue", "highway": "trunk", "v_posted": 60, "posted_imputed": false, "v_safe": 50, "gap": 10, "R": 2.07, "exposure": 0.101, "vru_150m": 0, "sss": 13.8, "recommended": 50, "fatal_reduction_pct": 51.8, "why": "undivided arterial, side-impact intersections", "pop_density": 3262.6, "pop_density_peak": 3262.6, "v_design": 70, "design_gap": 20}}, {"type": "Feature", "geometry": {"type": "LineString", "coordinates": [[120.3267572, 16.0253008], [120.3268634, 16.0252528], [120.3269923, 16.0251919]]}, "properties": {"city": "dagupan", "name": "De Venecia Avenue", "highway": "trunk", "v_posted": 60, "posted_imputed": false, "v_safe": 50, "gap": 10, "R": 2.07, "exposure": 0.402, "vru_150m": 0, "sss": 17.5, "recommended": 50, "fatal_reduction_pct": 51.8, "why": "undivided arterial, side-impact intersections", "pop_density": 12994.2, "pop_density_peak": 12994.2, "v_design": 70, "design_gap": 20}}, {"type": "Feature", "geometry": {"type": "LineString", "coordinates": [[120.3270128, 16.0252491], [120.3268923, 16.0253083], [120.3267843, 16.0253613]]}, "properties": {"city": "dagupan", "name": "De Venecia Avenue", "highway": "trunk", "v_posted": 60, "posted_imputed": false, "v_safe": 50, "gap": 10, "R": 2.07, "exposure": 0.402, "vru_150m": 0, "sss": 17.5, "recommended": 50, "fatal_reduction_pct": 51.8, "why": "undivided arterial, side-impact intersections", "pop_density": 12994.2, "pop_density_peak": 12994.2, "v_design": 70, "design_gap": 20}}, {"type": "Feature", "geometry": {"type": "LineString", "coordinates": [[120.3434081, 16.0200084], [120.3451304, 16.020747]]}, "properties": {"city": "dagupan", "name": "De Venecia Avenue", "highway": "trunk", "v_posted": 60, "posted_imputed": false, "v_safe": 50, "gap": 10, "R": 2.07, "exposure": 0.269, "vru_150m": 1, "sss": 15.9, "recommended": 50, "fatal_reduction_pct": 51.8, "why": "undivided arterial, side-impact intersections", "pop_density": 2777.3, "pop_density_peak": 3643.3, "v_design": 70, "design_gap": 20}}, {"type": "Feature", "geometry": {"type": "LineString", "coordinates": [[120.3224981, 16.0207116], [120.3225425, 16.020488], [120.3225548, 16.0203843]]}, "properties": {"city": "dagupan", "name": "Jose de Venecia Avenue", "highway": "trunk", "v_posted": 60, "posted_imputed": false, "v_safe": 50, "gap": 10, "R": 2.07, "exposure": 0.101, "vru_150m": 0, "sss": 13.8, "recommended": 50, "fatal_reduction_pct": 51.8, "why": "undivided arterial, side-impact intersections", "pop_density": 3262.6, "pop_density_peak": 3262.6, "v_design": 70, "design_gap": 20}}, {"type": "Feature", "geometry": {"type": "LineString", "coordinates": [[120.3370565, 16.0176666], [120.3379752, 16.0180745], [120.3380077, 16.0180883]]}, "properties": {"city": "dagupan", "name": "De Venecia Avenue", "highway": "trunk", "v_posted": 60, "posted_imputed": false, "v_safe": 50, "gap": 10, "R": 2.07, "exposure": 0.487, "vru_150m": 1, "sss": 18.6, "recommended": 50, "fatal_reduction_pct": 51.8, "why": "undivided arterial, side-impact intersections", "pop_density": 11623.9, "pop_density_peak": 13372.4, "v_design": 70, "design_gap": 20}}, {"type": "Feature", "geometry": {"type": "LineString", "coordinates": [[120.3380077, 16.0180883], [120.3386124, 16.0183621], [120.338904, 16.0184756], [120.3391183, 16.0185543], [120.3396331, 16.0187333], [120.3397202, 16.0187642], [120.3398083, 16.0187947], [120.3399203, 16.0188334], [120.3402566, 16.0189261], [120.340818, 16.0190812], [120.3410836, 16.0191584], [120.3412069, 16.019197], [120.341888, 16.0194195], [120.3425087, 16.019638], [120.3426858, 16.0197003], [120.3428383, 16.0197577], [120.3432964, 16.0199599], [120.3433474, 16.0199824], [120.3434081, 16.0200084]]}, "properties": {"city": "dagupan", "name": "De Venecia Avenue", "highway": "trunk", "v_posted": 60, "posted_imputed": false, "v_safe": 50, "gap": 10, "R": 2.07, "exposure": 0.178, "vru_150m": 0, "sss": 14.7, "recommended": 50, "fatal_reduction_pct": 51.8, "why": "undivided arterial, side-impact intersections", "pop_density": 5773.6, "pop_density_peak": 9875.3, "v_design": 70, "design_gap": 20}}, {"type": "Feature", "geometry": {"type": "LineString", "coordinates": [[120.3225484, 16.0207233], [120.3225198, 16.020859], [120.3224679, 16.0209241]]}, "properties": {"city": "dagupan", "name": "Jose de Venecia Avenue", "highway": "trunk", "v_posted": 60, "posted_imputed": false, "v_safe": 50, "gap": 10, "R": 2.07, "exposure": 0.101, "vru_150m": 0, "sss": 13.8, "recommended": 50, "fatal_reduction_pct": 51.8, "why": "undivided arterial, side-impact intersections", "pop_density": 3262.6, "pop_density_peak": 3262.6, "v_design": 70, "design_gap": 20}}, {"type": "Feature", "geometry": {"type": "LineString", "coordinates": [[120.3531289, 16.0219693], [120.3531382, 16.0219169], [120.3531597, 16.0218379], [120.3532244, 16.0216644], [120.3532864, 16.0214835]]}, "properties": {"city": "dagupan", "name": "MacArthur Highway", "highway": "primary", "v_posted": 60, "posted_imputed": false, "v_safe": 50, "gap": 10, "R": 2.07, "exposure": 0.42, "vru_150m": 1, "sss": 17.8, "recommended": 50, "fatal_reduction_pct": 51.8, "why": "undivided arterial, side-impact intersections", "pop_density": 8905.5, "pop_density_peak": 9547.4, "v_design": 60, "design_gap": 10}}, {"type": "Feature", "geometry": {"type": "LineString", "coordinates": [[120.3581339, 16.0077185], [120.3580209, 16.0080649], [120.3579591, 16.0082681], [120.3578599, 16.0085685], [120.3578103, 16.0086033]]}, "properties": {"city": "dagupan", "name": "Malasiqui-Calasiao Road", "highway": "primary", "v_posted": 50, "posted_imputed": false, "v_safe": 30, "gap": 20, "R": 7.72, "exposure": 0.642, "vru_150m": 3, "sss": 41.1, "recommended": 30, "fatal_reduction_pct": 87.0, "why": "pedestrian activity (1 VRU site<=50m)", "pop_density": 3409.4, "pop_density_peak": 3652.9, "v_design": 60, "design_gap": 30}}, {"type": "Feature", "geometry": {"type": "LineString", "coordinates": [[120.3678645, 16.0158543], [120.3674877, 16.0155939], [120.3664832, 16.0149326], [120.365649, 16.01439], [120.3655325, 16.0143143], [120.3650603, 16.0140071], [120.3645895, 16.0136823], [120.3639954, 16.0132917], [120.3626552, 16.0124061], [120.3623016, 16.0121779], [120.3615989, 16.0117345], [120.3610564, 16.0114161], [120.360994, 16.0113813], [120.3608445, 16.011302], [120.3608189, 16.0112885], [120.3605247, 16.0111325], [120.3602584, 16.010981], [120.3601324, 16.0109095], [120.3600144, 16.0108431], [120.3598066, 16.0107361], [120.3595849, 16.0106119], [120.3593129, 16.0104775], [120.3587436, 16.0101819]]}, "properties": {"city": "dagupan", "name": "Rizal Street", "highway": "secondary", "v_posted": 50, "posted_imputed": false, "v_safe": 30, "gap": 20, "R": 7.72, "exposure": 0.589, "vru_150m": 2, "sss": 39.7, "recommended": 30, "fatal_reduction_pct": 87.0, "why": "pedestrian activity (1 VRU site<=50m)", "pop_density": 10213.5, "pop_density_peak": 18804.9, "v_design": 50, "design_gap": 20}}, {"type": "Feature", "geometry": {"type": "LineString", "coordinates": [[120.3533989, 16.0213889], [120.353582, 16.0213529], [120.3536308, 16.0213429], [120.3537604, 16.0213239], [120.3538539, 16.0213466]]}, "properties": {"city": "dagupan", "name": "Urdaneta - Dagupan Road", "highway": "trunk", "v_posted": 60, "posted_imputed": false, "v_safe": 50, "gap": 10, "R": 2.07, "exposure": 0.285, "vru_150m": 0, "sss": 16.1, "recommended": 50, "fatal_reduction_pct": 51.8, "why": "undivided arterial, side-impact intersections", "pop_density": 9203.5, "pop_density_peak": 9203.5, "v_design": 70, "design_gap": 20}}, {"type": "Feature", "geometry": {"type": "LineString", "coordinates": [[120.3641657, 16.0214287], [120.3637982, 16.0214228]]}, "properties": {"city": "dagupan", "name": "Urdaneta - Dagupan Road", "highway": "trunk", "v_posted": 60, "posted_imputed": false, "v_safe": 50, "gap": 10, "R": 2.07, "exposure": 0.296, "vru_150m": 0, "sss": 16.2, "recommended": 50, "fatal_reduction_pct": 51.8, "why": "undivided arterial, side-impact intersections", "pop_density": 9586.1, "pop_density_peak": 9904.9, "v_design": 70, "design_gap": 20}}, {"type": "Feature", "geometry": {"type": "LineString", "coordinates": [[120.3556095, 16.0212576], [120.3556946, 16.0212596], [120.3559254, 16.0212657], [120.3560168, 16.0212691], [120.356041, 16.0212698], [120.3560961, 16.0212726], [120.3562798, 16.0212821], [120.3564182, 16.021285], [120.3564438, 16.0212853], [120.3569807, 16.0212916], [120.3572817, 16.0213033], [120.3573338, 16.0213036], [120.3574592, 16.0213058], [120.3576846, 16.0213094], [120.358241, 16.0213263], [120.3583869, 16.0213282], [120.3585358, 16.0213301], [120.3586234, 16.0213299], [120.3587819, 16.0213344], [120.3591215, 16.021344], [120.3591615, 16.0213447], [120.3592333, 16.0213459], [120.3596153, 16.0213524], [120.3597039, 16.0213545], [120.3600553, 16.021363], [120.3601211, 16.0213661], [120.3602491, 16.0213673], [120.3605858, 16.0213703], [120.3608563, 16.0213792], [120.3610413, 16.0213853], [120.3619878, 16.0214165], [120.3628435, 16.0214023], [120.3630064, 16.0214062], [120.3636091, 16.0214188], [120.3637982, 16.0214228]]}, "properties": {"city": "dagupan", "name": "Urdaneta - Dagupan Road", "highway": "trunk", "v_posted": 60, "posted_imputed": false, "v_safe": 50, "gap": 10, "R": 2.07, "exposure": 0.315, "vru_150m": 0, "sss": 16.4, "recommended": 50, "fatal_reduction_pct": 51.8, "why": "undivided arterial, side-impact intersections", "pop_density": 10185.0, "pop_density_peak": 11145.3, "v_design": 70, "design_gap": 20}}, {"type": "Feature", "geometry": {"type": "LineString", "coordinates": [[120.3527712, 16.0213262], [120.3528401, 16.0213115], [120.3528761, 16.0213205], [120.3529112, 16.021329], [120.352949, 16.0213386], [120.3530968, 16.021371], [120.3532147, 16.02139], [120.3533218, 16.0213995]]}, "properties": {"city": "dagupan", "name": "De Venecia Avenue", "highway": "trunk", "v_posted": 60, "posted_imputed": false, "v_safe": 50, "gap": 10, "R": 2.07, "exposure": 0.29, "vru_150m": 0, "sss": 16.1, "recommended": 50, "fatal_reduction_pct": 51.8, "why": "undivided arterial, side-impact intersections", "pop_density": 9375.5, "pop_density_peak": 9547.4, "v_design": 70, "design_gap": 20}}, {"type": "Feature", "geometry": {"type": "LineString", "coordinates": [[120.3532244, 16.0216644], [120.35317, 16.0215789], [120.3531217, 16.021522], [120.3530654, 16.0214668], [120.3529887, 16.0214187]]}, "properties": {"city": "dagupan", "name": "", "highway": "trunk_link", "v_posted": 60, "posted_imputed": false, "v_safe": 50, "gap": 10, "R": 2.07, "exposure": 0.436, "vru_150m": 1, "sss": 18.0, "recommended": 50, "fatal_reduction_pct": 51.8, "why": "undivided arterial, side-impact intersections", "pop_density": 9547.4, "pop_density_peak": 9547.4, "v_design": 55, "design_gap": 5}}, {"type": "Feature", "geometry": {"type": "LineString", "coordinates": [[120.3533692, 16.021477], [120.3532971, 16.0216655], [120.353285, 16.0216972], [120.3532357, 16.0218186], [120.3532136, 16.0218619], [120.3531289, 16.0219693]]}, "properties": {"city": "dagupan", "name": "MacArthur Highway", "highway": "primary", "v_posted": 60, "posted_imputed": false, "v_safe": 50, "gap": 10, "R": 2.07, "exposure": 0.416, "vru_150m": 1, "sss": 17.7, "recommended": 50, "fatal_reduction_pct": 51.8, "why": "undivided arterial, side-impact intersections", "pop_density": 8733.6, "pop_density_peak": 9203.5, "v_design": 60, "design_gap": 10}}, {"type": "Feature", "geometry": {"type": "LineString", "coordinates": [[120.3538539, 16.0213466], [120.3537781, 16.021399], [120.3537566, 16.0214033], [120.3537281, 16.0214088], [120.3533692, 16.021477]]}, "properties": {"city": "dagupan", "name": "Urdaneta - Dagupan Road", "highway": "trunk", "v_posted": 60, "posted_imputed": false, "v_safe": 50, "gap": 10, "R": 2.07, "exposure": 0.285, "vru_150m": 0, "sss": 16.1, "recommended": 50, "fatal_reduction_pct": 51.8, "why": "undivided arterial, side-impact intersections", "pop_density": 9203.5, "pop_density_peak": 9203.5, "v_design": 70, "design_gap": 20}}, {"type": "Feature", "geometry": {"type": "LineString", "coordinates": [[120.3519679, 16.0251161], [120.3517281, 16.0257273], [120.3514192, 16.0265469], [120.3512721, 16.0269431], [120.3511324, 16.0273316], [120.3511109, 16.0273831], [120.3510854, 16.0274511], [120.3509321, 16.0278688], [120.350765, 16.0283791], [120.3506998, 16.0285781], [120.3506403, 16.0287597], [120.3506235, 16.0288111], [120.3505542, 16.0290048], [120.3505479, 16.0290223], [120.3505441, 16.029033], [120.350492, 16.0292026], [120.3503701, 16.0295406], [120.3501206, 16.0302326], [120.3499411, 16.0307304], [120.3499227, 16.0307814], [120.3499057, 16.0308308], [120.3496634, 16.0314461], [120.3496294, 16.0315391], [120.3494687, 16.0319372], [120.3494036, 16.0320901], [120.3490699, 16.0328732], [120.3490397, 16.0329441], [120.3490184, 16.0329949], [120.3487326, 16.0336779], [120.3487047, 16.0337447], [120.3486057, 16.0339813], [120.3485577, 16.0340958], [120.3485409, 16.0341361], [120.348385, 16.0345086], [120.3482862, 16.0347266], [120.3482426, 16.0348249], [120.3480866, 16.0351826], [120.3478874, 16.0356609], [120.3478338, 16.0358065], [120.3477681, 16.0359947], [120.3477051, 16.0361571], [120.347654, 16.036272], [120.3476058, 16.0363801], [120.3474101, 16.0368512], [120.3471654, 16.0374435], [120.3471413, 16.0375005], [120.347019, 16.0378205], [120.3470104, 16.037843], [120.3468307, 16.0382564], [120.346765, 16.0384075], [120.3467245, 16.038497], [120.3466999, 16.0385511], [120.3466563, 16.0386473], [120.3466, 16.0387633], [120.3461896, 16.0395547], [120.345916, 16.0401386], [120.3459016, 16.0401665], [120.3458915, 16.0401877], [120.3457824, 16.0404114], [120.3457297, 16.0405193], [120.3455922, 16.0407997], [120.3454869, 16.0410153], [120.3453057, 16.0413939], [120.3452575, 16.0415021], [120.3451905, 16.041653]]}, "properties": {"city": "dagupan", "name": "MacArthur Highway", "highway": "primary", "v_posted": 60, "posted_imputed": false, "v_safe": 50, "gap": 10, "R": 2.07, "exposure": 0.407, "vru_150m": 0, "sss": 17.6, "recommended": 50, "fatal_reduction_pct": 51.8, "why": "undivided arterial, side-impact intersections", "pop_density": 13168.7, "pop_density_peak": 14763.6, "v_design": 60, "design_gap": 10}}, {"type": "Feature", "geometry": {"type": "LineString", "coordinates": [[120.3532864, 16.0214835], [120.3529887, 16.0214187], [120.352929, 16.021402], [120.352882, 16.0213888], [120.3528542, 16.0213811], [120.352818, 16.0213714], [120.3527712, 16.0213262]]}, "properties": {"city": "dagupan", "name": "De Venecia Avenue", "highway": "trunk", "v_posted": 60, "posted_imputed": false, "v_safe": 50, "gap": 10, "R": 2.07, "exposure": 0.436, "vru_150m": 1, "sss": 18.0, "recommended": 50, "fatal_reduction_pct": 51.8, "why": "undivided arterial, side-impact intersections", "pop_density": 9547.4, "pop_density_peak": 9547.4, "v_design": 70, "design_gap": 20}}, {"type": "Feature", "geometry": {"type": "LineString", "coordinates": [[120.3630275, 15.9878138], [120.36291, 15.9883886], [120.3627516, 15.9889603], [120.3625778, 15.989601], [120.3625467, 15.9897157], [120.3624438, 15.9900951], [120.361807, 15.9923479], [120.3617325, 15.9926369], [120.3616971, 15.9927749], [120.3616811, 15.9928373], [120.3614302, 15.993794], [120.3610214, 15.9953554], [120.3608361, 15.9961654], [120.360789, 15.9963589], [120.3607621, 15.9964849], [120.3607443, 15.9965634], [120.360696, 15.9967904], [120.3605716, 15.9973743], [120.3605694, 15.9973837], [120.3604536, 15.9978681], [120.36043, 15.9979706], [120.3602739, 15.9986499], [120.3601747, 15.9990638], [120.3601089, 15.9993886], [120.3600462, 15.999778], [120.3600341, 15.9998451], [120.3600159, 15.9999438], [120.3598897, 16.0006675], [120.3598473, 16.0009344]]}, "properties": {"city": "dagupan", "name": "Malasiqui-Calasiao Road", "highway": "primary", "v_posted": 60, "posted_imputed": false, "v_safe": 50, "gap": 10, "R": 2.07, "exposure": 0.079, "vru_150m": 0, "sss": 13.5, "recommended": 50, "fatal_reduction_pct": 51.8, "why": "undivided arterial, side-impact intersections", "pop_density": 2549.2, "pop_density_peak": 6886.6, "v_design": 60, "design_gap": 10}}, {"type": "Feature", "geometry": {"type": "LineString", "coordinates": [[120.3531289, 16.0219693], [120.3530284, 16.0222448], [120.3529872, 16.022358], [120.3529213, 16.0225388], [120.3529003, 16.0225942], [120.3528894, 16.0226167], [120.3527639, 16.0229292], [120.3527483, 16.0229712], [120.3526507, 16.0232208], [120.3526418, 16.0232448], [120.3525581, 16.0234914], [120.3523577, 16.024083], [120.3523477, 16.0241076], [120.3519837, 16.0250735], [120.3519679, 16.0251161]]}, "properties": {"city": "dagupan", "name": "MacArthur Highway", "highway": "primary", "v_posted": 60, "posted_imputed": false, "v_safe": 30, "gap": 30, "R": 16.0, "exposure": 0.461, "vru_150m": 1, "sss": 54.8, "recommended": 30, "fatal_reduction_pct": 93.8, "why": "pedestrian activity (1 VRU site<=50m)", "pop_density": 10533.5, "pop_density_peak": 12810.3, "v_design": 60, "design_gap": 30}}, {"type": "Feature", "geometry": {"type": "LineString", "coordinates": [[120.3720702, 16.0197898], [120.3716101, 16.0199885], [120.3712883, 16.0201179], [120.3712179, 16.0201489], [120.3708845, 16.0202831], [120.3705274, 16.0204289], [120.370422, 16.0204652], [120.3695891, 16.0208002], [120.3687885, 16.0209808], [120.3678806, 16.021178], [120.3674991, 16.0212463], [120.3671933, 16.0212985], [120.3670928, 16.0213168], [120.3669647, 16.021334], [120.3666737, 16.0213714], [120.3664657, 16.0213958], [120.3663801, 16.0214013], [120.3663464, 16.0214036], [120.3662109, 16.0214126], [120.3659456, 16.0214263], [120.3657817, 16.0214345], [120.3651166, 16.0214509]]}, "properties": {"city": "dagupan", "name": "Urdaneta - Dagupan Road", "highway": "trunk", "v_posted": 60, "posted_imputed": false, "v_safe": 50, "gap": 10, "R": 2.07, "exposure": 0.475, "vru_150m": 1, "sss": 18.4, "recommended": 50, "fatal_reduction_pct": 51.8, "why": "undivided arterial, side-impact intersections", "pop_density": 11104.2, "pop_density_peak": 16706.7, "v_design": 70, "design_gap": 20}}, {"type": "Feature", "geometry": {"type": "LineString", "coordinates": [[120.3592646, 16.003347], [120.3591869, 16.0036621], [120.3591062, 16.0039903], [120.3590098, 16.0043753], [120.3589704, 16.0045246], [120.3589628, 16.0045492], [120.3587385, 16.0052955], [120.3585998, 16.0058866], [120.3585204, 16.0062508]]}, "properties": {"city": "dagupan", "name": "Malasiqui-Calasiao Road", "highway": "primary", "v_posted": 60, "posted_imputed": false, "v_safe": 50, "gap": 10, "R": 2.07, "exposure": 0.245, "vru_150m": 1, "sss": 15.6, "recommended": 50, "fatal_reduction_pct": 51.8, "why": "undivided arterial, side-impact intersections", "pop_density": 1830.4, "pop_density_peak": 2166.0, "v_design": 60, "design_gap": 10}}, {"type": "Feature", "geometry": {"type": "LineString", "coordinates": [[120.3598473, 16.0009344], [120.3596409, 16.0019339], [120.3594773, 16.0025357], [120.3593787, 16.0028836], [120.3592646, 16.003347]]}, "properties": {"city": "dagupan", "name": "Malasiqui-Calasiao Road", "highway": "primary", "v_posted": 60, "posted_imputed": false, "v_safe": 50, "gap": 10, "R": 2.07, "exposure": 0.067, "vru_150m": 0, "sss": 13.3, "recommended": 50, "fatal_reduction_pct": 51.8, "why": "undivided arterial, side-impact intersections", "pop_density": 2154.5, "pop_density_peak": 2339.4, "v_design": 60, "design_gap": 10}}, {"type": "Feature", "geometry": {"type": "LineString", "coordinates": [[120.3532864, 16.0214835], [120.3533218, 16.0213995]]}, "properties": {"city": "dagupan", "name": "Calasiao-Dagupan Road", "highway": "primary", "v_posted": 60, "posted_imputed": false, "v_safe": 50, "gap": 10, "R": 2.07, "exposure": 0.29, "vru_150m": 0, "sss": 16.1, "recommended": 50, "fatal_reduction_pct": 51.8, "why": "undivided arterial, side-impact intersections", "pop_density": 9375.5, "pop_density_peak": 9547.4, "v_design": 60, "design_gap": 10}}, {"type": "Feature", "geometry": {"type": "LineString", "coordinates": [[120.3533989, 16.0213889], [120.3533692, 16.021477]]}, "properties": {"city": "dagupan", "name": "MacArthur Highway", "highway": "primary", "v_posted": 60, "posted_imputed": false, "v_safe": 50, "gap": 10, "R": 2.07, "exposure": 0.285, "vru_150m": 0, "sss": 16.1, "recommended": 50, "fatal_reduction_pct": 51.8, "why": "undivided arterial, side-impact intersections", "pop_density": 9203.5, "pop_density_peak": 9203.5, "v_design": 60, "design_gap": 10}}, {"type": "Feature", "geometry": {"type": "LineString", "coordinates": [[120.3862669, 16.0153639], [120.386219, 16.0153831], [120.3860693, 16.015443], [120.3853296, 16.0157465], [120.3851867, 16.015804], [120.3847923, 16.0159511], [120.3845052, 16.0160662], [120.3844013, 16.0161083], [120.3841832, 16.0161952], [120.3840847, 16.0162356], [120.3839884, 16.016275], [120.3838728, 16.0163223], [120.3825831, 16.0168604], [120.3824697, 16.016912], [120.3819758, 16.0171275], [120.3819106, 16.0171533], [120.3813292, 16.0173618], [120.3806425, 16.0175881], [120.3803826, 16.0176598], [120.3802206, 16.0177087], [120.3799102, 16.0177933], [120.3798299, 16.0178094], [120.379449, 16.0178885], [120.3793556, 16.0179109], [120.3782581, 16.0181076], [120.378062, 16.0181437], [120.3776023, 16.0182339], [120.3772148, 16.0183037], [120.3761271, 16.0184826], [120.3753385, 16.01864], [120.3749019, 16.0187359], [120.3747569, 16.0187729]]}, "properties": {"city": "dagupan", "name": "Urdaneta - Dagupan Road", "highway": "trunk", "v_posted": 60, "posted_imputed": false, "v_safe": 50, "gap": 10, "R": 2.07, "exposure": 0.332, "vru_150m": 0, "sss": 16.7, "recommended": 50, "fatal_reduction_pct": 51.8, "why": "undivided arterial, side-impact intersections", "pop_density": 10740.2, "pop_density_peak": 20825.5, "v_design": 70, "design_gap": 20}}, {"type": "Feature", "geometry": {"type": "LineString", "coordinates": [[120.3651166, 16.0214509], [120.365004, 16.0214487], [120.3643215, 16.0214336], [120.3641657, 16.0214287]]}, "properties": {"city": "dagupan", "name": "Urdaneta - Dagupan Road", "highway": "trunk", "v_posted": 60, "posted_imputed": false, "v_safe": 50, "gap": 10, "R": 2.07, "exposure": 0.291, "vru_150m": 0, "sss": 16.1, "recommended": 50, "fatal_reduction_pct": 51.8, "why": "undivided arterial, side-impact intersections", "pop_density": 9406.2, "pop_density_peak": 9545.0, "v_design": 70, "design_gap": 20}}, {"type": "Feature", "geometry": {"type": "LineString", "coordinates": [[120.3533218, 16.0213995], [120.3533989, 16.0213889]]}, "properties": {"city": "dagupan", "name": "De Venecia Avenue", "highway": "trunk", "v_posted": 60, "posted_imputed": false, "v_safe": 50, "gap": 10, "R": 2.07, "exposure": 0.285, "vru_150m": 0, "sss": 16.1, "recommended": 50, "fatal_reduction_pct": 51.8, "why": "undivided arterial, side-impact intersections", "pop_density": 9203.5, "pop_density_peak": 9203.5, "v_design": 70, "design_gap": 20}}, {"type": "Feature", "geometry": {"type": "LineString", "coordinates": [[120.3533692, 16.021477], [120.3532864, 16.0214835]]}, "properties": {"city": "dagupan", "name": "De Venecia Avenue", "highway": "trunk", "v_posted": 60, "posted_imputed": false, "v_safe": 50, "gap": 10, "R": 2.07, "exposure": 0.29, "vru_150m": 0, "sss": 16.1, "recommended": 50, "fatal_reduction_pct": 51.8, "why": "undivided arterial, side-impact intersections", "pop_density": 9375.5, "pop_density_peak": 9547.4, "v_design": 70, "design_gap": 20}}, {"type": "Feature", "geometry": {"type": "LineString", "coordinates": [[120.3538539, 16.0213466], [120.3546995, 16.0212574], [120.3549647, 16.02125], [120.3550246, 16.0212483], [120.3550905, 16.0212494], [120.3556095, 16.0212576]]}, "properties": {"city": "dagupan", "name": "Urdaneta - Dagupan Road", "highway": "trunk", "v_posted": 60, "posted_imputed": false, "v_safe": 50, "gap": 10, "R": 2.07, "exposure": 0.45, "vru_150m": 1, "sss": 18.1, "recommended": 50, "fatal_reduction_pct": 51.8, "why": "undivided arterial, side-impact intersections", "pop_density": 10120.3, "pop_density_peak": 11037.1, "v_design": 70, "design_gap": 20}}, {"type": "Feature", "geometry": {"type": "LineString", "coordinates": [[120.3581722, 16.0075848], [120.3581339, 16.0077185]]}, "properties": {"city": "dagupan", "name": "Malasiqui-Calasiao Road", "highway": "primary", "v_posted": 50, "posted_imputed": false, "v_safe": 30, "gap": 20, "R": 7.72, "exposure": 0.451, "vru_150m": 2, "sss": 36.3, "recommended": 30, "fatal_reduction_pct": 87.0, "why": "pedestrian activity (1 VRU site<=50m)", "pop_density": 2744.2, "pop_density_peak": 3166.0, "v_design": 60, "design_gap": 30}}, {"type": "Feature", "geometry": {"type": "LineString", "coordinates": [[120.3585204, 16.0062508], [120.3585409, 16.006338]]}, "properties": {"city": "dagupan", "name": "Malasiqui-Calasiao Road", "highway": "primary", "v_posted": 60, "posted_imputed": false, "v_safe": 50, "gap": 10, "R": 2.07, "exposure": 0.241, "vru_150m": 1, "sss": 15.5, "recommended": 50, "fatal_reduction_pct": 51.8, "why": "undivided arterial, side-impact intersections", "pop_density": 1657.1, "pop_density_peak": 1657.1, "v_design": 60, "design_gap": 10}}, {"type": "Feature", "geometry": {"type": "LineString", "coordinates": [[120.3747569, 16.0187729], [120.3746335, 16.018805], [120.374455, 16.0188546], [120.3742891, 16.0189094], [120.374029, 16.0190031], [120.3736741, 16.019131], [120.3733799, 16.0192439], [120.372451, 16.0196313], [120.3720702, 16.0197898]]}, "properties": {"city": "dagupan", "name": "Urdaneta - Dagupan Road", "highway": "trunk", "v_posted": 60, "posted_imputed": false, "v_safe": 50, "gap": 10, "R": 2.07, "exposure": 0.275, "vru_150m": 0, "sss": 15.9, "recommended": 50, "fatal_reduction_pct": 51.8, "why": "undivided arterial, side-impact intersections", "pop_density": 8889.7, "pop_density_peak": 12719.2, "v_design": 70, "design_gap": 20}}, {"type": "Feature", "geometry": {"type": "LineString", "coordinates": [[120.3275288, 16.0434424], [120.3284448, 16.0450279], [120.329498, 16.0468382]]}, "properties": {"city": "dagupan", "name": "Jose de Venecia Avenue", "highway": "trunk", "v_posted": 60, "posted_imputed": false, "v_safe": 50, "gap": 10, "R": 2.07, "exposure": 0.622, "vru_150m": 0, "sss": 20.3, "recommended": 50, "fatal_reduction_pct": 51.8, "why": "undivided arterial, side-impact intersections", "pop_density": 20130.6, "pop_density_peak": 34078.2, "v_design": 70, "design_gap": 20}}, {"type": "Feature", "geometry": {"type": "LineString", "coordinates": [[120.325265, 16.0411291], [120.3251423, 16.0410324], [120.3250484, 16.040937], [120.3249519, 16.0408197], [120.3248969, 16.0407185], [120.3248814, 16.0406412], [120.3248841, 16.0405097], [120.3249069, 16.0404105], [120.3249633, 16.0402623], [120.3249995, 16.0401108], [120.3250476, 16.0398985], [120.3251, 16.0395717], [120.3251302, 16.0394593]]}, "properties": {"city": "dagupan", "name": "Jose de Venecia Avenue", "highway": "trunk", "v_posted": 60, "posted_imputed": false, "v_safe": 50, "gap": 10, "R": 2.07, "exposure": 0.413, "vru_150m": 0, "sss": 17.7, "recommended": 50, "fatal_reduction_pct": 51.8, "why": "undivided arterial, side-impact intersections", "pop_density": 13368.9, "pop_density_peak": 17184.3, "v_design": 70, "design_gap": 20}}, {"type": "Feature", "geometry": {"type": "LineString", "coordinates": [[120.3364156, 16.0396539], [120.3368798, 16.0398465], [120.3371883, 16.0399745], [120.337318, 16.0400283], [120.3375475, 16.0401228], [120.3380961, 16.0403486], [120.3383272, 16.040457], [120.3383434, 16.0404646], [120.3383684, 16.0404753], [120.3384357, 16.0405043], [120.3386236, 16.0405853], [120.3387313, 16.0406316], [120.3391216, 16.0407997], [120.3395558, 16.0409866]]}, "properties": {"city": "dagupan", "name": "Perez Boulevard", "highway": "primary", "v_posted": 40, "posted_imputed": false, "v_safe": 30, "gap": 10, "R": 3.16, "exposure": 0.673, "vru_150m": 1, "sss": 20.9, "recommended": 30, "fatal_reduction_pct": 68.4, "why": "pedestrian activity (1 VRU site<=50m)", "pop_density": 19126.2, "pop_density_peak": 20189.5, "v_design": 60, "design_gap": 30}}, {"type": "Feature", "geometry": {"type": "LineString", "coordinates": [[120.336875, 16.05424], [120.3370641, 16.0544449]]}, "properties": {"city": "dagupan", "name": "Jose de Venecia Avenue", "highway": "trunk", "v_posted": 60, "posted_imputed": false, "v_safe": 50, "gap": 10, "R": 2.07, "exposure": 0.078, "vru_150m": 0, "sss": 13.5, "recommended": 50, "fatal_reduction_pct": 51.8, "why": "undivided arterial, side-impact intersections", "pop_density": 2513.2, "pop_density_peak": 5026.4, "v_design": 70, "design_gap": 20}}, {"type": "Feature", "geometry": {"type": "LineString", "coordinates": [[120.3370641, 16.0544449], [120.3375029, 16.0549419], [120.33802, 16.0555237], [120.3381534, 16.0556669], [120.3384313, 16.0559655], [120.3390831, 16.0566456]]}, "properties": {"city": "dagupan", "name": "Jose de Venecia Avenue", "highway": "trunk", "v_posted": 60, "posted_imputed": false, "v_safe": 50, "gap": 10, "R": 2.07, "exposure": 1.0, "vru_150m": 0, "sss": 25.0, "recommended": 50, "fatal_reduction_pct": 51.8, "why": "undivided arterial, side-impact intersections", "pop_density": 43289.1, "pop_density_peak": 78766.5, "v_design": 70, "design_gap": 20}}, {"type": "Feature", "geometry": {"type": "LineString", "coordinates": [[120.3324459, 16.0498221], [120.3328588, 16.0502255], [120.33372, 16.0510618], [120.3343162, 16.0516407], [120.3350028, 16.05225], [120.3352137, 16.0524651], [120.3355285, 16.0527862], [120.3356562, 16.0529068], [120.3358615, 16.0531059], [120.3359771, 16.053217], [120.3360555, 16.0532983], [120.3363177, 16.0535703], [120.336875, 16.05424]]}, "properties": {"city": "dagupan", "name": "Jose de Venecia Avenue", "highway": "trunk", "v_posted": 60, "posted_imputed": false, "v_safe": 50, "gap": 10, "R": 2.07, "exposure": 0.271, "vru_150m": 0, "sss": 15.9, "recommended": 50, "fatal_reduction_pct": 51.8, "why": "undivided arterial, side-impact intersections", "pop_density": 8759.8, "pop_density_peak": 19971.0, "v_design": 70, "design_gap": 20}}, {"type": "Feature", "geometry": {"type": "LineString", "coordinates": [[120.3321657, 16.0495601], [120.3324459, 16.0498221]]}, "properties": {"city": "dagupan", "name": "Jose de Venecia Avenue", "highway": "trunk", "v_posted": 60, "posted_imputed": false, "v_safe": 50, "gap": 10, "R": 2.07, "exposure": 0.077, "vru_150m": 0, "sss": 13.5, "recommended": 50, "fatal_reduction_pct": 51.8, "why": "undivided arterial, side-impact intersections", "pop_density": 2487.8, "pop_density_peak": 2487.8, "v_design": 70, "design_gap": 20}}, {"type": "Feature", "geometry": {"type": "LineString", "coordinates": [[120.3256372, 16.041401], [120.3260745, 16.0417476], [120.3261574, 16.0418068], [120.3263404, 16.0419496], [120.3267054, 16.0422762], [120.3270387, 16.0426152], [120.3272588, 16.0429482], [120.3274314, 16.0432709], [120.3275288, 16.0434424]]}, "properties": {"city": "dagupan", "name": "Jose de Venecia Avenue", "highway": "trunk", "v_posted": 60, "posted_imputed": false, "v_safe": 50, "gap": 10, "R": 2.07, "exposure": 0.779, "vru_150m": 0, "sss": 22.2, "recommended": 50, "fatal_reduction_pct": 51.8, "why": "undivided arterial, side-impact intersections", "pop_density": 25192.5, "pop_density_peak": 34078.2, "v_design": 70, "design_gap": 20}}, {"type": "Feature", "geometry": {"type": "LineString", "coordinates": [[120.3251302, 16.0394593], [120.3251353, 16.039584], [120.3251322, 16.0398453], [120.3251309, 16.0399935], [120.325141, 16.0401005], [120.3251711, 16.0402539], [120.3252402, 16.0404324], [120.3253026, 16.0406676], [120.3253836, 16.0410549]]}, "properties": {"city": "dagupan", "name": "Jose de Venecia Avenue", "highway": "trunk", "v_posted": 60, "posted_imputed": false, "v_safe": 50, "gap": 10, "R": 2.07, "exposure": 0.443, "vru_150m": 0, "sss": 18.0, "recommended": 50, "fatal_reduction_pct": 51.8, "why": "undivided arterial, side-impact intersections", "pop_density": 14322.7, "pop_density_peak": 17184.3, "v_design": 70, "design_gap": 20}}, {"type": "Feature", "geometry": {"type": "LineString", "coordinates": [[120.325265, 16.0411291], [120.3252033, 16.0410292], [120.3251108, 16.0409138], [120.3250417, 16.0408242], [120.3250115, 16.0407456], [120.3250008, 16.0406709], [120.3250109, 16.0406161], [120.3250457, 16.0405768], [120.3251128, 16.0405587], [120.3251684, 16.0405639], [120.3252174, 16.0406019], [120.3252442, 16.0406419], [120.325267, 16.0406973], [120.3253388, 16.0409673], [120.3253535, 16.0410131], [120.3253836, 16.0410549]]}, "properties": {"city": "dagupan", "name": "", "highway": "trunk_link", "v_posted": 60, "posted_imputed": false, "v_safe": 50, "gap": 10, "R": 2.07, "exposure": 0.531, "vru_150m": 0, "sss": 19.1, "recommended": 50, "fatal_reduction_pct": 51.8, "why": "undivided arterial, side-impact intersections", "pop_density": 17184.3, "pop_density_peak": 17184.3, "v_design": 40, "design_gap": -10}}, {"type": "Feature", "geometry": {"type": "LineString", "coordinates": [[120.329498, 16.0468382], [120.3296591, 16.047141], [120.3297899, 16.0473594], [120.3299461, 16.0475702], [120.3301139, 16.047735], [120.3301848, 16.0478047], [120.3304839, 16.0480805], [120.3313476, 16.0488152], [120.3321657, 16.0495601]]}, "properties": {"city": "dagupan", "name": "Jose de Venecia Avenue", "highway": "trunk", "v_posted": 60, "posted_imputed": false, "v_safe": 50, "gap": 10, "R": 2.07, "exposure": 0.187, "vru_150m": 0, "sss": 14.8, "recommended": 50, "fatal_reduction_pct": 51.8, "why": "undivided arterial, side-impact intersections", "pop_density": 6052.8, "pop_density_peak": 10088.1, "v_design": 70, "design_gap": 20}}, {"type": "Feature", "geometry": {"type": "LineString", "coordinates": [[120.3401232, 16.0577137], [120.3401328, 16.0576821]]}, "properties": {"city": "dagupan", "name": "Arellano Street", "highway": "trunk", "v_posted": 60, "posted_imputed": false, "v_safe": 50, "gap": 10, "R": 2.07, "exposure": 1.0, "vru_150m": 1, "sss": 25.0, "recommended": 50, "fatal_reduction_pct": 51.8, "why": "undivided arterial, side-impact intersections", "pop_density": 37858.8, "pop_density_peak": 37858.8, "v_design": 70, "design_gap": 20}}, {"type": "Feature", "geometry": {"type": "LineString", "coordinates": [[120.3446413, 16.0428834], [120.344565, 16.0430259], [120.3445193, 16.0431072]]}, "properties": {"city": "dagupan", "name": "MacArthur Highway", "highway": "primary", "v_posted": 60, "posted_imputed": false, "v_safe": 50, "gap": 10, "R": 2.07, "exposure": 0.499, "vru_150m": 1, "sss": 18.7, "recommended": 50, "fatal_reduction_pct": 51.8, "why": "undivided arterial, side-impact intersections", "pop_density": 12088.3, "pop_density_peak": 12088.3, "v_design": 60, "design_gap": 10}}, {"type": "Feature", "geometry": {"type": "LineString", "coordinates": [[120.340105, 16.0577892], [120.3400548, 16.0577266], [120.339991, 16.0576513], [120.33982, 16.0574683]]}, "properties": {"city": "dagupan", "name": "Jose de Venecia Avenue", "highway": "trunk", "v_posted": 60, "posted_imputed": false, "v_safe": 50, "gap": 10, "R": 2.07, "exposure": 1.0, "vru_150m": 1, "sss": 25.0, "recommended": 50, "fatal_reduction_pct": 51.8, "why": "undivided arterial, side-impact intersections", "pop_density": 55259.6, "pop_density_peak": 72660.5, "v_design": 70, "design_gap": 20}}, {"type": "Feature", "geometry": {"type": "LineString", "coordinates": [[120.339769, 16.0573613], [120.3398763, 16.0574328], [120.3400554, 16.0576035], [120.3401328, 16.0576821]]}, "properties": {"city": "dagupan", "name": "Jose de Venecia Avenue", "highway": "trunk", "v_posted": 60, "posted_imputed": false, "v_safe": 50, "gap": 10, "R": 2.07, "exposure": 1.0, "vru_150m": 1, "sss": 25.0, "recommended": 50, "fatal_reduction_pct": 51.8, "why": "undivided arterial, side-impact intersections", "pop_density": 55259.6, "pop_density_peak": 72660.4, "v_design": 70, "design_gap": 20}}, {"type": "Feature", "geometry": {"type": "LineString", "coordinates": [[120.340105, 16.0577892], [120.3401232, 16.0577137]]}, "properties": {"city": "dagupan", "name": "Arellano Street", "highway": "trunk", "v_posted": 60, "posted_imputed": false, "v_safe": 50, "gap": 10, "R": 2.07, "exposure": 1.0, "vru_150m": 1, "sss": 25.0, "recommended": 50, "fatal_reduction_pct": 51.8, "why": "undivided arterial, side-impact intersections", "pop_density": 37858.8, "pop_density_peak": 37858.8, "v_design": 70, "design_gap": 20}}, {"type": "Feature", "geometry": {"type": "LineString", "coordinates": [[120.3402116, 16.0574225], [120.3402391, 16.0573445], [120.3403343, 16.0569695], [120.3404302, 16.0564103], [120.3404497, 16.0562967], [120.3404564, 16.0562461], [120.3404969, 16.0559395], [120.3405207, 16.0557593], [120.3406522, 16.0549512], [120.3406953, 16.0545805]]}, "properties": {"city": "dagupan", "name": "Arellano Street", "highway": "trunk", "v_posted": 60, "posted_imputed": false, "v_safe": 30, "gap": 30, "R": 16.0, "exposure": 1.0, "vru_150m": 2, "sss": 75.0, "recommended": 30, "fatal_reduction_pct": 93.8, "why": "pedestrian activity (1 VRU site<=50m)", "pop_density": 81303.8, "pop_density_peak": 88638.3, "v_design": 70, "design_gap": 40}}, {"type": "Feature", "geometry": {"type": "LineString", "coordinates": [[120.33982, 16.0574683], [120.339769, 16.0573613]]}, "properties": {"city": "dagupan", "name": "Jose de Venecia Avenue", "highway": "trunk", "v_posted": 60, "posted_imputed": false, "v_safe": 50, "gap": 10, "R": 2.07, "exposure": 1.0, "vru_150m": 1, "sss": 25.0, "recommended": 50, "fatal_reduction_pct": 51.8, "why": "undivided arterial, side-impact intersections", "pop_density": 72660.4, "pop_density_peak": 72660.5, "v_design": 70, "design_gap": 20}}, {"type": "Feature", "geometry": {"type": "LineString", "coordinates": [[120.3400278, 16.0581608], [120.340051, 16.058052], [120.340105, 16.0577892]]}, "properties": {"city": "dagupan", "name": "Don Marcelo I. Balolong Sr. Avenue", "highway": "primary", "v_posted": 60, "posted_imputed": false, "v_safe": 50, "gap": 10, "R": 2.07, "exposure": 1.0, "vru_150m": 0, "sss": 25.0, "recommended": 50, "fatal_reduction_pct": 51.8, "why": "undivided arterial, side-impact intersections", "pop_density": 37858.9, "pop_density_peak": 37858.9, "v_design": 60, "design_gap": 10}}, {"type": "Feature", "geometry": {"type": "LineString", "coordinates": [[120.3401328, 16.0576821], [120.3402116, 16.0574225]]}, "properties": {"city": "dagupan", "name": "Arellano Street", "highway": "trunk", "v_posted": 60, "posted_imputed": false, "v_safe": 50, "gap": 10, "R": 2.07, "exposure": 1.0, "vru_150m": 1, "sss": 25.0, "recommended": 50, "fatal_reduction_pct": 51.8, "why": "undivided arterial, side-impact intersections", "pop_density": 54435.0, "pop_density_peak": 71011.1, "v_design": 70, "design_gap": 20}}, {"type": "Feature", "geometry": {"type": "LineString", "coordinates": [[120.3451905, 16.041653], [120.3451026, 16.0418431], [120.3446413, 16.0428834]]}, "properties": {"city": "dagupan", "name": "MacArthur Highway", "highway": "primary", "v_posted": 60, "posted_imputed": false, "v_safe": 50, "gap": 10, "R": 2.07, "exposure": 0.507, "vru_150m": 1, "sss": 18.8, "recommended": 50, "fatal_reduction_pct": 51.8, "why": "undivided arterial, side-impact intersections", "pop_density": 12431.5, "pop_density_peak": 12774.6, "v_design": 60, "design_gap": 10}}, {"type": "Feature", "geometry": {"type": "LineString", "coordinates": [[120.3441547, 16.0429592], [120.3443336, 16.0430439], [120.3445193, 16.0431072]]}, "properties": {"city": "dagupan", "name": "Perez Boulevard", "highway": "primary", "v_posted": 40, "posted_imputed": false, "v_safe": 30, "gap": 10, "R": 3.16, "exposure": 0.499, "vru_150m": 1, "sss": 18.7, "recommended": 30, "fatal_reduction_pct": 68.4, "why": "pedestrian activity (1 VRU site<=50m)", "pop_density": 12088.3, "pop_density_peak": 12088.3, "v_design": 60, "design_gap": 30}}, {"type": "Feature", "geometry": {"type": "LineString", "coordinates": [[120.3337084, 16.043476], [120.3334167, 16.0434055], [120.3332305, 16.0433601]]}, "properties": {"city": "dagupan", "name": "A. B. Fernandez Avenue", "highway": "primary", "v_posted": 40, "posted_imputed": false, "v_safe": 30, "gap": 10, "R": 3.16, "exposure": 0.656, "vru_150m": 2, "sss": 20.7, "recommended": 30, "fatal_reduction_pct": 68.4, "why": "pedestrian activity (1 VRU site<=50m)", "pop_density": 13810.4, "pop_density_peak": 14178.6, "v_design": 60, "design_gap": 30}}, {"type": "Feature", "geometry": {"type": "LineString", "coordinates": [[120.3390831, 16.0566456], [120.3391409, 16.0567039], [120.3392543, 16.0568242], [120.3396311, 16.0572174], [120.339769, 16.0573613]]}, "properties": {"city": "dagupan", "name": "Jose de Venecia Avenue", "highway": "trunk", "v_posted": 60, "posted_imputed": false, "v_safe": 50, "gap": 10, "R": 2.07, "exposure": 1.0, "vru_150m": 1, "sss": 25.0, "recommended": 50, "fatal_reduction_pct": 51.8, "why": "undivided arterial, side-impact intersections", "pop_density": 75713.5, "pop_density_peak": 78766.5, "v_design": 70, "design_gap": 20}}, {"type": "Feature", "geometry": {"type": "LineString", "coordinates": [[120.3253836, 16.0410549], [120.3254372, 16.0411433], [120.3256372, 16.041401]]}, "properties": {"city": "dagupan", "name": "Jose de Venecia Avenue", "highway": "trunk", "v_posted": 60, "posted_imputed": false, "v_safe": 50, "gap": 10, "R": 2.07, "exposure": 0.531, "vru_150m": 0, "sss": 19.1, "recommended": 50, "fatal_reduction_pct": 51.8, "why": "undivided arterial, side-impact intersections", "pop_density": 17184.3, "pop_density_peak": 17184.3, "v_design": 70, "design_gap": 20}}, {"type": "Feature", "geometry": {"type": "LineString", "coordinates": [[120.3256372, 16.041401], [120.3254326, 16.0412637], [120.325265, 16.0411291]]}, "properties": {"city": "dagupan", "name": "Jose de Venecia Avenue", "highway": "trunk", "v_posted": 60, "posted_imputed": false, "v_safe": 50, "gap": 10, "R": 2.07, "exposure": 0.531, "vru_150m": 0, "sss": 19.1, "recommended": 50, "fatal_reduction_pct": 51.8, "why": "undivided arterial, side-impact intersections", "pop_density": 17184.3, "pop_density_peak": 17184.3, "v_design": 70, "design_gap": 20}}, {"type": "Feature", "geometry": {"type": "LineString", "coordinates": [[120.3756051, 16.0500848], [120.3757609, 16.0499055], [120.3758937, 16.0497741], [120.3760319, 16.0496632], [120.3762116, 16.0495382], [120.3764315, 16.0494068], [120.3768342, 16.049211], [120.3772858, 16.0489918], [120.3778946, 16.0487031], [120.3785464, 16.0484015], [120.3793323, 16.048056], [120.3796883, 16.0479052], [120.3800622, 16.047766]]}, "properties": {"city": "dagupan", "name": "Dagupan-Mangaldan-Calasiao Circumferential Road", "highway": "primary", "v_posted": 80, "posted_imputed": false, "v_safe": 50, "gap": 30, "R": 6.55, "exposure": 0.231, "vru_150m": 0, "sss": 46.1, "recommended": 50, "fatal_reduction_pct": 84.7, "why": "undivided arterial, side-impact intersections", "pop_density": 7460.1, "pop_density_peak": 8744.6, "v_design": 60, "design_gap": 10}}, {"type": "Feature", "geometry": {"type": "LineString", "coordinates": [[120.3398658, 16.0587407], [120.3399461, 16.0585225], [120.3400093, 16.0583121], [120.3400278, 16.0581608]]}, "properties": {"city": "dagupan", "name": "Don Marcelo I. Balolong Sr. Avenue", "highway": "primary", "v_posted": 60, "posted_imputed": false, "v_safe": 50, "gap": 10, "R": 2.07, "exposure": 0.585, "vru_150m": 0, "sss": 19.8, "recommended": 50, "fatal_reduction_pct": 51.8, "why": "undivided arterial, side-impact intersections", "pop_density": 18929.4, "pop_density_peak": 37858.9, "v_design": 60, "design_gap": 10}}, {"type": "Feature", "geometry": {"type": "LineString", "coordinates": [[120.3393462, 16.0599563], [120.3398658, 16.0587407]]}, "properties": {"city": "dagupan", "name": "Don Marcelo I. Balolong Sr. Avenue", "highway": "primary", "v_posted": 60, "posted_imputed": false, "v_safe": 50, "gap": 10, "R": 2.07, "exposure": 0.0, "vru_150m": 0, "sss": 12.5, "recommended": 50, "fatal_reduction_pct": 51.8, "why": "undivided arterial, side-impact intersections", "pop_density": 0.0, "pop_density_peak": 0.0, "v_design": 60, "design_gap": 10}}, {"type": "Feature", "geometry": {"type": "LineString", "coordinates": [[120.3375659, 16.0631185], [120.3377333, 16.0628162], [120.3377541, 16.06278], [120.3385748, 16.0613552], [120.3389102, 16.060754], [120.3390335, 16.0605534], [120.3390823, 16.0604609], [120.3391647, 16.0603365], [120.3391921, 16.0602951], [120.3392189, 16.0602505], [120.3393462, 16.0599563]]}, "properties": {"city": "dagupan", "name": "Don Marcelo I. Balolong Sr. Avenue", "highway": "primary", "v_posted": 60, "posted_imputed": false, "v_safe": 50, "gap": 10, "R": 2.07, "exposure": 0.02, "vru_150m": 0, "sss": 12.8, "recommended": 50, "fatal_reduction_pct": 51.8, "why": "undivided arterial, side-impact intersections", "pop_density": 660.8, "pop_density_peak": 1982.3, "v_design": 60, "design_gap": 10}}, {"type": "Feature", "geometry": {"type": "LineString", "coordinates": [[120.337308, 16.0635496], [120.3375659, 16.0631185]]}, "properties": {"city": "dagupan", "name": "Don Marcelo I. Balolong Sr. Avenue", "highway": "primary", "v_posted": 60, "posted_imputed": false, "v_safe": 50, "gap": 10, "R": 2.07, "exposure": 0.148, "vru_150m": 0, "sss": 14.4, "recommended": 50, "fatal_reduction_pct": 51.8, "why": "undivided arterial, side-impact intersections", "pop_density": 4787.8, "pop_density_peak": 7593.3, "v_design": 60, "design_gap": 10}}, {"type": "Feature", "geometry": {"type": "LineString", "coordinates": [[120.3501901, 16.0803243], [120.3498172, 16.0800573], [120.3488043, 16.0793714], [120.3487174, 16.0793125], [120.3486218, 16.0792448], [120.3485533, 16.0791944], [120.3479026, 16.0787416], [120.3474369, 16.0783867], [120.3467255, 16.0779011], [120.3458294, 16.0772675], [120.3455315, 16.0770569], [120.3447491, 16.0765038], [120.3446982, 16.0764664], [120.3446461, 16.0764277], [120.3443381, 16.0762052], [120.3441912, 16.0760988], [120.3439889, 16.0759488], [120.3436111, 16.0756822], [120.3433234, 16.0754419], [120.3431987, 16.0753629], [120.3428839, 16.075188], [120.3428025, 16.0751436], [120.3425992, 16.0750372], [120.3424687, 16.0749688], [120.342439, 16.0749539], [120.3421751, 16.0748219], [120.3419873, 16.0747564], [120.3419075, 16.0747189], [120.3412813, 16.0743902], [120.3411004, 16.0742952], [120.3405482, 16.0740132], [120.3404892, 16.0739828], [120.3401407, 16.0737944], [120.3401184, 16.0737824], [120.3401047, 16.073775], [120.3398196, 16.0736208], [120.3393704, 16.0733779], [120.3392889, 16.0733352], [120.3385858, 16.0729662], [120.3385038, 16.0729228], [120.3382167, 16.0727642], [120.3378157, 16.0725455], [120.3374838, 16.0723265], [120.3372019, 16.0721066], [120.3371183, 16.0720496], [120.3370159, 16.0719528], [120.3369351, 16.0718691], [120.3368991, 16.0718305], [120.3367871, 16.0717191], [120.3366731, 16.0715876], [120.3365175, 16.0714253], [120.335642, 16.0704718], [120.3354916, 16.070308], [120.3351336, 16.0699213], [120.3349827, 16.0697582], [120.3344777, 16.0692126], [120.3343798, 16.0690412], [120.3343496, 16.068873], [120.3345334, 16.0684921], [120.3346308, 16.0683239], [120.3347801, 16.0680662], [120.3348806, 16.0678923], [120.3349994, 16.0676867], [120.3353065, 16.0671377], [120.3353454, 16.0670759], [120.33544, 16.0669083], [120.335754, 16.0663532], [120.3357777, 16.0663114], [120.3358225, 16.0662321], [120.3361198, 16.0657066], [120.3362249, 16.0655219], [120.3362759, 16.0654323], [120.3362879, 16.0654112], [120.3363472, 16.0653071], [120.3363578, 16.0652874], [120.3364867, 16.0650552], [120.3368265, 16.0644236], [120.3368519, 16.0643774], [120.3368971, 16.0642922], [120.337308, 16.0635496]]}, "properties": {"city": "dagupan", "name": "Don Marcelo I. Balolong Sr. Avenue", "highway": "primary", "v_posted": 60, "posted_imputed": false, "v_safe": 50, "gap": 10, "R": 2.07, "exposure": 0.437, "vru_150m": 0, "sss": 18.0, "recommended": 50, "fatal_reduction_pct": 51.8, "why": "undivided arterial, side-impact intersections", "pop_density": 14150.2, "pop_density_peak": 17121.6, "v_design": 55, "design_gap": 5}}, {"type": "Feature", "geometry": {"type": "LineString", "coordinates": [[120.3585829, 16.0862372], [120.3590113, 16.0865423], [120.3595991, 16.0869609], [120.3596976, 16.0870382], [120.3598165, 16.0871299], [120.3599614, 16.0872407], [120.360227, 16.0874225], [120.3602636, 16.0874492], [120.361664, 16.0884105], [120.361682, 16.0884228], [120.3626221, 16.0890692], [120.3629821, 16.0893224], [120.3636269, 16.0897758], [120.3638077, 16.0899029], [120.3639454, 16.0900047], [120.3640627, 16.090098], [120.3641455, 16.0901564], [120.3643871, 16.0903268], [120.3646144, 16.0904874], [120.3647492, 16.0905798], [120.3647631, 16.090589], [120.3649888, 16.0907375], [120.3650875, 16.0908094], [120.3651423, 16.0908472], [120.3651761, 16.0908713], [120.3655692, 16.0911522], [120.3658609, 16.0913584], [120.3659237, 16.0914061], [120.3659525, 16.0914279], [120.3662349, 16.0916243], [120.3673426, 16.0924138], [120.367426, 16.0924723], [120.3679987, 16.0928885], [120.3684769, 16.0932199], [120.3685228, 16.0932547], [120.3685765, 16.0932933], [120.3694167, 16.0938765], [120.3694675, 16.0939118]]}, "properties": {"city": "dagupan", "name": "San Fabian-Bonuan-Dagupan Diversion Road", "highway": "primary", "v_posted": 60, "posted_imputed": false, "v_safe": 50, "gap": 10, "R": 2.07, "exposure": 0.196, "vru_150m": 0, "sss": 15.0, "recommended": 50, "fatal_reduction_pct": 51.8, "why": "undivided arterial, side-impact intersections", "pop_density": 6345.6, "pop_density_peak": 14528.8, "v_design": 60, "design_gap": 10}}, {"type": "Feature", "geometry": {"type": "LineString", "coordinates": [[120.3501901, 16.0803243], [120.3503566, 16.0804436], [120.3525707, 16.0820192], [120.352656, 16.0820798], [120.3527692, 16.0821639], [120.3529829, 16.0823168], [120.3536367, 16.0827847], [120.3545334, 16.0833943], [120.3545604, 16.0834127], [120.3555554, 16.0841249], [120.3557933, 16.0843004], [120.3559678, 16.0844219], [120.3563576, 16.0846907], [120.3565116, 16.0847981], [120.3566412, 16.0848886], [120.3569455, 16.085093], [120.3572282, 16.0852971], [120.3573543, 16.0853881], [120.3578079, 16.0857061], [120.3581561, 16.0859332], [120.3585829, 16.0862372]]}, "properties": {"city": "dagupan", "name": "San Fabian-Bonuan-Dagupan Diversion Road", "highway": "primary", "v_posted": 60, "posted_imputed": false, "v_safe": 50, "gap": 10, "R": 2.07, "exposure": 0.39, "vru_150m": 1, "sss": 17.4, "recommended": 50, "fatal_reduction_pct": 51.8, "why": "undivided arterial, side-impact intersections", "pop_density": 7677.3, "pop_density_peak": 14890.2, "v_design": 60, "design_gap": 10}}]}