{"type": "FeatureCollection", "features": [{"type": "Feature", "geometry": {"type": "LineString", "coordinates": [[120.5593376, 18.1768218], [120.5594024, 18.17697], [120.5594547, 18.1770771], [120.5595151, 18.1771662], [120.5596036, 18.1772656], [120.5597819, 18.1774173], [120.5602218, 18.1777906], [120.5605679, 18.1781056], [120.5608964, 18.1784022], [120.5610399, 18.1785385], [120.5612223, 18.1787271], [120.5617748, 18.1793578], [120.5623361, 18.1799694], [120.5627511, 18.1804485], [120.5638985, 18.181707], [120.5639554, 18.1817695], [120.5644087, 18.1823139], [120.5651262, 18.1832249], [120.565492, 18.1836912], [120.5656924, 18.1839466], [120.5657678, 18.184035], [120.5658622, 18.1841457], [120.5661128, 18.1844769], [120.5662151, 18.1846122], [120.5662257, 18.1846262], [120.5662604, 18.1846704]]}, "properties": {"city": "laoag", "name": "Laoag - Balaccad Road", "highway": "primary", "v_posted": 60, "posted_imputed": false, "v_safe": 50, "gap": 10, "R": 2.07, "exposure": 0.163, "vru_150m": 0, "sss": 14.5, "recommended": 50, "fatal_reduction_pct": 51.8, "why": "undivided arterial, side-impact intersections", "pop_density": 5264.4, "pop_density_peak": 7362.4}}, {"type": "Feature", "geometry": {"type": "LineString", "coordinates": [[120.5591137, 18.1761885], [120.5593376, 18.1768218]]}, "properties": {"city": "laoag", "name": "Laoag - Balaccad Road", "highway": "primary", "v_posted": 60, "posted_imputed": false, "v_safe": 50, "gap": 10, "R": 2.07, "exposure": 0.228, "vru_150m": 0, "sss": 15.3, "recommended": 50, "fatal_reduction_pct": 51.8, "why": "undivided arterial, side-impact intersections", "pop_density": 7362.4, "pop_density_peak": 7362.4}}, {"type": "Feature", "geometry": {"type": "LineString", "coordinates": [[120.5388822, 18.1391973], [120.5389606, 18.139349], [120.5390371, 18.1394592], [120.5391363, 18.1395809], [120.5392959, 18.1397307], [120.5399014, 18.140164], [120.5402011, 18.140396], [120.5404836, 18.1406349], [120.5410808, 18.1411466], [120.5420426, 18.1419541], [120.5423749, 18.1422326], [120.5426659, 18.1425341], [120.5428961, 18.1429053], [120.5434111, 18.1438879], [120.5448206, 18.1462634], [120.5451317, 18.1467948], [120.5456172, 18.1476257], [120.5458076, 18.1479482], [120.5462623, 18.1487306], [120.5464943, 18.1491282], [120.54733, 18.1505993], [120.5477911, 18.1513788], [120.5482887, 18.152239], [120.5487165, 18.152996], [120.5488291, 18.1531846], [120.5488949, 18.1533107], [120.5489686, 18.1534853], [120.5492087, 18.154125], [120.5494848, 18.1549215]]}, "properties": {"city": "laoag", "name": "Laoag - Balaccad Road", "highway": "primary", "v_posted": 60, "posted_imputed": false, "v_safe": 50, "gap": 10, "R": 2.07, "exposure": 0.0, "vru_150m": 0, "sss": 12.5, "recommended": 50, "fatal_reduction_pct": 51.8, "why": "undivided arterial, side-impact intersections", "pop_density": 0.0, "pop_density_peak": 0.0}}, {"type": "Feature", "geometry": {"type": "LineString", "coordinates": [[120.557262, 18.1380165], [120.5573049, 18.1381644], [120.5573693, 18.1383734], [120.5574793, 18.1388016], [120.5576187, 18.1394796], [120.5577207, 18.1402825], [120.5578199, 18.1408994], [120.5578843, 18.1416283], [120.5578735, 18.1424261], [120.5577797, 18.1429104], [120.5577233, 18.1431184], [120.5576912, 18.1432367], [120.5576053, 18.1435043], [120.5574125, 18.1440079], [120.5572271, 18.1444423], [120.5569777, 18.1449954], [120.5568945, 18.1452961], [120.5568597, 18.1455255], [120.5568382, 18.1457804], [120.5568892, 18.1459767], [120.5569455, 18.1461398], [120.55703, 18.1464138], [120.5575805, 18.1476476], [120.5578548, 18.1482438], [120.5580036, 18.1484764], [120.55806, 18.1485395], [120.5582115, 18.1486695], [120.5583952, 18.1488517], [120.5584341, 18.1489243], [120.558463, 18.1490225], [120.5584663, 18.1492621], [120.5584764, 18.1495367], [120.5584703, 18.1496265], [120.5584298, 18.149796], [120.5584204, 18.1498738], [120.5584284, 18.1499555], [120.5584596, 18.1500432], [120.5586152, 18.1502784], [120.5586702, 18.1503405], [120.5587312, 18.150388], [120.5588049, 18.1504319], [120.5588992, 18.1504708], [120.5590051, 18.1504877], [120.5592911, 18.1504995], [120.5595888, 18.150518], [120.5597491, 18.1505555], [120.5601192, 18.1507008], [120.5602493, 18.1507735], [120.5603264, 18.1508467], [120.5603975, 18.1509512], [120.5604686, 18.1511392], [120.5605075, 18.1512743], [120.5605487, 18.1513743], [120.5606335, 18.1515113], [120.5607469, 18.1516107], [120.5609091, 18.1517139], [120.5611425, 18.1518204], [120.5613054, 18.1518669], [120.5617125, 18.1519274], [120.5619156, 18.1519551], [120.5621919, 18.1520051], [120.5625493, 18.1520517], [120.5628273, 18.1520488], [120.5629463, 18.1520325], [120.5631421, 18.1519797], [120.5633292, 18.1519293], [120.5634442, 18.1519147], [120.5638307, 18.1519242], [120.5641472, 18.1519484], [120.5644503, 18.1520045], [120.5646314, 18.1520657], [120.5647695, 18.1521358], [120.5650391, 18.1523499], [120.5652798, 18.1525448], [120.5653814, 18.1526089], [120.5658102, 18.15278], [120.5661991, 18.1528742], [120.5668519, 18.1530342], [120.5674303, 18.1531909], [120.5675473, 18.1532353], [120.5677494, 18.153312], [120.5679332, 18.1534069], [120.568084, 18.1535076], [120.5682242, 18.1536268], [120.5687036, 18.1541384], [120.5690657, 18.154541], [120.5698469, 18.1554096], [120.5705041, 18.1561691], [120.5709989, 18.1566992], [120.5710911, 18.1568152], [120.5711257, 18.1568789], [120.5711552, 18.1569668], [120.5711629, 18.157085], [120.5711458, 18.1571841], [120.5710901, 18.1573899], [120.5708548, 18.157971], [120.5707347, 18.1581866], [120.5706995, 18.1582582], [120.5706771, 18.1583335], [120.5706717, 18.1583959], [120.5706761, 18.1584412], [120.5707029, 18.1585896], [120.5707253, 18.1587476], [120.5707488, 18.1591217], [120.5707093, 18.159279], [120.570669, 18.1593695], [120.5705027, 18.1596196], [120.5702985, 18.1598885], [120.5702332, 18.1599363], [120.5701688, 18.1599684], [120.5699535, 18.160022], [120.5698939, 18.1600408], [120.5697423, 18.160129], [120.5695202, 18.1603042], [120.5694843, 18.1603475], [120.5694644, 18.1604001], [120.569464, 18.1604705], [120.5694734, 18.1605123], [120.5695282, 18.1607145], [120.5695381, 18.1607824], [120.5695365, 18.160999], [120.5695455, 18.1610815], [120.5695754, 18.1611383], [120.569631, 18.1611873], [120.5697081, 18.161216], [120.569912, 18.161274], [120.5700481, 18.1613383], [120.5702528, 18.1615096], [120.5704477, 18.1617384], [120.5704967, 18.1618245], [120.570521, 18.1619], [120.5705306, 18.1619841], [120.5705114, 18.1620882], [120.5704638, 18.1621536], [120.5703877, 18.1622147], [120.5701956, 18.1622883], [120.5698574, 18.1624116], [120.5697843, 18.1624632], [120.5697521, 18.1625024], [120.5697239, 18.1625604], [120.5697068, 18.1626111], [120.5697031, 18.1626627], [120.5697135, 18.1627076], [120.5697363, 18.162741], [120.5698419, 18.162813], [120.5700387, 18.1629318], [120.5701923, 18.1630389], [120.5702794, 18.1631204], [120.5703572, 18.1632319], [120.5704008, 18.1633511], [120.5704786, 18.1637257], [120.5704873, 18.1638254], [120.5704913, 18.1642045], [120.5704598, 18.1646776], [120.5704625, 18.1648751], [120.5704806, 18.1650111], [120.5705135, 18.1651542], [120.5705882, 18.1653714], [120.5706395, 18.1654937], [120.5706905, 18.1656033], [120.5707401, 18.1656852], [120.570836, 18.1657957], [120.5709708, 18.165892], [120.5711424, 18.1659608], [120.571349, 18.1660015], [120.5720866, 18.1660831], [120.5723119, 18.1660856], [120.572792, 18.1660372], [120.5733231, 18.1659824], [120.5735068, 18.1659843], [120.5735363, 18.1660028], [120.5736148, 18.1660359], [120.5737066, 18.1660882], [120.5738461, 18.1661774], [120.5740764, 18.1663487]]}, "properties": {"city": "laoag", "name": "", "highway": "secondary", "v_posted": 60, "posted_imputed": false, "v_safe": 50, "gap": 10, "R": 2.07, "exposure": 0.0, "vru_150m": 0, "sss": 12.5, "recommended": 50, "fatal_reduction_pct": 51.8, "why": "undivided arterial, side-impact intersections", "pop_density": 0.0, "pop_density_peak": 0.0}}, {"type": "Feature", "geometry": {"type": "LineString", "coordinates": [[120.5531985, 18.1643577], [120.554445, 18.166703], [120.5545668, 18.1669322], [120.5549593, 18.1676708], [120.5552074, 18.1681085], [120.5553504, 18.1683958], [120.5558335, 18.1693257], [120.5560737, 18.1697897], [120.5566853, 18.1709685], [120.556936, 18.1714343], [120.5576267, 18.1727179], [120.5577487, 18.1729447], [120.5578119, 18.1730621], [120.5582066, 18.1738271], [120.5582749, 18.1739615], [120.5584408, 18.1742853], [120.5585307, 18.1744739], [120.5585749, 18.1745784], [120.5586098, 18.1746803], [120.558642, 18.174772], [120.5587801, 18.1752116], [120.5591137, 18.1761885]]}, "properties": {"city": "laoag", "name": "Laoag - Balaccad Road", "highway": "primary", "v_posted": 60, "posted_imputed": false, "v_safe": 50, "gap": 10, "R": 2.07, "exposure": 0.101, "vru_150m": 0, "sss": 13.8, "recommended": 50, "fatal_reduction_pct": 51.8, "why": "undivided arterial, side-impact intersections", "pop_density": 3280.9, "pop_density_peak": 7393.0}}, {"type": "Feature", "geometry": {"type": "LineString", "coordinates": [[120.5495381, 18.1550788], [120.5498363, 18.1559524], [120.5500951, 18.156726], [120.5503178, 18.1574345], [120.5503446, 18.1574995], [120.5506416, 18.1583552], [120.5506691, 18.1584425], [120.5510581, 18.1595779], [120.551164, 18.1598875], [120.5515113, 18.1609388], [120.5515972, 18.1611682], [120.5518238, 18.1617187], [120.5519217, 18.1619264], [120.5521799, 18.1624425], [120.5531985, 18.1643577]]}, "properties": {"city": "laoag", "name": "Laoag - Balaccad Road", "highway": "primary", "v_posted": 60, "posted_imputed": false, "v_safe": 50, "gap": 10, "R": 2.07, "exposure": 0.09, "vru_150m": 0, "sss": 13.6, "recommended": 50, "fatal_reduction_pct": 51.8, "why": "undivided arterial, side-impact intersections", "pop_density": 2915.7, "pop_density_peak": 7549.1}}, {"type": "Feature", "geometry": {"type": "LineString", "coordinates": [[120.5494848, 18.1549215], [120.5495381, 18.1550788]]}, "properties": {"city": "laoag", "name": "Laoag - Balaccad Road", "highway": "primary", "v_posted": 60, "posted_imputed": false, "v_safe": 50, "gap": 10, "R": 2.07, "exposure": 0.0, "vru_150m": 0, "sss": 12.5, "recommended": 50, "fatal_reduction_pct": 51.8, "why": "undivided arterial, side-impact intersections", "pop_density": 0.0, "pop_density_peak": 0.0}}, {"type": "Feature", "geometry": {"type": "LineString", "coordinates": [[120.6079076, 18.168831], [120.6080382, 18.1687879], [120.6082949, 18.1686892], [120.6089254, 18.1684583], [120.6092634, 18.1683391], [120.6101471, 18.1680276], [120.610764, 18.1678059], [120.6110175, 18.1676988], [120.611186, 18.1676128], [120.6112696, 18.1675701], [120.6117819, 18.1672388], [120.6119602, 18.1671155], [120.6120931, 18.167026], [120.6121965, 18.1669507], [120.6130479, 18.1663876], [120.6134643, 18.1661035], [120.6140095, 18.1657314], [120.6148607, 18.1651243], [120.61501, 18.1650178], [120.6156374, 18.1645754], [120.6161016, 18.1642481], [120.6168231, 18.1637155], [120.6175876, 18.1631727], [120.6184137, 18.1625712], [120.6186497, 18.1623546], [120.6188053, 18.1621532], [120.6189206, 18.161855], [120.6189716, 18.1615976], [120.6190735, 18.1611185], [120.6192371, 18.1603182], [120.619331, 18.1598707], [120.6194141, 18.1594747], [120.6195241, 18.1589191], [120.6197213, 18.1580166], [120.6197736, 18.1577773], [120.61993, 18.1571265], [120.6200927, 18.1564494], [120.6201625, 18.156141], [120.6205407, 18.1543723], [120.6208169, 18.1530852], [120.6208639, 18.1528379], [120.6211683, 18.1514616], [120.6215304, 18.1499018], [120.6217986, 18.1487498], [120.62204, 18.1476003], [120.6221205, 18.1472192], [120.622205, 18.1468369], [120.6223606, 18.1461806], [120.6226945, 18.1446729], [120.6228581, 18.1439542], [120.6234911, 18.1411033], [120.6237298, 18.1399155], [120.6239866, 18.1389826], [120.6240711, 18.1386423], [120.6242529, 18.1376393], [120.6243467, 18.1372621], [120.6243923, 18.1369753], [120.6246257, 18.1358703], [120.6247249, 18.1353746], [120.6249797, 18.134346], [120.6258206, 18.1304817], [120.6260151, 18.1295654], [120.6263178, 18.1282407], [120.6263698, 18.1280971], [120.6263879, 18.1280652], [120.6264603, 18.1279098], [120.627442, 18.126727], [120.6275734, 18.1265511], [120.6279892, 18.1260591], [120.6289367, 18.1249719], [120.6306848, 18.1229288], [120.6308055, 18.1228064], [120.6318676, 18.122108], [120.6334931, 18.1210526], [120.6340429, 18.1206791], [120.6340621, 18.1206667], [120.6344399, 18.1204204], [120.6346853, 18.1202483], [120.6350246, 18.1199858]]}, "properties": {"city": "laoag", "name": "Josefa Llanes Escoda National Highway", "highway": "primary", "v_posted": 60, "posted_imputed": false, "v_safe": 50, "gap": 10, "R": 2.07, "exposure": 0.035, "vru_150m": 0, "sss": 12.9, "recommended": 50, "fatal_reduction_pct": 51.8, "why": "undivided arterial, side-impact intersections", "pop_density": 1141.0, "pop_density_peak": 4174.9}}, {"type": "Feature", "geometry": {"type": "LineString", "coordinates": [[120.5943898, 18.1737184], [120.5944363, 18.1735846], [120.5944616, 18.1735522], [120.5945317, 18.1734976], [120.5945882, 18.1734498], [120.5946257, 18.1734259], [120.5947148, 18.1733836]]}, "properties": {"city": "laoag", "name": "Josefa Llanes Escoda National Highway", "highway": "primary", "v_posted": 40, "posted_imputed": false, "v_safe": 30, "gap": 10, "R": 3.16, "exposure": 0.662, "vru_150m": 3, "sss": 20.8, "recommended": 30, "fatal_reduction_pct": 68.4, "why": "pedestrian activity (1 VRU site<=50m)", "pop_density": 5016.4, "pop_density_peak": 6245.2}}, {"type": "Feature", "geometry": {"type": "LineString", "coordinates": [[120.6325566, 18.1717263], [120.6319845, 18.1719629], [120.6316144, 18.1721145], [120.6314929, 18.1721506], [120.6311042, 18.1722659], [120.6306803, 18.1723949], [120.6303058, 18.1724811], [120.6299311, 18.1725766], [120.6296521, 18.1726467], [120.6293759, 18.172755], [120.6291586, 18.1728569], [120.6289528, 18.1729873], [120.6287302, 18.1731416], [120.6284693, 18.1733233], [120.6281823, 18.1735272], [120.6277612, 18.1738253], [120.6274661, 18.1739961], [120.6272247, 18.1741235], [120.6267795, 18.1743936], [120.6265971, 18.1744981], [120.6261465, 18.1747682], [120.625543, 18.1751352], [120.6251433, 18.1753977], [120.6247759, 18.1756219], [120.6242609, 18.1759532], [120.6240892, 18.1760501], [120.6237915, 18.1762106], [120.6235152, 18.1763661], [120.6232363, 18.1765164], [120.6227884, 18.1767611], [120.6225711, 18.1768604], [120.6223485, 18.1769802], [120.6220883, 18.1771586], [120.6219032, 18.1773115], [120.6217504, 18.1774109], [120.6215895, 18.1775459], [120.6215438, 18.1775842], [120.6212434, 18.1778135], [120.6204361, 18.1784175], [120.6202537, 18.1785729], [120.6200927, 18.1786953], [120.6199247, 18.1788392], [120.6196019, 18.1791157], [120.6194477, 18.1792404], [120.6192237, 18.1794215], [120.6188858, 18.179712], [120.6187034, 18.1798675], [120.6185746, 18.1799898], [120.6184566, 18.1801198], [120.6183761, 18.1802344], [120.6182662, 18.1804103], [120.6181401, 18.1806753], [120.6180543, 18.1808588], [120.6179631, 18.1810856], [120.6178826, 18.181399], [120.6178571, 18.181506], [120.6178437, 18.18165]]}, "properties": {"city": "laoag", "name": "Rizal Street", "highway": "secondary", "v_posted": 60, "posted_imputed": false, "v_safe": 50, "gap": 10, "R": 2.07, "exposure": 0.07, "vru_150m": 0, "sss": 13.4, "recommended": 50, "fatal_reduction_pct": 51.8, "why": "undivided arterial, side-impact intersections", "pop_density": 2256.2, "pop_density_peak": 3490.4}}, {"type": "Feature", "geometry": {"type": "LineString", "coordinates": [[120.6329575, 18.1715673], [120.6325566, 18.1717263]]}, "properties": {"city": "laoag", "name": "Laoag-Sarrat-Piddig-Solsona Road", "highway": "secondary", "v_posted": 60, "posted_imputed": false, "v_safe": 50, "gap": 10, "R": 2.07, "exposure": 0.059, "vru_150m": 0, "sss": 13.2, "recommended": 50, "fatal_reduction_pct": 51.8, "why": "undivided arterial, side-impact intersections", "pop_density": 1903.3, "pop_density_peak": 1903.3}}, {"type": "Feature", "geometry": {"type": "LineString", "coordinates": [[120.6414653, 18.1647419], [120.6414041, 18.165051], [120.6412382, 18.1657569], [120.6411959, 18.1659145], [120.6411273, 18.1660818], [120.640988, 18.1662966], [120.6407536, 18.1666282], [120.6403301, 18.1671881], [120.6392233, 18.1683981], [120.6390055, 18.168615], [120.6387592, 18.1688463], [120.6385076, 18.1690311], [120.6382169, 18.1692089], [120.6374014, 18.1696052], [120.6372255, 18.169667], [120.6360603, 18.1701849], [120.6336759, 18.1712795], [120.6329575, 18.1715673]]}, "properties": {"city": "laoag", "name": "Laoag-Sarrat-Piddig-Solsona Road", "highway": "secondary", "v_posted": 60, "posted_imputed": false, "v_safe": 50, "gap": 10, "R": 2.07, "exposure": 0.109, "vru_150m": 0, "sss": 13.9, "recommended": 50, "fatal_reduction_pct": 51.8, "why": "undivided arterial, side-impact intersections", "pop_density": 3527.1, "pop_density_peak": 6032.0}}, {"type": "Feature", "geometry": {"type": "LineString", "coordinates": [[120.6178437, 18.18165], [120.6178477, 18.181743], [120.6178531, 18.1818883], [120.6178558, 18.1820641], [120.6178907, 18.1823368], [120.6180248, 18.1833867], [120.6180334, 18.183531], [120.6180114, 18.1837288], [120.6179326, 18.1842148], [120.6177752, 18.1849926], [120.6176459, 18.185504], [120.6175358, 18.1859479], [120.6174711, 18.1861539], [120.6172507, 18.1868691], [120.6170014, 18.1873063], [120.6165434, 18.1881348], [120.6163993, 18.1884194], [120.6162572, 18.1886284], [120.6160319, 18.1888348], [120.6153077, 18.1891915], [120.6146425, 18.1894591], [120.6137574, 18.1899203], [120.6130692, 18.1902765], [120.6130106, 18.1903047], [120.6127658, 18.1904225], [120.6127145, 18.190445], [120.6126767, 18.1904606], [120.6122282, 18.1906453], [120.6117295, 18.1908833], [120.611342, 18.1910683], [120.6112173, 18.1911269], [120.6110443, 18.1911804]]}, "properties": {"city": "laoag", "name": "", "highway": "secondary", "v_posted": 60, "posted_imputed": false, "v_safe": 50, "gap": 10, "R": 2.07, "exposure": 0.124, "vru_150m": 0, "sss": 14.0, "recommended": 50, "fatal_reduction_pct": 51.8, "why": "undivided arterial, side-impact intersections", "pop_density": 4001.9, "pop_density_peak": 8876.9}}, {"type": "Feature", "geometry": {"type": "LineString", "coordinates": [[120.566408, 18.1857818], [120.5664378, 18.1875225], [120.5664445, 18.1877684], [120.5664526, 18.1880206], [120.5666059, 18.1921422], [120.56667, 18.1925716], [120.5667336, 18.1928914], [120.5669139, 18.1935552], [120.567033, 18.1940182], [120.5674919, 18.1957112], [120.5681396, 18.1981014], [120.5682582, 18.1984718], [120.568373, 18.1987251], [120.5685754, 18.1989949], [120.5688254, 18.1992057], [120.5692456, 18.1994768]]}, "properties": {"city": "laoag", "name": "Rodolfo G. Fari\u00f1as Bypass Road", "highway": "primary", "v_posted": 60, "posted_imputed": false, "v_safe": 50, "gap": 10, "R": 2.07, "exposure": 0.073, "vru_150m": 0, "sss": 13.4, "recommended": 50, "fatal_reduction_pct": 51.8, "why": "undivided arterial, side-impact intersections", "pop_density": 2349.6, "pop_density_peak": 8755.5}}, {"type": "Feature", "geometry": {"type": "LineString", "coordinates": [[120.5754694, 18.2036316], [120.5720138, 18.2013456], [120.5692456, 18.1994768]]}, "properties": {"city": "laoag", "name": "Rodolfo G. Fari\u00f1as Bypass Road", "highway": "primary", "v_posted": 60, "posted_imputed": false, "v_safe": 50, "gap": 10, "R": 2.07, "exposure": 0.015, "vru_150m": 0, "sss": 12.7, "recommended": 50, "fatal_reduction_pct": 51.8, "why": "undivided arterial, side-impact intersections", "pop_density": 489.5, "pop_density_peak": 1468.5}}, {"type": "Feature", "geometry": {"type": "LineString", "coordinates": [[120.5781399, 18.1875235], [120.5772545, 18.1875846], [120.5771414, 18.1875915], [120.5769954, 18.1876049], [120.57697, 18.1876069], [120.5767707, 18.1876226], [120.5760778, 18.1876872], [120.5755772, 18.1877384], [120.5753491, 18.1877424], [120.5751565, 18.1877346], [120.575076, 18.1877268], [120.5746984, 18.1876806], [120.5743656, 18.1876229], [120.5740904, 18.1875602], [120.5738705, 18.187502], [120.5738337, 18.1874914], [120.5737731, 18.1874739], [120.5737573, 18.1874676], [120.5737013, 18.1874454], [120.5736057, 18.1874089], [120.5734483, 18.1873559], [120.573109, 18.1872259], [120.5729676, 18.1871755], [120.5726558, 18.1870859], [120.5720473, 18.1869395], [120.5715898, 18.1868505], [120.570724, 18.1867026], [120.5703645, 18.1866426], [120.5702726, 18.186617], [120.5699497, 18.1865269], [120.5697328, 18.1864501], [120.569522, 18.1863584], [120.5691984, 18.1861839], [120.5691251, 18.1861302], [120.568534, 18.185709], [120.5684105, 18.1855926], [120.5679067, 18.185123], [120.5677938, 18.1850288], [120.5676698, 18.1849609], [120.5676231, 18.1849343], [120.5675714, 18.1849169], [120.5675022, 18.1849049], [120.567439, 18.184898], [120.5673588, 18.1849063], [120.5672281, 18.184933]]}, "properties": {"city": "laoag", "name": "Airport Access Road", "highway": "primary", "v_posted": 60, "posted_imputed": false, "v_safe": 50, "gap": 10, "R": 2.07, "exposure": 0.123, "vru_150m": 0, "sss": 14.0, "recommended": 50, "fatal_reduction_pct": 51.8, "why": "undivided arterial, side-impact intersections", "pop_density": 3965.7, "pop_density_peak": 5407.9}}, {"type": "Feature", "geometry": {"type": "LineString", "coordinates": [[120.5829082, 18.2144062], [120.5826137, 18.214216], [120.5819625, 18.2137364], [120.5818963, 18.2136691], [120.5817747, 18.2135453], [120.5816138, 18.2133543], [120.5814314, 18.2130613], [120.5813093, 18.2127755], [120.580189, 18.2100812], [120.5801064, 18.2097949], [120.5800474, 18.2095783], [120.579991, 18.2093086], [120.5798728, 18.2086579], [120.5798086, 18.2084649], [120.5796772, 18.2082381], [120.5794178, 18.2079094], [120.5780316, 18.206229], [120.5780006, 18.2061908], [120.5773067, 18.2053372], [120.5768548, 18.204783], [120.5766155, 18.204506], [120.5764013, 18.2043062], [120.5762763, 18.2042035], [120.5759392, 18.2039453], [120.575738, 18.2038091], [120.5754694, 18.2036316]]}, "properties": {"city": "laoag", "name": "Rodolfo G. Fari\u00f1as Bypass Road", "highway": "primary", "v_posted": 60, "posted_imputed": false, "v_safe": 50, "gap": 10, "R": 2.07, "exposure": 0.021, "vru_150m": 0, "sss": 12.8, "recommended": 50, "fatal_reduction_pct": 51.8, "why": "undivided arterial, side-impact intersections", "pop_density": 683.7, "pop_density_peak": 1468.5}}, {"type": "Feature", "geometry": {"type": "LineString", "coordinates": [[120.5672281, 18.184933], [120.5671087, 18.1849879]]}, "properties": {"city": "laoag", "name": "Airport Access Road", "highway": "primary", "v_posted": 60, "posted_imputed": false, "v_safe": 50, "gap": 10, "R": 2.07, "exposure": 0.144, "vru_150m": 0, "sss": 14.3, "recommended": 50, "fatal_reduction_pct": 51.8, "why": "undivided arterial, side-impact intersections", "pop_density": 4657.0, "pop_density_peak": 4734.0}}, {"type": "Feature", "geometry": {"type": "LineString", "coordinates": [[120.5839981, 18.1866056], [120.5833774, 18.1866668], [120.583305, 18.186677], [120.5832431, 18.1866953], [120.5831795, 18.1867177], [120.5829518, 18.1868178], [120.5828419, 18.1868661], [120.582342, 18.1870616], [120.5820884, 18.1871446], [120.5818747, 18.1872145], [120.5808607, 18.1874923], [120.5807464, 18.1875236], [120.580294, 18.187642], [120.5800208, 18.1876987], [120.5798827, 18.1877148], [120.5795926, 18.1876932], [120.5792233, 18.1876404], [120.5785192, 18.1875394], [120.5783011, 18.1875265], [120.5781399, 18.1875235]]}, "properties": {"city": "laoag", "name": "Airport Avenue", "highway": "primary", "v_posted": 60, "posted_imputed": false, "v_safe": 50, "gap": 10, "R": 2.07, "exposure": 0.285, "vru_150m": 1, "sss": 16.1, "recommended": 50, "fatal_reduction_pct": 51.8, "why": "undivided arterial, side-impact intersections", "pop_density": 3428.4, "pop_density_peak": 4779.2}}, {"type": "Feature", "geometry": {"type": "LineString", "coordinates": [[120.5881939, 18.1863451], [120.5880395, 18.1863173], [120.5879972, 18.1863083], [120.5878576, 18.1862788], [120.5876837, 18.1862705], [120.5875287, 18.1862683], [120.5874304, 18.1862717], [120.5871798, 18.1862804], [120.5868849, 18.1863137], [120.5868234, 18.1863213], [120.5865153, 18.1863561], [120.5855816, 18.1864488]]}, "properties": {"city": "laoag", "name": "Airport Avenue", "highway": "primary", "v_posted": 60, "posted_imputed": false, "v_safe": 50, "gap": 10, "R": 2.07, "exposure": 0.05, "vru_150m": 0, "sss": 13.1, "recommended": 50, "fatal_reduction_pct": 51.8, "why": "undivided arterial, side-impact intersections", "pop_density": 1601.9, "pop_density_peak": 2232.7}}, {"type": "Feature", "geometry": {"type": "LineString", "coordinates": [[120.5884863, 18.1864303], [120.5884237, 18.1864176], [120.5883794, 18.1864078], [120.5881939, 18.1863451]]}, "properties": {"city": "laoag", "name": "Airport Avenue", "highway": "primary", "v_posted": 60, "posted_imputed": false, "v_safe": 50, "gap": 10, "R": 2.07, "exposure": 0.069, "vru_150m": 0, "sss": 13.4, "recommended": 50, "fatal_reduction_pct": 51.8, "why": "undivided arterial, side-impact intersections", "pop_density": 2232.7, "pop_density_peak": 2232.7}}, {"type": "Feature", "geometry": {"type": "LineString", "coordinates": [[120.5887558, 18.1866526], [120.5887097, 18.1865863], [120.588681, 18.1865604], [120.5886501, 18.1865342], [120.5886065, 18.1865021], [120.5885679, 18.1864725], [120.5885283, 18.1864485], [120.5884863, 18.1864303]]}, "properties": {"city": "laoag", "name": "Airport Avenue", "highway": "primary", "v_posted": 60, "posted_imputed": false, "v_safe": 50, "gap": 10, "R": 2.07, "exposure": 0.069, "vru_150m": 0, "sss": 13.4, "recommended": 50, "fatal_reduction_pct": 51.8, "why": "undivided arterial, side-impact intersections", "pop_density": 2232.7, "pop_density_peak": 2232.7}}, {"type": "Feature", "geometry": {"type": "LineString", "coordinates": [[120.5940554, 18.1954317], [120.5939216, 18.1954942]]}, "properties": {"city": "laoag", "name": "J. P. Rizal Avenue", "highway": "secondary", "v_posted": 40, "posted_imputed": false, "v_safe": 30, "gap": 10, "R": 3.16, "exposure": 0.575, "vru_150m": 2, "sss": 19.7, "recommended": 30, "fatal_reduction_pct": 68.4, "why": "pedestrian activity (1 VRU site<=50m)", "pop_density": 9453.6, "pop_density_peak": 9453.6}}, {"type": "Feature", "geometry": {"type": "LineString", "coordinates": [[120.5883904, 18.1863671], [120.5884529, 18.1863775], [120.5884871, 18.1863856], [120.5885067, 18.1863891]]}, "properties": {"city": "laoag", "name": "Airport Avenue", "highway": "primary", "v_posted": 60, "posted_imputed": false, "v_safe": 50, "gap": 10, "R": 2.07, "exposure": 0.069, "vru_150m": 0, "sss": 13.4, "recommended": 50, "fatal_reduction_pct": 51.8, "why": "undivided arterial, side-impact intersections", "pop_density": 2232.7, "pop_density_peak": 2232.7}}, {"type": "Feature", "geometry": {"type": "LineString", "coordinates": [[120.5885545, 18.1864085], [120.5885957, 18.1864288], [120.5886453, 18.1864592], [120.5887174, 18.1865144]]}, "properties": {"city": "laoag", "name": "Airport Avenue", "highway": "primary", "v_posted": 60, "posted_imputed": false, "v_safe": 50, "gap": 10, "R": 2.07, "exposure": 0.069, "vru_150m": 0, "sss": 13.4, "recommended": 50, "fatal_reduction_pct": 51.8, "why": "undivided arterial, side-impact intersections", "pop_density": 2232.7, "pop_density_peak": 2232.7}}, {"type": "Feature", "geometry": {"type": "LineString", "coordinates": [[120.5887069, 18.1863251], [120.5886574, 18.1863531], [120.588602, 18.1863834], [120.5885545, 18.1864085]]}, "properties": {"city": "laoag", "name": "Manila North Road", "highway": "primary", "v_posted": 60, "posted_imputed": false, "v_safe": 50, "gap": 10, "R": 2.07, "exposure": 0.069, "vru_150m": 0, "sss": 13.4, "recommended": 50, "fatal_reduction_pct": 51.8, "why": "undivided arterial, side-impact intersections", "pop_density": 2232.7, "pop_density_peak": 2232.7}}, {"type": "Feature", "geometry": {"type": "LineString", "coordinates": [[120.5885067, 18.1863891], [120.5885574, 18.1863735], [120.5885972, 18.186355], [120.58863, 18.1863331], [120.5886664, 18.1863065], [120.5887069, 18.186277]]}, "properties": {"city": "laoag", "name": "Airport Avenue", "highway": "primary", "v_posted": 60, "posted_imputed": false, "v_safe": 50, "gap": 10, "R": 2.07, "exposure": 0.069, "vru_150m": 0, "sss": 13.4, "recommended": 50, "fatal_reduction_pct": 51.8, "why": "undivided arterial, side-impact intersections", "pop_density": 2232.7, "pop_density_peak": 2232.7}}, {"type": "Feature", "geometry": {"type": "LineString", "coordinates": [[120.5885067, 18.1863891], [120.5885545, 18.1864085]]}, "properties": {"city": "laoag", "name": "Airport Avenue", "highway": "primary", "v_posted": 60, "posted_imputed": false, "v_safe": 50, "gap": 10, "R": 2.07, "exposure": 0.069, "vru_150m": 0, "sss": 13.4, "recommended": 50, "fatal_reduction_pct": 51.8, "why": "undivided arterial, side-impact intersections", "pop_density": 2232.7, "pop_density_peak": 2232.7}}, {"type": "Feature", "geometry": {"type": "LineString", "coordinates": [[120.5885545, 18.1864085], [120.5884863, 18.1864303]]}, "properties": {"city": "laoag", "name": "Manila North Road", "highway": "primary", "v_posted": 60, "posted_imputed": false, "v_safe": 50, "gap": 10, "R": 2.07, "exposure": 0.069, "vru_150m": 0, "sss": 13.4, "recommended": 50, "fatal_reduction_pct": 51.8, "why": "undivided arterial, side-impact intersections", "pop_density": 2232.7, "pop_density_peak": 2232.7}}, {"type": "Feature", "geometry": {"type": "LineString", "coordinates": [[120.5887575, 18.1862826], [120.5887069, 18.1863251]]}, "properties": {"city": "laoag", "name": "Manila North Road", "highway": "primary", "v_posted": 60, "posted_imputed": false, "v_safe": 50, "gap": 10, "R": 2.07, "exposure": 0.069, "vru_150m": 0, "sss": 13.4, "recommended": 50, "fatal_reduction_pct": 51.8, "why": "undivided arterial, side-impact intersections", "pop_density": 2232.7, "pop_density_peak": 2232.7}}, {"type": "Feature", "geometry": {"type": "LineString", "coordinates": [[120.5887174, 18.1865144], [120.5887783, 18.1865678]]}, "properties": {"city": "laoag", "name": "Airport Avenue", "highway": "primary", "v_posted": 60, "posted_imputed": false, "v_safe": 50, "gap": 10, "R": 2.07, "exposure": 0.069, "vru_150m": 0, "sss": 13.4, "recommended": 50, "fatal_reduction_pct": 51.8, "why": "undivided arterial, side-impact intersections", "pop_density": 2232.7, "pop_density_peak": 2232.7}}, {"type": "Feature", "geometry": {"type": "LineString", "coordinates": [[120.5881939, 18.1863451], [120.5883167, 18.1863576], [120.5883904, 18.1863671]]}, "properties": {"city": "laoag", "name": "Airport Avenue", "highway": "primary", "v_posted": 60, "posted_imputed": false, "v_safe": 50, "gap": 10, "R": 2.07, "exposure": 0.069, "vru_150m": 0, "sss": 13.4, "recommended": 50, "fatal_reduction_pct": 51.8, "why": "undivided arterial, side-impact intersections", "pop_density": 2232.7, "pop_density_peak": 2232.7}}, {"type": "Feature", "geometry": {"type": "LineString", "coordinates": [[120.5842337, 18.18658], [120.5839981, 18.1866056]]}, "properties": {"city": "laoag", "name": "Airport Avenue", "highway": "primary", "v_posted": 60, "posted_imputed": false, "v_safe": 50, "gap": 10, "R": 2.07, "exposure": 0.067, "vru_150m": 0, "sss": 13.3, "recommended": 50, "fatal_reduction_pct": 51.8, "why": "undivided arterial, side-impact intersections", "pop_density": 2165.8, "pop_density_peak": 2165.8}}, {"type": "Feature", "geometry": {"type": "LineString", "coordinates": [[120.5842606, 18.1865768], [120.5842337, 18.18658]]}, "properties": {"city": "laoag", "name": "Airport Avenue", "highway": "primary", "v_posted": 60, "posted_imputed": false, "v_safe": 50, "gap": 10, "R": 2.07, "exposure": 0.067, "vru_150m": 0, "sss": 13.3, "recommended": 50, "fatal_reduction_pct": 51.8, "why": "undivided arterial, side-impact intersections", "pop_density": 2165.8, "pop_density_peak": 2165.8}}, {"type": "Feature", "geometry": {"type": "LineString", "coordinates": [[120.5855816, 18.1864488], [120.5853645, 18.1864645]]}, "properties": {"city": "laoag", "name": "Airport Avenue", "highway": "primary", "v_posted": 60, "posted_imputed": false, "v_safe": 50, "gap": 10, "R": 2.07, "exposure": 0.027, "vru_150m": 0, "sss": 12.8, "recommended": 50, "fatal_reduction_pct": 51.8, "why": "undivided arterial, side-impact intersections", "pop_density": 867.0, "pop_density_peak": 1027.4}}, {"type": "Feature", "geometry": {"type": "LineString", "coordinates": [[120.5853645, 18.1864645], [120.5852867, 18.1864719], [120.5850149, 18.1865011], [120.5842606, 18.1865768]]}, "properties": {"city": "laoag", "name": "Airport Avenue", "highway": "primary", "v_posted": 60, "posted_imputed": false, "v_safe": 50, "gap": 10, "R": 2.07, "exposure": 0.049, "vru_150m": 0, "sss": 13.1, "recommended": 50, "fatal_reduction_pct": 51.8, "why": "undivided arterial, side-impact intersections", "pop_density": 1596.6, "pop_density_peak": 2165.8}}, {"type": "Feature", "geometry": {"type": "LineString", "coordinates": [[120.5839209, 18.2151189], [120.5829082, 18.2144062]]}, "properties": {"city": "laoag", "name": "Rodolfo G. Fari\u00f1as Bypass Road", "highway": "primary", "v_posted": 60, "posted_imputed": false, "v_safe": 50, "gap": 10, "R": 2.07, "exposure": 0.017, "vru_150m": 0, "sss": 12.7, "recommended": 50, "fatal_reduction_pct": 51.8, "why": "undivided arterial, side-impact intersections", "pop_density": 559.9, "pop_density_peak": 651.2}}, {"type": "Feature", "geometry": {"type": "LineString", "coordinates": [[120.5956793, 18.2230205], [120.5954768, 18.2229173], [120.5932465, 18.2219097], [120.5904495, 18.2201351], [120.5901861, 18.2199428], [120.5899528, 18.2197721], [120.5870976, 18.2175632], [120.5841884, 18.2153122], [120.5839209, 18.2151189]]}, "properties": {"city": "laoag", "name": "Rodolfo G. Fari\u00f1as Bypass Road", "highway": "primary", "v_posted": 60, "posted_imputed": false, "v_safe": 50, "gap": 10, "R": 2.07, "exposure": 0.007, "vru_150m": 0, "sss": 12.6, "recommended": 50, "fatal_reduction_pct": 51.8, "why": "undivided arterial, side-impact intersections", "pop_density": 217.1, "pop_density_peak": 651.2}}]}