{"type": "FeatureCollection", "features": [{"type": "Feature", "geometry": {"type": "LineString", "coordinates": [[123.2932195, 9.2791446], [123.2932023, 9.2790061], [123.2930861, 9.2777854], [123.2930245, 9.2772091], [123.2930088, 9.2768948], [123.2929619, 9.2762433], [123.2929443, 9.2760047], [123.2929352, 9.2758811], [123.2928994, 9.2753942], [123.2928189, 9.2742241]]}, "properties": {"city": "dumaguete", "name": "Lamberto Macias Avenue", "highway": "primary", "v_posted": 60, "posted_imputed": false, "v_safe": 50, "gap": 10, "R": 2.07, "exposure": 0.643, "vru_150m": 1, "sss": 20.5, "recommended": 50, "fatal_reduction_pct": 51.8, "why": "undivided arterial, side-impact intersections", "pop_density": 17915.1, "pop_density_peak": 20166.6}}, {"type": "Feature", "geometry": {"type": "LineString", "coordinates": [[123.3096865, 9.3119639], [123.3096443, 9.3119734], [123.309592, 9.3119781], [123.3095424, 9.3119741], [123.3092372, 9.3119251]]}, "properties": {"city": "dumaguete", "name": "Katada Street", "highway": "unclassified", "v_posted": 40, "posted_imputed": false, "v_safe": 30, "gap": 10, "R": 3.16, "exposure": 0.26, "vru_150m": 0, "sss": 15.8, "recommended": 30, "fatal_reduction_pct": 68.4, "why": "local road, frontage/pedestrian mixing", "pop_density": 8417.5, "pop_density_peak": 8417.5}}, {"type": "Feature", "geometry": {"type": "LineString", "coordinates": [[123.2806325, 9.3317735], [123.280695, 9.3320334], [123.2806264, 9.3322368], [123.2805126, 9.3324543], [123.2803731, 9.3327207], [123.2803028, 9.3328889], [123.2802355, 9.3330423], [123.2801667, 9.3332742], [123.2801192, 9.3335753], [123.280115, 9.3336447], [123.280058, 9.3341542], [123.2800343, 9.334366], [123.2800188, 9.3344942], [123.2800346, 9.3347236], [123.2800644, 9.3349396], [123.2800702, 9.3349812], [123.2801045, 9.33523], [123.2801792, 9.3356347], [123.2802222, 9.3359443], [123.2802244, 9.3361479], [123.2802395, 9.3362875], [123.2802983, 9.3365844], [123.2804471, 9.3369351], [123.2804976, 9.3371267], [123.2805174, 9.3372995], [123.2805279, 9.3373911], [123.2805735, 9.3377732], [123.280633, 9.3380293], [123.2807267, 9.338545], [123.2807381, 9.338932], [123.2807495, 9.3393222], [123.2807504, 9.3393983], [123.2807637, 9.3396711], [123.2808186, 9.3399548], [123.2808921, 9.3403923], [123.2809233, 9.3405974], [123.2809276, 9.3408026], [123.2809688, 9.3409759], [123.2810794, 9.3412576], [123.2810871, 9.3412992], [123.2811053, 9.3413974], [123.2811127, 9.3414377], [123.2811507, 9.341508], [123.2811804, 9.3415433], [123.281294, 9.3416782], [123.2813396, 9.3417617], [123.2814002, 9.3419837], [123.2814136, 9.3420328], [123.2814366, 9.3422026], [123.2814735, 9.3424744], [123.2815034, 9.3426949], [123.2815481, 9.3428589], [123.2815522, 9.3431218], [123.281555, 9.3431881], [123.2815644, 9.343278], [123.2816718, 9.343673], [123.281716, 9.3437512], [123.2817875, 9.3438234], [123.281868, 9.3438835], [123.2821126, 9.3440106], [123.2821741, 9.3441058], [123.2822163, 9.3443358], [123.2822923, 9.3447497], [123.2823206, 9.344928], [123.2823525, 9.3451284], [123.2824216, 9.3455629], [123.2825122, 9.3461324], [123.2825548, 9.3464193], [123.2826264, 9.3467596], [123.2827943, 9.3473381], [123.282819, 9.3474233], [123.2828734, 9.3475961], [123.283036, 9.3481495], [123.2832174, 9.3487666], [123.2832769, 9.3489693], [123.2834514, 9.3494393], [123.283501, 9.3496034], [123.2835275, 9.3496909], [123.2835874, 9.350029], [123.2836418, 9.3502497], [123.2837167, 9.3504911], [123.2837618, 9.3506273], [123.2838614, 9.3510496], [123.2840155, 9.3510854], [123.2841718, 9.3510947], [123.2846838, 9.3511389], [123.285104, 9.3512143]]}, "properties": {"city": "dumaguete", "name": "", "highway": "tertiary", "v_posted": 60, "posted_imputed": false, "v_safe": 50, "gap": 10, "R": 2.07, "exposure": 0.115, "vru_150m": 0, "sss": 13.9, "recommended": 50, "fatal_reduction_pct": 51.8, "why": "undivided arterial, side-impact intersections", "pop_density": 3705.2, "pop_density_peak": 7652.3}}, {"type": "Feature", "geometry": {"type": "LineString", "coordinates": [[123.2817024, 9.3408125], [123.2817193, 9.340612], [123.2816694, 9.3403033], [123.2816, 9.3400209], [123.2815517, 9.3398013], [123.2815284, 9.3396051], [123.2815421, 9.3394089], [123.2816984, 9.3386396], [123.2817185, 9.3384906], [123.2817709, 9.3382226], [123.2817867, 9.3381013], [123.2818213, 9.3378808], [123.2819688, 9.3375547], [123.2820731, 9.3373543], [123.2821601, 9.3371203], [123.2822103, 9.3369752], [123.2822771, 9.3367825], [123.2824574, 9.3361993]]}, "properties": {"city": "dumaguete", "name": "", "highway": "residential", "v_posted": 40, "posted_imputed": false, "v_safe": 30, "gap": 10, "R": 3.16, "exposure": 0.273, "vru_150m": 1, "sss": 15.9, "recommended": 30, "fatal_reduction_pct": 68.4, "why": "local road, frontage/pedestrian mixing", "pop_density": 2951.8, "pop_density_peak": 3945.7}}, {"type": "Feature", "geometry": {"type": "LineString", "coordinates": [[123.2911344, 9.3354068], [123.2911543, 9.3349833], [123.2911683, 9.3346859]]}, "properties": {"city": "dumaguete", "name": "", "highway": "residential", "v_posted": 40, "posted_imputed": false, "v_safe": 30, "gap": 10, "R": 3.16, "exposure": 0.161, "vru_150m": 0, "sss": 14.5, "recommended": 30, "fatal_reduction_pct": 68.4, "why": "local road, frontage/pedestrian mixing", "pop_density": 5218.0, "pop_density_peak": 6169.5}}, {"type": "Feature", "geometry": {"type": "LineString", "coordinates": [[123.2793756, 9.3431964], [123.2799288, 9.3430679], [123.2803383, 9.342969], [123.2803716, 9.3429645], [123.2804325, 9.3429256], [123.2804992, 9.3426456], [123.2805236, 9.3426042], [123.2806032, 9.3425711], [123.280706, 9.3425751], [123.2809393, 9.3425831], [123.2811579, 9.3425367], [123.2814735, 9.3424744]]}, "properties": {"city": "dumaguete", "name": "", "highway": "residential", "v_posted": 40, "posted_imputed": false, "v_safe": 30, "gap": 10, "R": 3.16, "exposure": 0.188, "vru_150m": 0, "sss": 14.9, "recommended": 30, "fatal_reduction_pct": 68.4, "why": "local road, frontage/pedestrian mixing", "pop_density": 6090.0, "pop_density_peak": 8181.7}}, {"type": "Feature", "geometry": {"type": "LineString", "coordinates": [[123.2814735, 9.3424744], [123.2815428, 9.3424606], [123.2815864, 9.3426598], [123.2816629, 9.3428722], [123.2817373, 9.3429913], [123.2821812, 9.3432924], [123.2823253, 9.3433837], [123.2827599, 9.3433929], [123.2829463, 9.3433903], [123.2832956, 9.3433876], [123.2834626, 9.3433863], [123.2835826, 9.3433724], [123.2843256, 9.343336], [123.2844838, 9.34325], [123.285255, 9.3432606], [123.285955, 9.3432924], [123.2859963, 9.3433152], [123.286012, 9.3433456], [123.2860301, 9.3436245], [123.2860744, 9.3446646], [123.2860965, 9.3447156], [123.2861374, 9.3447467], [123.2870286, 9.34492], [123.2873612, 9.3450014], [123.2875898, 9.3450801], [123.2877884, 9.3451436], [123.2879355, 9.345164]]}, "properties": {"city": "dumaguete", "name": "", "highway": "residential", "v_posted": 40, "posted_imputed": false, "v_safe": 30, "gap": 10, "R": 3.16, "exposure": 0.1, "vru_150m": 0, "sss": 13.7, "recommended": 30, "fatal_reduction_pct": 68.4, "why": "local road, frontage/pedestrian mixing", "pop_density": 3219.7, "pop_density_peak": 7664.2}}, {"type": "Feature", "geometry": {"type": "LineString", "coordinates": [[123.2825303, 9.3572447], [123.282224, 9.3569778], [123.2819406, 9.3566991], [123.2816598, 9.3564231], [123.2813037, 9.356073], [123.2807565, 9.3555351], [123.280526, 9.3553085], [123.2797814, 9.3546125], [123.2795725, 9.3544173], [123.2795513, 9.3543974], [123.2794595, 9.35431], [123.2793944, 9.354248], [123.2786227, 9.3535133], [123.2786058, 9.3534962], [123.2785025, 9.3533917], [123.2783731, 9.353267], [123.2781921, 9.3530959], [123.2779858, 9.3528873], [123.2772992, 9.3521932], [123.2769922, 9.3518864], [123.2766952, 9.3516018], [123.276411, 9.3513188], [123.276274, 9.3511913], [123.2761676, 9.3510831], [123.275764, 9.350706], [123.2755454, 9.3505017], [123.2752919, 9.3502615], [123.2750099, 9.349968], [123.2748478, 9.3498002], [123.2747635, 9.3497554], [123.2745302, 9.3496892], [123.2743672, 9.3496188], [123.2741775, 9.349529], [123.2740553, 9.3494503], [123.2739954, 9.3493991], [123.2739358, 9.3493249], [123.2739007, 9.3492512], [123.2738609, 9.3488012], [123.2738518, 9.348572], [123.2738304, 9.3483191], [123.2738178, 9.34817], [123.273758, 9.3480958], [123.2736752, 9.3480541], [123.2732271, 9.3480273], [123.2731107, 9.3480077], [123.2730205, 9.3479579], [123.2725207, 9.3474997]]}, "properties": {"city": "dumaguete", "name": "", "highway": "tertiary", "v_posted": 60, "posted_imputed": false, "v_safe": 50, "gap": 10, "R": 2.07, "exposure": 0.112, "vru_150m": 0, "sss": 13.9, "recommended": 50, "fatal_reduction_pct": 51.8, "why": "undivided arterial, side-impact intersections", "pop_density": 3619.8, "pop_density_peak": 11162.9}}, {"type": "Feature", "geometry": {"type": "LineString", "coordinates": [[123.2689887, 9.3492206], [123.2686534, 9.3485829], [123.2686977, 9.3485379], [123.2687111, 9.3484737], [123.2686508, 9.3480295], [123.2684979, 9.3475425], [123.2682403, 9.3469761], [123.2682053, 9.3468758], [123.268141, 9.3465744], [123.2680982, 9.3462989], [123.2680586, 9.3461162], [123.268007, 9.3458781], [123.2679963, 9.3457665], [123.2680339, 9.3454674], [123.2680232, 9.3454192]]}, "properties": {"city": "dumaguete", "name": "", "highway": "unclassified", "v_posted": 40, "posted_imputed": false, "v_safe": 30, "gap": 10, "R": 3.16, "exposure": 0.0, "vru_150m": 0, "sss": 12.5, "recommended": 30, "fatal_reduction_pct": 68.4, "why": "local road, frontage/pedestrian mixing", "pop_density": 0.0, "pop_density_peak": 0.0}}, {"type": "Feature", "geometry": {"type": "LineString", "coordinates": [[123.2679092, 9.345133], [123.2676315, 9.3442023], [123.2674599, 9.3437259], [123.2672185, 9.34317], [123.2668108, 9.3422377]]}, "properties": {"city": "dumaguete", "name": "", "highway": "unclassified", "v_posted": 40, "posted_imputed": false, "v_safe": 30, "gap": 10, "R": 3.16, "exposure": 0.0, "vru_150m": 0, "sss": 12.5, "recommended": 30, "fatal_reduction_pct": 68.4, "why": "local road, frontage/pedestrian mixing", "pop_density": 0.0, "pop_density_peak": 0.0}}, {"type": "Feature", "geometry": {"type": "LineString", "coordinates": [[123.2817024, 9.3408125], [123.2816273, 9.341196], [123.281579, 9.3416467], [123.2815782, 9.3418042], [123.281562, 9.3420028], [123.2815396, 9.3421673], [123.2815274, 9.3423017], [123.2815428, 9.3424606]]}, "properties": {"city": "dumaguete", "name": "", "highway": "residential", "v_posted": 40, "posted_imputed": false, "v_safe": 30, "gap": 10, "R": 3.16, "exposure": 0.19, "vru_150m": 0, "sss": 14.9, "recommended": 30, "fatal_reduction_pct": 68.4, "why": "local road, frontage/pedestrian mixing", "pop_density": 6148.4, "pop_density_peak": 7664.2}}, {"type": "Feature", "geometry": {"type": "LineString", "coordinates": [[123.2861239, 9.3453877], [123.2861871, 9.3453932], [123.2869662, 9.3455327], [123.2870615, 9.3455605], [123.287158, 9.3456148], [123.28728, 9.3457104], [123.2876155, 9.3458484]]}, "properties": {"city": "dumaguete", "name": "", "highway": "residential", "v_posted": 40, "posted_imputed": false, "v_safe": 30, "gap": 10, "R": 3.16, "exposure": 0.112, "vru_150m": 0, "sss": 13.9, "recommended": 30, "fatal_reduction_pct": 68.4, "why": "local road, frontage/pedestrian mixing", "pop_density": 3618.3, "pop_density_peak": 4153.7}}, {"type": "Feature", "geometry": {"type": "LineString", "coordinates": [[123.283501, 9.3496034], [123.2835433, 9.3495864], [123.2836232, 9.3495542], [123.2837618, 9.3495086], [123.2838296, 9.3494964], [123.2838727, 9.3495147], [123.2839066, 9.3495755], [123.2839375, 9.3496667], [123.2839529, 9.3497548], [123.2839529, 9.3498126], [123.2838666, 9.3498795], [123.2837095, 9.3499737], [123.2836595, 9.3500001], [123.2835874, 9.350029]]}, "properties": {"city": "dumaguete", "name": "", "highway": "service", "v_posted": 40, "posted_imputed": false, "v_safe": 30, "gap": 10, "R": 3.16, "exposure": 0.113, "vru_150m": 0, "sss": 13.9, "recommended": 30, "fatal_reduction_pct": 68.4, "why": "local road, frontage/pedestrian mixing", "pop_density": 3661.4, "pop_density_peak": 3661.4}}, {"type": "Feature", "geometry": {"type": "LineString", "coordinates": [[123.2935109, 9.3336932], [123.2932932, 9.3336196], [123.2931128, 9.3335767], [123.292902, 9.3335725], [123.2928943, 9.3335957], [123.292791, 9.3337606], [123.2927146, 9.3338193], [123.2926264, 9.3338431], [123.2924231, 9.333834], [123.2920886, 9.3337326], [123.2919753, 9.3336916], [123.2918693, 9.3336572], [123.291585, 9.3335447], [123.2915139, 9.3335341], [123.2914361, 9.3335447], [123.2912061, 9.3335904], [123.2910104, 9.3336353], [123.290899, 9.3336678], [123.2906077, 9.3337472], [123.2901822, 9.3338861], [123.2900332, 9.3339101], [123.2899387, 9.3339286], [123.2898365, 9.3339675], [123.2897233, 9.3339691], [123.2896438, 9.333973], [123.289493, 9.3339799], [123.2894166, 9.3339991], [123.2893396, 9.3340182], [123.2892604, 9.3340589], [123.2892342, 9.3340605], [123.2892342, 9.333989], [123.2892312, 9.3339267], [123.2892183, 9.3338833], [123.2891775, 9.3338449], [123.2891187, 9.3338438], [123.289086, 9.3338358], [123.2890788, 9.3338295], [123.2890738, 9.3338166], [123.289066, 9.3337705], [123.2890614, 9.3337458], [123.2890592, 9.333713], [123.2890569, 9.3336359], [123.289055, 9.3335913], [123.2890493, 9.3335269]]}, "properties": {"city": "dumaguete", "name": "", "highway": "residential", "v_posted": 40, "posted_imputed": false, "v_safe": 30, "gap": 10, "R": 3.16, "exposure": 0.11, "vru_150m": 0, "sss": 13.9, "recommended": 30, "fatal_reduction_pct": 68.4, "why": "local road, frontage/pedestrian mixing", "pop_density": 3560.6, "pop_density_peak": 4697.5}}, {"type": "Feature", "geometry": {"type": "LineString", "coordinates": [[123.2833338, 9.329423], [123.2829706, 9.3293226], [123.282818, 9.32916], [123.2827646, 9.3290784], [123.2826854, 9.328999], [123.2807676, 9.3286959], [123.2807426, 9.3292129], [123.2807603, 9.3294581], [123.2807774, 9.3295721], [123.2808218, 9.3300315], [123.2807944, 9.3301263], [123.2807642, 9.3301652], [123.2807136, 9.3302248], [123.2806845, 9.3303026], [123.2806603, 9.3305476], [123.2806378, 9.3310638], [123.2806272, 9.331308], [123.280608, 9.3316451], [123.2806175, 9.3317113]]}, "properties": {"city": "dumaguete", "name": "", "highway": "tertiary", "v_posted": 60, "posted_imputed": false, "v_safe": 50, "gap": 10, "R": 2.07, "exposure": 0.104, "vru_150m": 0, "sss": 13.8, "recommended": 50, "fatal_reduction_pct": 51.8, "why": "undivided arterial, side-impact intersections", "pop_density": 3356.3, "pop_density_peak": 7129.0}}, {"type": "Feature", "geometry": {"type": "LineString", "coordinates": [[123.2806175, 9.3317113], [123.2806325, 9.3317735]]}, "properties": {"city": "dumaguete", "name": "", "highway": "tertiary", "v_posted": 60, "posted_imputed": false, "v_safe": 50, "gap": 10, "R": 2.07, "exposure": 0.035, "vru_150m": 0, "sss": 12.9, "recommended": 50, "fatal_reduction_pct": 51.8, "why": "undivided arterial, side-impact intersections", "pop_density": 1122.2, "pop_density_peak": 1122.2}}, {"type": "Feature", "geometry": {"type": "LineString", "coordinates": [[123.2680049, 9.3245687], [123.2687933, 9.325215], [123.2693639, 9.3256851], [123.269501, 9.3257395], [123.2695922, 9.3257766], [123.2696603, 9.32578], [123.2697474, 9.3257743], [123.2702707, 9.3257084], [123.2706514, 9.3256604], [123.2707221, 9.3256515], [123.2707885, 9.3256263], [123.2708213, 9.3256045], [123.2708573, 9.325569], [123.270906, 9.3255136], [123.2709642, 9.325455], [123.2710399, 9.3253981], [123.271142, 9.3253359], [123.2711638, 9.3253259]]}, "properties": {"city": "dumaguete", "name": "L. Rovira West Road", "highway": "secondary", "v_posted": 40, "posted_imputed": false, "v_safe": 30, "gap": 10, "R": 3.16, "exposure": 0.653, "vru_150m": 3, "sss": 20.7, "recommended": 30, "fatal_reduction_pct": 68.4, "why": "pedestrian activity (1 VRU site<=50m)", "pop_density": 4306.8, "pop_density_peak": 5154.7}}, {"type": "Feature", "geometry": {"type": "LineString", "coordinates": [[123.3059051, 9.3321805], [123.3058879, 9.3317003], [123.3058445, 9.3307211], [123.3058115, 9.3297921], [123.3058195, 9.3297328], [123.3058346, 9.3296728], [123.3058624, 9.3296256], [123.3058915, 9.329597]]}, "properties": {"city": "dumaguete", "name": "Airport Road", "highway": "unclassified", "v_posted": 40, "posted_imputed": false, "v_safe": 30, "gap": 10, "R": 3.16, "exposure": 0.106, "vru_150m": 0, "sss": 13.8, "recommended": 30, "fatal_reduction_pct": 68.4, "why": "local road, frontage/pedestrian mixing", "pop_density": 3442.7, "pop_density_peak": 4787.8}}, {"type": "Feature", "geometry": {"type": "LineString", "coordinates": [[123.3059054, 9.3322701], [123.3059051, 9.3321805]]}, "properties": {"city": "dumaguete", "name": "Airport Road", "highway": "unclassified", "v_posted": 40, "posted_imputed": false, "v_safe": 30, "gap": 10, "R": 3.16, "exposure": 0.148, "vru_150m": 0, "sss": 14.4, "recommended": 30, "fatal_reduction_pct": 68.4, "why": "local road, frontage/pedestrian mixing", "pop_density": 4787.8, "pop_density_peak": 4787.8}}, {"type": "Feature", "geometry": {"type": "LineString", "coordinates": [[123.3059013, 9.3328348], [123.3059033, 9.3325172], [123.3059054, 9.3322701]]}, "properties": {"city": "dumaguete", "name": "Airport Road", "highway": "unclassified", "v_posted": 40, "posted_imputed": false, "v_safe": 30, "gap": 10, "R": 3.16, "exposure": 0.152, "vru_150m": 0, "sss": 14.4, "recommended": 30, "fatal_reduction_pct": 68.4, "why": "local road, frontage/pedestrian mixing", "pop_density": 4914.0, "pop_density_peak": 5040.2}}, {"type": "Feature", "geometry": {"type": "LineString", "coordinates": [[123.3058915, 9.329597], [123.3059455, 9.3295753], [123.3059985, 9.329568], [123.306053, 9.3295691], [123.3066701, 9.3296196], [123.3067225, 9.3296243]]}, "properties": {"city": "dumaguete", "name": "Airport Road", "highway": "unclassified", "v_posted": 40, "posted_imputed": false, "v_safe": 30, "gap": 10, "R": 3.16, "exposure": 0.06, "vru_150m": 0, "sss": 13.3, "recommended": 30, "fatal_reduction_pct": 68.4, "why": "local road, frontage/pedestrian mixing", "pop_density": 1950.9, "pop_density_peak": 2382.1}}]}