{"type": "FeatureCollection", "features": [{"type": "Feature", "geometry": {"type": "LineString", "coordinates": [[124.2590326, 7.9974446], [124.2581408, 7.9973936], [124.2580592, 7.9973889], [124.2577234, 7.9973666], [124.2574458, 7.9973387], [124.257154, 7.997296], [124.2566277, 7.9971362], [124.2562401, 7.9970479]]}, "properties": {"city": "marawi", "name": "", "highway": "living_street", "v_posted": 40, "posted_imputed": false, "v_safe": 20, "gap": 20, "R": 16.0, "exposure": 0.207, "vru_150m": 0, "sss": 30.2, "recommended": 20, "fatal_reduction_pct": 93.8, "why": "living street (shared space)", "pop_density": 6686.3, "pop_density_peak": 7684.9, "v_design": 15, "design_gap": -5}}, {"type": "Feature", "geometry": {"type": "LineString", "coordinates": [[124.2632441, 7.9990578], [124.2631632, 7.9990583], [124.26312, 7.9990585], [124.2623689, 7.9990492], [124.2622583, 7.9990579], [124.2621315, 7.9990904], [124.2620015, 7.9991415], [124.2618412, 7.9992259], [124.2616966, 7.9993291], [124.2615536, 7.9994583], [124.2614449, 7.9995366], [124.2613176, 7.9995873], [124.2610052, 7.999663], [124.2599424, 7.9999184], [124.2596961, 7.9999776]]}, "properties": {"city": "marawi", "name": "Ahmad Domocao A. Alonto Sr. Avenue", "highway": "unclassified", "v_posted": 40, "posted_imputed": false, "v_safe": 30, "gap": 10, "R": 3.16, "exposure": 0.092, "vru_150m": 0, "sss": 13.7, "recommended": 30, "fatal_reduction_pct": 68.4, "why": "local road, frontage/pedestrian mixing", "pop_density": 2983.1, "pop_density_peak": 4733.9, "v_design": 40, "design_gap": 10}}, {"type": "Feature", "geometry": {"type": "LineString", "coordinates": [[124.2590326, 7.9974446], [124.2590658, 7.9977311], [124.2591159, 7.9980814], [124.2591235, 7.9981342], [124.2591287, 7.9981691], [124.2591362, 7.9982195], [124.2591577, 7.9983627], [124.2591919, 7.9985911], [124.2591978, 7.9986169], [124.2592517, 7.9988503], [124.2592764, 7.9989576], [124.2593553, 7.9991696], [124.2594032, 7.9992983], [124.2595151, 7.9995991], [124.2596961, 7.9999776]]}, "properties": {"city": "marawi", "name": "1st Street", "highway": "living_street", "v_posted": 40, "posted_imputed": false, "v_safe": 20, "gap": 20, "R": 16.0, "exposure": 0.153, "vru_150m": 0, "sss": 28.8, "recommended": 20, "fatal_reduction_pct": 93.8, "why": "living street (shared space)", "pop_density": 4939.7, "pop_density_peak": 5330.1, "v_design": 15, "design_gap": -5}}, {"type": "Feature", "geometry": {"type": "LineString", "coordinates": [[124.265024, 7.9964559], [124.2649573, 7.996415], [124.2649369, 7.9964034], [124.2649151, 7.9963861], [124.2648621, 7.9963267], [124.2648259, 7.9962862], [124.2647803, 7.9962178], [124.2646864, 7.9961009], [124.264565, 7.9959429], [124.2644329, 7.9957729], [124.2643421, 7.9956783], [124.2642603, 7.9956112], [124.2642076, 7.9955737], [124.2641307, 7.9955189], [124.2640145, 7.9954489], [124.2638759, 7.9953837], [124.2636444, 7.9952908], [124.263458, 7.9952417], [124.2633869, 7.9952271], [124.2633171, 7.9952164], [124.2632417, 7.9952081], [124.2630664, 7.9952032], [124.2623574, 7.9952287], [124.2621611, 7.995255], [124.2619661, 7.9952953], [124.2615207, 7.995401], [124.2607369, 7.9956302], [124.2601769, 7.9958095], [124.2599142, 7.9959088], [124.2595989, 7.9960367], [124.2593105, 7.9961629], [124.2592174, 7.9962251], [124.2591608, 7.996286], [124.2591168, 7.996338], [124.2590672, 7.9963957], [124.2590167, 7.9964959], [124.2589921, 7.9966188], [124.2589905, 7.996771], [124.2590315, 7.9974263], [124.2590326, 7.9974446]]}, "properties": {"city": "marawi", "name": "", "highway": "living_street", "v_posted": 40, "posted_imputed": false, "v_safe": 20, "gap": 20, "R": 16.0, "exposure": 0.063, "vru_150m": 0, "sss": 26.6, "recommended": 20, "fatal_reduction_pct": 93.8, "why": "living street (shared space)", "pop_density": 2044.7, "pop_density_peak": 5330.1, "v_design": 15, "design_gap": -5}}, {"type": "Feature", "geometry": {"type": "LineString", "coordinates": [[124.2583321, 8.0010732], [124.2583071, 8.0010303], [124.2582769, 8.000994], [124.2581983, 8.0009085], [124.2580166, 8.000699], [124.257941, 8.0006027], [124.2578257, 8.0004558], [124.2577065, 8.0002654], [124.2576973, 8.0002492], [124.257561, 8.0000104], [124.2574391, 7.9997425], [124.257366, 7.9995021], [124.2572946, 7.9992358], [124.2572429, 7.9989547], [124.2572266, 7.9988783], [124.2572094, 7.9986785], [124.2571762, 7.9982551], [124.2571597, 7.9978776], [124.257154, 7.997296]]}, "properties": {"city": "marawi", "name": "3rd Street", "highway": "living_street", "v_posted": 40, "posted_imputed": false, "v_safe": 20, "gap": 20, "R": 16.0, "exposure": 0.402, "vru_150m": 1, "sss": 35.1, "recommended": 20, "fatal_reduction_pct": 93.8, "why": "living street (shared space)", "pop_density": 8171.4, "pop_density_peak": 9880.5, "v_design": 15, "design_gap": -5}}, {"type": "Feature", "geometry": {"type": "LineString", "coordinates": [[124.2671272, 7.998513], [124.2667683, 7.9985456], [124.2666367, 7.9985575]]}, "properties": {"city": "marawi", "name": "Ahmad Domocao A. Alonto Sr. Avenue", "highway": "unclassified", "v_posted": 40, "posted_imputed": false, "v_safe": 30, "gap": 10, "R": 3.16, "exposure": 0.093, "vru_150m": 0, "sss": 13.7, "recommended": 30, "fatal_reduction_pct": 68.4, "why": "local road, frontage/pedestrian mixing", "pop_density": 2998.3, "pop_density_peak": 3826.7, "v_design": 40, "design_gap": 10}}, {"type": "Feature", "geometry": {"type": "LineString", "coordinates": [[124.2632441, 7.9990578], [124.2633555, 7.9990258], [124.263596, 7.9990217], [124.2638212, 7.999006], [124.2639965, 7.9989862], [124.2642638, 7.9989375], [124.2645288, 7.9988699], [124.2648055, 7.9988074], [124.2651962, 7.9987226], [124.265929, 7.9986005], [124.2662338, 7.9985489], [124.2664415, 7.9985043], [124.2666267, 7.9984642]]}, "properties": {"city": "marawi", "name": "Ahmad Domocao A. Alonto Sr. Avenue", "highway": "unclassified", "v_posted": 40, "posted_imputed": false, "v_safe": 30, "gap": 10, "R": 3.16, "exposure": 0.268, "vru_150m": 1, "sss": 15.8, "recommended": 30, "fatal_reduction_pct": 68.4, "why": "local road, frontage/pedestrian mixing", "pop_density": 2739.1, "pop_density_peak": 4823.7, "v_design": 40, "design_gap": 10}}, {"type": "Feature", "geometry": {"type": "LineString", "coordinates": [[124.2596961, 7.9999776], [124.259501, 8.0000353], [124.2594025, 8.0000791], [124.2593287, 8.0001223], [124.2591061, 8.0002883], [124.2589982, 8.0003832], [124.2589371, 8.000437], [124.2588506, 8.0005174], [124.2587627, 8.0006083], [124.2586756, 8.0007046], [124.2585629, 8.0008407], [124.2584349, 8.0009829], [124.2583878, 8.0010285], [124.2583321, 8.0010732]]}, "properties": {"city": "marawi", "name": "Ahmad Domocao A. Alonto Sr. Avenue", "highway": "unclassified", "v_posted": 40, "posted_imputed": false, "v_safe": 30, "gap": 10, "R": 3.16, "exposure": 0.531, "vru_150m": 2, "sss": 19.1, "recommended": 30, "fatal_reduction_pct": 68.4, "why": "local road, frontage/pedestrian mixing", "pop_density": 7054.9, "pop_density_peak": 9880.5, "v_design": 40, "design_gap": 10}}, {"type": "Feature", "geometry": {"type": "LineString", "coordinates": [[124.2666267, 7.9984642], [124.2667564, 7.9984352], [124.2669884, 7.9983833]]}, "properties": {"city": "marawi", "name": "Ahmad Domocao A. Alonto Sr. Avenue", "highway": "unclassified", "v_posted": 40, "posted_imputed": false, "v_safe": 30, "gap": 10, "R": 3.16, "exposure": 0.067, "vru_150m": 0, "sss": 13.3, "recommended": 30, "fatal_reduction_pct": 68.4, "why": "local road, frontage/pedestrian mixing", "pop_density": 2169.9, "pop_density_peak": 2169.9, "v_design": 40, "design_gap": 10}}, {"type": "Feature", "geometry": {"type": "LineString", "coordinates": [[124.2666367, 7.9985575], [124.26645, 7.9985829], [124.2662446, 7.9986109], [124.2659396, 7.9986625], [124.2652082, 7.9987844], [124.2648194, 7.9988688], [124.2645437, 7.998931], [124.2642775, 7.998999], [124.2640058, 7.9990484], [124.263827, 7.9990687], [124.2635988, 7.9990846], [124.2633566, 7.9990887], [124.2632441, 7.9990578]]}, "properties": {"city": "marawi", "name": "Ahmad Domocao A. Alonto Sr. Avenue", "highway": "unclassified", "v_posted": 40, "posted_imputed": false, "v_safe": 30, "gap": 10, "R": 3.16, "exposure": 0.265, "vru_150m": 1, "sss": 15.8, "recommended": 30, "fatal_reduction_pct": 68.4, "why": "local road, frontage/pedestrian mixing", "pop_density": 2633.0, "pop_density_peak": 3826.7, "v_design": 40, "design_gap": 10}}, {"type": "Feature", "geometry": {"type": "LineString", "coordinates": [[124.2667683, 7.9985456], [124.2667564, 7.9984352]]}, "properties": {"city": "marawi", "name": "", "highway": "unclassified", "v_posted": 40, "posted_imputed": false, "v_safe": 30, "gap": 10, "R": 3.16, "exposure": 0.093, "vru_150m": 0, "sss": 13.7, "recommended": 30, "fatal_reduction_pct": 68.4, "why": "local road, frontage/pedestrian mixing", "pop_density": 2998.3, "pop_density_peak": 3826.7, "v_design": 40, "design_gap": 10}}, {"type": "Feature", "geometry": {"type": "LineString", "coordinates": [[124.26645, 7.9985829], [124.2664415, 7.9985043]]}, "properties": {"city": "marawi", "name": "", "highway": "unclassified", "v_posted": 40, "posted_imputed": false, "v_safe": 30, "gap": 10, "R": 3.16, "exposure": 0.124, "vru_150m": 0, "sss": 14.1, "recommended": 30, "fatal_reduction_pct": 68.4, "why": "local road, frontage/pedestrian mixing", "pop_density": 4015.2, "pop_density_peak": 4823.7, "v_design": 40, "design_gap": 10}}, {"type": "Feature", "geometry": {"type": "LineString", "coordinates": [[124.2894572, 8.0015709], [124.2890836, 8.0017504]]}, "properties": {"city": "marawi", "name": "Gomisa Avenue", "highway": "primary", "v_posted": 40, "posted_imputed": false, "v_safe": 30, "gap": 10, "R": 3.16, "exposure": 1.0, "vru_150m": 1, "sss": 25.0, "recommended": 30, "fatal_reduction_pct": 68.4, "why": "pedestrian activity (1 VRU site<=50m)", "pop_density": 83747.9, "pop_density_peak": 83747.9, "v_design": 60, "design_gap": 30}}, {"type": "Feature", "geometry": {"type": "LineString", "coordinates": [[124.2890836, 8.0017504], [124.2888322, 8.0018799]]}, "properties": {"city": "marawi", "name": "Gomisa Avenue", "highway": "primary", "v_posted": 40, "posted_imputed": false, "v_safe": 30, "gap": 10, "R": 3.16, "exposure": 1.0, "vru_150m": 1, "sss": 25.0, "recommended": 30, "fatal_reduction_pct": 68.4, "why": "pedestrian activity (1 VRU site<=50m)", "pop_density": 70394.6, "pop_density_peak": 83747.9, "v_design": 60, "design_gap": 30}}, {"type": "Feature", "geometry": {"type": "LineString", "coordinates": [[124.2984957, 7.9922588], [124.2984792, 7.9922831], [124.2984544, 7.9923116], [124.2978683, 7.9928969], [124.2977198, 7.9930397], [124.2970773, 7.993658], [124.2967323, 7.9939865], [124.2963105, 7.9943883], [124.2956542, 7.9950133], [124.2950405, 7.9956312]]}, "properties": {"city": "marawi", "name": "Gomisa Avenue", "highway": "residential", "v_posted": 40, "posted_imputed": false, "v_safe": 30, "gap": 10, "R": 3.16, "exposure": 0.437, "vru_150m": 0, "sss": 18.0, "recommended": 30, "fatal_reduction_pct": 68.4, "why": "local road, frontage/pedestrian mixing", "pop_density": 14125.7, "pop_density_peak": 20408.8, "v_design": 35, "design_gap": 5}}, {"type": "Feature", "geometry": {"type": "LineString", "coordinates": [[124.2950405, 7.9956312], [124.2950368, 7.9956968]]}, "properties": {"city": "marawi", "name": "Gomisa Avenue", "highway": "residential", "v_posted": 40, "posted_imputed": false, "v_safe": 30, "gap": 10, "R": 3.16, "exposure": 0.705, "vru_150m": 1, "sss": 21.3, "recommended": 30, "fatal_reduction_pct": 68.4, "why": "local road, frontage/pedestrian mixing", "pop_density": 20408.8, "pop_density_peak": 20408.8, "v_design": 35, "design_gap": 5}}, {"type": "Feature", "geometry": {"type": "LineString", "coordinates": [[124.29498, 7.9956455], [124.2950405, 7.9956312]]}, "properties": {"city": "marawi", "name": "Gomisa Avenue", "highway": "residential", "v_posted": 40, "posted_imputed": false, "v_safe": 30, "gap": 10, "R": 3.16, "exposure": 0.705, "vru_150m": 1, "sss": 21.3, "recommended": 30, "fatal_reduction_pct": 68.4, "why": "local road, frontage/pedestrian mixing", "pop_density": 20408.8, "pop_density_peak": 20408.8, "v_design": 35, "design_gap": 5}}, {"type": "Feature", "geometry": {"type": "LineString", "coordinates": [[124.3322057, 8.0047519], [124.3317121, 8.0049936], [124.3315322, 8.0050981], [124.3310864, 8.0053772], [124.3286306, 8.0070199], [124.3284318, 8.0071397], [124.328244, 8.00723], [124.328067, 8.0072672], [124.3277425, 8.007307], [124.327485, 8.0073415], [124.3265061, 8.0074597], [124.3264147, 8.0074708], [124.3234161, 8.0078329], [124.3224478, 8.0079737], [124.321517, 8.0080932], [124.321308, 8.0081162], [124.3203583, 8.0082207], [124.3193469, 8.00836], [124.3191433, 8.008388], [124.3188831, 8.0084066], [124.3187276, 8.0083774], [124.3185572, 8.0083137], [124.3184003, 8.0081915], [124.3182689, 8.0080321], [124.3180758, 8.0077134], [124.3176895, 8.0071291], [124.3172027, 8.0064438], [124.3170364, 8.0062459], [124.3168849, 8.0060905], [124.3158184, 8.0051302], [124.3157168, 8.0050387], [124.3150319, 8.0046528], [124.314892, 8.0045739], [124.3145648, 8.0044318], [124.3143529, 8.0044225], [124.3140806, 8.0044889], [124.3137306, 8.0045952], [124.3134382, 8.0046921], [124.3132384, 8.0047319], [124.3130681, 8.0047439], [124.3128844, 8.0047227], [124.3127409, 8.0046735], [124.3126161, 8.0045806], [124.3124339, 8.004393], [124.312313, 8.0042685], [124.3118504, 8.0037399], [124.3117218, 8.0035888], [124.3110551, 8.002805], [124.3109009, 8.0026483], [124.3107721, 8.0025035], [124.3101981, 8.0020161], [124.309887, 8.0017638], [124.3097408, 8.0016721], [124.3095624, 8.0015858], [124.3080953, 8.0011721], [124.307992, 8.001117], [124.3078968, 8.0010241], [124.3078271, 8.0009125], [124.3077855, 8.0007571], [124.3076741, 8.0000996], [124.3076031, 7.9996705], [124.307554, 7.9995026], [124.3074732, 7.9993096], [124.3073732, 7.9991418], [124.3073315, 7.9990718], [124.3066937, 7.9981942], [124.3065211, 7.9979996], [124.3064276, 7.9979196], [124.3063468, 7.9978694], [124.3056782, 7.9975776], [124.3055737, 7.9975384], [124.3054754, 7.9975196], [124.3053614, 7.9975102], [124.3052124, 7.9975211], [124.3050334, 7.9976234], [124.3048428, 7.9977619], [124.3046618, 7.9979517], [124.3043574, 7.9982814], [124.3043044, 7.9983358], [124.3041806, 7.9984423], [124.3038105, 7.998849], [124.3037247, 7.9990303]]}, "properties": {"city": "marawi", "name": "Governor Mamintal M. Adiong Sr. Road", "highway": "primary", "v_posted": 80, "posted_imputed": false, "v_safe": 50, "gap": 30, "R": 6.55, "exposure": 0.305, "vru_150m": 0, "sss": 48.9, "recommended": 50, "fatal_reduction_pct": 84.7, "why": "undivided arterial, side-impact intersections", "pop_density": 9862.6, "pop_density_peak": 42099.9, "v_design": 55, "design_gap": 5}}, {"type": "Feature", "geometry": {"type": "LineString", "coordinates": [[124.3037247, 7.9990303], [124.3037266, 7.9991482], [124.3037501, 7.999354], [124.3038088, 7.9998666], [124.3038371, 8.0000388], [124.3038253, 8.0002023], [124.3037598, 8.0003726], [124.3035409, 8.0007266], [124.30327, 8.0011728], [124.3032002, 8.0012511], [124.3031037, 8.0012936], [124.3029609, 8.0013102]]}, "properties": {"city": "marawi", "name": "Governor Mamintal M. Adiong Sr. Road", "highway": "primary", "v_posted": 80, "posted_imputed": false, "v_safe": 50, "gap": 30, "R": 6.55, "exposure": 0.434, "vru_150m": 0, "sss": 53.8, "recommended": 50, "fatal_reduction_pct": 84.7, "why": "undivided arterial, side-impact intersections", "pop_density": 14033.3, "pop_density_peak": 42099.9, "v_design": 55, "design_gap": 5}}]}