{"type": "FeatureCollection", "features": [{"type": "Feature", "geometry": {"type": "LineString", "coordinates": [[124.6361077, 12.052691], [124.6374823, 12.0514088], [124.6378854, 12.0510377], [124.6408023, 12.0483141], [124.640992, 12.0481793], [124.6411693, 12.0481], [124.6413519, 12.0480449], [124.6414838, 12.0480241], [124.6417329, 12.0480038], [124.6419466, 12.0479498], [124.6421002, 12.0478861], [124.6422419, 12.0478114], [124.6426105, 12.0475864], [124.6432795, 12.0472005], [124.6449074, 12.0460066], [124.6451105, 12.0458829], [124.6453975, 12.0457486], [124.6464549, 12.0453136], [124.6477838, 12.0447546], [124.6480971, 12.0445701], [124.6485377, 12.0442727], [124.6485766, 12.0442477], [124.6487883, 12.0441115], [124.650975, 12.0427048], [124.6535913, 12.0411943], [124.6536956, 12.0411444], [124.6537939, 12.0410971], [124.6538947, 12.0410605], [124.6540376, 12.0410209], [124.6541556, 12.0409999], [124.6542282, 12.0409906], [124.6543741, 12.0409792], [124.6545075, 12.0409681], [124.6546363, 12.0409629], [124.6547328, 12.0409524], [124.654886, 12.0409177], [124.6551059, 12.0408341], [124.6552686, 12.0407198], [124.6559153, 12.0401274], [124.6565708, 12.0395202], [124.6569591, 12.0391616], [124.6574276, 12.038729], [124.6577799, 12.0384078], [124.6582047, 12.0380204], [124.6583398, 12.0379036], [124.6585528, 12.0376963], [124.6587641, 12.0374997], [124.6594047, 12.0369034], [124.6599734, 12.0363618]]}, "properties": {"city": "calbayog", "name": "Maharlika Highway", "highway": "primary", "v_posted": 60, "posted_imputed": false, "v_safe": 50, "gap": 10, "R": 2.07, "exposure": 0.068, "vru_150m": 0, "sss": 13.4, "recommended": 50, "fatal_reduction_pct": 51.8, "why": "undivided arterial, side-impact intersections", "pop_density": 2208.9, "pop_density_peak": 6399.9, "v_design": 60, "design_gap": 10}}, {"type": "Feature", "geometry": {"type": "LineString", "coordinates": [[124.5601489, 12.0777615], [124.5594584, 12.0778491], [124.5586511, 12.0781166], [124.5584124, 12.0782609], [124.5582327, 12.0784759], [124.5581254, 12.0786989], [124.5578411, 12.080005], [124.5577255, 12.0804858], [124.5575675, 12.0806765], [124.5573062, 12.0808118], [124.5570411, 12.0808797], [124.5566414, 12.0809821], [124.5551326, 12.0813685], [124.5548666, 12.0814366], [124.554683, 12.0814836], [124.5541388, 12.081623], [124.5540902, 12.0816354], [124.5520267, 12.0821581], [124.551899, 12.0821848], [124.5470836, 12.0833578], [124.547008, 12.0833762], [124.5464124, 12.0835213], [124.5450201, 12.0838574], [124.5437986, 12.0841344]]}, "properties": {"city": "calbayog", "name": "Calbayog-Santa Margarita Diversion Road", "highway": "trunk", "v_posted": 60, "posted_imputed": false, "v_safe": 50, "gap": 10, "R": 2.07, "exposure": 0.016, "vru_150m": 0, "sss": 12.7, "recommended": 50, "fatal_reduction_pct": 51.8, "why": "undivided arterial, side-impact intersections", "pop_density": 527.0, "pop_density_peak": 2368.7, "v_design": 70, "design_gap": 20}}, {"type": "Feature", "geometry": {"type": "LineString", "coordinates": [[124.5601489, 12.0777615], [124.5627093, 12.0773062], [124.5633601, 12.0772051], [124.5648943, 12.0769533], [124.5656995, 12.0768051], [124.5658063, 12.0767854], [124.5665466, 12.0766595], [124.567362, 12.0765231], [124.5681452, 12.0764077], [124.568982, 12.0762294], [124.5694915, 12.076151], [124.5695065, 12.0761487], [124.5699369, 12.0760825], [124.5715476, 12.0758814], [124.5716437, 12.0758694], [124.5720754, 12.0758155], [124.572565, 12.0757511], [124.5730222, 12.0756293], [124.5738781, 12.0755144], [124.5746282, 12.075349], [124.5753364, 12.0751928], [124.5761041, 12.0750627], [124.5763217, 12.0749843], [124.5770348, 12.074651], [124.577321, 12.0745849], [124.5776544, 12.074567], [124.5781204, 12.0746856], [124.5785952, 12.0748218], [124.5791242, 12.0750208], [124.5796821, 12.0752857], [124.582921, 12.0766661], [124.5847046, 12.0774263], [124.5860331, 12.0779697], [124.586476, 12.0781577], [124.5866956, 12.0782506], [124.5867895, 12.0783013], [124.5868826, 12.078359], [124.587008, 12.0785239], [124.5871329, 12.0787736], [124.5872231, 12.0790508], [124.5872696, 12.0794214], [124.587308, 12.0797958], [124.58758, 12.0809227], [124.5876798, 12.0812912]]}, "properties": {"city": "calbayog", "name": "Calbayog-Santa Margarita Diversion Road", "highway": "trunk", "v_posted": 60, "posted_imputed": false, "v_safe": 50, "gap": 10, "R": 2.07, "exposure": 0.034, "vru_150m": 0, "sss": 12.9, "recommended": 50, "fatal_reduction_pct": 51.8, "why": "undivided arterial, side-impact intersections", "pop_density": 1099.5, "pop_density_peak": 5378.0, "v_design": 60, "design_gap": 10}}, {"type": "Feature", "geometry": {"type": "LineString", "coordinates": [[124.5611581, 12.0685457], [124.5615826, 12.0684704]]}, "properties": {"city": "calbayog", "name": "Maharlika Highway", "highway": "primary", "v_posted": 80, "posted_imputed": false, "v_safe": 50, "gap": 30, "R": 6.55, "exposure": 0.469, "vru_150m": 0, "sss": 55.1, "recommended": 50, "fatal_reduction_pct": 84.7, "why": "undivided arterial, side-impact intersections", "pop_density": 15183.7, "pop_density_peak": 15183.7, "v_design": 60, "design_gap": 10}}, {"type": "Feature", "geometry": {"type": "LineString", "coordinates": [[124.5437986, 12.0841344], [124.5442029, 12.0838251], [124.5444776, 12.0834915], [124.5446971, 12.0831796], [124.5448408, 12.0829289], [124.5449192, 12.0827791], [124.5449473, 12.0827097], [124.5451401, 12.0822554], [124.5454926, 12.0810555], [124.5455251, 12.0809594], [124.5456717, 12.080404], [124.545709, 12.0803186], [124.545856, 12.0797896], [124.54596, 12.0794755], [124.5463292, 12.0783095], [124.5464919, 12.0777714], [124.5465172, 12.0776824], [124.5469676, 12.0763463], [124.5473144, 12.0751898], [124.5473412, 12.0751074], [124.5476343, 12.0741417], [124.5477326, 12.073805], [124.5479914, 12.0730343], [124.5482577, 12.0721348], [124.5483572, 12.0717622], [124.5484454, 12.0714625], [124.5485042, 12.0713348], [124.5485358, 12.0712591], [124.5485949, 12.0711346], [124.5487338, 12.0709484], [124.5488463, 12.0708169], [124.5489568, 12.0707144], [124.5490066, 12.0706771], [124.5491678, 12.0705737], [124.5492034, 12.070558], [124.5493383, 12.0704983], [124.5494827, 12.0704446], [124.5495815, 12.0704226], [124.5496674, 12.0703959], [124.5498525, 12.0703624], [124.5504257, 12.0702585], [124.550451, 12.0702539], [124.5517746, 12.0700427], [124.5520927, 12.0699919], [124.552332, 12.0699537], [124.552672, 12.0699018], [124.5529959, 12.0698477], [124.5539455, 12.0696962], [124.5540922, 12.0696728], [124.5542989, 12.0696398], [124.5544001, 12.0696236], [124.5546664, 12.0695811], [124.5549099, 12.0695422], [124.5556626, 12.0694221], [124.5568071, 12.0692393], [124.5573123, 12.0691577], [124.5582204, 12.0690109], [124.5592711, 12.0688411], [124.5598567, 12.0687464], [124.5611581, 12.0685457]]}, "properties": {"city": "calbayog", "name": "Maharlika Highway", "highway": "primary", "v_posted": 80, "posted_imputed": false, "v_safe": 50, "gap": 30, "R": 6.55, "exposure": 0.148, "vru_150m": 0, "sss": 43.0, "recommended": 50, "fatal_reduction_pct": 84.7, "why": "undivided arterial, side-impact intersections", "pop_density": 4774.2, "pop_density_peak": 15183.7, "v_design": 55, "design_gap": 5}}, {"type": "Feature", "geometry": {"type": "LineString", "coordinates": [[124.5706977, 12.0670078], [124.5728779, 12.0666573], [124.5736769, 12.0665289], [124.5756, 12.0662496], [124.5763745, 12.0661193], [124.577421, 12.0659465], [124.5794594, 12.0656141], [124.5796251, 12.0655894], [124.5797734, 12.0655801], [124.5799901, 12.0655891], [124.5801364, 12.0656052], [124.5802988, 12.0656385], [124.5805341, 12.0657042], [124.5806936, 12.0657488], [124.581061, 12.0658533], [124.5819632, 12.066096], [124.5825499, 12.0662533], [124.5826305, 12.0662744], [124.5830761, 12.0663913], [124.5837794, 12.0665967], [124.5840806, 12.0666917], [124.5848195, 12.0668994], [124.5864911, 12.0673133], [124.5865747, 12.0673363], [124.5868728, 12.0674183], [124.5873736, 12.0675561], [124.5884152, 12.0678428], [124.5888411, 12.0679682], [124.5891292, 12.0680492], [124.5892372, 12.0680775], [124.5896402, 12.0681867], [124.5897907, 12.0682275], [124.5898761, 12.0682506]]}, "properties": {"city": "calbayog", "name": "Maharlika Highway", "highway": "secondary", "v_posted": 50, "posted_imputed": false, "v_safe": 30, "gap": 20, "R": 7.72, "exposure": 0.645, "vru_150m": 2, "sss": 41.1, "recommended": 30, "fatal_reduction_pct": 87.0, "why": "pedestrian activity (1 VRU site<=50m)", "pop_density": 13190.1, "pop_density_peak": 19224.0, "v_design": 50, "design_gap": 20}}, {"type": "Feature", "geometry": {"type": "LineString", "coordinates": [[124.5897075, 12.0825554], [124.5902556, 12.0826578], [124.5905453, 12.0827207], [124.5907545, 12.082726], [124.5911139, 12.0826368], [124.591881, 12.0824322], [124.5921224, 12.0823378], [124.5923048, 12.0822276], [124.5925248, 12.0820388], [124.5927179, 12.081829], [124.5929271, 12.0816034], [124.5930773, 12.0814408], [124.5932329, 12.0813516], [124.593544, 12.0813099], [124.5938334, 12.0812732], [124.5944828, 12.0812048], [124.5951426, 12.0811838], [124.5954859, 12.0811838], [124.595663, 12.0812362], [124.5958185, 12.0813779], [124.5959634, 12.0816034], [124.5961655, 12.0819035], [124.5963264, 12.0820609], [124.5964766, 12.0821186], [124.5966073, 12.0821253], [124.5967438, 12.0821032], [124.598466, 12.081651], [124.598667, 12.0815982], [124.5990152, 12.0814778], [124.5991493, 12.0814148], [124.5992351, 12.0813309], [124.5992834, 12.0812207], [124.5993281, 12.0810673], [124.599419, 12.0807282], [124.599473, 12.0806088], [124.5995746, 12.0805026], [124.5996497, 12.0804606], [124.5997731, 12.0804397], [124.5999125, 12.0804292], [124.5999627, 12.0804397], [124.6000893, 12.0804737], [124.600566, 12.0807274], [124.6008394, 12.0808294], [124.6011645, 12.0808935], [124.6014416, 12.0809144], [124.6017334, 12.0809092], [124.6020305, 12.0808481], [124.6023256, 12.0807536], [124.602626, 12.0806382], [124.6029586, 12.0804756], [124.6030857, 12.0803727], [124.6032295, 12.0802402], [124.6035031, 12.0798827], [124.6036192, 12.0797195], [124.603725, 12.079605], [124.6042389, 12.079149], [124.6043052, 12.0790664], [124.6043306, 12.0789885], [124.6043431, 12.0788602]]}, "properties": {"city": "calbayog", "name": "Calbayog-Santa Margarita Diversion Road", "highway": "trunk", "v_posted": 60, "posted_imputed": false, "v_safe": 50, "gap": 10, "R": 2.07, "exposure": 0.158, "vru_150m": 0, "sss": 14.5, "recommended": 50, "fatal_reduction_pct": 51.8, "why": "undivided arterial, side-impact intersections", "pop_density": 5120.1, "pop_density_peak": 18030.5, "v_design": 60, "design_gap": 10}}, {"type": "Feature", "geometry": {"type": "LineString", "coordinates": [[124.6100202, 12.0735483], [124.6101574, 12.0735261], [124.6103791, 12.0735354], [124.6107009, 12.0735696], [124.6107506, 12.0735748], [124.6121773, 12.0737263], [124.6123221, 12.0737053], [124.6124676, 12.0736104], [124.6125282, 12.0735333], [124.6129569, 12.0728549], [124.6130408, 12.0727695], [124.6131791, 12.0726934], [124.613308, 12.0726705], [124.6140503, 12.0726976], [124.6142114, 12.0726881], [124.6144282, 12.0726677], [124.6148195, 12.0725942], [124.615208, 12.0725136], [124.6155855, 12.0724029], [124.6158381, 12.0723018], [124.6159598, 12.0722531], [124.6167154, 12.071924], [124.6167768, 12.0718973], [124.6170223, 12.0717777], [124.6172328, 12.0716552], [124.6177499, 12.0712656], [124.6180944, 12.0710619], [124.6184279, 12.0708782]]}, "properties": {"city": "calbayog", "name": "Calbayog-Santa Margarita Diversion Road", "highway": "trunk", "v_posted": 60, "posted_imputed": false, "v_safe": 50, "gap": 10, "R": 2.07, "exposure": 0.063, "vru_150m": 0, "sss": 13.3, "recommended": 50, "fatal_reduction_pct": 51.8, "why": "undivided arterial, side-impact intersections", "pop_density": 2040.3, "pop_density_peak": 6037.4, "v_design": 70, "design_gap": 20}}, {"type": "Feature", "geometry": {"type": "LineString", "coordinates": [[124.5876798, 12.0812912], [124.5877738, 12.0815593], [124.5879079, 12.0818215], [124.5879937, 12.0819422], [124.5881278, 12.0820419], [124.5883263, 12.0821415], [124.5885623, 12.0822255], [124.5888842, 12.0823356], [124.5891953, 12.0824143], [124.5894528, 12.0824877], [124.5897075, 12.0825554]]}, "properties": {"city": "calbayog", "name": "Calbayog-Santa Margarita Diversion Road", "highway": "trunk", "v_posted": 60, "posted_imputed": false, "v_safe": 50, "gap": 10, "R": 2.07, "exposure": 0.032, "vru_150m": 0, "sss": 12.9, "recommended": 50, "fatal_reduction_pct": 51.8, "why": "undivided arterial, side-impact intersections", "pop_density": 1044.8, "pop_density_peak": 3134.4, "v_design": 70, "design_gap": 20}}, {"type": "Feature", "geometry": {"type": "LineString", "coordinates": [[124.6107063, 12.0599882], [124.6114987, 12.0596031], [124.6116737, 12.0595192], [124.6122668, 12.0592297], [124.6127962, 12.0589775], [124.6131003, 12.0588307], [124.6134816, 12.0586466], [124.6136664, 12.0585573], [124.6143179, 12.0582428], [124.6146027, 12.0581093], [124.6149382, 12.0579446], [124.6166848, 12.0571283], [124.6174016, 12.0568129], [124.6177988, 12.0566637], [124.6179973, 12.0566098], [124.6184715, 12.0565128], [124.6188604, 12.0564334], [124.619464, 12.056317], [124.6196774, 12.0562758]]}, "properties": {"city": "calbayog", "name": "Maharlika Highway", "highway": "primary", "v_posted": 60, "posted_imputed": false, "v_safe": 50, "gap": 10, "R": 2.07, "exposure": 0.266, "vru_150m": 1, "sss": 15.8, "recommended": 50, "fatal_reduction_pct": 51.8, "why": "undivided arterial, side-impact intersections", "pop_density": 2687.9, "pop_density_peak": 5991.7, "v_design": 60, "design_gap": 10}}, {"type": "Feature", "geometry": {"type": "LineString", "coordinates": [[124.6062739, 12.0621187], [124.606381, 12.0620704]]}, "properties": {"city": "calbayog", "name": "Maharlika Highway", "highway": "primary", "v_posted": 60, "posted_imputed": false, "v_safe": 50, "gap": 10, "R": 2.07, "exposure": 0.206, "vru_150m": 0, "sss": 15.1, "recommended": 50, "fatal_reduction_pct": 51.8, "why": "undivided arterial, side-impact intersections", "pop_density": 6668.6, "pop_density_peak": 6668.6, "v_design": 60, "design_gap": 10}}, {"type": "Feature", "geometry": {"type": "LineString", "coordinates": [[124.5985776, 12.0648564], [124.5994734, 12.0645465], [124.6001106, 12.0643026], [124.6005057, 12.0641514], [124.6007938, 12.0640496], [124.6029374, 12.0632922], [124.6035538, 12.0630748], [124.6042294, 12.0628365], [124.6051303, 12.0625304]]}, "properties": {"city": "calbayog", "name": "Maharlika Highway", "highway": "secondary", "v_posted": 60, "posted_imputed": false, "v_safe": 50, "gap": 10, "R": 2.07, "exposure": 0.41, "vru_150m": 1, "sss": 17.6, "recommended": 50, "fatal_reduction_pct": 51.8, "why": "undivided arterial, side-impact intersections", "pop_density": 8477.8, "pop_density_peak": 10059.4, "v_design": 50, "design_gap": 0}}, {"type": "Feature", "geometry": {"type": "LineString", "coordinates": [[124.6043431, 12.0788602], [124.6043863, 12.0782836]]}, "properties": {"city": "calbayog", "name": "Calbayog-Santa Margarita Diversion Road", "highway": "trunk", "v_posted": 60, "posted_imputed": false, "v_safe": 50, "gap": 10, "R": 2.07, "exposure": 0.05, "vru_150m": 0, "sss": 13.1, "recommended": 50, "fatal_reduction_pct": 51.8, "why": "undivided arterial, side-impact intersections", "pop_density": 1603.9, "pop_density_peak": 3207.7, "v_design": 70, "design_gap": 20}}, {"type": "Feature", "geometry": {"type": "LineString", "coordinates": [[124.6043863, 12.0782836], [124.6044167, 12.0779807], [124.6044428, 12.0778851], [124.6044813, 12.0777874], [124.6045242, 12.0777349], [124.6045845, 12.0776759], [124.6046449, 12.0776274], [124.6053364, 12.0772475], [124.6055409, 12.0771682], [124.6057011, 12.0771164], [124.6058086, 12.0770745], [124.6058959, 12.0770268], [124.6059405, 12.0769958], [124.6059909, 12.0769511], [124.6060175, 12.0769172], [124.6060643, 12.076847], [124.6067098, 12.0756938], [124.6067995, 12.0755591], [124.6068531, 12.0754896], [124.6069014, 12.0754332], [124.6070543, 12.0752942], [124.6073673, 12.0750498], [124.6074344, 12.0749856], [124.6074934, 12.0749161], [124.6077768, 12.0744641], [124.6078815, 12.0743487], [124.607978, 12.0742897], [124.608088, 12.0742544], [124.6083558, 12.074191], [124.6089387, 12.0741042], [124.6092058, 12.074031], [124.6093131, 12.0739903], [124.6097203, 12.0737358], [124.6100202, 12.0735483]]}, "properties": {"city": "calbayog", "name": "Calbayog-Santa Margarita Diversion Road", "highway": "trunk", "v_posted": 60, "posted_imputed": false, "v_safe": 50, "gap": 10, "R": 2.07, "exposure": 0.062, "vru_150m": 0, "sss": 13.3, "recommended": 50, "fatal_reduction_pct": 51.8, "why": "undivided arterial, side-impact intersections", "pop_density": 2012.5, "pop_density_peak": 6037.4, "v_design": 70, "design_gap": 20}}, {"type": "Feature", "geometry": {"type": "LineString", "coordinates": [[124.606381, 12.0620704], [124.6100489, 12.0602982], [124.610465, 12.0601032], [124.6107063, 12.0599882]]}, "properties": {"city": "calbayog", "name": "Maharlika Highway", "highway": "primary", "v_posted": 60, "posted_imputed": false, "v_safe": 50, "gap": 10, "R": 2.07, "exposure": 0.18, "vru_150m": 0, "sss": 14.8, "recommended": 50, "fatal_reduction_pct": 51.8, "why": "undivided arterial, side-impact intersections", "pop_density": 5837.1, "pop_density_peak": 6668.6, "v_design": 60, "design_gap": 10}}, {"type": "Feature", "geometry": {"type": "LineString", "coordinates": [[124.6051303, 12.0625304], [124.6052624, 12.0624856], [124.6060164, 12.0622244], [124.6062151, 12.0621448], [124.6062739, 12.0621187]]}, "properties": {"city": "calbayog", "name": "Maharlika Highway", "highway": "primary", "v_posted": 60, "posted_imputed": false, "v_safe": 50, "gap": 10, "R": 2.07, "exposure": 0.215, "vru_150m": 0, "sss": 15.2, "recommended": 50, "fatal_reduction_pct": 51.8, "why": "undivided arterial, side-impact intersections", "pop_density": 6961.3, "pop_density_peak": 7254.0, "v_design": 60, "design_gap": 10}}, {"type": "Feature", "geometry": {"type": "LineString", "coordinates": [[124.6222917, 12.0680956], [124.6225072, 12.0677993], [124.6228506, 12.0671908], [124.6232583, 12.0666032], [124.6236976, 12.0661631], [124.6240223, 12.0658595], [124.6244492, 12.065659], [124.6247075, 12.065485], [124.6248681, 12.0653017], [124.6249754, 12.0651224], [124.6250463, 12.0649054], [124.6251117, 12.0645814], [124.6251856, 12.0644181], [124.6253182, 12.0642636], [124.6255134, 12.0640296], [124.6257554, 12.063603], [124.6258714, 12.0633915], [124.6262725, 12.0629526], [124.6267666, 12.062396], [124.6273459, 12.0619553], [124.6277644, 12.0616406], [124.6280604, 12.0614779], [124.628251, 12.0614089], [124.62854, 12.0613044], [124.6289535, 12.0612143], [124.6302065, 12.0612397], [124.6307804, 12.0612251], [124.6316267, 12.0613533], [124.631923, 12.0613809], [124.6323829, 12.0614758], [124.6330269, 12.0617681], [124.6333727, 12.0618605], [124.6335518, 12.0619435], [124.6340813, 12.0622052], [124.6342794, 12.0622661], [124.6346773, 12.0622303], [124.6352259, 12.0620669], [124.6354723, 12.0619436], [124.6358325, 12.0616476], [124.6359674, 12.0615785], [124.6365316, 12.0613205], [124.6368567, 12.0612306], [124.6371843, 12.061095], [124.6378387, 12.0606858], [124.6385247, 12.0602707], [124.6387181, 12.0601769], [124.6389009, 12.0600878], [124.6393086, 12.0600143], [124.6397565, 12.059995], [124.6412573, 12.0599617], [124.6423788, 12.0598586], [124.6427955, 12.0597835], [124.643171, 12.0596786], [124.643525, 12.0595841], [124.643922, 12.0594687], [124.644158, 12.0592904], [124.644392, 12.0592187], [124.6445684, 12.059235], [124.6448903, 12.0593711], [124.6451907, 12.0594236], [124.6454374, 12.0593921], [124.6457271, 12.0592452], [124.6459509, 12.0590188], [124.6461858, 12.0586923]]}, "properties": {"city": "calbayog", "name": "Calbayog-Santa Margarita Diversion Road", "highway": "trunk", "v_posted": 60, "posted_imputed": false, "v_safe": 50, "gap": 10, "R": 2.07, "exposure": 0.0, "vru_150m": 0, "sss": 12.5, "recommended": 50, "fatal_reduction_pct": 51.8, "why": "undivided arterial, side-impact intersections", "pop_density": 0.0, "pop_density_peak": 0.0, "v_design": 60, "design_gap": 10}}, {"type": "Feature", "geometry": {"type": "LineString", "coordinates": [[124.6358594, 12.0527999], [124.6361077, 12.052691]]}, "properties": {"city": "calbayog", "name": "Maharlika Highway", "highway": "primary", "v_posted": 60, "posted_imputed": false, "v_safe": 50, "gap": 10, "R": 2.07, "exposure": 0.14, "vru_150m": 0, "sss": 14.2, "recommended": 50, "fatal_reduction_pct": 51.8, "why": "undivided arterial, side-impact intersections", "pop_density": 4527.2, "pop_density_peak": 5015.9, "v_design": 60, "design_gap": 10}}, {"type": "Feature", "geometry": {"type": "LineString", "coordinates": [[124.6281166, 12.0547281], [124.6283568, 12.0544974], [124.6287229, 12.0541094], [124.6290281, 12.053786], [124.6295181, 12.0532379], [124.6298163, 12.0529274], [124.630081, 12.0526907], [124.6303108, 12.0525859], [124.6305629, 12.0525135], [124.6313885, 12.0523185], [124.6318102, 12.0522194], [124.6321809, 12.0521708], [124.6324056, 12.0521906], [124.6326336, 12.0522352], [124.6327715, 12.0522855], [124.6333179, 12.0525083], [124.6343297, 12.0530833], [124.634457, 12.0531259], [124.6346384, 12.05314], [124.6348701, 12.0531004], [124.6350163, 12.0530558], [124.635259, 12.0529863], [124.6355071, 12.0529063], [124.6356824, 12.0528539], [124.6358594, 12.0527999]]}, "properties": {"city": "calbayog", "name": "Maharlika Highway", "highway": "primary", "v_posted": 60, "posted_imputed": false, "v_safe": 50, "gap": 10, "R": 2.07, "exposure": 0.22, "vru_150m": 0, "sss": 15.3, "recommended": 50, "fatal_reduction_pct": 51.8, "why": "undivided arterial, side-impact intersections", "pop_density": 7129.1, "pop_density_peak": 15263.6, "v_design": 55, "design_gap": 5}}, {"type": "Feature", "geometry": {"type": "LineString", "coordinates": [[124.6279859, 12.0548228], [124.6281166, 12.0547281]]}, "properties": {"city": "calbayog", "name": "Maharlika Highway", "highway": "primary", "v_posted": 80, "posted_imputed": false, "v_safe": 50, "gap": 30, "R": 6.55, "exposure": 0.472, "vru_150m": 0, "sss": 55.2, "recommended": 50, "fatal_reduction_pct": 84.7, "why": "undivided arterial, side-impact intersections", "pop_density": 15263.6, "pop_density_peak": 15263.6, "v_design": 60, "design_gap": 10}}, {"type": "Feature", "geometry": {"type": "LineString", "coordinates": [[124.6184279, 12.0708782], [124.6188709, 12.0706699], [124.6196094, 12.0704221], [124.6198626, 12.0702806], [124.6201464, 12.0700655], [124.6209623, 12.069394], [124.6214665, 12.0689429], [124.6221103, 12.0683449], [124.6222917, 12.0680956]]}, "properties": {"city": "calbayog", "name": "Calbayog-Santa Margarita Diversion Road", "highway": "trunk", "v_posted": 60, "posted_imputed": false, "v_safe": 50, "gap": 10, "R": 2.07, "exposure": 0.0, "vru_150m": 0, "sss": 12.5, "recommended": 50, "fatal_reduction_pct": 51.8, "why": "undivided arterial, side-impact intersections", "pop_density": 0.0, "pop_density_peak": 0.0, "v_design": 70, "design_gap": 20}}, {"type": "Feature", "geometry": {"type": "LineString", "coordinates": [[124.6196774, 12.0562758], [124.6210211, 12.0560188], [124.6219072, 12.0559238], [124.6226634, 12.0558692], [124.6229996, 12.0558246], [124.6232231, 12.0557949], [124.6236195, 12.0557105], [124.624418, 12.0555341], [124.6250432, 12.0554076], [124.6259688, 12.0552968], [124.6260762, 12.0552818], [124.6262612, 12.055256], [124.6265305, 12.0551986], [124.6266511, 12.0551691], [124.6271262, 12.0550531], [124.6278693, 12.0548717], [124.6279452, 12.0548432], [124.6279859, 12.0548228]]}, "properties": {"city": "calbayog", "name": "Maharlika Highway", "highway": "primary", "v_posted": 60, "posted_imputed": false, "v_safe": 50, "gap": 10, "R": 2.07, "exposure": 0.294, "vru_150m": 0, "sss": 16.2, "recommended": 50, "fatal_reduction_pct": 51.8, "why": "undivided arterial, side-impact intersections", "pop_density": 9516.9, "pop_density_peak": 15263.6, "v_design": 60, "design_gap": 10}}]}