{"type": "FeatureCollection", "features": [{"type": "Feature", "geometry": {"type": "LineString", "coordinates": [[122.7224922, 11.5811351], [122.7228858, 11.5812625], [122.7231391, 11.5813462], [122.7233469, 11.5814197], [122.7235039, 11.5814828], [122.7236487, 11.5815524], [122.7247377, 11.5821371], [122.7248746, 11.5822159], [122.7249563, 11.5822816], [122.7250193, 11.5823394], [122.725077, 11.5824077], [122.7251092, 11.5824629], [122.7251521, 11.582543], [122.7251952, 11.5826459], [122.7252228, 11.5827369], [122.725508, 11.5838177], [122.7255477, 11.5839843], [122.7255718, 11.5841485], [122.7255889, 11.5842932], [122.7256846, 11.5857848], [122.7257786, 11.5872152], [122.7257985, 11.5873686], [122.7258213, 11.5874855], [122.7258682, 11.5877204], [122.7259453, 11.5880485], [122.7260092, 11.5883433], [122.7260457, 11.5884873], [122.7260777, 11.5886027], [122.7261259, 11.5887868], [122.7262333, 11.5890575], [122.7263272, 11.5892013], [122.726386, 11.5892661], [122.7264734, 11.5893325], [122.7265379, 11.5894305], [122.7266185, 11.5895575], [122.7266819, 11.5896605], [122.7267137, 11.5897791]]}, "properties": {"city": "roxas", "name": "Roxas City Circumferential Road", "highway": "secondary", "v_posted": 60, "posted_imputed": false, "v_safe": 50, "gap": 10, "R": 2.07, "exposure": 0.07, "vru_150m": 0, "sss": 13.4, "recommended": 50, "fatal_reduction_pct": 51.8, "why": "undivided arterial, side-impact intersections", "pop_density": 2250.0, "pop_density_peak": 3163.4}}, {"type": "Feature", "geometry": {"type": "LineString", "coordinates": [[122.7297892, 11.5961554], [122.7295421, 11.59688]]}, "properties": {"city": "roxas", "name": "Roxas City Circumferential Road", "highway": "secondary", "v_posted": 60, "posted_imputed": false, "v_safe": 50, "gap": 10, "R": 2.07, "exposure": 0.111, "vru_150m": 0, "sss": 13.9, "recommended": 50, "fatal_reduction_pct": 51.8, "why": "undivided arterial, side-impact intersections", "pop_density": 3589.5, "pop_density_peak": 5056.5}}, {"type": "Feature", "geometry": {"type": "LineString", "coordinates": [[122.7296635, 11.6002372], [122.7297852, 11.6011097]]}, "properties": {"city": "roxas", "name": "Roxas City Circumferential Road", "highway": "secondary", "v_posted": 60, "posted_imputed": false, "v_safe": 50, "gap": 10, "R": 2.07, "exposure": 0.087, "vru_150m": 0, "sss": 13.6, "recommended": 50, "fatal_reduction_pct": 51.8, "why": "undivided arterial, side-impact intersections", "pop_density": 2826.8, "pop_density_peak": 3142.8}}, {"type": "Feature", "geometry": {"type": "LineString", "coordinates": [[122.7295421, 11.59688], [122.7294095, 11.5972626], [122.7293775, 11.5973696], [122.7293239, 11.5977445], [122.729398, 11.5984787], [122.7295218, 11.5992863], [122.7295511, 11.5994468], [122.7296635, 11.6002372]]}, "properties": {"city": "roxas", "name": "Roxas City Circumferential Road", "highway": "secondary", "v_posted": 60, "posted_imputed": false, "v_safe": 50, "gap": 10, "R": 2.07, "exposure": 0.143, "vru_150m": 0, "sss": 14.3, "recommended": 50, "fatal_reduction_pct": 51.8, "why": "undivided arterial, side-impact intersections", "pop_density": 4629.4, "pop_density_peak": 5688.8}}, {"type": "Feature", "geometry": {"type": "LineString", "coordinates": [[122.7210801, 11.5805275], [122.7224922, 11.5811351]]}, "properties": {"city": "roxas", "name": "Roxas City Circumferential Road", "highway": "secondary", "v_posted": 60, "posted_imputed": false, "v_safe": 50, "gap": 10, "R": 2.07, "exposure": 0.0, "vru_150m": 0, "sss": 12.5, "recommended": 50, "fatal_reduction_pct": 51.8, "why": "undivided arterial, side-impact intersections", "pop_density": 0.0, "pop_density_peak": 0.0}}, {"type": "Feature", "geometry": {"type": "LineString", "coordinates": [[122.7297852, 11.6011097], [122.729804, 11.6012541], [122.7297738, 11.6013584], [122.7296884, 11.6014498], [122.7295832, 11.6015005], [122.7294416, 11.6015405], [122.7293096, 11.6015646], [122.7286831, 11.6015667], [122.7285935, 11.601571], [122.7283398, 11.6015636], [122.7279868, 11.6015741], [122.7276821, 11.6015888], [122.7272422, 11.6016077], [122.7269246, 11.6016172], [122.7267444, 11.6016477], [122.7266231, 11.6016761], [122.7263764, 11.6017391], [122.7259751, 11.6018432], [122.7257305, 11.6019062], [122.7254591, 11.601984], [122.7253185, 11.6020124], [122.7251544, 11.6019787], [122.7250919, 11.6019416], [122.7248838, 11.6017512], [122.7237832, 11.6005315], [122.7237231, 11.6004548], [122.7235289, 11.6002068], [122.7232983, 11.5999157], [122.7232253, 11.5998348], [122.7231717, 11.5998011], [122.723014, 11.5998032], [122.7226942, 11.5998169], [122.7223938, 11.5998411], [122.7222415, 11.5998736], [122.7221192, 11.5999104], [122.7217898, 11.6000471], [122.7212437, 11.6002919], [122.7206193, 11.6005694], [122.7198683, 11.6009141], [122.7191999, 11.6012231], [122.7185561, 11.6015195], [122.7179639, 11.6017959], [122.7174822, 11.6020113], [122.7170498, 11.6021942], [122.7167073, 11.6023382], [122.7163175, 11.6025126], [122.7150199, 11.603312], [122.7148667, 11.6033433], [122.7145764, 11.6033311], [122.7141129, 11.6033059], [122.7135893, 11.6032891], [122.7132288, 11.6034068], [122.7126066, 11.6036254], [122.711715, 11.6039165], [122.7108613, 11.6041751], [122.7099386, 11.6044707], [122.7098279, 11.6045088]]}, "properties": {"city": "roxas", "name": "Roxas City Circumferential Road", "highway": "secondary", "v_posted": 60, "posted_imputed": false, "v_safe": 50, "gap": 10, "R": 2.07, "exposure": 0.072, "vru_150m": 0, "sss": 13.4, "recommended": 50, "fatal_reduction_pct": 51.8, "why": "undivided arterial, side-impact intersections", "pop_density": 2324.4, "pop_density_peak": 8473.3}}, {"type": "Feature", "geometry": {"type": "LineString", "coordinates": [[122.7136127, 11.6083147], [122.7136525, 11.6082602], [122.7137148, 11.6081548], [122.7137657, 11.608091], [122.7138082, 11.6080633], [122.7138676, 11.6080661], [122.7139271, 11.6081104], [122.7139951, 11.6081548], [122.7140658, 11.608202], [122.7141196, 11.6082241], [122.7141593, 11.6082214], [122.7142293, 11.6082077], [122.7142862, 11.6081586], [122.7143067, 11.608096], [122.7143067, 11.6080381], [122.7142612, 11.6079856], [122.7142074, 11.6079607]]}, "properties": {"city": "roxas", "name": "Culasi Hill Road", "highway": "residential", "v_posted": 60, "posted_imputed": false, "v_safe": 30, "gap": 30, "R": 16.0, "exposure": 0.487, "vru_150m": 0, "sss": 55.7, "recommended": 30, "fatal_reduction_pct": 93.8, "why": "local road, frontage/pedestrian mixing", "pop_density": 15736.6, "pop_density_peak": 16587.5}}]}