{"type": "FeatureCollection", "features": [{"type": "Feature", "geometry": {"type": "LineString", "coordinates": [[122.0469911, 6.9406123], [122.0472921, 6.9405], [122.0475271, 6.9404196], [122.0476972, 6.9403669], [122.0478554, 6.9403176], [122.047961, 6.940289], [122.0480284, 6.940271], [122.0482028, 6.9402324], [122.0483395, 6.9402058], [122.0484616, 6.9401911], [122.0485944, 6.9401831], [122.0487915, 6.9401938], [122.0490181, 6.9402231], [122.0492166, 6.9402617]]}, "properties": {"city": "zamboanga", "name": "Zamboanga City Bypass Road", "highway": "secondary", "v_posted": 60, "posted_imputed": false, "v_safe": 50, "gap": 10, "R": 2.07, "exposure": 0.205, "vru_150m": 0, "sss": 15.1, "recommended": 50, "fatal_reduction_pct": 51.8, "why": "undivided arterial, side-impact intersections", "pop_density": 6643.7, "pop_density_peak": 13484.9, "v_design": 50, "design_gap": 0}}, {"type": "Feature", "geometry": {"type": "LineString", "coordinates": [[122.0430932, 6.9461046], [122.0431897, 6.9461232], [122.0432822, 6.9461219], [122.0433667, 6.9461126], [122.0434473, 6.9460905], [122.0435293, 6.9460585], [122.0435988, 6.9460141], [122.0438642, 6.9458463]]}, "properties": {"city": "zamboanga", "name": "Zamboanga City Bypass Road", "highway": "secondary", "v_posted": 60, "posted_imputed": false, "v_safe": 50, "gap": 10, "R": 2.07, "exposure": 0.07, "vru_150m": 0, "sss": 13.4, "recommended": 50, "fatal_reduction_pct": 51.8, "why": "undivided arterial, side-impact intersections", "pop_density": 2262.6, "pop_density_peak": 2481.9, "v_design": 50, "design_gap": 0}}, {"type": "Feature", "geometry": {"type": "LineString", "coordinates": [[122.0407248, 6.9453458], [122.0408897, 6.9453897], [122.0411882, 6.945483], [122.0414594, 6.9455775]]}, "properties": {"city": "zamboanga", "name": "Zamboanga City Bypass Road", "highway": "secondary", "v_posted": 60, "posted_imputed": false, "v_safe": 50, "gap": 10, "R": 2.07, "exposure": 0.272, "vru_150m": 0, "sss": 15.9, "recommended": 50, "fatal_reduction_pct": 51.8, "why": "undivided arterial, side-impact intersections", "pop_density": 8783.9, "pop_density_peak": 9326.7, "v_design": 50, "design_gap": 0}}, {"type": "Feature", "geometry": {"type": "LineString", "coordinates": [[122.0396827, 6.9455375], [122.0400824, 6.9453804], [122.0401943, 6.9453478], [122.0403144, 6.9453278], [122.0404143, 6.9453179], [122.0404927, 6.9453179], [122.0405692, 6.9453219], [122.0407248, 6.9453458]]}, "properties": {"city": "zamboanga", "name": "Zamboanga City Bypass Road", "highway": "secondary", "v_posted": 60, "posted_imputed": false, "v_safe": 50, "gap": 10, "R": 2.07, "exposure": 0.17, "vru_150m": 0, "sss": 14.6, "recommended": 50, "fatal_reduction_pct": 51.8, "why": "undivided arterial, side-impact intersections", "pop_density": 5499.6, "pop_density_peak": 8241.1, "v_design": 50, "design_gap": 0}}, {"type": "Feature", "geometry": {"type": "LineString", "coordinates": [[122.037026, 6.9452766], [122.0377716, 6.9455109], [122.0378454, 6.9455255], [122.0379326, 6.9455335], [122.0380895, 6.9455309], [122.0383537, 6.9455442], [122.0384905, 6.9455548], [122.0387815, 6.9455908], [122.0390926, 6.945624], [122.0392656, 6.945624], [122.0393877, 6.9456161], [122.0395003, 6.9455974], [122.0396827, 6.9455375]]}, "properties": {"city": "zamboanga", "name": "Zamboanga City Bypass Road", "highway": "secondary", "v_posted": 60, "posted_imputed": false, "v_safe": 50, "gap": 10, "R": 2.07, "exposure": 0.067, "vru_150m": 0, "sss": 13.3, "recommended": 50, "fatal_reduction_pct": 51.8, "why": "undivided arterial, side-impact intersections", "pop_density": 2168.6, "pop_density_peak": 2758.0, "v_design": 50, "design_gap": 0}}, {"type": "Feature", "geometry": {"type": "LineString", "coordinates": [[122.0438642, 6.9458463], [122.044149, 6.9456008], [122.0443297, 6.945427], [122.0444503, 6.9453205], [122.0445818, 6.9451874], [122.0446837, 6.9450463], [122.0447695, 6.9449078], [122.0448473, 6.9447587], [122.0451705, 6.9439413], [122.04531, 6.9436005], [122.0454186, 6.943265], [122.0454575, 6.9431053], [122.045483, 6.9429109], [122.0454964, 6.9427725], [122.0455018, 6.9426007], [122.0454924, 6.9422533], [122.0454723, 6.9418086], [122.0454776, 6.9417021], [122.0454991, 6.9416209], [122.0455299, 6.9415544], [122.0455755, 6.9414891], [122.045652, 6.9414132], [122.0458221, 6.9412823], [122.0461053, 6.9410645], [122.0464271, 6.9408488], [122.0466498, 6.9407396], [122.0469911, 6.9406123]]}, "properties": {"city": "zamboanga", "name": "Zamboanga City Bypass Road", "highway": "secondary", "v_posted": 60, "posted_imputed": false, "v_safe": 50, "gap": 10, "R": 2.07, "exposure": 0.031, "vru_150m": 0, "sss": 12.9, "recommended": 50, "fatal_reduction_pct": 51.8, "why": "undivided arterial, side-impact intersections", "pop_density": 1005.2, "pop_density_peak": 2481.9, "v_design": 50, "design_gap": 0}}, {"type": "Feature", "geometry": {"type": "LineString", "coordinates": [[122.0492166, 6.9402617], [122.0499878, 6.9403988], [122.0501434, 6.9404214], [122.0502493, 6.9404308], [122.0503004, 6.9404341], [122.0503269, 6.9404344], [122.0503545, 6.9404347], [122.0504123, 6.9404254], [122.0504732, 6.9404041], [122.0505235, 6.9403682], [122.0506748, 6.940208], [122.0508574, 6.9400319]]}, "properties": {"city": "zamboanga", "name": "Zamboanga City Bypass Road", "highway": "secondary", "v_posted": 60, "posted_imputed": false, "v_safe": 50, "gap": 10, "R": 2.07, "exposure": 0.508, "vru_150m": 0, "sss": 18.9, "recommended": 50, "fatal_reduction_pct": 51.8, "why": "undivided arterial, side-impact intersections", "pop_density": 16447.5, "pop_density_peak": 18416.7, "v_design": 50, "design_gap": 0}}, {"type": "Feature", "geometry": {"type": "LineString", "coordinates": [[122.028119, 6.9486141], [122.0281341, 6.948459], [122.0283356, 6.9479671], [122.0284872, 6.9476356], [122.0288466, 6.9470432], [122.0289016, 6.9469633], [122.0289847, 6.9468688], [122.0294957, 6.946315], [122.0295775, 6.9462271], [122.0296633, 6.9461472], [122.0297559, 6.9460793], [122.0298631, 6.9460168], [122.0300294, 6.9459635], [122.0302092, 6.9459342], [122.0305444, 6.9459396], [122.0308395, 6.9459822], [122.0312633, 6.946074], [122.0314778, 6.9461153], [122.0318601, 6.9462085], [122.0320156, 6.946267], [122.0321256, 6.9463057], [122.0322061, 6.9463203], [122.0322905, 6.9463203], [122.0324032, 6.946295], [122.0332883, 6.9461526], [122.0336598, 6.9460913], [122.0339026, 6.9460727], [122.0340635, 6.9460527], [122.034215, 6.9460274], [122.0346522, 6.9458943], [122.0347756, 6.945837], [122.0348655, 6.9457878], [122.0349808, 6.9457359], [122.0353389, 6.9456187], [122.035886, 6.9454896], [122.0364895, 6.9453378], [122.0367309, 6.9452859], [122.0368637, 6.9452713], [122.0369375, 6.9452673], [122.037026, 6.9452766]]}, "properties": {"city": "zamboanga", "name": "Zamboanga City Bypass Road", "highway": "secondary", "v_posted": 60, "posted_imputed": false, "v_safe": 50, "gap": 10, "R": 2.07, "exposure": 0.01, "vru_150m": 0, "sss": 12.6, "recommended": 50, "fatal_reduction_pct": 51.8, "why": "undivided arterial, side-impact intersections", "pop_density": 336.1, "pop_density_peak": 1078.7, "v_design": 45, "design_gap": -5}}, {"type": "Feature", "geometry": {"type": "LineString", "coordinates": [[122.0414594, 6.9455775], [122.041893, 6.9457155]]}, "properties": {"city": "zamboanga", "name": "Zamboanga City Bypass Road", "highway": "secondary", "v_posted": 60, "posted_imputed": false, "v_safe": 50, "gap": 10, "R": 2.07, "exposure": 0.288, "vru_150m": 0, "sss": 16.1, "recommended": 50, "fatal_reduction_pct": 51.8, "why": "undivided arterial, side-impact intersections", "pop_density": 9304.2, "pop_density_peak": 9326.7, "v_design": 50, "design_gap": 0}}, {"type": "Feature", "geometry": {"type": "LineString", "coordinates": [[122.041893, 6.9457155], [122.0423663, 6.9458716], [122.0430932, 6.9461046]]}, "properties": {"city": "zamboanga", "name": "Zamboanga City Bypass Road", "highway": "secondary", "v_posted": 60, "posted_imputed": false, "v_safe": 50, "gap": 10, "R": 2.07, "exposure": 0.175, "vru_150m": 0, "sss": 14.7, "recommended": 50, "fatal_reduction_pct": 51.8, "why": "undivided arterial, side-impact intersections", "pop_density": 5662.5, "pop_density_peak": 9281.7, "v_design": 50, "design_gap": 0}}, {"type": "Feature", "geometry": {"type": "LineString", "coordinates": [[122.0280674, 6.9491612], [122.0280472, 6.9489535], [122.0280466, 6.9488883], [122.0280414, 6.9488768], [122.028062, 6.9487685], [122.0280821, 6.9487013], [122.028119, 6.9486141]]}, "properties": {"city": "zamboanga", "name": "Zamboanga City Bypass Road", "highway": "secondary", "v_posted": 60, "posted_imputed": false, "v_safe": 50, "gap": 10, "R": 2.07, "exposure": 0.2, "vru_150m": 1, "sss": 15.0, "recommended": 50, "fatal_reduction_pct": 51.8, "why": "undivided arterial, side-impact intersections", "pop_density": 0.0, "pop_density_peak": 0.0, "v_design": 50, "design_gap": 0}}, {"type": "Feature", "geometry": {"type": "LineString", "coordinates": [[122.0279936, 6.9501416], [122.0280741, 6.9500479], [122.0280862, 6.9499939], [122.0281063, 6.949934], [122.0281157, 6.9498688], [122.0281117, 6.9498015], [122.028117, 6.9496844], [122.0281076, 6.9494614], [122.0280856, 6.9493435], [122.0280674, 6.9491612]]}, "properties": {"city": "zamboanga", "name": "Zamboanga City Bypass Road", "highway": "secondary", "v_posted": 60, "posted_imputed": false, "v_safe": 50, "gap": 10, "R": 2.07, "exposure": 0.2, "vru_150m": 1, "sss": 15.0, "recommended": 50, "fatal_reduction_pct": 51.8, "why": "undivided arterial, side-impact intersections", "pop_density": 0.0, "pop_density_peak": 0.0, "v_design": 50, "design_gap": 0}}, {"type": "Feature", "geometry": {"type": "LineString", "coordinates": [[122.0270924, 6.9505976], [122.0273805, 6.9504641], [122.0277448, 6.9502954], [122.0279936, 6.9501416]]}, "properties": {"city": "zamboanga", "name": "Zamboanga City Bypass Road", "highway": "secondary", "v_posted": 60, "posted_imputed": false, "v_safe": 50, "gap": 10, "R": 2.07, "exposure": 0.2, "vru_150m": 1, "sss": 15.0, "recommended": 50, "fatal_reduction_pct": 51.8, "why": "undivided arterial, side-impact intersections", "pop_density": 0.0, "pop_density_peak": 0.0, "v_design": 50, "design_gap": 0}}, {"type": "Feature", "geometry": {"type": "LineString", "coordinates": [[122.0248662, 6.9494966], [122.0252511, 6.9499213], [122.0253356, 6.9501197], [122.0254147, 6.9502928], [122.025459, 6.9504632], [122.0254871, 6.9506242], [122.0255032, 6.9507653], [122.0255743, 6.9508879], [122.0256574, 6.9509504], [122.0257432, 6.9509983], [122.025868, 6.9510103], [122.0260263, 6.9510156], [122.0264406, 6.9508798], [122.0268443, 6.9507134], [122.0270924, 6.9505976]]}, "properties": {"city": "zamboanga", "name": "Zamboanga City Bypass Road", "highway": "secondary", "v_posted": 60, "posted_imputed": false, "v_safe": 50, "gap": 10, "R": 2.07, "exposure": 0.0, "vru_150m": 0, "sss": 12.5, "recommended": 50, "fatal_reduction_pct": 51.8, "why": "undivided arterial, side-impact intersections", "pop_density": 0.0, "pop_density_peak": 0.0, "v_design": 35, "design_gap": -15}}, {"type": "Feature", "geometry": {"type": "LineString", "coordinates": [[122.0965174, 6.9620675], [122.0964007, 6.9618239], [122.0961224, 6.9610445], [122.0958106, 6.9601772], [122.0953399, 6.9588579]]}, "properties": {"city": "zamboanga", "name": "Zamboanga City Bypass Road", "highway": "secondary", "v_posted": 60, "posted_imputed": false, "v_safe": 50, "gap": 10, "R": 2.07, "exposure": 0.009, "vru_150m": 0, "sss": 12.6, "recommended": 50, "fatal_reduction_pct": 51.8, "why": "undivided arterial, side-impact intersections", "pop_density": 293.9, "pop_density_peak": 881.6, "v_design": 50, "design_gap": 0}}]}