{"type": "FeatureCollection", "features": [{"type": "Feature", "geometry": {"type": "LineString", "coordinates": [[124.2212206, 7.1801074], [124.2225447, 7.1815445]]}, "properties": {"city": "cotabato", "name": "Cotabato-Koronadal Highway", "highway": "primary", "v_posted": 60, "posted_imputed": false, "v_safe": 50, "gap": 10, "R": 2.07, "exposure": 0.351, "vru_150m": 1, "sss": 16.9, "recommended": 50, "fatal_reduction_pct": 51.8, "why": "undivided arterial, side-impact intersections", "pop_density": 6086.9, "pop_density_peak": 11622.1, "v_design": 60, "design_gap": 10}}, {"type": "Feature", "geometry": {"type": "LineString", "coordinates": [[124.2452128, 7.1743615], [124.2456407, 7.1751629], [124.2459512, 7.1757717], [124.2463374, 7.1765049], [124.2465386, 7.1768588], [124.2466713, 7.177089], [124.2467625, 7.1772274], [124.2470254, 7.1775633], [124.2475883, 7.1782512], [124.2477757, 7.1784854], [124.248405, 7.1792555], [124.2487943, 7.1797395], [124.2489861, 7.1799757], [124.2491262, 7.1802079], [124.2492, 7.1803676], [124.249263, 7.1805552], [124.2492838, 7.1807009], [124.2493006, 7.1808985], [124.249316, 7.1811786], [124.2493784, 7.1820022], [124.2494199, 7.1824246], [124.2494836, 7.1827586], [124.2495782, 7.1832483], [124.250063, 7.185328], [124.2502769, 7.186254], [124.2503124, 7.1864496], [124.2503238, 7.1865814], [124.2503259, 7.1866692], [124.2503198, 7.1867776], [124.2503098, 7.1868787], [124.2502903, 7.1870238], [124.2502689, 7.1871961], [124.2502668, 7.1872759], [124.2502742, 7.1873637], [124.250285, 7.1874336], [124.2503084, 7.1875048], [124.2503373, 7.187574], [124.2504318, 7.187709], [124.2507691, 7.1881514], [124.2510259, 7.1884867], [124.2514866, 7.1890689], [124.2518429, 7.1895171]]}, "properties": {"city": "cotabato", "name": "Cotabato City East Diversion Road", "highway": "trunk", "v_posted": 70, "posted_imputed": false, "v_safe": 50, "gap": 20, "R": 3.84, "exposure": 0.006, "vru_150m": 0, "sss": 25.1, "recommended": 50, "fatal_reduction_pct": 74.0, "why": "undivided arterial, side-impact intersections", "pop_density": 184.4, "pop_density_peak": 2028.1, "v_design": 70, "design_gap": 20}}, {"type": "Feature", "geometry": {"type": "LineString", "coordinates": [[124.2612612, 7.20535], [124.2610808, 7.2050473], [124.260989, 7.2049176], [124.2608696, 7.2047419], [124.2606805, 7.2044871], [124.2606282, 7.20439], [124.2606034, 7.2043082], [124.2605893, 7.2042343], [124.2605826, 7.2041685], [124.2605236, 7.2037713], [124.2604928, 7.2036176], [124.2604311, 7.2034227], [124.2603801, 7.203303], [124.2602883, 7.2031207], [124.2601835, 7.2029231], [124.2601085, 7.2027894], [124.2598846, 7.2024122], [124.2596432, 7.2020569], [124.2593615, 7.2016804], [124.2593178, 7.2016237], [124.2591423, 7.2013963], [124.2589512, 7.2011249], [124.2587373, 7.2008488], [124.2585884, 7.2006419], [124.2582632, 7.2001596], [124.2578957, 7.1996168], [124.2576837, 7.1992953], [124.2575638, 7.1991135], [124.2574433, 7.1989308], [124.2573601, 7.1988046], [124.2572091, 7.1985756], [124.2569033, 7.1981119], [124.2566921, 7.1978046]]}, "properties": {"city": "cotabato", "name": "Cotabato City East Diversion Road", "highway": "trunk", "v_posted": 70, "posted_imputed": false, "v_safe": 50, "gap": 20, "R": 3.84, "exposure": 0.05, "vru_150m": 0, "sss": 26.2, "recommended": 50, "fatal_reduction_pct": 74.0, "why": "undivided arterial, side-impact intersections", "pop_density": 1611.7, "pop_density_peak": 4660.3, "v_design": 70, "design_gap": 20}}, {"type": "Feature", "geometry": {"type": "LineString", "coordinates": [[124.2442896, 7.1726328], [124.2444742, 7.1729785], [124.2446589, 7.1733243], [124.2448435, 7.17367], [124.2450281, 7.1740158], [124.2452128, 7.1743615]]}, "properties": {"city": "cotabato", "name": "Cotabato City East Diversion Road", "highway": "trunk", "v_posted": 70, "posted_imputed": false, "v_safe": 50, "gap": 20, "R": 3.84, "exposure": 0.0, "vru_150m": 0, "sss": 25.0, "recommended": 50, "fatal_reduction_pct": 74.0, "why": "undivided arterial, side-impact intersections", "pop_density": 0.0, "pop_density_peak": 0.0, "v_design": 70, "design_gap": 20}}, {"type": "Feature", "geometry": {"type": "LineString", "coordinates": [[124.2365765, 7.1566584], [124.2365869, 7.1570544], [124.2366117, 7.1577404], [124.2366137, 7.1582686], [124.236614, 7.1583367], [124.2366157, 7.1587903], [124.2366064, 7.1594237], [124.236601, 7.1596399], [124.2366051, 7.1597157], [124.2366178, 7.1597896], [124.2366365, 7.1598767], [124.236662, 7.1599819], [124.2366909, 7.1600769], [124.2367257, 7.1601595], [124.2368692, 7.1604855], [124.237012, 7.1607404], [124.2371327, 7.1609559], [124.2373534, 7.1613371], [124.2375579, 7.1616758], [124.2378885, 7.1621861], [124.2381594, 7.1626278], [124.2384047, 7.1630057], [124.2386542, 7.1633956], [124.238838, 7.1636737], [124.2390539, 7.1640183], [124.2393932, 7.1645559], [124.2396318, 7.1649139], [124.2399028, 7.1653849], [124.2402166, 7.1658772], [124.2409135, 7.1669564], [124.2413565, 7.1675259], [124.2416704, 7.1680116], [124.2418567, 7.1682923], [124.2421277, 7.1687408], [124.2424294, 7.1692517], [124.2426011, 7.1695258], [124.2431188, 7.1703694], [124.243387, 7.1708897], [124.2435881, 7.1712609], [124.2437008, 7.1714992], [124.2439918, 7.1720527], [124.2442896, 7.1726328]]}, "properties": {"city": "cotabato", "name": "Cotabato City East Diversion Road", "highway": "trunk", "v_posted": 70, "posted_imputed": false, "v_safe": 50, "gap": 20, "R": 3.84, "exposure": 0.0, "vru_150m": 0, "sss": 25.0, "recommended": 50, "fatal_reduction_pct": 74.0, "why": "undivided arterial, side-impact intersections", "pop_density": 0.0, "pop_density_peak": 0.0, "v_design": 70, "design_gap": 20}}, {"type": "Feature", "geometry": {"type": "LineString", "coordinates": [[124.2612612, 7.20535], [124.2613801, 7.2055793], [124.261499, 7.2058086], [124.2616179, 7.2060378]]}, "properties": {"city": "cotabato", "name": "Cotabato City East Diversion Road", "highway": "trunk", "v_posted": 70, "posted_imputed": false, "v_safe": 50, "gap": 20, "R": 3.84, "exposure": 0.0, "vru_150m": 0, "sss": 25.0, "recommended": 50, "fatal_reduction_pct": 74.0, "why": "undivided arterial, side-impact intersections", "pop_density": 0.0, "pop_density_peak": 0.0, "v_design": 70, "design_gap": 20}}, {"type": "Feature", "geometry": {"type": "LineString", "coordinates": [[124.2521645, 7.1899215], [124.2524515, 7.190279], [124.2526533, 7.1905405], [124.2527968, 7.1907141], [124.2529564, 7.1909163], [124.2531375, 7.1911379], [124.2533869, 7.1914339], [124.2535525, 7.1916269], [124.2535827, 7.1916621], [124.2537329, 7.191855], [124.2539549, 7.1921757], [124.2540166, 7.1922635], [124.254095, 7.1923873], [124.2541909, 7.1925476], [124.254315, 7.1927665], [124.254435, 7.1930233], [124.2545832, 7.1933792], [124.2547642, 7.193805], [124.2549795, 7.1943092], [124.2551612, 7.1947344], [124.2553516, 7.1952007], [124.255577, 7.1957329], [124.2557017, 7.1960323], [124.255925, 7.1965665], [124.2560484, 7.1968293], [124.2561241, 7.1969683], [124.2562267, 7.197132], [124.2563669, 7.1973588], [124.2564621, 7.1974932], [124.2566921, 7.1978046]]}, "properties": {"city": "cotabato", "name": "Cotabato City East Diversion Road", "highway": "trunk", "v_posted": 70, "posted_imputed": false, "v_safe": 50, "gap": 20, "R": 3.84, "exposure": 0.093, "vru_150m": 0, "sss": 27.3, "recommended": 50, "fatal_reduction_pct": 74.0, "why": "undivided arterial, side-impact intersections", "pop_density": 3007.3, "pop_density_peak": 7930.6, "v_design": 70, "design_gap": 20}}, {"type": "Feature", "geometry": {"type": "LineString", "coordinates": [[124.2518429, 7.1895171], [124.2521645, 7.1899215]]}, "properties": {"city": "cotabato", "name": "Cotabato City East Diversion Road", "highway": "trunk", "v_posted": 70, "posted_imputed": false, "v_safe": 50, "gap": 20, "R": 3.84, "exposure": 0.063, "vru_150m": 0, "sss": 26.6, "recommended": 50, "fatal_reduction_pct": 74.0, "why": "undivided arterial, side-impact intersections", "pop_density": 2028.1, "pop_density_peak": 2028.1, "v_design": 70, "design_gap": 20}}, {"type": "Feature", "geometry": {"type": "LineString", "coordinates": [[124.262315, 7.1745861], [124.2624535, 7.1748296], [124.262544, 7.174952], [124.2626808, 7.1751596], [124.2629953, 7.1755881], [124.2634995, 7.1763199], [124.2639099, 7.1768927], [124.2639649, 7.1769706], [124.263981, 7.1770085], [124.2639857, 7.1770457], [124.2639857, 7.177085], [124.2639749, 7.1771249], [124.2639562, 7.1771642], [124.2638938, 7.1772433], [124.2636725, 7.1774602], [124.2635679, 7.1775613], [124.2634841, 7.1776112], [124.2633761, 7.1776665], [124.2629296, 7.177894], [124.2625675, 7.1780577], [124.2622295, 7.1782093], [124.262035, 7.1783052], [124.2614932, 7.1786059], [124.2613725, 7.1786771], [124.2613035, 7.178725], [124.2612398, 7.1787662], [124.2611767, 7.1788068], [124.2611201, 7.1788447], [124.2610899, 7.1788697], [124.2610658, 7.1788909], [124.2610453, 7.1789152], [124.2610279, 7.1789462], [124.2610121, 7.1789781], [124.260997, 7.1790192], [124.2609836, 7.1790802], [124.2609783, 7.1791201], [124.2609769, 7.1791481], [124.2609722, 7.1794115], [124.2609528, 7.1801334], [124.2609528, 7.1806177], [124.2609588, 7.1807415], [124.2609648, 7.1808339], [124.2609749, 7.1809603], [124.2610024, 7.1813356], [124.2610285, 7.181627], [124.2610574, 7.1820361], [124.2610949, 7.1824127], [124.2611258, 7.1828411], [124.2612277, 7.1836894], [124.2612807, 7.1841371], [124.2613142, 7.1845237], [124.2613551, 7.1849414], [124.2613927, 7.1853399], [124.2614155, 7.1855542], [124.2614128, 7.1856992], [124.2614074, 7.185787], [124.2613792, 7.1858895], [124.2613296, 7.185968], [124.2612585, 7.1860412], [124.2611673, 7.186113], [124.2610788, 7.1861795], [124.2603868, 7.186749], [124.2601669, 7.1869247], [124.2598477, 7.1871775], [124.2594427, 7.1874675], [124.2592308, 7.1876458], [124.2590377, 7.1877869], [124.2588741, 7.1878986], [124.2587426, 7.1879652], [124.2586112, 7.1880131], [124.2583416, 7.1881115], [124.2579474, 7.1882486], [124.2578696, 7.1882818], [124.2577194, 7.188367], [124.2575155, 7.1884934], [124.2573184, 7.1886517], [124.2570032, 7.1889777], [124.2567672, 7.1892611], [124.2565566, 7.1895286], [124.2563783, 7.1897415], [124.2561597, 7.1899743], [124.2557828, 7.1903934], [124.2555602, 7.190621], [124.2554583, 7.1907074], [124.2552906, 7.1908338], [124.2550559, 7.1909895], [124.2547931, 7.1911625], [124.2544471, 7.1913927], [124.2540796, 7.1916322], [124.2537329, 7.191855]]}, "properties": {"city": "cotabato", "name": "", "highway": "tertiary", "v_posted": 80, "posted_imputed": false, "v_safe": 50, "gap": 30, "R": 6.55, "exposure": 0.0, "vru_150m": 0, "sss": 37.5, "recommended": 50, "fatal_reduction_pct": 84.7, "why": "undivided arterial, side-impact intersections", "pop_density": 0.0, "pop_density_peak": 0.0, "v_design": 40, "design_gap": -10}}, {"type": "Feature", "geometry": {"type": "LineString", "coordinates": [[124.2618142, 7.2309489], [124.2618989, 7.2310607], [124.261994, 7.2312504], [124.2620676, 7.2314632], [124.262212, 7.2319407], [124.2623592, 7.2324145], [124.2627534, 7.2336393], [124.2627723, 7.2337024], [124.2629764, 7.23438], [124.2629974, 7.2344454], [124.2630612, 7.2346433], [124.2632175, 7.2352129], [124.2632461, 7.2353051], [124.2632734, 7.2353936], [124.2634641, 7.2360183], [124.2635158, 7.2361746], [124.2635834, 7.2363798], [124.2640577, 7.237802], [124.2644588, 7.2392197], [124.2644778, 7.239315], [124.2645674, 7.2397725], [124.2646522, 7.2403793], [124.2647265, 7.240741], [124.264787, 7.2409957], [124.2648472, 7.2411953], [124.2649037, 7.2413496], [124.2651109, 7.241762], [124.2654482, 7.2424512], [124.2656976, 7.243002], [124.2659068, 7.2436405], [124.2660677, 7.2441567], [124.2665452, 7.2456694], [124.2668161, 7.2465355], [124.2668986, 7.2468007], [124.2669609, 7.2470011], [124.2670441, 7.247339], [124.2670789, 7.247653], [124.2670883, 7.2478672], [124.2670789, 7.248414], [124.2670293, 7.2492016], [124.2669947, 7.2496451], [124.2668912, 7.2506996], [124.2668584, 7.2510908], [124.2668304, 7.2514241], [124.2668134, 7.2516628], [124.2668228, 7.2519422], [124.2668322, 7.25201], [124.2669132, 7.2523426]]}, "properties": {"city": "cotabato", "name": "Narciso Ramos Highway", "highway": "primary", "v_posted": 80, "posted_imputed": false, "v_safe": 50, "gap": 30, "R": 6.55, "exposure": 0.02, "vru_150m": 0, "sss": 38.3, "recommended": 50, "fatal_reduction_pct": 84.7, "why": "undivided arterial, side-impact intersections", "pop_density": 648.6, "pop_density_peak": 959.8, "v_design": 60, "design_gap": 10}}, {"type": "Feature", "geometry": {"type": "LineString", "coordinates": [[124.2527914, 7.2229274], [124.2525243, 7.2224248], [124.2524092, 7.2222222], [124.2522711, 7.2219668], [124.2521827, 7.2218168], [124.2520554, 7.221643], [124.2519484, 7.2215094], [124.2518341, 7.2214027], [124.2517063, 7.2213038], [124.2516219, 7.2212428], [124.2515855, 7.2212165], [124.2513588, 7.2210794], [124.2511061, 7.2209473], [124.2509208, 7.2208826], [124.2507407, 7.2208514], [124.2505531, 7.2208341], [124.2502854, 7.2208384], [124.2499902, 7.2208644], [124.2496419, 7.2209141], [124.2493343, 7.2209697], [124.2490869, 7.2210192], [124.2487587, 7.2210848], [124.248475, 7.2211416], [124.2484042, 7.2211559], [124.2480669, 7.2212239], [124.2477661, 7.2212845], [124.247472, 7.2213437], [124.2471769, 7.2214032], [124.2469659, 7.2214457], [124.246763, 7.2214866], [124.2465412, 7.2215313], [124.2462371, 7.2215926]]}, "properties": {"city": "cotabato", "name": "Quezon Avenue", "highway": "secondary", "v_posted": 40, "posted_imputed": false, "v_safe": 30, "gap": 10, "R": 3.16, "exposure": 1.0, "vru_150m": 3, "sss": 25.0, "recommended": 30, "fatal_reduction_pct": 68.4, "why": "pedestrian activity (1 VRU site<=50m)", "pop_density": 58361.0, "pop_density_peak": 149661.0, "v_design": 45, "design_gap": 15}}, {"type": "Feature", "geometry": {"type": "LineString", "coordinates": [[124.2425549, 7.2246964], [124.2427292, 7.2246479], [124.2429268, 7.2245886]]}, "properties": {"city": "cotabato", "name": "S. K. Pendatun Avenue", "highway": "unclassified", "v_posted": 40, "posted_imputed": false, "v_safe": 30, "gap": 10, "R": 3.16, "exposure": 0.671, "vru_150m": 1, "sss": 20.9, "recommended": 30, "fatal_reduction_pct": 68.4, "why": "local road, frontage/pedestrian mixing", "pop_density": 19036.1, "pop_density_peak": 21237.0, "v_design": 40, "design_gap": 10}}, {"type": "Feature", "geometry": {"type": "LineString", "coordinates": [[124.2532496, 7.213348], [124.2536287, 7.2130666]]}, "properties": {"city": "cotabato", "name": "", "highway": "unclassified", "v_posted": 40, "posted_imputed": false, "v_safe": 30, "gap": 10, "R": 3.16, "exposure": 0.463, "vru_150m": 0, "sss": 18.3, "recommended": 30, "fatal_reduction_pct": 68.4, "why": "local road, frontage/pedestrian mixing", "pop_density": 14964.1, "pop_density_peak": 14964.1, "v_design": 40, "design_gap": 10}}, {"type": "Feature", "geometry": {"type": "LineString", "coordinates": [[124.2536287, 7.2130666], [124.2536122, 7.2129684], [124.2535888, 7.2128899], [124.2535089, 7.2126683], [124.2534184, 7.2123857], [124.2533272, 7.2121555], [124.2531984, 7.2118714], [124.253028, 7.2115405], [124.2527607, 7.2110627], [124.2525754, 7.2107271], [124.2523476, 7.2103522]]}, "properties": {"city": "cotabato", "name": "Datu Liwa Candao Street", "highway": "unclassified", "v_posted": 40, "posted_imputed": false, "v_safe": 30, "gap": 10, "R": 3.16, "exposure": 0.296, "vru_150m": 0, "sss": 16.2, "recommended": 30, "fatal_reduction_pct": 68.4, "why": "local road, frontage/pedestrian mixing", "pop_density": 9571.0, "pop_density_peak": 14964.1, "v_design": 40, "design_gap": 10}}, {"type": "Feature", "geometry": {"type": "LineString", "coordinates": [[124.2425549, 7.2246964], [124.2425743, 7.2259293], [124.2425796, 7.2260177], [124.2425883, 7.2260895], [124.2426051, 7.2261627], [124.2426286, 7.2262379], [124.2426608, 7.2263297], [124.2427619, 7.2265914]]}, "properties": {"city": "cotabato", "name": "", "highway": "unclassified", "v_posted": 40, "posted_imputed": false, "v_safe": 30, "gap": 10, "R": 3.16, "exposure": 0.757, "vru_150m": 3, "sss": 22.0, "recommended": 30, "fatal_reduction_pct": 68.4, "why": "local road, frontage/pedestrian mixing", "pop_density": 12674.3, "pop_density_peak": 21237.0, "v_design": 40, "design_gap": 10}}, {"type": "Feature", "geometry": {"type": "LineString", "coordinates": [[124.2577564, 7.2199694], [124.2571042, 7.2202557], [124.2565397, 7.2204934], [124.2560775, 7.2206683], [124.2558396, 7.2207461], [124.2556196, 7.2208199], [124.255419, 7.2209098], [124.2549084, 7.2211389], [124.2545912, 7.2212886], [124.254277, 7.2214406]]}, "properties": {"city": "cotabato", "name": "Buliao I Road", "highway": "unclassified", "v_posted": 40, "posted_imputed": false, "v_safe": 30, "gap": 10, "R": 3.16, "exposure": 0.247, "vru_150m": 0, "sss": 15.6, "recommended": 30, "fatal_reduction_pct": 68.4, "why": "local road, frontage/pedestrian mixing", "pop_density": 7977.0, "pop_density_peak": 11338.1, "v_design": 40, "design_gap": 10}}, {"type": "Feature", "geometry": {"type": "LineString", "coordinates": [[124.254444, 7.2169192], [124.2531714, 7.2178085], [124.252295, 7.2184093], [124.2522552, 7.2184374], [124.2515614, 7.2189273], [124.251271, 7.2191325]]}, "properties": {"city": "cotabato", "name": "Do\u00f1a Theresa Street", "highway": "unclassified", "v_posted": 40, "posted_imputed": false, "v_safe": 30, "gap": 10, "R": 3.16, "exposure": 1.0, "vru_150m": 2, "sss": 25.0, "recommended": 30, "fatal_reduction_pct": 68.4, "why": "pedestrian activity (1 VRU site<=50m)", "pop_density": 113018.6, "pop_density_peak": 130068.2, "v_design": 40, "design_gap": 10}}, {"type": "Feature", "geometry": {"type": "LineString", "coordinates": [[124.2302093, 7.2347408], [124.2307229, 7.2345246], [124.2309174, 7.2344368], [124.2310971, 7.2343317], [124.2312715, 7.2342173], [124.231651, 7.2339312], [124.2319044, 7.2337569], [124.23228, 7.2334921], [124.2325898, 7.2332992], [124.2326997, 7.2332247], [124.232803, 7.2331542], [124.232925, 7.2330451], [124.2330658, 7.2329187], [124.2332482, 7.2327524], [124.2334387, 7.2325848], [124.2335715, 7.2324651], [124.2336772, 7.2323741], [124.2337465, 7.232318], [124.2338055, 7.2322747], [124.2338591, 7.2322402], [124.2339235, 7.2322042], [124.2340368, 7.2321577], [124.2341327, 7.2321225], [124.234195, 7.2320932], [124.2342541, 7.2320566], [124.2343117, 7.2320127], [124.2345028, 7.2318417], [124.2346819, 7.2316814], [124.2348546, 7.2315294], [124.2350171, 7.2313907], [124.2351848, 7.2312477], [124.2353791, 7.2310972], [124.2355746, 7.2309422], [124.2356944, 7.2308472], [124.2359574, 7.230636], [124.2362557, 7.2304049], [124.2364756, 7.2302466], [124.2367241, 7.2300783], [124.2369054, 7.2299525], [124.2372144, 7.2297455]]}, "properties": {"city": "cotabato", "name": "Kalanganan Road", "highway": "secondary", "v_posted": 40, "posted_imputed": false, "v_safe": 30, "gap": 10, "R": 3.16, "exposure": 0.359, "vru_150m": 1, "sss": 17.0, "recommended": 30, "fatal_reduction_pct": 68.4, "why": "pedestrian activity (1 VRU site<=50m)", "pop_density": 6443.7, "pop_density_peak": 14362.7, "v_design": 50, "design_gap": 20}}, {"type": "Feature", "geometry": {"type": "LineString", "coordinates": [[124.2538935, 7.2206971], [124.254277, 7.2214406], [124.2545134, 7.2218989], [124.2546495, 7.2221628], [124.2546601, 7.2221834]]}, "properties": {"city": "cotabato", "name": "Do\u00f1a Blanca Street", "highway": "unclassified", "v_posted": 40, "posted_imputed": false, "v_safe": 30, "gap": 10, "R": 3.16, "exposure": 0.404, "vru_150m": 1, "sss": 17.5, "recommended": 30, "fatal_reduction_pct": 68.4, "why": "local road, frontage/pedestrian mixing", "pop_density": 8246.3, "pop_density_peak": 23132.9, "v_design": 40, "design_gap": 10}}, {"type": "Feature", "geometry": {"type": "LineString", "coordinates": [[124.2501973, 7.2175599], [124.2499068, 7.2177675], [124.2496364, 7.2179607], [124.249415, 7.218119], [124.2492605, 7.2182294], [124.2489839, 7.2184266], [124.248818, 7.2185532], [124.2486945, 7.2186444], [124.2486329, 7.2186836], [124.2485149, 7.2187381], [124.2483687, 7.2187899], [124.2481761, 7.2188439], [124.2479722, 7.2188931], [124.2477568, 7.2189419], [124.2473816, 7.2190267]]}, "properties": {"city": "cotabato", "name": "Notre Dame Avenue", "highway": "primary", "v_posted": 40, "posted_imputed": false, "v_safe": 30, "gap": 10, "R": 3.16, "exposure": 1.0, "vru_150m": 1, "sss": 25.0, "recommended": 30, "fatal_reduction_pct": 68.4, "why": "pedestrian activity (1 VRU site<=50m)", "pop_density": 47913.0, "pop_density_peak": 62030.0, "v_design": 60, "design_gap": 30}}, {"type": "Feature", "geometry": {"type": "LineString", "coordinates": [[124.2537236, 7.2225855], [124.2533795, 7.2218944], [124.2529795, 7.221091]]}, "properties": {"city": "cotabato", "name": "Tomas Martinez Street", "highway": "unclassified", "v_posted": 40, "posted_imputed": false, "v_safe": 30, "gap": 10, "R": 3.16, "exposure": 0.456, "vru_150m": 1, "sss": 18.2, "recommended": 30, "fatal_reduction_pct": 68.4, "why": "local road, frontage/pedestrian mixing", "pop_density": 10351.4, "pop_density_peak": 19863.7, "v_design": 40, "design_gap": 10}}, {"type": "Feature", "geometry": {"type": "LineString", "coordinates": [[124.2539392, 7.2161546], [124.2534797, 7.2164769], [124.2530879, 7.2167518], [124.2526441, 7.2170669], [124.2517764, 7.2176775], [124.2515836, 7.2178132], [124.2507789, 7.218373]]}, "properties": {"city": "cotabato", "name": "Don Cesar Street", "highway": "unclassified", "v_posted": 40, "posted_imputed": false, "v_safe": 30, "gap": 10, "R": 3.16, "exposure": 1.0, "vru_150m": 2, "sss": 25.0, "recommended": 30, "fatal_reduction_pct": 68.4, "why": "local road, frontage/pedestrian mixing", "pop_density": 59983.4, "pop_density_peak": 67943.6, "v_design": 40, "design_gap": 10}}, {"type": "Feature", "geometry": {"type": "LineString", "coordinates": [[124.2429268, 7.2245886], [124.2431174, 7.2245256]]}, "properties": {"city": "cotabato", "name": "S. K. Pendatun Avenue", "highway": "unclassified", "v_posted": 40, "posted_imputed": false, "v_safe": 30, "gap": 10, "R": 3.16, "exposure": 0.712, "vru_150m": 2, "sss": 21.4, "recommended": 30, "fatal_reduction_pct": 68.4, "why": "local road, frontage/pedestrian mixing", "pop_density": 16835.2, "pop_density_peak": 16835.2, "v_design": 40, "design_gap": 10}}, {"type": "Feature", "geometry": {"type": "LineString", "coordinates": [[124.2517764, 7.2176775], [124.252295, 7.2184093]]}, "properties": {"city": "cotabato", "name": "Don Tomas Vilo Street", "highway": "residential", "v_posted": 40, "posted_imputed": false, "v_safe": 30, "gap": 10, "R": 3.16, "exposure": 1.0, "vru_150m": 2, "sss": 25.0, "recommended": 30, "fatal_reduction_pct": 68.4, "why": "pedestrian activity (1 VRU site<=50m)", "pop_density": 77047.6, "pop_density_peak": 83944.3, "v_design": 35, "design_gap": 5}}, {"type": "Feature", "geometry": {"type": "LineString", "coordinates": [[124.2533795, 7.2218944], [124.2531831, 7.2219725], [124.2530228, 7.2220303], [124.2528203, 7.2220982], [124.2524092, 7.2222222]]}, "properties": {"city": "cotabato", "name": "Don Rufino Alonzo Street", "highway": "unclassified", "v_posted": 40, "posted_imputed": false, "v_safe": 30, "gap": 10, "R": 3.16, "exposure": 0.547, "vru_150m": 1, "sss": 19.3, "recommended": 30, "fatal_reduction_pct": 68.4, "why": "local road, frontage/pedestrian mixing", "pop_density": 14019.3, "pop_density_peak": 24292.2, "v_design": 40, "design_gap": 10}}, {"type": "Feature", "geometry": {"type": "LineString", "coordinates": [[124.2616179, 7.2060378], [124.2618258, 7.2064437], [124.2618573, 7.2064969], [124.2618899, 7.2065458], [124.2619472, 7.2066293], [124.2620203, 7.2067211], [124.2621115, 7.2068182], [124.2622355, 7.2069293], [124.2624514, 7.2071042], [124.2626198, 7.207226], [124.2628055, 7.2073617], [124.2628994, 7.2074402], [124.2629678, 7.2075028], [124.263057, 7.2076039], [124.2636752, 7.2085046], [124.2644155, 7.2095411], [124.2644584, 7.2096203], [124.2644899, 7.2096921], [124.2645154, 7.2097626], [124.2645315, 7.2098305], [124.2645858, 7.2101065], [124.2646274, 7.2103261], [124.2647427, 7.2108649], [124.264905, 7.21161], [124.2649137, 7.2116459], [124.2650042, 7.2120278], [124.2651088, 7.2125932], [124.2651866, 7.2131161], [124.2652698, 7.2137042], [124.2653114, 7.2139317], [124.2654133, 7.2144107], [124.2657231, 7.2160194], [124.2659159, 7.2170209], [124.2660758, 7.2178572], [124.2661871, 7.2184314], [124.2662716, 7.2188412], [124.2663789, 7.2192749], [124.2665237, 7.2198151], [124.266642, 7.220281], [124.2668563, 7.2211256], [124.2669059, 7.2212839], [124.2669623, 7.2214489], [124.267018, 7.2216012], [124.2670876, 7.2217689]]}, "properties": {"city": "cotabato", "name": "Cotabato City East Diversion Road", "highway": "trunk", "v_posted": 70, "posted_imputed": false, "v_safe": 50, "gap": 20, "R": 3.84, "exposure": 0.0, "vru_150m": 0, "sss": 25.0, "recommended": 50, "fatal_reduction_pct": 74.0, "why": "undivided arterial, side-impact intersections", "pop_density": 0.0, "pop_density_peak": 0.0, "v_design": 70, "design_gap": 20}}, {"type": "Feature", "geometry": {"type": "LineString", "coordinates": [[124.2537236, 7.2225855], [124.2537698, 7.2226031], [124.253804, 7.2226091], [124.2538369, 7.2226051], [124.2538791, 7.2225903], [124.2546601, 7.2221834]]}, "properties": {"city": "cotabato", "name": "Jose Lim Sr. Avenue", "highway": "unclassified", "v_posted": 40, "posted_imputed": false, "v_safe": 30, "gap": 10, "R": 3.16, "exposure": 0.22, "vru_150m": 1, "sss": 15.2, "recommended": 30, "fatal_reduction_pct": 68.4, "why": "local road, frontage/pedestrian mixing", "pop_density": 803.0, "pop_density_peak": 839.0, "v_design": 40, "design_gap": 10}}, {"type": "Feature", "geometry": {"type": "LineString", "coordinates": [[124.2431174, 7.2245256], [124.2433728, 7.224435], [124.2436713, 7.2243291], [124.2439646, 7.224225]]}, "properties": {"city": "cotabato", "name": "S. K. Pendatun Avenue", "highway": "unclassified", "v_posted": 40, "posted_imputed": false, "v_safe": 30, "gap": 10, "R": 3.16, "exposure": 0.741, "vru_150m": 2, "sss": 21.8, "recommended": 30, "fatal_reduction_pct": 68.4, "why": "local road, frontage/pedestrian mixing", "pop_density": 18405.3, "pop_density_peak": 19975.4, "v_design": 40, "design_gap": 10}}, {"type": "Feature", "geometry": {"type": "LineString", "coordinates": [[124.2576904, 7.2186061], [124.2571956, 7.218895]]}, "properties": {"city": "cotabato", "name": "S. K. Pendatun Extension", "highway": "unclassified", "v_posted": 40, "posted_imputed": false, "v_safe": 30, "gap": 10, "R": 3.16, "exposure": 1.0, "vru_150m": 0, "sss": 25.0, "recommended": 30, "fatal_reduction_pct": 68.4, "why": "local road, frontage/pedestrian mixing", "pop_density": 39160.5, "pop_density_peak": 39160.5, "v_design": 40, "design_gap": 10}}, {"type": "Feature", "geometry": {"type": "LineString", "coordinates": [[124.2586239, 7.2195132], [124.2578647, 7.2199095], [124.2577564, 7.2199694]]}, "properties": {"city": "cotabato", "name": "", "highway": "unclassified", "v_posted": 40, "posted_imputed": false, "v_safe": 30, "gap": 10, "R": 3.16, "exposure": 0.289, "vru_150m": 1, "sss": 16.1, "recommended": 30, "fatal_reduction_pct": 68.4, "why": "local road, frontage/pedestrian mixing", "pop_density": 3595.0, "pop_density_peak": 6178.0, "v_design": 40, "design_gap": 10}}, {"type": "Feature", "geometry": {"type": "LineString", "coordinates": [[124.2527914, 7.2229274], [124.2537236, 7.2225855]]}, "properties": {"city": "cotabato", "name": "Jose Lim Sr. Avenue", "highway": "unclassified", "v_posted": 40, "posted_imputed": false, "v_safe": 30, "gap": 10, "R": 3.16, "exposure": 0.222, "vru_150m": 1, "sss": 15.3, "recommended": 30, "fatal_reduction_pct": 68.4, "why": "local road, frontage/pedestrian mixing", "pop_density": 879.4, "pop_density_peak": 919.8, "v_design": 40, "design_gap": 10}}, {"type": "Feature", "geometry": {"type": "LineString", "coordinates": [[124.2532496, 7.213348], [124.2535706, 7.2140952], [124.2538165, 7.2147099], [124.2539285, 7.2149899]]}, "properties": {"city": "cotabato", "name": "", "highway": "unclassified", "v_posted": 40, "posted_imputed": false, "v_safe": 30, "gap": 10, "R": 3.16, "exposure": 0.801, "vru_150m": 0, "sss": 22.5, "recommended": 30, "fatal_reduction_pct": 68.4, "why": "local road, frontage/pedestrian mixing", "pop_density": 25897.2, "pop_density_peak": 31363.8, "v_design": 40, "design_gap": 10}}, {"type": "Feature", "geometry": {"type": "LineString", "coordinates": [[124.2535124, 7.2152873], [124.2539285, 7.2149899]]}, "properties": {"city": "cotabato", "name": "Notre Dame Extension", "highway": "unclassified", "v_posted": 40, "posted_imputed": false, "v_safe": 30, "gap": 10, "R": 3.16, "exposure": 1.0, "vru_150m": 0, "sss": 25.0, "recommended": 30, "fatal_reduction_pct": 68.4, "why": "local road, frontage/pedestrian mixing", "pop_density": 40050.0, "pop_density_peak": 48736.3, "v_design": 40, "design_gap": 10}}, {"type": "Feature", "geometry": {"type": "LineString", "coordinates": [[124.2425293, 7.2233366], [124.2425549, 7.2246964]]}, "properties": {"city": "cotabato", "name": "", "highway": "residential", "v_posted": 40, "posted_imputed": false, "v_safe": 30, "gap": 10, "R": 3.16, "exposure": 0.733, "vru_150m": 1, "sss": 21.7, "recommended": 30, "fatal_reduction_pct": 68.4, "why": "local road, frontage/pedestrian mixing", "pop_density": 21530.0, "pop_density_peak": 21822.9, "v_design": 35, "design_gap": 5}}, {"type": "Feature", "geometry": {"type": "LineString", "coordinates": [[124.3816569, 7.2327369], [124.3811345, 7.2327353], [124.3805711, 7.2327342], [124.3798605, 7.2327379], [124.3789847, 7.2327424], [124.3775336, 7.232773], [124.3765788, 7.2328056], [124.375589, 7.2328482], [124.375408, 7.2328535], [124.3752269, 7.2328416], [124.3750767, 7.2328209], [124.3749423, 7.23278], [124.3748246, 7.2327032], [124.3747576, 7.2326407], [124.3746646, 7.2325391], [124.3745953, 7.2324391], [124.3742399, 7.2319269], [124.3737034, 7.2311446], [124.372536, 7.2294017], [124.3717186, 7.2282063], [124.3710685, 7.2272427], [124.3708576, 7.2269384], [124.370698, 7.2267761], [124.3706223, 7.2267155], [124.370517, 7.2266643], [124.3704365, 7.2266384], [124.3703641, 7.2266264], [124.3702856, 7.2266244], [124.3700945, 7.2266523], [124.3696989, 7.2267668], [124.3692403, 7.2269104], [124.3691102, 7.226957], [124.3689412, 7.2269969], [124.3686797, 7.2270195], [124.3685717, 7.2270195], [124.3684503, 7.2270022], [124.3683283, 7.2269517], [124.3682418, 7.2269071], [124.3681526, 7.2268426], [124.368044, 7.2267521], [124.3678777, 7.2265845], [124.3677597, 7.2264248], [124.3676591, 7.2262745], [124.3675397, 7.2260736], [124.3672056, 7.2254049], [124.3667284, 7.2244025], [124.3659243, 7.2227183], [124.3653256, 7.2216086], [124.3646215, 7.2204271], [124.364529, 7.2202688], [124.3644793, 7.2201956], [124.3644163, 7.2201371], [124.3643707, 7.2201105], [124.3642648, 7.2200732], [124.3641816, 7.2200453], [124.3640998, 7.2200373], [124.3639536, 7.2200426], [124.3635929, 7.2200799], [124.3631449, 7.2201118], [124.3624945, 7.220161], [124.3621083, 7.220169], [124.3618776, 7.2201584], [124.3616804, 7.2201264], [124.3613559, 7.2200612], [124.3609844, 7.2199708], [124.3607604, 7.2199136], [124.3605861, 7.2198763], [124.3603434, 7.2198377], [124.3598606, 7.2197592], [124.3593214, 7.2196674], [124.3591069, 7.2196328], [124.3588132, 7.2195902], [124.3584001, 7.2194905], [124.3582016, 7.2194359], [124.3580461, 7.2194106], [124.3579026, 7.2194027], [124.3577872, 7.2194133], [124.3576893, 7.2194226], [124.3575297, 7.2194559], [124.3571797, 7.2195703], [124.3563133, 7.2198377], [124.3558498, 7.2199868], [124.3557715, 7.220012], [124.3551533, 7.2202236], [124.3547164, 7.2203299], [124.354073, 7.220457], [124.3529405, 7.2206879], [124.352345, 7.2208063], [124.3514815, 7.2209406], [124.3510857, 7.2210099], [124.3499485, 7.2212227], [124.3496051, 7.2212786], [124.3488193, 7.2213904], [124.3486047, 7.221425], [124.3484384, 7.2214702], [124.3483418, 7.2215314], [124.3478483, 7.2219917], [124.3475801, 7.2222685], [124.3473279, 7.2225213], [124.3470973, 7.2226996], [124.3468505, 7.2228472], [124.345913, 7.2233063], [124.3455322, 7.2235058], [124.3453123, 7.2235989], [124.3452472, 7.2236176], [124.3451621, 7.2236269], [124.3450896, 7.2236236], [124.3450199, 7.2236069], [124.3449676, 7.2235903], [124.3448771, 7.2235337], [124.3445599, 7.2233169], [124.3444727, 7.2232903], [124.3443722, 7.2232863], [124.3442796, 7.2233142], [124.344179, 7.2233728], [124.3441187, 7.2234353], [124.3440476, 7.2235298], [124.3434682, 7.2241883], [124.3432952, 7.2243507], [124.3431719, 7.2244531], [124.3430976, 7.2245042], [124.3429063, 7.2246247], [124.3427387, 7.2247684], [124.3424826, 7.2249639], [124.3419032, 7.2255601], [124.3415371, 7.2259206], [124.3408638, 7.2265725], [124.3406881, 7.2267002], [124.3405996, 7.2267495], [124.340487, 7.2267841], [124.3403582, 7.2268013], [124.3402483, 7.2268], [124.3396381, 7.2266976], [124.3395187, 7.2266883], [124.3394235, 7.2266949], [124.3393323, 7.2267202], [124.3392196, 7.2267841], [124.3389662, 7.2269903], [124.3388213, 7.2271127], [124.3387637, 7.2271459], [124.3386792, 7.2271632], [124.3385652, 7.2271699], [124.3380649, 7.2272218], [124.337106, 7.2273109], [124.3361217, 7.2274014], [124.3345928, 7.2275358], [124.3340202, 7.2275797], [124.3335682, 7.2276156], [124.3332142, 7.2276422], [124.3326091, 7.2277016], [124.3316142, 7.2277992], [124.3304877, 7.2278976], [124.3296911, 7.2279682], [124.3290721, 7.2280157], [124.3290326, 7.2280187], [124.3281086, 7.2281158], [124.3273884, 7.228173], [124.3268345, 7.2282249], [124.3262243, 7.2282914], [124.3258461, 7.2283314], [124.3255202, 7.2283407], [124.3251903, 7.228322], [124.3247692, 7.2282662], [124.3246445, 7.2282342], [124.3244286, 7.228169], [124.3235944, 7.227887], [124.3233035, 7.2277866], [124.3223834, 7.2274692], [124.3213481, 7.2270954], [124.3203677, 7.2267641], [124.3192627, 7.2263663], [124.3188027, 7.2261947], [124.3184942, 7.2261308], [124.3182421, 7.2260975], [124.3180436, 7.2260763], [124.3177874, 7.2260763], [124.3175246, 7.2261029], [124.317255, 7.2261627], [124.3168178, 7.2263224], [124.3161312, 7.2265778], [124.3154512, 7.2268413], [124.3148102, 7.2270821], [124.314369, 7.2272337], [124.3128884, 7.2277819], [124.3118611, 7.2282023], [124.3110055, 7.2285243], [124.310064, 7.2289899], [124.3094042, 7.2293465], [124.309136, 7.2294928], [124.3088088, 7.2297057], [124.3085834, 7.2298574], [124.3083863, 7.2299692], [124.308224, 7.2300317], [124.308055, 7.230077], [124.307819, 7.2301155], [124.3073711, 7.2301714], [124.3072316, 7.23019], [124.3069178, 7.2302352], [124.3066791, 7.2302964], [124.3064404, 7.2303975], [124.3061346, 7.2305944], [124.3057685, 7.2308379], [124.305582, 7.2309829], [124.305452, 7.231116], [124.3052924, 7.2312889], [124.305118, 7.2314912], [124.3045494, 7.2322947], [124.303852, 7.2331542], [124.3034497, 7.2336225], [124.3033236, 7.2337476], [124.3031815, 7.2338434], [124.3029776, 7.2339046], [124.302696, 7.2339711], [124.3022239, 7.2340536], [124.3016875, 7.234176], [124.3011162, 7.2342824], [124.3007836, 7.2343596], [124.300459, 7.2344953], [124.3001506, 7.2346709], [124.2996195, 7.2350567], [124.2992735, 7.2353175], [124.2987987, 7.2358071], [124.298383, 7.236302], [124.2981175, 7.2366133], [124.2979552, 7.2367823], [124.2978895, 7.2368355], [124.2977862, 7.2368754], [124.2976896, 7.2369033], [124.2975596, 7.2369233], [124.2974362, 7.2369366], [124.2970902, 7.2369566], [124.2968179, 7.2369566], [124.2965846, 7.2369499], [124.2963459, 7.2369313], [124.2960978, 7.2368767], [124.2958389, 7.2368115], [124.2954795, 7.2366732], [124.2952126, 7.2365667], [124.2949766, 7.236463], [124.294758, 7.2363885], [124.294589, 7.2363339], [124.2943838, 7.236282], [124.2940901, 7.2362275], [124.2938595, 7.2361929], [124.293602, 7.2361743], [124.2933726, 7.2361636], [124.2931272, 7.2361703], [124.2929783, 7.2361849], [124.2927892, 7.2362208], [124.2924727, 7.2362953], [124.2918612, 7.2364457], [124.2912, 7.2366093], [124.2905402, 7.236761], [124.2894392, 7.2370191], [124.289309, 7.2370464], [124.288609, 7.2371934], [124.2877936, 7.2373623], [124.2872305, 7.2374608], [124.2864029, 7.2376258], [124.2859536, 7.2377003], [124.2857027, 7.23773], [124.2855419, 7.2377389], [124.2853555, 7.2377402], [124.2851785, 7.2377282], [124.2850196, 7.2377102], [124.2848727, 7.237683], [124.2847091, 7.2376431], [124.2845522, 7.2375978], [124.2840211, 7.2374422], [124.2838092, 7.237353], [124.2835075, 7.2371854], [124.2828865, 7.2368195], [124.2825901, 7.2366572], [124.2823836, 7.2365801], [124.2818083, 7.2364324], [124.2813604, 7.236302], [124.2806375, 7.2360452], [124.2797101, 7.2356873], [124.2796035, 7.2356268], [124.2795391, 7.2355882], [124.279497, 7.2355728], [124.2794406, 7.2355523], [124.279004, 7.2354239], [124.2787212, 7.2353631], [124.2784233, 7.2353002], [124.2779995, 7.2352297], [124.2778668, 7.2352124], [124.2777193, 7.2351765], [124.277506, 7.2350993], [124.277384, 7.2350301], [124.2772901, 7.2349702], [124.2770621, 7.2347827], [124.276645, 7.2345152], [124.2765176, 7.2344753], [124.2763621, 7.234462], [124.2761756, 7.234486], [124.275957, 7.2345485], [124.2753937, 7.2348511], [124.2748344, 7.235147], [124.2746754, 7.2352502], [124.2745587, 7.2353742], [124.2743079, 7.2357338]]}, "properties": {"city": "cotabato", "name": "", "highway": "secondary", "v_posted": 80, "posted_imputed": false, "v_safe": 50, "gap": 30, "R": 6.55, "exposure": 0.0, "vru_150m": 0, "sss": 37.5, "recommended": 50, "fatal_reduction_pct": 84.7, "why": "undivided arterial, side-impact intersections", "pop_density": 0.0, "pop_density_peak": 0.0, "v_design": 45, "design_gap": -5}}, {"type": "Feature", "geometry": {"type": "LineString", "coordinates": [[124.2743079, 7.2357338], [124.2744588, 7.236051], [124.2745849, 7.2363603], [124.2746937, 7.2366293], [124.2747688, 7.2367903], [124.2748412, 7.2369033], [124.2749137, 7.2369818], [124.2750873, 7.2371434], [124.2752369, 7.2372825], [124.2755312, 7.2375189], [124.2762749, 7.2381473], [124.2769361, 7.2387779], [124.2770085, 7.2388551], [124.2770594, 7.2389322], [124.277164, 7.2391331], [124.2772552, 7.2393274], [124.2774644, 7.2397158], [124.2775409, 7.2398609], [124.2776388, 7.2400059], [124.2778145, 7.2402148], [124.2779218, 7.2403159], [124.278021, 7.2403941], [124.2789611, 7.2410276], [124.2791623, 7.2411926], [124.27957, 7.2415651], [124.2796987, 7.2417008], [124.2798785, 7.241943], [124.2800903, 7.2422729], [124.2802432, 7.2425204], [124.2804725, 7.2429155], [124.2806295, 7.2431644], [124.2807455, 7.2433376], [124.2808684, 7.2435536], [124.2809802, 7.2437462], [124.2810839, 7.243982], [124.2811927, 7.2442485], [124.2814717, 7.2451199], [124.2815736, 7.245386], [124.2816299, 7.2455373], [124.2817121, 7.2457169], [124.2818191, 7.2459184], [124.2820815, 7.2463741], [124.2824618, 7.2470855], [124.2828155, 7.2477861]]}, "properties": {"city": "cotabato", "name": "Cotabato City East Diversion Road", "highway": "trunk", "v_posted": 70, "posted_imputed": false, "v_safe": 50, "gap": 20, "R": 3.84, "exposure": 0.0, "vru_150m": 0, "sss": 25.0, "recommended": 50, "fatal_reduction_pct": 74.0, "why": "undivided arterial, side-impact intersections", "pop_density": 0.0, "pop_density_peak": 0.0, "v_design": 70, "design_gap": 20}}, {"type": "Feature", "geometry": {"type": "LineString", "coordinates": [[124.2678447, 7.223579], [124.2679829, 7.2239688], [124.2681196, 7.2242788], [124.2682725, 7.2246154], [124.2683946, 7.2248602], [124.2685273, 7.2250944], [124.2686346, 7.2252727], [124.2690168, 7.2258368], [124.2691898, 7.2260723], [124.2692985, 7.2262519], [124.2694071, 7.2264528], [124.2698309, 7.2273056], [124.2701648, 7.2279642], [124.2704786, 7.228515], [124.2708233, 7.2289686], [124.2709971, 7.2292414], [124.2710339, 7.2293212], [124.2711666, 7.229582], [124.2713812, 7.2300463], [124.2715622, 7.2304228], [124.2718189, 7.2308573], [124.2719968, 7.2311719], [124.2721787, 7.2315339], [124.2723669, 7.2319741], [124.2725169, 7.232386], [124.2726072, 7.2327115], [124.2726649, 7.2329936], [124.2726928, 7.2331938], [124.2726995, 7.2333911], [124.2726841, 7.2338973], [124.2726861, 7.2340283], [124.2726942, 7.2341048], [124.2727119, 7.2341643], [124.2727471, 7.2342185], [124.272788, 7.2342631], [124.2728611, 7.234329], [124.2729715, 7.2344092], [124.2730559, 7.2344705], [124.2732547, 7.234615], [124.273586, 7.2348891], [124.27372, 7.2350128], [124.2738867, 7.235188], [124.2739655, 7.2352709], [124.2741224, 7.2354535], [124.2742239, 7.2355918], [124.2743079, 7.2357338]]}, "properties": {"city": "cotabato", "name": "Cotabato City East Diversion Road", "highway": "trunk", "v_posted": 70, "posted_imputed": false, "v_safe": 50, "gap": 20, "R": 3.84, "exposure": 0.0, "vru_150m": 0, "sss": 25.0, "recommended": 50, "fatal_reduction_pct": 74.0, "why": "undivided arterial, side-impact intersections", "pop_density": 1.1, "pop_density_peak": 12.1, "v_design": 70, "design_gap": 20}}, {"type": "Feature", "geometry": {"type": "LineString", "coordinates": [[124.2670876, 7.2217689], [124.2672769, 7.2222214], [124.2674661, 7.2226739], [124.2676554, 7.2231265], [124.2678447, 7.223579]]}, "properties": {"city": "cotabato", "name": "Cotabato City East Diversion Road", "highway": "trunk", "v_posted": 70, "posted_imputed": false, "v_safe": 50, "gap": 20, "R": 3.84, "exposure": 0.0, "vru_150m": 0, "sss": 25.0, "recommended": 50, "fatal_reduction_pct": 74.0, "why": "undivided arterial, side-impact intersections", "pop_density": 0.0, "pop_density_peak": 0.0, "v_design": 70, "design_gap": 20}}, {"type": "Feature", "geometry": {"type": "LineString", "coordinates": [[124.1939565, 7.244619], [124.1941014, 7.2449191], [124.1942047, 7.2451372], [124.1943535, 7.2454759], [124.194434, 7.2456914], [124.19445, 7.2457811], [124.1944454, 7.2458696], [124.1944159, 7.2459654], [124.194084, 7.2468215], [124.1939981, 7.2471089], [124.1939338, 7.2474122], [124.19386, 7.2478113], [124.1938157, 7.2480082], [124.1937581, 7.2482091], [124.1937004, 7.2483768], [124.193459, 7.2489435], [124.1934362, 7.2490366], [124.1934282, 7.2491164], [124.1934389, 7.2491963], [124.1936253, 7.2498362], [124.1936957, 7.2500337], [124.193738, 7.2501255], [124.1937916, 7.2501881], [124.194096, 7.2504375], [124.1944474, 7.250689], [124.1946781, 7.250834], [124.1948108, 7.2508938], [124.1949275, 7.2509311], [124.1951005, 7.250971], [124.1955927, 7.2510255], [124.1961077, 7.2510947], [124.19651, 7.2511679], [124.1969164, 7.2512477], [124.1992388, 7.2517593]]}, "properties": {"city": "cotabato", "name": "Cotabato Coastal Road", "highway": "secondary", "v_posted": 80, "posted_imputed": false, "v_safe": 50, "gap": 30, "R": 6.55, "exposure": 0.02, "vru_150m": 0, "sss": 38.2, "recommended": 50, "fatal_reduction_pct": 84.7, "why": "undivided arterial, side-impact intersections", "pop_density": 643.7, "pop_density_peak": 4505.9, "v_design": 35, "design_gap": -15}}, {"type": "Feature", "geometry": {"type": "LineString", "coordinates": [[124.2997215, 7.2774454], [124.2996021, 7.2774188], [124.2995048, 7.2773829], [124.2993814, 7.2773264], [124.2992373, 7.2772333], [124.2990696, 7.2770976], [124.2988551, 7.2768954], [124.2985211, 7.2765801], [124.2983602, 7.2764018], [124.2982073, 7.2762289], [124.2980155, 7.276012], [124.2975321, 7.2754759], [124.2974033, 7.2753283], [124.2972417, 7.2751553], [124.2971411, 7.2750382], [124.2970204, 7.2749145], [124.2968729, 7.2747536], [124.2967227, 7.274554], [124.2965832, 7.2742773], [124.2964371, 7.2738263], [124.2963204, 7.2733794], [124.2962144, 7.2730561], [124.2961031, 7.2727115], [124.2960012, 7.2724308], [124.2959194, 7.2722486], [124.2958295, 7.2721395], [124.2957182, 7.2720384], [124.2954929, 7.2718721], [124.2950195, 7.2715422], [124.2944643, 7.2712136], [124.2939734, 7.270905], [124.2931141, 7.2703708], [124.2924219, 7.2699456], [124.2923353, 7.2698886], [124.2922059, 7.2697968], [124.2920309, 7.2696531], [124.2918896, 7.2695195], [124.2917457, 7.2693428], [124.2916334, 7.2691606], [124.291573, 7.2690142], [124.2915476, 7.2689525], [124.2914944, 7.2687848], [124.2914644, 7.2686226], [124.2914351, 7.2684036], [124.2914146, 7.268102], [124.2913999, 7.2679224], [124.2913261, 7.2673251], [124.2912751, 7.2670231], [124.2911947, 7.2668262], [124.2910163, 7.2665721], [124.2907239, 7.2662555], [124.290386, 7.2659162], [124.2901808, 7.265714], [124.2900038, 7.2655544], [124.2898469, 7.2654014], [124.2897114, 7.2653109], [124.2895706, 7.2652298], [124.2893104, 7.2651167], [124.2890275, 7.2650449], [124.2888531, 7.2650129], [124.2882017, 7.2649489], [124.2873685, 7.2648759], [124.2868911, 7.264851], [124.2867041, 7.2648224], [124.2865298, 7.2647838], [124.2863034, 7.2647186], [124.286088, 7.2646659], [124.285792, 7.2644449], [124.2855612, 7.2641429], [124.2853787, 7.2638301], [124.2851731, 7.2634724]]}, "properties": {"city": "cotabato", "name": "Narciso Ramos Highway", "highway": "trunk", "v_posted": 80, "posted_imputed": false, "v_safe": 50, "gap": 30, "R": 6.55, "exposure": 0.024, "vru_150m": 0, "sss": 38.4, "recommended": 50, "fatal_reduction_pct": 84.7, "why": "undivided arterial, side-impact intersections", "pop_density": 761.3, "pop_density_peak": 2809.6, "v_design": 70, "design_gap": 20}}, {"type": "Feature", "geometry": {"type": "LineString", "coordinates": [[124.2669132, 7.2523426], [124.2669679, 7.2525437]]}, "properties": {"city": "cotabato", "name": "Narciso Ramos Highway", "highway": "primary", "v_posted": 80, "posted_imputed": false, "v_safe": 50, "gap": 30, "R": 6.55, "exposure": 0.0, "vru_150m": 0, "sss": 37.5, "recommended": 50, "fatal_reduction_pct": 84.7, "why": "undivided arterial, side-impact intersections", "pop_density": 0.0, "pop_density_peak": 0.0, "v_design": 60, "design_gap": 10}}, {"type": "Feature", "geometry": {"type": "LineString", "coordinates": [[124.2851731, 7.2634724], [124.2852849, 7.2632763], [124.285344, 7.2631675], [124.285372, 7.2630945], [124.28539, 7.2630189], [124.2853935, 7.2629355], [124.2854002, 7.2626643], [124.285402, 7.2622212], [124.2853832, 7.2617063], [124.2853824, 7.2615077], [124.2853881, 7.2613507], [124.2854067, 7.2611966], [124.2854311, 7.2610508], [124.28547, 7.2608524], [124.285578, 7.2603253], [124.2856902, 7.2598781], [124.2857412, 7.2596739], [124.2857781, 7.2595444], [124.2858347, 7.2594075], [124.2859168, 7.2592652], [124.286028, 7.2591111], [124.2863402, 7.2587002], [124.2863821, 7.2586358], [124.2864078, 7.2585651], [124.2864214, 7.2585028], [124.286426, 7.2584395], [124.2864213, 7.2583702], [124.2863951, 7.2582453], [124.2861633, 7.2574398], [124.2860494, 7.2570462], [124.2860328, 7.2569084], [124.2860386, 7.2567961], [124.2860693, 7.2566313], [124.2861076, 7.2564721], [124.2862136, 7.2560881], [124.2862608, 7.2558934], [124.2862927, 7.255699], [124.2863157, 7.2555182], [124.2863191, 7.2553468], [124.2863211, 7.2552069], [124.286309, 7.2551098], [124.2862849, 7.2550168], [124.2862501, 7.2549448], [124.2861669, 7.2547865], [124.2860697, 7.2545809], [124.2860221, 7.2544751], [124.2859855, 7.2543281], [124.2858604, 7.2537838], [124.2857824, 7.2534975], [124.2857042, 7.2532712], [124.285614, 7.2530531], [124.2855128, 7.2528716], [124.285324, 7.2525814], [124.2848888, 7.2518663], [124.2844984, 7.25124], [124.2841868, 7.2506973], [124.2839057, 7.2501613]]}, "properties": {"city": "cotabato", "name": "Cotabato City East Diversion Road", "highway": "trunk", "v_posted": 70, "posted_imputed": false, "v_safe": 50, "gap": 20, "R": 3.84, "exposure": 0.001, "vru_150m": 0, "sss": 25.0, "recommended": 50, "fatal_reduction_pct": 74.0, "why": "undivided arterial, side-impact intersections", "pop_density": 41.9, "pop_density_peak": 99.3, "v_design": 70, "design_gap": 20}}, {"type": "Feature", "geometry": {"type": "LineString", "coordinates": [[124.2851731, 7.2634724], [124.2850428, 7.2632596], [124.2849261, 7.2630792], [124.2848528, 7.2629774], [124.2847696, 7.2628739], [124.2846732, 7.2627792], [124.2845743, 7.2626882], [124.2844304, 7.2625771], [124.2842454, 7.2624549], [124.2839635, 7.2622881], [124.2838763, 7.2622259], [124.2837891, 7.2621421], [124.2837127, 7.2620516], [124.2836322, 7.2619425], [124.2835608, 7.2618307], [124.2834418, 7.2616232], [124.2832567, 7.2613093], [124.2829294, 7.2607625], [124.2828296, 7.2606116], [124.2827564, 7.2605164], [124.2826706, 7.2604206], [124.2825646, 7.2603112], [124.2824681, 7.2602343], [124.2823323, 7.2601309], [124.2822012, 7.2600335], [124.2820778, 7.2599377], [124.2818693, 7.259814], [124.2817461, 7.2597546], [124.2815991, 7.2596995], [124.2814435, 7.259653], [124.2812609, 7.2596045], [124.2811057, 7.2595675], [124.2809473, 7.2595253], [124.2808414, 7.2594845], [124.2807408, 7.2594375], [124.2806581, 7.2593885], [124.2805463, 7.2593164], [124.2804109, 7.2592153], [124.2802476, 7.2590821], [124.2799737, 7.2588627], [124.2797318, 7.2586374], [124.2796652, 7.2585754], [124.279536, 7.2584562], [124.2789309, 7.2579389], [124.2786446, 7.257696], [124.2783844, 7.2575018], [124.2781577, 7.257346], [124.2780436, 7.2572769], [124.2778536, 7.257172], [124.2776472, 7.2570788], [124.2774588, 7.2570031], [124.2773009, 7.2569473], [124.277078, 7.256885], [124.2768669, 7.2568345], [124.2766196, 7.2567914], [124.2763522, 7.2567546], [124.2761291, 7.2567387], [124.2759377, 7.2567393], [124.2756809, 7.2567584], [124.2753777, 7.2567741], [124.2750049, 7.256798], [124.2744899, 7.2568353], [124.2740822, 7.2568752], [124.2738676, 7.2569071], [124.2735913, 7.256971], [124.2730237, 7.2571178], [124.2728701, 7.2571423], [124.2727166, 7.2571444], [124.2725935, 7.2571328], [124.272471, 7.2571101], [124.2723532, 7.2570705], [124.2722209, 7.2570308], [124.2720317, 7.2569646], [124.2717131, 7.256839], [124.2715199, 7.256754], [124.2713413, 7.2566629], [124.2711943, 7.2565643], [124.2710967, 7.2564915], [124.2709865, 7.2563849], [124.2708918, 7.2562693], [124.2707963, 7.2561178], [124.2707054, 7.2559571], [124.2706382, 7.2558269], [124.2705683, 7.2556627], [124.2704812, 7.2554784], [124.2704169, 7.2553333], [124.2703485, 7.2552309], [124.2702464, 7.2551404], [124.2701963, 7.2551005], [124.2701018, 7.2550559], [124.2700307, 7.255025], [124.2699681, 7.2550075], [124.2698855, 7.2549969], [124.2697972, 7.2550067], [124.2696172, 7.2550484], [124.2694491, 7.255097], [124.2692557, 7.2551588], [124.2691129, 7.2551945], [124.2689442, 7.2552104], [124.2688084, 7.2552163], [124.2686239, 7.2551944], [124.2684719, 7.255144], [124.2683825, 7.2551085], [124.2682645, 7.2550499], [124.2681744, 7.2549828], [124.2680335, 7.2548763], [124.2679131, 7.2547615], [124.2677994, 7.2546137], [124.2676962, 7.2544801], [124.2675971, 7.2543263], [124.2674435, 7.2540624], [124.2673627, 7.2538779], [124.2672846, 7.2536716], [124.267174, 7.2533201], [124.2670916, 7.2530245], [124.2669679, 7.2525437]]}, "properties": {"city": "cotabato", "name": "Narciso Ramos Highway", "highway": "primary", "v_posted": 80, "posted_imputed": false, "v_safe": 50, "gap": 30, "R": 6.55, "exposure": 0.004, "vru_150m": 0, "sss": 37.6, "recommended": 50, "fatal_reduction_pct": 84.7, "why": "undivided arterial, side-impact intersections", "pop_density": 119.3, "pop_density_peak": 342.6, "v_design": 55, "design_gap": 5}}, {"type": "Feature", "geometry": {"type": "LineString", "coordinates": [[124.2839057, 7.2501613], [124.283606, 7.2495141], [124.2833137, 7.2488829], [124.2832338, 7.248707], [124.2828155, 7.2477861]]}, "properties": {"city": "cotabato", "name": "Cotabato City East Diversion Road", "highway": "trunk", "v_posted": 70, "posted_imputed": false, "v_safe": 50, "gap": 20, "R": 3.84, "exposure": 0.0, "vru_150m": 0, "sss": 25.0, "recommended": 50, "fatal_reduction_pct": 74.0, "why": "undivided arterial, side-impact intersections", "pop_density": 0.0, "pop_density_peak": 0.0, "v_design": 70, "design_gap": 20}}]}