{"type": "FeatureCollection", "features": [{"type": "Feature", "geometry": {"type": "LineString", "coordinates": [[125.4830182, 9.7616697], [125.4830316, 9.7619922], [125.4830466, 9.762286], [125.4830651, 9.7626504], [125.4831026, 9.7635702]]}, "properties": {"city": "surigao", "name": "Surigao-Butuan National Highway", "highway": "trunk", "v_posted": 60, "posted_imputed": false, "v_safe": 50, "gap": 10, "R": 2.07, "exposure": 0.206, "vru_150m": 0, "sss": 15.1, "recommended": 50, "fatal_reduction_pct": 51.8, "why": "undivided arterial, side-impact intersections", "pop_density": 6662.4, "pop_density_peak": 7474.0, "v_design": 70, "design_gap": 20}}, {"type": "Feature", "geometry": {"type": "LineString", "coordinates": [[125.4831026, 9.7635702], [125.4831059, 9.7636508], [125.4831094, 9.763738], [125.4831122, 9.7638068], [125.4831187, 9.7639663], [125.4831208, 9.7640179], [125.4831315, 9.7642835], [125.4831355, 9.7643816], [125.4831424, 9.7645517], [125.4831467, 9.7646578], [125.4831496, 9.7647279], [125.4831617, 9.7650267], [125.4831711, 9.7654992], [125.4831818, 9.7657513], [125.4831863, 9.7658184], [125.4832077, 9.7661412], [125.4832141, 9.766238], [125.4832271, 9.7666312], [125.4832304, 9.7667326], [125.4832408, 9.7670548], [125.4832663, 9.7677256], [125.4832909, 9.7685629], [125.4833025, 9.76896], [125.4833107, 9.7691921], [125.4833238, 9.7695641], [125.48334, 9.7700239], [125.4833474, 9.7702976], [125.4833667, 9.7710182], [125.4833785, 9.7716999], [125.4833815, 9.7717938], [125.4833823, 9.7718174], [125.4833843, 9.7719053], [125.483393, 9.7720784], [125.483399, 9.7721881], [125.4834171, 9.7723527], [125.4834326, 9.7724683], [125.4834587, 9.772584], [125.4834835, 9.7726831], [125.4835117, 9.7727809], [125.4835482, 9.7728909], [125.4837256, 9.7733485], [125.4838014, 9.7735442], [125.4838133, 9.7735788], [125.4838537, 9.7736968], [125.4838996, 9.773842], [125.4839201, 9.7739129], [125.4839383, 9.7739866], [125.4839543, 9.7740723], [125.483969, 9.7741772], [125.4839754, 9.7742863], [125.4839764, 9.7743768], [125.4839656, 9.7745182], [125.4839482, 9.7746451], [125.483916, 9.7747693], [125.4838943, 9.7748415], [125.4838765, 9.7749008], [125.4838248, 9.7750462], [125.4837584, 9.7751836], [125.483686, 9.7752933], [125.4835626, 9.7754506], [125.4834049, 9.7756219], [125.4833472, 9.7756855]]}, "properties": {"city": "surigao", "name": "Surigao-Butuan National Highway", "highway": "trunk", "v_posted": 60, "posted_imputed": false, "v_safe": 50, "gap": 10, "R": 2.07, "exposure": 0.111, "vru_150m": 0, "sss": 13.9, "recommended": 50, "fatal_reduction_pct": 51.8, "why": "undivided arterial, side-impact intersections", "pop_density": 3599.7, "pop_density_peak": 7474.0, "v_design": 70, "design_gap": 20}}, {"type": "Feature", "geometry": {"type": "LineString", "coordinates": [[125.5011268, 9.7278265], [125.5009158, 9.7281744], [125.5007313, 9.7284515], [125.5006619, 9.7285379], [125.5006503, 9.7285536], [125.5003942, 9.7288373], [125.4999449, 9.7292339], [125.499334, 9.7297375], [125.4985831, 9.7303793], [125.4982554, 9.7306616], [125.498073, 9.7308546], [125.4979537, 9.7310172], [125.4978679, 9.7311731], [125.4978316, 9.7312591], [125.497778, 9.7314256], [125.4977565, 9.7315128], [125.4977485, 9.7315803], [125.4977364, 9.7317785], [125.4977418, 9.7319477], [125.4977579, 9.7320535], [125.4978021, 9.7322425], [125.4979094, 9.7325372], [125.498242, 9.7333726], [125.4983185, 9.7336092], [125.4983587, 9.7337784], [125.4983694, 9.7339], [125.4983815, 9.734159], [125.4983792, 9.73427], [125.4983709, 9.7343673], [125.4983614, 9.7344247], [125.4983493, 9.7344974], [125.4983374, 9.7345445], [125.4983319, 9.734578], [125.4983135, 9.7346553], [125.4983077, 9.7346798], [125.498298, 9.7347064], [125.4982001, 9.7349665], [125.4980967, 9.7352249], [125.4977505, 9.736089], [125.4975504, 9.7365408], [125.4974165, 9.7368575], [125.4972687, 9.7371984], [125.4971591, 9.7374173], [125.4970578, 9.7375732], [125.4969801, 9.7376625], [125.4969096, 9.7377364], [125.4968345, 9.7377992], [125.4967668, 9.7378482], [125.4966639, 9.7379148], [125.4965468, 9.737971], [125.4964127, 9.7380214], [125.4962578, 9.7380564], [125.495997, 9.7380986], [125.4953572, 9.7381525], [125.4953411, 9.7381538], [125.4949054, 9.7381905], [125.4935115, 9.738316], [125.4932226, 9.7383404], [125.4930381, 9.7383556], [125.4928062, 9.7384049], [125.4926795, 9.7384356], [125.4925527, 9.7384746], [125.4923965, 9.7385282], [125.4922364, 9.7385917], [125.4916281, 9.7388619], [125.4911097, 9.7391196], [125.4908784, 9.7392197], [125.4906189, 9.7393327], [125.4903138, 9.7394599], [125.489957, 9.7396186], [125.4895627, 9.7397891], [125.4893944, 9.7398459], [125.4892033, 9.7398961], [125.4890203, 9.7399265], [125.4884409, 9.7399682], [125.4882408, 9.7400058], [125.488103, 9.740064], [125.4880208, 9.7401251], [125.4879387, 9.740215], [125.4877033, 9.7406598], [125.4876101, 9.7408148], [125.4875266, 9.7409225], [125.487354, 9.7410857], [125.4870971, 9.7412285], [125.4860491, 9.7416296], [125.485756, 9.7417506], [125.4855433, 9.7418694], [125.4852974, 9.7420404], [125.4851324, 9.7421775], [125.485003, 9.7423019], [125.4849368, 9.7423714], [125.4848697, 9.7424419], [125.4847616, 9.7425684], [125.4846747, 9.7426834], [125.4846069, 9.7427788], [125.4837572, 9.7443646], [125.4837238, 9.7444236], [125.4836022, 9.7446482], [125.4835692, 9.7447119], [125.4834958, 9.7448651], [125.4833135, 9.7452362], [125.4829213, 9.7460684], [125.4828319, 9.7462429], [125.4827947, 9.7463175], [125.482704, 9.7464996], [125.4825654, 9.7468035], [125.4825175, 9.7469157], [125.4824623, 9.7470688], [125.4824093, 9.7472884], [125.4823375, 9.7479598], [125.4822371, 9.7491129], [125.4822183, 9.7493799], [125.4822079, 9.7496704], [125.4822079, 9.749765], [125.4822028, 9.7499382]]}, "properties": {"city": "surigao", "name": "Surigao-Butuan National Highway", "highway": "trunk", "v_posted": 60, "posted_imputed": false, "v_safe": 50, "gap": 10, "R": 2.07, "exposure": 0.047, "vru_150m": 0, "sss": 13.1, "recommended": 50, "fatal_reduction_pct": 51.8, "why": "undivided arterial, side-impact intersections", "pop_density": 1526.4, "pop_density_peak": 6640.7, "v_design": 60, "design_gap": 10}}, {"type": "Feature", "geometry": {"type": "LineString", "coordinates": [[125.4822028, 9.7499382], [125.4822122, 9.7502012], [125.4822376, 9.7505898], [125.4823235, 9.7519525], [125.4823572, 9.7524088], [125.4824388, 9.7535161], [125.4824864, 9.7540943], [125.4825246, 9.7545867], [125.4826017, 9.7557224], [125.482634, 9.7561986], [125.482644, 9.7563459], [125.4826561, 9.7565124], [125.4827727, 9.758002], [125.4827929, 9.7583112], [125.4828237, 9.7586985], [125.4828344, 9.7588214]]}, "properties": {"city": "surigao", "name": "Surigao-Butuan National Highway", "highway": "trunk", "v_posted": 60, "posted_imputed": false, "v_safe": 50, "gap": 10, "R": 2.07, "exposure": 0.135, "vru_150m": 0, "sss": 14.2, "recommended": 50, "fatal_reduction_pct": 51.8, "why": "undivided arterial, side-impact intersections", "pop_density": 4367.3, "pop_density_peak": 6991.1, "v_design": 70, "design_gap": 20}}, {"type": "Feature", "geometry": {"type": "LineString", "coordinates": [[125.4828344, 9.7588214], [125.4828545, 9.7591862], [125.4828733, 9.7594572], [125.48288, 9.7596105], [125.4829005, 9.7599106], [125.4829312, 9.7603614], [125.4829335, 9.7603949], [125.4829407, 9.7605019], [125.4829467, 9.7605896], [125.4830088, 9.7615005], [125.4830182, 9.7616697]]}, "properties": {"city": "surigao", "name": "Surigao-Butuan National Highway", "highway": "trunk", "v_posted": 60, "posted_imputed": false, "v_safe": 50, "gap": 10, "R": 2.07, "exposure": 0.183, "vru_150m": 0, "sss": 14.8, "recommended": 50, "fatal_reduction_pct": 51.8, "why": "undivided arterial, side-impact intersections", "pop_density": 5910.7, "pop_density_peak": 6610.4, "v_design": 70, "design_gap": 20}}, {"type": "Feature", "geometry": {"type": "LineString", "coordinates": [[125.4737167, 9.7756459], [125.4739458, 9.7755636]]}, "properties": {"city": "surigao", "name": "Surigao-Butuan National Highway", "highway": "trunk", "v_posted": 50, "posted_imputed": false, "v_safe": 30, "gap": 20, "R": 7.72, "exposure": 0.304, "vru_150m": 1, "sss": 32.6, "recommended": 30, "fatal_reduction_pct": 87.0, "why": "pedestrian activity (1 VRU site<=50m)", "pop_density": 4201.0, "pop_density_peak": 5050.8, "v_design": 70, "design_gap": 40}}]}