{"type": "FeatureCollection", "features": [{"type": "Feature", "geometry": {"type": "LineString", "coordinates": [[123.185573, 13.6242071], [123.1856878, 13.6241869], [123.1859378, 13.6241519]]}, "properties": {"city": "naga", "name": "P. Burgos Street", "highway": "secondary", "v_posted": 40, "posted_imputed": false, "v_safe": 30, "gap": 10, "R": 3.16, "exposure": 1.0, "vru_150m": 6, "sss": 25.0, "recommended": 30, "fatal_reduction_pct": 68.4, "why": "pedestrian activity (1 VRU site<=50m)", "pop_density": 28758.7, "pop_density_peak": 28758.7, "v_design": 50, "design_gap": 20}}]}