{"type": "FeatureCollection", "features": [{"type": "Feature", "geometry": {"type": "LineString", "coordinates": [[121.7251301, 17.6171911], [121.7251048, 17.617152], [121.7250552, 17.6169245], [121.7250394, 17.6168276], [121.7250181, 17.6166967], [121.7250213, 17.6166165], [121.7250685, 17.6164545], [121.7250998, 17.616356]]}, "properties": {"city": "tuguegarao", "name": "College Avenue", "highway": "secondary", "v_posted": 40, "posted_imputed": false, "v_safe": 30, "gap": 10, "R": 3.16, "exposure": 0.557, "vru_150m": 2, "sss": 19.5, "recommended": 30, "fatal_reduction_pct": 68.4, "why": "pedestrian activity (1 VRU site<=50m)", "pop_density": 8477.5, "pop_density_peak": 10951.4, "v_design": 50, "design_gap": 20}}, {"type": "Feature", "geometry": {"type": "LineString", "coordinates": [[121.7320016, 17.6235275], [121.7321457, 17.6236611], [121.7324871, 17.6239889], [121.7326855, 17.6241678], [121.7332928, 17.6247324], [121.7336712, 17.6250677], [121.7337893, 17.625175], [121.7342464, 17.62559]]}, "properties": {"city": "tuguegarao", "name": "Don Domingo Road", "highway": "secondary", "v_posted": 40, "posted_imputed": false, "v_safe": 30, "gap": 10, "R": 3.16, "exposure": 0.445, "vru_150m": 1, "sss": 18.1, "recommended": 30, "fatal_reduction_pct": 68.4, "why": "pedestrian activity (1 VRU site<=50m)", "pop_density": 9891.4, "pop_density_peak": 11718.3, "v_design": 50, "design_gap": 20}}, {"type": "Feature", "geometry": {"type": "LineString", "coordinates": [[121.7262111, 17.6180985], [121.7264114, 17.6175869]]}, "properties": {"city": "tuguegarao", "name": "Caritan Road", "highway": "secondary", "v_posted": 40, "posted_imputed": false, "v_safe": 30, "gap": 10, "R": 3.16, "exposure": 0.562, "vru_150m": 2, "sss": 19.5, "recommended": 30, "fatal_reduction_pct": 68.4, "why": "pedestrian activity (1 VRU site<=50m)", "pop_density": 8711.2, "pop_density_peak": 8711.2, "v_design": 50, "design_gap": 20}}, {"type": "Feature", "geometry": {"type": "LineString", "coordinates": [[121.7298574, 17.614052], [121.7298715, 17.6131112]]}, "properties": {"city": "tuguegarao", "name": "Rizal Street", "highway": "primary", "v_posted": 40, "posted_imputed": false, "v_safe": 30, "gap": 10, "R": 3.16, "exposure": 0.85, "vru_150m": 3, "sss": 23.1, "recommended": 30, "fatal_reduction_pct": 68.4, "why": "pedestrian activity (1 VRU site<=50m)", "pop_density": 20233.4, "pop_density_peak": 21672.1, "v_design": 60, "design_gap": 30}}, {"type": "Feature", "geometry": {"type": "LineString", "coordinates": [[121.724903, 17.6141843], [121.724833, 17.6135823], [121.7247907, 17.6132064]]}, "properties": {"city": "tuguegarao", "name": "Mabini Street", "highway": "secondary", "v_posted": 40, "posted_imputed": false, "v_safe": 30, "gap": 10, "R": 3.16, "exposure": 0.634, "vru_150m": 1, "sss": 20.4, "recommended": 30, "fatal_reduction_pct": 68.4, "why": "pedestrian activity (1 VRU site<=50m)", "pop_density": 17540.0, "pop_density_peak": 19600.1, "v_design": 50, "design_gap": 20}}, {"type": "Feature", "geometry": {"type": "LineString", "coordinates": [[121.7628827, 17.6214522], [121.7638135, 17.6220631], [121.7643446, 17.6224184], [121.7647319, 17.6226657], [121.766654, 17.6238771], [121.7667189, 17.6239223], [121.7668516, 17.6240067], [121.7673339, 17.62432], [121.7675014, 17.6244289], [121.7682666, 17.6249262], [121.7683256, 17.6249685], [121.7684486, 17.6250466], [121.7685308, 17.6250955], [121.7691337, 17.6254555], [121.76943, 17.6256324], [121.7697546, 17.6258068], [121.7702427, 17.6260407], [121.7706875, 17.6262475], [121.7709669, 17.6263775]]}, "properties": {"city": "tuguegarao", "name": "Maharlika Highway", "highway": "trunk", "v_posted": 60, "posted_imputed": false, "v_safe": 50, "gap": 10, "R": 2.07, "exposure": 0.087, "vru_150m": 0, "sss": 13.6, "recommended": 50, "fatal_reduction_pct": 51.8, "why": "undivided arterial, side-impact intersections", "pop_density": 2813.8, "pop_density_peak": 8050.5, "v_design": 70, "design_gap": 20}}, {"type": "Feature", "geometry": {"type": "LineString", "coordinates": [[121.7709669, 17.6263775], [121.7734185, 17.6276669], [121.7736688, 17.6278126]]}, "properties": {"city": "tuguegarao", "name": "Maharlika Highway", "highway": "trunk", "v_posted": 60, "posted_imputed": false, "v_safe": 50, "gap": 10, "R": 2.07, "exposure": 0.042, "vru_150m": 0, "sss": 13.0, "recommended": 50, "fatal_reduction_pct": 51.8, "why": "undivided arterial, side-impact intersections", "pop_density": 1357.8, "pop_density_peak": 2222.2, "v_design": 70, "design_gap": 20}}, {"type": "Feature", "geometry": {"type": "LineString", "coordinates": [[121.7589995, 17.6468316], [121.7578656, 17.6474527], [121.7574873, 17.6476599], [121.7568339, 17.6480164], [121.7555322, 17.6487552], [121.7554497, 17.6488005], [121.7552254, 17.6489241], [121.7544377, 17.6493581], [121.7544071, 17.6493745], [121.7541346, 17.649519], [121.7540498, 17.649567], [121.7534411, 17.6499067], [121.752697, 17.6503229], [121.7526263, 17.6503625], [121.7525113, 17.6504247], [121.7524753, 17.6504442], [121.7514085, 17.651021], [121.7509329, 17.6512868], [121.7508202, 17.65135], [121.7504393, 17.6515558], [121.7502402, 17.6516516], [121.7499987, 17.6517707], [121.7498667, 17.6518261], [121.7494088, 17.6520334], [121.7492285, 17.6521132], [121.7488953, 17.6522606], [121.7485481, 17.6524192], [121.7469353, 17.6531456], [121.7468278, 17.6531891], [121.7456984, 17.6537165], [121.7454027, 17.6538546], [121.7449471, 17.6540674], [121.7448573, 17.6541093]]}, "properties": {"city": "tuguegarao", "name": "Enrile Boulevard", "highway": "trunk", "v_posted": 60, "posted_imputed": false, "v_safe": 50, "gap": 10, "R": 2.07, "exposure": 0.093, "vru_150m": 0, "sss": 13.7, "recommended": 50, "fatal_reduction_pct": 51.8, "why": "undivided arterial, side-impact intersections", "pop_density": 2994.8, "pop_density_peak": 6807.2, "v_design": 70, "design_gap": 20}}, {"type": "Feature", "geometry": {"type": "LineString", "coordinates": [[121.7425194, 17.6498351], [121.742427, 17.6496345]]}, "properties": {"city": "tuguegarao", "name": "Maharlika Highway", "highway": "trunk", "v_posted": 60, "posted_imputed": false, "v_safe": 50, "gap": 10, "R": 2.07, "exposure": 0.121, "vru_150m": 0, "sss": 14.0, "recommended": 50, "fatal_reduction_pct": 51.8, "why": "undivided arterial, side-impact intersections", "pop_density": 3929.5, "pop_density_peak": 3929.5, "v_design": 70, "design_gap": 20}}, {"type": "Feature", "geometry": {"type": "LineString", "coordinates": [[121.7417571, 17.6481233], [121.7416544, 17.6478969], [121.741527, 17.6476107], [121.7414238, 17.6473742], [121.7408605, 17.6461282], [121.7406664, 17.6456737], [121.7405346, 17.6453652], [121.7404225, 17.6451201], [121.7402744, 17.6447965], [121.7402388, 17.6447179], [121.7401418, 17.6445034], [121.7398661, 17.6438942], [121.7396468, 17.6434137], [121.7395038, 17.6430971], [121.7394292, 17.642928], [121.7393813, 17.6428194], [121.7393302, 17.6427039], [121.7392277, 17.6424929], [121.7389186, 17.641767], [121.7388468, 17.6415995], [121.7386278, 17.6411136], [121.7385085, 17.6408588], [121.7384322, 17.6406877], [121.7381283, 17.6400123], [121.7381029, 17.6399558], [121.7379313, 17.6395786], [121.7374883, 17.6386049], [121.7372353, 17.6380332], [121.7369861, 17.6374702], [121.7368332, 17.6371222], [121.7363419, 17.6360266], [121.7359397, 17.6351299]]}, "properties": {"city": "tuguegarao", "name": "Maharlika Highway", "highway": "trunk", "v_posted": 60, "posted_imputed": false, "v_safe": 30, "gap": 30, "R": 16.0, "exposure": 0.651, "vru_150m": 3, "sss": 61.9, "recommended": 30, "fatal_reduction_pct": 93.8, "why": "pedestrian activity (1 VRU site<=50m)", "pop_density": 4126.2, "pop_density_peak": 4929.7, "v_design": 70, "design_gap": 40}}, {"type": "Feature", "geometry": {"type": "LineString", "coordinates": [[121.7516094, 17.669332], [121.7513388, 17.6687836], [121.7512478, 17.6686131], [121.7508591, 17.6678848], [121.7502962, 17.6667651], [121.7500484, 17.6662569], [121.7497563, 17.6656539], [121.7495978, 17.6653374], [121.7491907, 17.6645474], [121.748833, 17.663787], [121.7483379, 17.66274], [121.7482773, 17.6626037], [121.7481923, 17.6624296], [121.7476093, 17.6610869], [121.7472689, 17.6603644], [121.7471217, 17.6600202], [121.7470945, 17.6599607], [121.7468697, 17.6594695], [121.7465912, 17.6588688], [121.7463442, 17.6583148], [121.7461552, 17.6579052], [121.746127, 17.6578432], [121.7460739, 17.6577169], [121.7459285, 17.6574203], [121.7458872, 17.6573275], [121.7457041, 17.656921], [121.7454908, 17.6564196], [121.7454632, 17.6563553], [121.7454202, 17.6562541], [121.7452226, 17.6557964], [121.7451976, 17.6557385], [121.7451013, 17.655546], [121.7449958, 17.6553181], [121.7448892, 17.6550757], [121.7448235, 17.654927], [121.744694, 17.6546618], [121.7446325, 17.6545255], [121.7446235, 17.6545056], [121.7446154, 17.6544895]]}, "properties": {"city": "tuguegarao", "name": "Maharlika Highway", "highway": "trunk", "v_posted": 60, "posted_imputed": false, "v_safe": 50, "gap": 10, "R": 2.07, "exposure": 0.042, "vru_150m": 0, "sss": 13.0, "recommended": 50, "fatal_reduction_pct": 51.8, "why": "undivided arterial, side-impact intersections", "pop_density": 1352.1, "pop_density_peak": 3359.2, "v_design": 70, "design_gap": 20}}, {"type": "Feature", "geometry": {"type": "LineString", "coordinates": [[121.7443743, 17.6539353], [121.7445143, 17.6539986], [121.7445948, 17.6540293], [121.744682, 17.6540484], [121.7447564, 17.6540606], [121.7449471, 17.6540674]]}, "properties": {"city": "tuguegarao", "name": "", "highway": "trunk_link", "v_posted": 60, "posted_imputed": false, "v_safe": 50, "gap": 10, "R": 2.07, "exposure": 0.099, "vru_150m": 0, "sss": 13.7, "recommended": 50, "fatal_reduction_pct": 51.8, "why": "undivided arterial, side-impact intersections", "pop_density": 3213.6, "pop_density_peak": 3228.2, "v_design": 55, "design_gap": 5}}, {"type": "Feature", "geometry": {"type": "LineString", "coordinates": [[121.7448573, 17.6541093], [121.7448114, 17.6541299], [121.7445909, 17.6542287], [121.7445159, 17.6542608]]}, "properties": {"city": "tuguegarao", "name": "Enrile Boulevard", "highway": "trunk", "v_posted": 60, "posted_imputed": false, "v_safe": 50, "gap": 10, "R": 2.07, "exposure": 0.099, "vru_150m": 0, "sss": 13.7, "recommended": 50, "fatal_reduction_pct": 51.8, "why": "undivided arterial, side-impact intersections", "pop_density": 3199.0, "pop_density_peak": 3199.0, "v_design": 70, "design_gap": 20}}, {"type": "Feature", "geometry": {"type": "LineString", "coordinates": [[121.7445159, 17.6542608], [121.7444565, 17.6541243]]}, "properties": {"city": "tuguegarao", "name": "Maharlika Highway", "highway": "trunk", "v_posted": 60, "posted_imputed": false, "v_safe": 50, "gap": 10, "R": 2.07, "exposure": 0.094, "vru_150m": 0, "sss": 13.7, "recommended": 50, "fatal_reduction_pct": 51.8, "why": "undivided arterial, side-impact intersections", "pop_density": 3054.0, "pop_density_peak": 3199.0, "v_design": 70, "design_gap": 20}}, {"type": "Feature", "geometry": {"type": "LineString", "coordinates": [[121.7445548, 17.6543502], [121.7445159, 17.6542608]]}, "properties": {"city": "tuguegarao", "name": "Maharlika Highway", "highway": "trunk", "v_posted": 60, "posted_imputed": false, "v_safe": 50, "gap": 10, "R": 2.07, "exposure": 0.099, "vru_150m": 0, "sss": 13.7, "recommended": 50, "fatal_reduction_pct": 51.8, "why": "undivided arterial, side-impact intersections", "pop_density": 3199.0, "pop_density_peak": 3199.0, "v_design": 70, "design_gap": 20}}, {"type": "Feature", "geometry": {"type": "LineString", "coordinates": [[121.7443743, 17.6539353], [121.7442971, 17.6537457], [121.7442774, 17.6536973], [121.7442686, 17.6536775], [121.7442146, 17.6535565], [121.7441237, 17.6533635], [121.7441086, 17.6533187], [121.7440363, 17.6531565], [121.7440108, 17.6530993], [121.7438481, 17.6527344], [121.7437241, 17.6524872], [121.743617, 17.652234], [121.7434401, 17.6518587], [121.743304, 17.651589], [121.7431518, 17.6512344], [121.7429318, 17.6507641], [121.7428406, 17.6505717], [121.7425838, 17.6499749], [121.7425194, 17.6498351]]}, "properties": {"city": "tuguegarao", "name": "Maharlika Highway", "highway": "trunk", "v_posted": 60, "posted_imputed": false, "v_safe": 50, "gap": 10, "R": 2.07, "exposure": 0.105, "vru_150m": 0, "sss": 13.8, "recommended": 50, "fatal_reduction_pct": 51.8, "why": "undivided arterial, side-impact intersections", "pop_density": 3402.4, "pop_density_peak": 3931.0, "v_design": 70, "design_gap": 20}}, {"type": "Feature", "geometry": {"type": "LineString", "coordinates": [[121.7446154, 17.6544895], [121.7445548, 17.6543502]]}, "properties": {"city": "tuguegarao", "name": "Maharlika Highway", "highway": "trunk", "v_posted": 60, "posted_imputed": false, "v_safe": 50, "gap": 10, "R": 2.07, "exposure": 0.099, "vru_150m": 0, "sss": 13.7, "recommended": 50, "fatal_reduction_pct": 51.8, "why": "undivided arterial, side-impact intersections", "pop_density": 3199.0, "pop_density_peak": 3199.0, "v_design": 70, "design_gap": 20}}, {"type": "Feature", "geometry": {"type": "LineString", "coordinates": [[121.742427, 17.6496345], [121.7422767, 17.649308], [121.7420078, 17.6486762], [121.741844, 17.6483151], [121.7418247, 17.6482727], [121.7418158, 17.648253]]}, "properties": {"city": "tuguegarao", "name": "Maharlika Highway", "highway": "trunk", "v_posted": 60, "posted_imputed": false, "v_safe": 50, "gap": 10, "R": 2.07, "exposure": 0.13, "vru_150m": 0, "sss": 14.1, "recommended": 50, "fatal_reduction_pct": 51.8, "why": "undivided arterial, side-impact intersections", "pop_density": 4194.8, "pop_density_peak": 4327.4, "v_design": 70, "design_gap": 20}}, {"type": "Feature", "geometry": {"type": "LineString", "coordinates": [[121.7444565, 17.6541243], [121.7443743, 17.6539353]]}, "properties": {"city": "tuguegarao", "name": "Maharlika Highway", "highway": "trunk", "v_posted": 60, "posted_imputed": false, "v_safe": 50, "gap": 10, "R": 2.07, "exposure": 0.095, "vru_150m": 0, "sss": 13.7, "recommended": 50, "fatal_reduction_pct": 51.8, "why": "undivided arterial, side-impact intersections", "pop_density": 3068.6, "pop_density_peak": 3228.2, "v_design": 70, "design_gap": 20}}, {"type": "Feature", "geometry": {"type": "LineString", "coordinates": [[121.7736688, 17.6278126], [121.7746251, 17.6283448], [121.7748742, 17.6285005], [121.7751195, 17.628671]]}, "properties": {"city": "tuguegarao", "name": "Maharlika Highway", "highway": "trunk", "v_posted": 60, "posted_imputed": false, "v_safe": 50, "gap": 10, "R": 2.07, "exposure": 0.158, "vru_150m": 0, "sss": 14.5, "recommended": 50, "fatal_reduction_pct": 51.8, "why": "undivided arterial, side-impact intersections", "pop_density": 5117.9, "pop_density_peak": 8013.6, "v_design": 70, "design_gap": 20}}, {"type": "Feature", "geometry": {"type": "LineString", "coordinates": [[121.7598741, 17.6460044], [121.7598893, 17.6461347], [121.7598909, 17.6462648], [121.7598501, 17.6463964], [121.7597833, 17.6465294]]}, "properties": {"city": "tuguegarao", "name": "Enrile Boulevard", "highway": "trunk", "v_posted": 60, "posted_imputed": false, "v_safe": 50, "gap": 10, "R": 2.07, "exposure": 0.29, "vru_150m": 0, "sss": 16.1, "recommended": 50, "fatal_reduction_pct": 51.8, "why": "undivided arterial, side-impact intersections", "pop_density": 9373.2, "pop_density_peak": 9373.2, "v_design": 70, "design_gap": 20}}, {"type": "Feature", "geometry": {"type": "LineString", "coordinates": [[121.7598741, 17.6460044], [121.7602064, 17.6449535]]}, "properties": {"city": "tuguegarao", "name": "Enrile Boulevard", "highway": "trunk", "v_posted": 60, "posted_imputed": false, "v_safe": 50, "gap": 10, "R": 2.07, "exposure": 0.309, "vru_150m": 0, "sss": 16.4, "recommended": 50, "fatal_reduction_pct": 51.8, "why": "undivided arterial, side-impact intersections", "pop_density": 9999.0, "pop_density_peak": 10624.8, "v_design": 70, "design_gap": 20}}, {"type": "Feature", "geometry": {"type": "LineString", "coordinates": [[121.7670147, 17.6390774], [121.7669858, 17.6387622]]}, "properties": {"city": "tuguegarao", "name": "Maharlika Highway", "highway": "trunk", "v_posted": 60, "posted_imputed": false, "v_safe": 50, "gap": 10, "R": 2.07, "exposure": 0.121, "vru_150m": 0, "sss": 14.0, "recommended": 50, "fatal_reduction_pct": 51.8, "why": "undivided arterial, side-impact intersections", "pop_density": 3898.7, "pop_density_peak": 7797.5, "v_design": 70, "design_gap": 20}}, {"type": "Feature", "geometry": {"type": "LineString", "coordinates": [[121.7669858, 17.6387622], [121.7669463, 17.6380287], [121.7669474, 17.6378301], [121.7670072, 17.6374976], [121.7671121, 17.6372576], [121.7672289, 17.637018], [121.7673337, 17.6368932], [121.7673782, 17.6368403], [121.7675538, 17.6366563], [121.7683118, 17.6361396], [121.7698726, 17.6351549], [121.7708276, 17.6345464], [121.77145, 17.634096], [121.771829, 17.6337686], [121.7727204, 17.6327426], [121.7736152, 17.6317619], [121.7737742, 17.6316216], [121.7743172, 17.631153], [121.7753496, 17.630293], [121.7754813, 17.6301227], [121.7755896, 17.6299539], [121.7757147, 17.6296464]]}, "properties": {"city": "tuguegarao", "name": "Maharlika Highway", "highway": "trunk", "v_posted": 60, "posted_imputed": false, "v_safe": 50, "gap": 10, "R": 2.07, "exposure": 0.105, "vru_150m": 0, "sss": 13.8, "recommended": 50, "fatal_reduction_pct": 51.8, "why": "undivided arterial, side-impact intersections", "pop_density": 3403.8, "pop_density_peak": 14182.3, "v_design": 70, "design_gap": 20}}, {"type": "Feature", "geometry": {"type": "LineString", "coordinates": [[121.7597833, 17.6465294], [121.7594217, 17.6467292], [121.7589995, 17.6468316]]}, "properties": {"city": "tuguegarao", "name": "Enrile Boulevard", "highway": "trunk", "v_posted": 60, "posted_imputed": false, "v_safe": 50, "gap": 10, "R": 2.07, "exposure": 0.25, "vru_150m": 0, "sss": 15.6, "recommended": 50, "fatal_reduction_pct": 51.8, "why": "undivided arterial, side-impact intersections", "pop_density": 8090.2, "pop_density_peak": 9373.2, "v_design": 70, "design_gap": 20}}, {"type": "Feature", "geometry": {"type": "LineString", "coordinates": [[121.7589995, 17.6468316], [121.7593385, 17.6465708], [121.759694, 17.6463679], [121.759803, 17.646187], [121.7598741, 17.6460044]]}, "properties": {"city": "tuguegarao", "name": "Enrile Boulevard", "highway": "trunk", "v_posted": 60, "posted_imputed": false, "v_safe": 50, "gap": 10, "R": 2.07, "exposure": 0.25, "vru_150m": 0, "sss": 15.6, "recommended": 50, "fatal_reduction_pct": 51.8, "why": "undivided arterial, side-impact intersections", "pop_density": 8090.2, "pop_density_peak": 9373.2, "v_design": 70, "design_gap": 20}}, {"type": "Feature", "geometry": {"type": "LineString", "coordinates": [[121.7606978, 17.6445185], [121.7608156, 17.6444817], [121.7609434, 17.6444371], [121.7610854, 17.6443875], [121.7613146, 17.6442844], [121.7614845, 17.6441936], [121.7617064, 17.644047], [121.7634694, 17.6426327], [121.7637683, 17.6423904], [121.7641007, 17.6422162], [121.7644407, 17.6420952], [121.7650208, 17.6419725], [121.7658506, 17.6418098], [121.7660397, 17.6417435], [121.7662414, 17.6416336], [121.7663809, 17.6415576], [121.766434, 17.6415286], [121.7666718, 17.6413131], [121.7668639, 17.6410734], [121.7670241, 17.6407752], [121.7670663, 17.6406346], [121.7671173, 17.6403724], [121.767114, 17.6402026], [121.7671068, 17.6399202], [121.7670147, 17.6390774]]}, "properties": {"city": "tuguegarao", "name": "Maharlika Highway", "highway": "trunk", "v_posted": 60, "posted_imputed": false, "v_safe": 50, "gap": 10, "R": 2.07, "exposure": 0.435, "vru_150m": 0, "sss": 17.9, "recommended": 50, "fatal_reduction_pct": 51.8, "why": "undivided arterial, side-impact intersections", "pop_density": 14074.7, "pop_density_peak": 25437.9, "v_design": 60, "design_gap": 10}}, {"type": "Feature", "geometry": {"type": "LineString", "coordinates": [[121.7602064, 17.6449535], [121.7603191, 17.6447856], [121.7604292, 17.6446829], [121.7605552, 17.6445999], [121.7606978, 17.6445185]]}, "properties": {"city": "tuguegarao", "name": "Enrile Boulevard", "highway": "trunk", "v_posted": 60, "posted_imputed": false, "v_safe": 50, "gap": 10, "R": 2.07, "exposure": 0.367, "vru_150m": 0, "sss": 17.1, "recommended": 50, "fatal_reduction_pct": 51.8, "why": "undivided arterial, side-impact intersections", "pop_density": 11855.9, "pop_density_peak": 13087.0, "v_design": 70, "design_gap": 20}}]}