{"type": "FeatureCollection", "features": [{"type": "Feature", "geometry": {"type": "LineString", "coordinates": [[120.9835579, 15.5203273], [120.9769312, 15.5290546]]}, "properties": {"city": "cabanatuan", "name": "Emilio Vergara Highway", "highway": "unclassified", "v_posted": 60, "posted_imputed": false, "v_safe": 30, "gap": 30, "R": 16.0, "exposure": 0.0, "vru_150m": 0, "sss": 37.5, "recommended": 30, "fatal_reduction_pct": 93.8, "why": "local road, frontage/pedestrian mixing", "pop_density": 0.0, "pop_density_peak": 0.0, "v_design": 40, "design_gap": 10}}, {"type": "Feature", "geometry": {"type": "LineString", "coordinates": [[120.9769312, 15.5290546], [120.9767682, 15.529237], [120.976602, 15.5294066], [120.9764276, 15.529576], [120.9762586, 15.529733], [120.9759146, 15.530047], [120.9755401, 15.5303638], [120.9751984, 15.5306284], [120.9748491, 15.5308894], [120.97298, 15.5320095]]}, "properties": {"city": "cabanatuan", "name": "Emilio Vergara Highway", "highway": "unclassified", "v_posted": 60, "posted_imputed": false, "v_safe": 30, "gap": 30, "R": 16.0, "exposure": 0.022, "vru_150m": 0, "sss": 38.3, "recommended": 30, "fatal_reduction_pct": 93.8, "why": "local road, frontage/pedestrian mixing", "pop_density": 726.1, "pop_density_peak": 2178.4, "v_design": 40, "design_gap": 10}}, {"type": "Feature", "geometry": {"type": "LineString", "coordinates": [[120.9892142, 15.5130302], [120.9889334, 15.51339]]}, "properties": {"city": "cabanatuan", "name": "Emilio Vergara Highway", "highway": "trunk", "v_posted": 60, "posted_imputed": false, "v_safe": 50, "gap": 10, "R": 2.07, "exposure": 0.035, "vru_150m": 0, "sss": 12.9, "recommended": 50, "fatal_reduction_pct": 51.8, "why": "undivided arterial, side-impact intersections", "pop_density": 1125.7, "pop_density_peak": 1125.7, "v_design": 70, "design_gap": 20}}]}