{"type": "FeatureCollection", "features": [{"type": "Feature", "geometry": {"type": "LineString", "coordinates": [[121.6148533, 13.9378315], [121.6143645, 13.9378698]]}, "properties": {"city": "lucena", "name": "P. Gomez Street", "highway": "primary", "v_posted": 40, "posted_imputed": false, "v_safe": 30, "gap": 10, "R": 3.16, "exposure": 0.81, "vru_150m": 2, "sss": 22.6, "recommended": 30, "fatal_reduction_pct": 68.4, "why": "pedestrian activity (1 VRU site<=50m)", "pop_density": 22115.8, "pop_density_peak": 23470.5}}, {"type": "Feature", "geometry": {"type": "LineString", "coordinates": [[121.6124524, 13.9297138], [121.6124206, 13.9294673], [121.612388, 13.9291046], [121.6123612, 13.9288662], [121.6123222, 13.9285665], [121.6123092, 13.928457], [121.6122935, 13.9283294], [121.6122733, 13.9281629], [121.6122571, 13.9280269], [121.612225, 13.9276492], [121.6121782, 13.9271715], [121.6121267, 13.9269765]]}, "properties": {"city": "lucena", "name": "Quezon Avenue", "highway": "secondary", "v_posted": 40, "posted_imputed": false, "v_safe": 30, "gap": 10, "R": 3.16, "exposure": 0.539, "vru_150m": 1, "sss": 19.2, "recommended": 30, "fatal_reduction_pct": 68.4, "why": "pedestrian activity (1 VRU site<=50m)", "pop_density": 13692.6, "pop_density_peak": 15272.7}}, {"type": "Feature", "geometry": {"type": "LineString", "coordinates": [[121.6133969, 13.9379571], [121.6133385, 13.9375099], [121.613302, 13.9370498], [121.6132536, 13.9365719]]}, "properties": {"city": "lucena", "name": "Quezon Avenue", "highway": "primary", "v_posted": 40, "posted_imputed": false, "v_safe": 30, "gap": 10, "R": 3.16, "exposure": 0.791, "vru_150m": 2, "sss": 22.4, "recommended": 30, "fatal_reduction_pct": 68.4, "why": "pedestrian activity (1 VRU site<=50m)", "pop_density": 21092.0, "pop_density_peak": 24007.1}}, {"type": "Feature", "geometry": {"type": "LineString", "coordinates": [[121.6085285, 13.9346457], [121.6086476, 13.9347888]]}, "properties": {"city": "lucena", "name": "Pedro Nieva Street", "highway": "residential", "v_posted": 40, "posted_imputed": false, "v_safe": 30, "gap": 10, "R": 3.16, "exposure": 0.485, "vru_150m": 1, "sss": 18.6, "recommended": 30, "fatal_reduction_pct": 68.4, "why": "local road, frontage/pedestrian mixing", "pop_density": 11529.1, "pop_density_peak": 11529.1}}, {"type": "Feature", "geometry": {"type": "LineString", "coordinates": [[121.6134107, 13.9415134], [121.6134387, 13.9417438], [121.6134467, 13.9417752], [121.6135389, 13.9421852], [121.6136196, 13.942456], [121.6136891, 13.9427042], [121.6137192, 13.9428189]]}, "properties": {"city": "lucena", "name": "Quezon Avenue", "highway": "primary", "v_posted": 60, "posted_imputed": false, "v_safe": 50, "gap": 10, "R": 2.07, "exposure": 0.683, "vru_150m": 2, "sss": 21.0, "recommended": 50, "fatal_reduction_pct": 51.8, "why": "undivided arterial, side-impact intersections", "pop_density": 15272.0, "pop_density_peak": 21655.5}}, {"type": "Feature", "geometry": {"type": "LineString", "coordinates": [[121.6063572, 13.9167165], [121.6062677, 13.9165397], [121.6061599, 13.9163007], [121.6060969, 13.9160918], [121.6060621, 13.915917], [121.6060274, 13.9156723], [121.6060202, 13.915441], [121.6060311, 13.9152117], [121.6060407, 13.9151245], [121.606077, 13.9147965]]}, "properties": {"city": "lucena", "name": "Cotta Road", "highway": "residential", "v_posted": 50, "posted_imputed": false, "v_safe": 30, "gap": 20, "R": 7.72, "exposure": 0.313, "vru_150m": 0, "sss": 32.8, "recommended": 30, "fatal_reduction_pct": 87.0, "why": "local road, frontage/pedestrian mixing", "pop_density": 10135.5, "pop_density_peak": 11387.2}}, {"type": "Feature", "geometry": {"type": "LineString", "coordinates": [[121.618291, 13.9374344], [121.6178986, 13.9374534]]}, "properties": {"city": "lucena", "name": "Old Manila South Road", "highway": "primary", "v_posted": 40, "posted_imputed": false, "v_safe": 30, "gap": 10, "R": 3.16, "exposure": 1.0, "vru_150m": 3, "sss": 25.0, "recommended": 30, "fatal_reduction_pct": 68.4, "why": "pedestrian activity (1 VRU site<=50m)", "pop_density": 34994.6, "pop_density_peak": 35844.3}}, {"type": "Feature", "geometry": {"type": "LineString", "coordinates": [[121.5810197, 13.9756305], [121.5845427, 13.9822544]]}, "properties": {"city": "lucena", "name": "Quezon Eco-Tourism Road Extension", "highway": "tertiary", "v_posted": 60, "posted_imputed": false, "v_safe": 50, "gap": 10, "R": 2.07, "exposure": 0.0, "vru_150m": 0, "sss": 12.5, "recommended": 50, "fatal_reduction_pct": 51.8, "why": "undivided arterial, side-impact intersections", "pop_density": 0.0, "pop_density_peak": 0.0}}]}