{"type": "FeatureCollection", "features": [{"type": "Feature", "geometry": {"type": "LineString", "coordinates": [[121.007057, 14.7558197], [121.0070978, 14.7557924], [121.0071364, 14.7557472], [121.0071788, 14.755667], [121.007219, 14.7555709], [121.0072499, 14.7554812], [121.0072674, 14.7554007], [121.0072724, 14.7553253], [121.0072676, 14.7552175], [121.0072639, 14.7551592], [121.007263, 14.7550914], [121.0072691, 14.755025]]}, "properties": {"city": "sjdm", "name": "", "highway": "unclassified", "v_posted": 40, "posted_imputed": false, "v_safe": 30, "gap": 10, "R": 3.16, "exposure": 0.184, "vru_150m": 0, "sss": 14.8, "recommended": 30, "fatal_reduction_pct": 68.4, "why": "local road, frontage/pedestrian mixing", "pop_density": 5958.2, "pop_density_peak": 5974.8}}, {"type": "Feature", "geometry": {"type": "LineString", "coordinates": [[121.0065189, 14.7552707], [121.0065642, 14.7551088], [121.006584, 14.7550115], [121.0065992, 14.7549272], [121.0066199, 14.7548543], [121.0066414, 14.7547963], [121.0067373, 14.7545619]]}, "properties": {"city": "sjdm", "name": "Barcelona Street", "highway": "unclassified", "v_posted": 40, "posted_imputed": false, "v_safe": 30, "gap": 10, "R": 3.16, "exposure": 0.189, "vru_150m": 0, "sss": 14.9, "recommended": 30, "fatal_reduction_pct": 68.4, "why": "local road, frontage/pedestrian mixing", "pop_density": 6098.0, "pop_density_peak": 6128.7}}, {"type": "Feature", "geometry": {"type": "LineString", "coordinates": [[121.0317291, 14.7536728], [121.0315877, 14.7540277], [121.03157, 14.7540722], [121.0314431, 14.7543563], [121.0312365, 14.7546326], [121.0309827, 14.7549586], [121.0309401, 14.7550133], [121.0306207, 14.7554145], [121.0305647, 14.7554848], [121.0303897, 14.7557166], [121.0303624, 14.7557527], [121.030294, 14.7558433], [121.0302059, 14.7559431], [121.0301086, 14.7560449]]}, "properties": {"city": "sjdm", "name": "Congressional Road", "highway": "secondary", "v_posted": 40, "posted_imputed": false, "v_safe": 30, "gap": 10, "R": 3.16, "exposure": 0.557, "vru_150m": 1, "sss": 19.5, "recommended": 30, "fatal_reduction_pct": 68.4, "why": "pedestrian activity (1 VRU site<=50m)", "pop_density": 14450.6, "pop_density_peak": 29398.8}}, {"type": "Feature", "geometry": {"type": "LineString", "coordinates": [[120.9978175, 14.755287], [120.9979239, 14.7550939], [120.9981573, 14.7546723], [120.9982896, 14.7544238], [120.9983996, 14.7541982], [120.9985738, 14.7538158]]}, "properties": {"city": "sjdm", "name": "Galas Road", "highway": "unclassified", "v_posted": 40, "posted_imputed": false, "v_safe": 30, "gap": 10, "R": 3.16, "exposure": 0.305, "vru_150m": 0, "sss": 16.3, "recommended": 30, "fatal_reduction_pct": 68.4, "why": "local road, frontage/pedestrian mixing", "pop_density": 9871.2, "pop_density_peak": 11314.8}}, {"type": "Feature", "geometry": {"type": "LineString", "coordinates": [[121.0263514, 14.786804], [121.0260291, 14.7865295], [121.0258585, 14.7863843], [121.0252782, 14.78589], [121.0247882, 14.7854727], [121.0244016, 14.7851565], [121.0243438, 14.7851053], [121.0243117, 14.7850696], [121.0242856, 14.7850202], [121.0242679, 14.7849583], [121.0242594, 14.7849179], [121.024254, 14.7848479], [121.0242531, 14.7847876]]}, "properties": {"city": "sjdm", "name": "", "highway": "tertiary", "v_posted": 40, "posted_imputed": false, "v_safe": 30, "gap": 10, "R": 3.16, "exposure": 0.807, "vru_150m": 4, "sss": 22.6, "recommended": 30, "fatal_reduction_pct": 68.4, "why": "pedestrian activity (1 VRU site<=50m)", "pop_density": 1182.4, "pop_density_peak": 1327.0}}, {"type": "Feature", "geometry": {"type": "LineString", "coordinates": [[120.9968614, 14.7560831], [120.9970487, 14.7559395], [120.9975794, 14.7555325], [120.9976647, 14.7554678], [120.9977491, 14.7553783], [120.9978175, 14.755287]]}, "properties": {"city": "sjdm", "name": "Galas Road", "highway": "unclassified", "v_posted": 40, "posted_imputed": false, "v_safe": 30, "gap": 10, "R": 3.16, "exposure": 0.369, "vru_150m": 0, "sss": 17.1, "recommended": 30, "fatal_reduction_pct": 68.4, "why": "local road, frontage/pedestrian mixing", "pop_density": 11921.5, "pop_density_peak": 12528.3}}, {"type": "Feature", "geometry": {"type": "LineString", "coordinates": [[121.0065189, 14.7552707], [121.0066432, 14.7553042], [121.0067169, 14.7553277], [121.0067753, 14.7553528], [121.0068126, 14.7553776], [121.0068503, 14.7554219], [121.0068804, 14.7554766], [121.0069219, 14.7555573], [121.007057, 14.7558197]]}, "properties": {"city": "sjdm", "name": "Salamanca Street", "highway": "unclassified", "v_posted": 40, "posted_imputed": false, "v_safe": 30, "gap": 10, "R": 3.16, "exposure": 0.187, "vru_150m": 0, "sss": 14.8, "recommended": 30, "fatal_reduction_pct": 68.4, "why": "local road, frontage/pedestrian mixing", "pop_density": 6051.8, "pop_density_peak": 6128.7}}, {"type": "Feature", "geometry": {"type": "LineString", "coordinates": [[121.0599451, 14.7682541], [121.0599113, 14.7682832], [121.0598651, 14.7682994], [121.0596897, 14.768322], [121.0593836, 14.7683681], [121.0592794, 14.7683833], [121.0591832, 14.7684054], [121.0590916, 14.7684382], [121.0590252, 14.7684701], [121.05898, 14.7684942], [121.0589437, 14.7685181], [121.0588457, 14.7685881], [121.0586121, 14.7687805], [121.0584489, 14.7689063], [121.0582213, 14.7690435], [121.0579625, 14.7691956], [121.0576613, 14.7693678], [121.0575214, 14.7694466], [121.0571809, 14.7696573], [121.0570981, 14.7697197], [121.0570159, 14.7697918], [121.0569532, 14.7698633], [121.0569059, 14.7699281], [121.056872, 14.7700031], [121.0567659, 14.7702842], [121.0567116, 14.7704681], [121.0567005, 14.7704963], [121.056676, 14.7705583], [121.0565889, 14.7706857], [121.0564785, 14.7708532], [121.0563845, 14.7709622]]}, "properties": {"city": "sjdm", "name": "Langit Road", "highway": "secondary", "v_posted": 40, "posted_imputed": false, "v_safe": 30, "gap": 10, "R": 3.16, "exposure": 1.0, "vru_150m": 3, "sss": 25.0, "recommended": 30, "fatal_reduction_pct": 68.4, "why": "pedestrian activity (1 VRU site<=50m)", "pop_density": 84784.7, "pop_density_peak": 152225.2}}, {"type": "Feature", "geometry": {"type": "LineString", "coordinates": [[121.0575868, 14.757118], [121.0576246, 14.757084], [121.0576514, 14.7570335], [121.0577527, 14.7567357], [121.0577839, 14.7566688], [121.0578269, 14.7566081]]}, "properties": {"city": "sjdm", "name": "Camarin Road", "highway": "secondary", "v_posted": 40, "posted_imputed": false, "v_safe": 30, "gap": 10, "R": 3.16, "exposure": 0.918, "vru_150m": 2, "sss": 24.0, "recommended": 30, "fatal_reduction_pct": 68.4, "why": "pedestrian activity (1 VRU site<=50m)", "pop_density": 27927.9, "pop_density_peak": 29360.3}}, {"type": "Feature", "geometry": {"type": "LineString", "coordinates": [[121.043468, 14.7560515], [121.0434906, 14.7560531], [121.0436771, 14.7560651]]}, "properties": {"city": "sjdm", "name": "Camarin Road", "highway": "secondary", "v_posted": 40, "posted_imputed": false, "v_safe": 30, "gap": 10, "R": 3.16, "exposure": 1.0, "vru_150m": 6, "sss": 25.0, "recommended": 30, "fatal_reduction_pct": 68.4, "why": "pedestrian activity (1 VRU site<=50m)", "pop_density": 56969.0, "pop_density_peak": 57411.6}}, {"type": "Feature", "geometry": {"type": "LineString", "coordinates": [[121.0695218, 14.7983432], [121.0695706, 14.7983052], [121.0697349, 14.7981773], [121.0698533, 14.7980851], [121.0699616, 14.7980008], [121.0699669, 14.7979967], [121.0700924, 14.7979011], [121.0702032, 14.7978167], [121.0702321, 14.7977948], [121.0704166, 14.7976582], [121.0705071, 14.7975885], [121.0710203, 14.7971928], [121.0717046, 14.7966598], [121.0719307, 14.796491], [121.0722295, 14.7962721], [121.072431, 14.7961151], [121.0725142, 14.7960441], [121.0727421, 14.7958612], [121.0727723, 14.7958341], [121.0729542, 14.7956965], [121.0729841, 14.795664], [121.0730796, 14.7955603], [121.0731541, 14.7954553], [121.0732613, 14.7952718], [121.0733137, 14.7951824], [121.0733962, 14.7950222], [121.0734446, 14.7949198], [121.0735007, 14.7948011], [121.0735316, 14.7947344], [121.0736, 14.7945846], [121.0737146, 14.7943538], [121.0737747, 14.7942183], [121.0738032, 14.7941437], [121.073834, 14.79404], [121.0738769, 14.7938935], [121.0739161, 14.793744], [121.0739303, 14.7936697], [121.0739748, 14.7933269], [121.0740495, 14.7929008], [121.0741303, 14.792438], [121.0741666, 14.7922299], [121.0741807, 14.7921486], [121.0742007, 14.7920327], [121.0743043, 14.7914337], [121.0743278, 14.7912978], [121.0743473, 14.7911805]]}, "properties": {"city": "sjdm", "name": "Quirino Highway", "highway": "primary", "v_posted": 60, "posted_imputed": false, "v_safe": 50, "gap": 10, "R": 2.07, "exposure": 0.261, "vru_150m": 1, "sss": 15.8, "recommended": 50, "fatal_reduction_pct": 51.8, "why": "undivided arterial, side-impact intersections", "pop_density": 2471.2, "pop_density_peak": 7357.5}}, {"type": "Feature", "geometry": {"type": "LineString", "coordinates": [[121.0740011, 14.7801357], [121.0739941, 14.7799365], [121.0739974, 14.7798005], [121.0740116, 14.7796807], [121.0740365, 14.7795365]]}, "properties": {"city": "sjdm", "name": "Quirino Highway", "highway": "primary", "v_posted": 60, "posted_imputed": false, "v_safe": 50, "gap": 10, "R": 2.07, "exposure": 0.276, "vru_150m": 0, "sss": 16.0, "recommended": 50, "fatal_reduction_pct": 51.8, "why": "undivided arterial, side-impact intersections", "pop_density": 8940.8, "pop_density_peak": 9553.4}}, {"type": "Feature", "geometry": {"type": "LineString", "coordinates": [[121.0746122, 14.7834245], [121.0746614, 14.7832862], [121.0746897, 14.7831854], [121.0747043, 14.7831084], [121.0747118, 14.7830029], [121.0747054, 14.7829594], [121.074679, 14.7828984], [121.0745001, 14.7824864], [121.0743803, 14.7821381], [121.074318, 14.7819509], [121.0741056, 14.7810416], [121.0740838, 14.7809307], [121.0740747, 14.7808848], [121.0740351, 14.7806221], [121.0740137, 14.7803755], [121.0740011, 14.7801357]]}, "properties": {"city": "sjdm", "name": "Quirino Highway", "highway": "primary", "v_posted": 60, "posted_imputed": false, "v_safe": 50, "gap": 10, "R": 2.07, "exposure": 0.206, "vru_150m": 0, "sss": 15.1, "recommended": 50, "fatal_reduction_pct": 51.8, "why": "undivided arterial, side-impact intersections", "pop_density": 6667.1, "pop_density_peak": 8328.2}}, {"type": "Feature", "geometry": {"type": "LineString", "coordinates": [[121.0766142, 14.7755194], [121.0765162, 14.7755587], [121.0763794, 14.7756113], [121.0763154, 14.7756396], [121.0762322, 14.7756843], [121.0761738, 14.7757257], [121.0761112, 14.7757769], [121.0759907, 14.7758804]]}, "properties": {"city": "sjdm", "name": "Quirino Highway", "highway": "primary", "v_posted": 60, "posted_imputed": false, "v_safe": 50, "gap": 10, "R": 2.07, "exposure": 0.448, "vru_150m": 0, "sss": 18.1, "recommended": 50, "fatal_reduction_pct": 51.8, "why": "undivided arterial, side-impact intersections", "pop_density": 14491.6, "pop_density_peak": 15347.6}}, {"type": "Feature", "geometry": {"type": "LineString", "coordinates": [[121.0759907, 14.7758804], [121.0761501, 14.775658], [121.0762029, 14.7755974], [121.0762534, 14.7755568], [121.0763311, 14.7755101], [121.0763982, 14.7754739], [121.0764827, 14.7754414], [121.0765854, 14.7753987]]}, "properties": {"city": "sjdm", "name": "Quirino Highway", "highway": "primary", "v_posted": 60, "posted_imputed": false, "v_safe": 50, "gap": 10, "R": 2.07, "exposure": 0.448, "vru_150m": 0, "sss": 18.1, "recommended": 50, "fatal_reduction_pct": 51.8, "why": "undivided arterial, side-impact intersections", "pop_density": 14491.6, "pop_density_peak": 15347.6}}, {"type": "Feature", "geometry": {"type": "LineString", "coordinates": [[121.0740365, 14.7795365], [121.0740503, 14.7794671], [121.0740882, 14.7793116], [121.0741159, 14.7792174], [121.0742072, 14.7789695], [121.0742451, 14.7788655], [121.0743074, 14.7786762], [121.0743148, 14.7786531], [121.0743489, 14.7785501], [121.0743805, 14.7784252], [121.0744005, 14.7783494], [121.0744461, 14.7782009], [121.0744861, 14.7780862], [121.0745232, 14.7780254], [121.0746037, 14.7778948], [121.0748613, 14.7775927], [121.0749129, 14.7775318], [121.07512, 14.7772784], [121.0751723, 14.7772003], [121.0752276, 14.7771114], [121.0752404, 14.7770917], [121.0752888, 14.7770204], [121.0753441, 14.7769251], [121.0754702, 14.7767174], [121.0756638, 14.7763889], [121.0758655, 14.7760809], [121.0759674, 14.7759133], [121.0759907, 14.7758804]]}, "properties": {"city": "sjdm", "name": "Quirino Highway", "highway": "primary", "v_posted": 60, "posted_imputed": false, "v_safe": 50, "gap": 10, "R": 2.07, "exposure": 0.513, "vru_150m": 1, "sss": 18.9, "recommended": 50, "fatal_reduction_pct": 51.8, "why": "undivided arterial, side-impact intersections", "pop_density": 12638.3, "pop_density_peak": 14950.1}}, {"type": "Feature", "geometry": {"type": "LineString", "coordinates": [[121.074675, 14.788882], [121.0746688, 14.7886302], [121.0746557, 14.7884366], [121.0746456, 14.7883435]]}, "properties": {"city": "sjdm", "name": "Quirino Highway", "highway": "primary", "v_posted": 60, "posted_imputed": false, "v_safe": 30, "gap": 30, "R": 16.0, "exposure": 1.0, "vru_150m": 6, "sss": 75.0, "recommended": 30, "fatal_reduction_pct": 93.8, "why": "pedestrian activity (1 VRU site<=50m)", "pop_density": 9450.3, "pop_density_peak": 9450.3}}, {"type": "Feature", "geometry": {"type": "LineString", "coordinates": [[121.0743473, 14.7911805], [121.0743662, 14.7910705], [121.0744128, 14.7908], [121.0744784, 14.7903551], [121.0744921, 14.7902781], [121.0745227, 14.7901056], [121.0745556, 14.7899209], [121.0745959, 14.7896941]]}, "properties": {"city": "sjdm", "name": "Quirino Highway", "highway": "primary", "v_posted": 60, "posted_imputed": false, "v_safe": 30, "gap": 30, "R": 16.0, "exposure": 0.71, "vru_150m": 3, "sss": 64.1, "recommended": 30, "fatal_reduction_pct": 93.8, "why": "pedestrian activity (2 VRU site<=50m)", "pop_density": 8876.9, "pop_density_peak": 10396.2}}, {"type": "Feature", "geometry": {"type": "LineString", "coordinates": [[121.0747887, 14.786952], [121.0747919, 14.7868914], [121.0747962, 14.7868095], [121.0747881, 14.7866937], [121.074768, 14.7865859], [121.0747261, 14.7864387], [121.0746971, 14.7863053], [121.0746818, 14.7861469], [121.0746814, 14.7859982], [121.0746832, 14.78585], [121.0747, 14.785502], [121.0747115, 14.7852642]]}, "properties": {"city": "sjdm", "name": "Quirino Highway", "highway": "primary", "v_posted": 60, "posted_imputed": false, "v_safe": 30, "gap": 30, "R": 16.0, "exposure": 0.829, "vru_150m": 4, "sss": 68.6, "recommended": 30, "fatal_reduction_pct": 93.8, "why": "pedestrian activity (2 VRU site<=50m)", "pop_density": 4694.9, "pop_density_peak": 8217.1}}, {"type": "Feature", "geometry": {"type": "LineString", "coordinates": [[121.0746255, 14.7881353], [121.074616, 14.787978], [121.0746275, 14.787768], [121.0746452, 14.7876414], [121.0746692, 14.7875205], [121.0747119, 14.7873216], [121.0747556, 14.7871375], [121.0747887, 14.786952]]}, "properties": {"city": "sjdm", "name": "Quirino Highway", "highway": "primary", "v_posted": 60, "posted_imputed": false, "v_safe": 30, "gap": 30, "R": 16.0, "exposure": 1.0, "vru_150m": 6, "sss": 75.0, "recommended": 30, "fatal_reduction_pct": 93.8, "why": "pedestrian activity (1 VRU site<=50m)", "pop_density": 8076.3, "pop_density_peak": 8217.1}}, {"type": "Feature", "geometry": {"type": "LineString", "coordinates": [[121.0649291, 14.7616716], [121.0650182, 14.7616836], [121.0650936, 14.7616931], [121.065214, 14.761712], [121.0652549, 14.7617206], [121.0653006, 14.7617355], [121.0653528, 14.7617673], [121.0654181, 14.7618169]]}, "properties": {"city": "sjdm", "name": "Camarin Road", "highway": "secondary", "v_posted": 40, "posted_imputed": false, "v_safe": 30, "gap": 10, "R": 3.16, "exposure": 0.647, "vru_150m": 2, "sss": 20.6, "recommended": 30, "fatal_reduction_pct": 68.4, "why": "pedestrian activity (1 VRU site<=50m)", "pop_density": 13328.1, "pop_density_peak": 13917.0}}, {"type": "Feature", "geometry": {"type": "LineString", "coordinates": [[121.0745959, 14.7896941], [121.074661, 14.7893633], [121.0746741, 14.7892284], [121.0746797, 14.7890736]]}, "properties": {"city": "sjdm", "name": "Quirino Highway", "highway": "primary", "v_posted": 60, "posted_imputed": false, "v_safe": 50, "gap": 10, "R": 2.07, "exposure": 1.0, "vru_150m": 7, "sss": 25.0, "recommended": 50, "fatal_reduction_pct": 51.8, "why": "undivided arterial, side-impact intersections", "pop_density": 10396.2, "pop_density_peak": 10396.2}}, {"type": "Feature", "geometry": {"type": "LineString", "coordinates": [[121.0746797, 14.7890736], [121.074675, 14.788882]]}, "properties": {"city": "sjdm", "name": "Quirino Highway", "highway": "primary", "v_posted": 60, "posted_imputed": false, "v_safe": 50, "gap": 10, "R": 2.07, "exposure": 1.0, "vru_150m": 7, "sss": 25.0, "recommended": 50, "fatal_reduction_pct": 51.8, "why": "undivided arterial, side-impact intersections", "pop_density": 9923.2, "pop_density_peak": 10396.2}}, {"type": "Feature", "geometry": {"type": "LineString", "coordinates": [[121.0746456, 14.7883435], [121.0746255, 14.7881353]]}, "properties": {"city": "sjdm", "name": "Quirino Highway", "highway": "primary", "v_posted": 60, "posted_imputed": false, "v_safe": 30, "gap": 30, "R": 16.0, "exposure": 1.0, "vru_150m": 7, "sss": 75.0, "recommended": 30, "fatal_reduction_pct": 93.8, "why": "pedestrian activity (1 VRU site<=50m)", "pop_density": 8692.9, "pop_density_peak": 9450.3}}, {"type": "Feature", "geometry": {"type": "LineString", "coordinates": [[121.0647833, 14.7920003], [121.0648342, 14.7919878], [121.0653382, 14.791854], [121.0656338, 14.7917837], [121.0657485, 14.7917568], [121.0660718, 14.7917495], [121.066352, 14.7917743], [121.0666426, 14.7918067], [121.0668047, 14.7918385], [121.0670173, 14.7918851], [121.0670795, 14.7918988], [121.0675806, 14.792094], [121.0681225, 14.7923576], [121.0681519, 14.7923786], [121.0686902, 14.7926751], [121.0691451, 14.7928494], [121.0693283, 14.792908]]}, "properties": {"city": "sjdm", "name": "Santa Maria - Tungkong Mangga Road", "highway": "primary", "v_posted": 50, "posted_imputed": false, "v_safe": 30, "gap": 20, "R": 7.72, "exposure": 0.841, "vru_150m": 4, "sss": 46.0, "recommended": 30, "fatal_reduction_pct": 87.0, "why": "pedestrian activity (2 VRU site<=50m)", "pop_density": 6703.6, "pop_density_peak": 8329.7}}, {"type": "Feature", "geometry": {"type": "LineString", "coordinates": [[121.0747223, 14.7850986], [121.0747293, 14.7850647]]}, "properties": {"city": "sjdm", "name": "Quirino Highway", "highway": "primary", "v_posted": 60, "posted_imputed": false, "v_safe": 50, "gap": 10, "R": 2.07, "exposure": 0.273, "vru_150m": 1, "sss": 15.9, "recommended": 50, "fatal_reduction_pct": 51.8, "why": "undivided arterial, side-impact intersections", "pop_density": 2933.7, "pop_density_peak": 2933.7}}, {"type": "Feature", "geometry": {"type": "LineString", "coordinates": [[121.0747369, 14.7850283], [121.0747525, 14.7849712], [121.074793, 14.7847609], [121.0747932, 14.7846743], [121.0747737, 14.7845908], [121.0746203, 14.7842363], [121.0745699, 14.7841273], [121.0745627, 14.7841041], [121.0745275, 14.7839659], [121.0745232, 14.7838835], [121.0745221, 14.7837277], [121.074528, 14.783664], [121.0745692, 14.7835352], [121.0746122, 14.7834245]]}, "properties": {"city": "sjdm", "name": "Quirino Highway", "highway": "primary", "v_posted": 60, "posted_imputed": false, "v_safe": 30, "gap": 30, "R": 16.0, "exposure": 0.279, "vru_150m": 1, "sss": 48.0, "recommended": 30, "fatal_reduction_pct": 93.8, "why": "pedestrian activity (1 VRU site<=50m)", "pop_density": 3201.9, "pop_density_peak": 3336.0}}, {"type": "Feature", "geometry": {"type": "LineString", "coordinates": [[121.0747293, 14.7850647], [121.0747369, 14.7850283]]}, "properties": {"city": "sjdm", "name": "Quirino Highway", "highway": "primary", "v_posted": 60, "posted_imputed": false, "v_safe": 50, "gap": 10, "R": 2.07, "exposure": 0.273, "vru_150m": 1, "sss": 15.9, "recommended": 50, "fatal_reduction_pct": 51.8, "why": "undivided arterial, side-impact intersections", "pop_density": 2933.7, "pop_density_peak": 2933.7}}, {"type": "Feature", "geometry": {"type": "LineString", "coordinates": [[121.0747115, 14.7852642], [121.0747223, 14.7850986]]}, "properties": {"city": "sjdm", "name": "Quirino Highway", "highway": "primary", "v_posted": 60, "posted_imputed": false, "v_safe": 50, "gap": 10, "R": 2.07, "exposure": 0.273, "vru_150m": 1, "sss": 15.9, "recommended": 50, "fatal_reduction_pct": 51.8, "why": "undivided arterial, side-impact intersections", "pop_density": 2933.7, "pop_density_peak": 2933.7}}, {"type": "Feature", "geometry": {"type": "LineString", "coordinates": [[121.0473031, 14.810297], [121.0476524, 14.8104623]]}, "properties": {"city": "sjdm", "name": "J. P. Rizal Street", "highway": "secondary", "v_posted": 40, "posted_imputed": false, "v_safe": 30, "gap": 10, "R": 3.16, "exposure": 1.0, "vru_150m": 7, "sss": 25.0, "recommended": 30, "fatal_reduction_pct": 68.4, "why": "pedestrian activity (3 VRU site<=50m)", "pop_density": 3008.8, "pop_density_peak": 3008.8}}, {"type": "Feature", "geometry": {"type": "LineString", "coordinates": [[121.0455985, 14.8140705], [121.0453291, 14.8139373]]}, "properties": {"city": "sjdm", "name": "Paso Street", "highway": "secondary", "v_posted": 40, "posted_imputed": false, "v_safe": 30, "gap": 10, "R": 3.16, "exposure": 0.259, "vru_150m": 1, "sss": 15.7, "recommended": 30, "fatal_reduction_pct": 68.4, "why": "pedestrian activity (1 VRU site<=50m)", "pop_density": 2393.7, "pop_density_peak": 2551.2}}, {"type": "Feature", "geometry": {"type": "LineString", "coordinates": [[121.0467735, 14.8112764], [121.0471803, 14.8105241], [121.0472176, 14.8104552], [121.0472881, 14.8103248], [121.0473031, 14.810297]]}, "properties": {"city": "sjdm", "name": "San Ignacio Street", "highway": "secondary", "v_posted": 40, "posted_imputed": false, "v_safe": 30, "gap": 10, "R": 3.16, "exposure": 1.0, "vru_150m": 7, "sss": 25.0, "recommended": 30, "fatal_reduction_pct": 68.4, "why": "pedestrian activity (5 VRU site<=50m)", "pop_density": 2842.2, "pop_density_peak": 3008.8}}, {"type": "Feature", "geometry": {"type": "LineString", "coordinates": [[121.0473031, 14.810297], [121.0474936, 14.810004], [121.0475536, 14.8099011], [121.0476086, 14.809798]]}, "properties": {"city": "sjdm", "name": "San Ignacio Street", "highway": "secondary", "v_posted": 40, "posted_imputed": false, "v_safe": 30, "gap": 10, "R": 3.16, "exposure": 1.0, "vru_150m": 8, "sss": 25.0, "recommended": 30, "fatal_reduction_pct": 68.4, "why": "pedestrian activity (4 VRU site<=50m)", "pop_density": 2506.4, "pop_density_peak": 3008.8}}, {"type": "Feature", "geometry": {"type": "LineString", "coordinates": [[121.0346098, 14.801997], [121.0345032, 14.8018137], [121.0343249, 14.8014908], [121.0342788, 14.8014262], [121.0342258, 14.8013716], [121.0341648, 14.8013313], [121.0341128, 14.8013095], [121.0340328, 14.8012786], [121.0339509, 14.8012489], [121.0338671, 14.8012181], [121.0334554, 14.80108], [121.0333145, 14.8009945], [121.0331965, 14.800894], [121.0330081, 14.8006911], [121.0328315, 14.8004287]]}, "properties": {"city": "sjdm", "name": "Carriedo Street", "highway": "secondary", "v_posted": 40, "posted_imputed": false, "v_safe": 30, "gap": 10, "R": 3.16, "exposure": 1.0, "vru_150m": 4, "sss": 25.0, "recommended": 30, "fatal_reduction_pct": 68.4, "why": "pedestrian activity (2 VRU site<=50m)", "pop_density": 50084.8, "pop_density_peak": 53583.5}}, {"type": "Feature", "geometry": {"type": "LineString", "coordinates": [[121.0936539, 14.8128271], [121.0939272, 14.8128732], [121.0942206, 14.8129532], [121.0943478, 14.8130135], [121.0944529, 14.8130954], [121.0945299, 14.8132133], [121.0946249, 14.8134358], [121.0946741, 14.8135342], [121.0947332, 14.8136277], [121.0948035, 14.8136989], [121.0948793, 14.8137611], [121.094974, 14.8138132], [121.0955615, 14.8140908], [121.0957088, 14.8141591], [121.0958087, 14.8141935], [121.0959409, 14.8142252], [121.0961151, 14.8142616], [121.0962465, 14.8142823], [121.0963832, 14.8143116], [121.0969028, 14.8144402], [121.0970512, 14.8144872], [121.0971874, 14.8145357], [121.0972886, 14.8145831], [121.0973865, 14.8146466], [121.0976805, 14.8148734], [121.0979964, 14.815117], [121.0983155, 14.8153604], [121.0986091, 14.815593], [121.0989719, 14.8158806], [121.0991124, 14.8159825], [121.09923, 14.8160502], [121.0993579, 14.8161013], [121.0995304, 14.8161538], [121.0996029, 14.8161703], [121.0999081, 14.8162577], [121.1000615, 14.816315], [121.1003451, 14.8164212], [121.1006035, 14.8165172], [121.1014619, 14.8168287], [121.101674, 14.8169026], [121.1021233, 14.8170931], [121.1025762, 14.8173401], [121.1030545, 14.8175635], [121.1032671, 14.8176529], [121.1033772, 14.8176935], [121.10351, 14.817722], [121.1036635, 14.8177442], [121.1038841, 14.8177641], [121.1041304, 14.8177746], [121.1042422, 14.8177773], [121.1043772, 14.817782], [121.1045064, 14.8177939], [121.1046593, 14.8178192], [121.1047912, 14.8178689], [121.1048973, 14.8179164], [121.1049999, 14.8179741], [121.1052597, 14.8181408], [121.1055244, 14.8183129], [121.1057757, 14.8184763], [121.1060148, 14.8186318], [121.1060701, 14.8186652], [121.1061412, 14.8186956], [121.1061881, 14.8187067], [121.106263, 14.8187088], [121.1063478, 14.8187034], [121.1064657, 14.8186914], [121.1065503, 14.8186862], [121.1066093, 14.8186982], [121.1066817, 14.8187307], [121.106741, 14.8187826], [121.1070535, 14.8191905], [121.1072369, 14.8196003], [121.1073214, 14.8197743], [121.1074002, 14.8198871], [121.1074957, 14.819974], [121.1075991, 14.8200282], [121.1077953, 14.8201105], [121.1080607, 14.8202091], [121.1082759, 14.82029], [121.1085022, 14.8203941], [121.1088247, 14.8205469]]}, "properties": {"city": "sjdm", "name": "Igay Road", "highway": "secondary", "v_posted": 80, "posted_imputed": false, "v_safe": 50, "gap": 30, "R": 6.55, "exposure": 0.4, "vru_150m": 0, "sss": 52.5, "recommended": 50, "fatal_reduction_pct": 84.7, "why": "undivided arterial, side-impact intersections", "pop_density": 12929.3, "pop_density_peak": 60831.5}}, {"type": "Feature", "geometry": {"type": "LineString", "coordinates": [[121.0728359, 14.814431], [121.0729551, 14.8144691], [121.0731324, 14.8145158], [121.0733195, 14.8145487], [121.0734965, 14.814555], [121.0738068, 14.8145839], [121.0739718, 14.8146273], [121.0740626, 14.8146843], [121.0741717, 14.8147791], [121.0743366, 14.8149583], [121.0744961, 14.8151455], [121.0748174, 14.8155222], [121.0748913, 14.8156088], [121.0752304, 14.8160428], [121.075259, 14.8160849], [121.0753685, 14.8162456], [121.0754135, 14.8163729], [121.0754256, 14.8165373], [121.0754041, 14.8166433], [121.0753122, 14.816854], [121.0752631, 14.8169858], [121.0752346, 14.8170816], [121.0752109, 14.8172097], [121.0752085, 14.8172943], [121.0752223, 14.8173806], [121.0752559, 14.8174939], [121.0754842, 14.8179514], [121.075551, 14.8180852], [121.0757111, 14.8183719], [121.0758065, 14.8185257], [121.0760384, 14.8188994], [121.0760723, 14.8189614], [121.0760938, 14.8190314], [121.0760964, 14.8191125], [121.076079, 14.8192006], [121.0760354, 14.8193102], [121.0759704, 14.8194522], [121.0759351, 14.8195387], [121.0759027, 14.8196071], [121.075845, 14.8197017], [121.0758168, 14.8197685], [121.0757987, 14.8198398], [121.075792, 14.8199273], [121.075788, 14.8200362], [121.0758034, 14.8201484], [121.0758604, 14.8202839], [121.0759241, 14.8203565], [121.0759791, 14.8204051], [121.0760522, 14.8204634], [121.0761444, 14.8205305], [121.0762306, 14.8205963], [121.0762708, 14.8206508], [121.0762896, 14.8207091], [121.0763003, 14.8207882], [121.0762829, 14.8209178], [121.0761997, 14.8213198], [121.0761804, 14.821381], [121.0761031, 14.8214753], [121.0759972, 14.8215687], [121.075847, 14.8216983], [121.0757303, 14.8218085], [121.0756753, 14.8219148], [121.075615, 14.8220937], [121.0755855, 14.8222286], [121.07556, 14.8225229], [121.0755506, 14.8227342], [121.0755659, 14.8229326], [121.0756899, 14.823365], [121.0758038, 14.8236992], [121.0758866, 14.8238821], [121.0759968, 14.8240236], [121.076251, 14.8242557], [121.0766521, 14.8245913], [121.076934, 14.8248187], [121.0770155, 14.8248669], [121.0771286, 14.8250255], [121.0772108, 14.8251592], [121.0772317, 14.8251955], [121.0773293, 14.8254323], [121.0773964, 14.8256109], [121.0774052, 14.8258378], [121.0774087, 14.8259119], [121.0774416, 14.8264694], [121.0774983, 14.8271107], [121.0775613, 14.8278639], [121.0775862, 14.82818], [121.0776393, 14.8287378], [121.0776546, 14.8289432], [121.0776716, 14.8291142], [121.0776796, 14.8292117], [121.0777146, 14.8295403], [121.0777729, 14.8299586], [121.0778093, 14.8302481], [121.0778242, 14.8304324], [121.0778339, 14.8306692], [121.0778175, 14.8307863], [121.0777577, 14.8309567], [121.0775905, 14.8313579], [121.0774579, 14.8316591], [121.0772892, 14.8320012], [121.0772326, 14.8321385], [121.0771679, 14.8322423], [121.0770318, 14.8324553], [121.0768496, 14.8326837], [121.0767163, 14.8328673], [121.0766686, 14.8329456], [121.0766001, 14.8330465], [121.0764049, 14.8333595], [121.0763238, 14.8335287], [121.0762628, 14.8336942], [121.0762397, 14.8339099], [121.0762622, 14.83403], [121.0763038, 14.8341242]]}, "properties": {"city": "sjdm", "name": "Quirino Highway", "highway": "primary", "v_posted": 60, "posted_imputed": false, "v_safe": 50, "gap": 10, "R": 2.07, "exposure": 0.386, "vru_150m": 1, "sss": 17.3, "recommended": 50, "fatal_reduction_pct": 51.8, "why": "undivided arterial, side-impact intersections", "pop_density": 7529.0, "pop_density_peak": 12892.6}}, {"type": "Feature", "geometry": {"type": "LineString", "coordinates": [[121.072203, 14.813095], [121.0718121, 14.812369], [121.0717058, 14.8121523], [121.0713798, 14.8117904], [121.0711046, 14.8115105], [121.0710144, 14.811415], [121.0709556, 14.811346], [121.0708721, 14.8112311], [121.0708255, 14.8111488], [121.0707948, 14.8110913], [121.0707588, 14.8110237], [121.0706733, 14.8108336], [121.0705568, 14.8105555], [121.0704001, 14.8100634], [121.0703813, 14.8100089], [121.0703619, 14.809948], [121.0700286, 14.8091551], [121.0699558, 14.8090214], [121.0698719, 14.8089143], [121.069788, 14.8088231], [121.0692224, 14.8083059], [121.06902, 14.8081019], [121.0689492, 14.8079973], [121.0688841, 14.807864], [121.0688728, 14.8078391], [121.0688572, 14.8078046], [121.0687834, 14.8076415], [121.0687699, 14.8076056], [121.0686319, 14.8072395], [121.0685213, 14.806879], [121.0684945, 14.8067908], [121.0684693, 14.8066799], [121.0684426, 14.8065713], [121.068422, 14.8064669], [121.0684197, 14.8064342], [121.068407, 14.8062519], [121.0684024, 14.8061867], [121.0683987, 14.8061336], [121.0683855, 14.8059455], [121.0683782, 14.8058408], [121.0683576, 14.8054524], [121.0683476, 14.8051986], [121.0683463, 14.8051663], [121.0683308, 14.8047723], [121.0683239, 14.8046793], [121.0683348, 14.8045828], [121.0683442, 14.8044817], [121.068377, 14.804339], [121.0684253, 14.804164], [121.0684656, 14.8040732], [121.0685313, 14.803906], [121.0686667, 14.8035637], [121.0688089, 14.8032305], [121.0688672, 14.8030236], [121.0688699, 14.8029621], [121.0688585, 14.8028946], [121.068823, 14.8028104], [121.0687747, 14.8027164], [121.0687123, 14.8025977], [121.0686681, 14.8025121], [121.0686426, 14.8024305], [121.0686312, 14.8023562], [121.0686198, 14.8022392], [121.0686265, 14.8021471], [121.0686359, 14.8020428], [121.0686472, 14.80197]]}, "properties": {"city": "sjdm", "name": "Quirino Highway", "highway": "primary", "v_posted": 60, "posted_imputed": false, "v_safe": 50, "gap": 10, "R": 2.07, "exposure": 0.637, "vru_150m": 3, "sss": 20.5, "recommended": 50, "fatal_reduction_pct": 51.8, "why": "undivided arterial, side-impact intersections", "pop_density": 3006.1, "pop_density_peak": 8756.5}}, {"type": "Feature", "geometry": {"type": "LineString", "coordinates": [[121.0768364, 14.8110212], [121.0768594, 14.8109502], [121.0768776, 14.8108744], [121.0768889, 14.8108076], [121.0768951, 14.8107168], [121.0769016, 14.8106143], [121.0769172, 14.8105288], [121.0769454, 14.8104679], [121.0769816, 14.8104167], [121.0770466, 14.8103629], [121.0771318, 14.8103402], [121.0772297, 14.8103434], [121.077339, 14.810361], [121.0774597, 14.8103953], [121.0776917, 14.8104718], [121.0777876, 14.8104925], [121.0778986, 14.8104938], [121.0780005, 14.8104745], [121.0781226, 14.8104289], [121.0782718, 14.8103434], [121.0784273, 14.8102332], [121.0785601, 14.8101285], [121.0786673, 14.8100362], [121.0787541, 14.8099382], [121.078862, 14.8097907], [121.0790543, 14.8095512], [121.0791121, 14.8094849], [121.0791777, 14.8094143], [121.0792528, 14.8093576], [121.079325, 14.8093255], [121.0794193, 14.8093012], [121.0795444, 14.809288], [121.0799789, 14.8092602], [121.0803196, 14.8092401], [121.0805275, 14.8092232], [121.0807434, 14.8091908], [121.0812818, 14.8090855], [121.081384, 14.8090598], [121.0814977, 14.8090267], [121.0815909, 14.8089911], [121.0817036, 14.8089298], [121.0818004, 14.8088547], [121.0819021, 14.80875], [121.0822749, 14.8083441], [121.082515, 14.8080706], [121.082658, 14.807905], [121.0828529, 14.8077218], [121.0829864, 14.807618], [121.0831292, 14.8075197], [121.0832131, 14.8074765], [121.0833032, 14.8074473], [121.0834062, 14.8074318], [121.0834963, 14.8074403], [121.083598, 14.8074626], [121.0837244, 14.8075081], [121.0838279, 14.8075623], [121.0839951, 14.8076758], [121.0844368, 14.8081053], [121.0845606, 14.8082485], [121.0847238, 14.8084751], [121.0848084, 14.8085863], [121.0849087, 14.8086845], [121.0850152, 14.8087682], [121.085182, 14.8088488], [121.085316, 14.808896], [121.085439, 14.8089255], [121.0855246, 14.8089433], [121.0856611, 14.8089717], [121.0857892, 14.8090077], [121.0859238, 14.8090746], [121.0860614, 14.8091596], [121.0861745, 14.8092398], [121.0862444, 14.809321], [121.0863498, 14.809435], [121.0863932, 14.8094773], [121.0864547, 14.8095144], [121.0865316, 14.8095369], [121.0867552, 14.8095702], [121.0868863, 14.8095883], [121.0871146, 14.8096197], [121.0872704, 14.8096655], [121.0873897, 14.8097182], [121.0875038, 14.8097899], [121.0876693, 14.8098864], [121.0880775, 14.8101016], [121.0883321, 14.8102592], [121.0886488, 14.810477], [121.0886984, 14.8105209], [121.0887811, 14.8106382], [121.0888336, 14.8108025], [121.0888766, 14.8111846], [121.0888829, 14.8115058], [121.0888919, 14.8115756], [121.0889275, 14.8116786], [121.0889872, 14.811761], [121.0890825, 14.8118167], [121.0891712, 14.8118537], [121.0894005, 14.8119041], [121.0896423, 14.8119317], [121.0900491, 14.81197], [121.0905317, 14.8119999], [121.0907537, 14.8120218], [121.0910182, 14.8120344], [121.0912032, 14.8120423], [121.0916477, 14.8120692], [121.0922181, 14.8121052], [121.0922698, 14.8121126], [121.092325, 14.8121245], [121.0923751, 14.8121473], [121.0924252, 14.8121781], [121.0929206, 14.8125742], [121.0930425, 14.8126517], [121.0931897, 14.8127327], [121.0933214, 14.8127736]]}, "properties": {"city": "sjdm", "name": "Igay Road", "highway": "secondary", "v_posted": 80, "posted_imputed": false, "v_safe": 50, "gap": 30, "R": 6.55, "exposure": 0.552, "vru_150m": 0, "sss": 58.2, "recommended": 50, "fatal_reduction_pct": 84.7, "why": "undivided arterial, side-impact intersections", "pop_density": 17848.3, "pop_density_peak": 60831.5}}, {"type": "Feature", "geometry": {"type": "LineString", "coordinates": [[121.0933214, 14.8127736], [121.0936539, 14.8128271]]}, "properties": {"city": "sjdm", "name": "Igay Road", "highway": "secondary", "v_posted": 80, "posted_imputed": false, "v_safe": 50, "gap": 30, "R": 6.55, "exposure": 1.0, "vru_150m": 0, "sss": 75.0, "recommended": 50, "fatal_reduction_pct": 84.7, "why": "undivided arterial, side-impact intersections", "pop_density": 60831.5, "pop_density_peak": 60831.5}}, {"type": "Feature", "geometry": {"type": "LineString", "coordinates": [[121.0686472, 14.80197], [121.0686663, 14.8018336]]}, "properties": {"city": "sjdm", "name": "Quirino Highway", "highway": "primary", "v_posted": 60, "posted_imputed": false, "v_safe": 50, "gap": 10, "R": 2.07, "exposure": 0.269, "vru_150m": 1, "sss": 15.9, "recommended": 50, "fatal_reduction_pct": 51.8, "why": "undivided arterial, side-impact intersections", "pop_density": 2795.7, "pop_density_peak": 2795.7}}, {"type": "Feature", "geometry": {"type": "LineString", "coordinates": [[121.0722764, 14.8133087], [121.0722802, 14.8133834], [121.0722857, 14.8134726], [121.0722965, 14.8135583], [121.0723161, 14.8136601], [121.0723502, 14.8137774], [121.0723989, 14.8138955], [121.0725491, 14.814156], [121.0725721, 14.8141921], [121.0726041, 14.8142424]]}, "properties": {"city": "sjdm", "name": "Quirino Highway", "highway": "primary", "v_posted": 60, "posted_imputed": false, "v_safe": 30, "gap": 30, "R": 16.0, "exposure": 0.528, "vru_150m": 1, "sss": 57.3, "recommended": 30, "fatal_reduction_pct": 93.8, "why": "pedestrian activity (1 VRU site<=50m)", "pop_density": 13246.9, "pop_density_peak": 13812.9}}, {"type": "Feature", "geometry": {"type": "LineString", "coordinates": [[121.0724902, 14.8143041], [121.0724367, 14.8142418], [121.0723468, 14.8140935], [121.0722774, 14.813952], [121.0722262, 14.8138372], [121.0722045, 14.8137681], [121.0721878, 14.8136957], [121.0721714, 14.8136019]]}, "properties": {"city": "sjdm", "name": "Quirino Highway", "highway": "primary", "v_posted": 60, "posted_imputed": false, "v_safe": 30, "gap": 30, "R": 16.0, "exposure": 0.528, "vru_150m": 1, "sss": 57.3, "recommended": 30, "fatal_reduction_pct": 93.8, "why": "pedestrian activity (1 VRU site<=50m)", "pop_density": 13246.9, "pop_density_peak": 13812.9}}, {"type": "Feature", "geometry": {"type": "LineString", "coordinates": [[121.0725404, 14.8143431], [121.0724902, 14.8143041]]}, "properties": {"city": "sjdm", "name": "Quirino Highway", "highway": "primary", "v_posted": 60, "posted_imputed": false, "v_safe": 30, "gap": 30, "R": 16.0, "exposure": 0.542, "vru_150m": 1, "sss": 57.8, "recommended": 30, "fatal_reduction_pct": 93.8, "why": "pedestrian activity (1 VRU site<=50m)", "pop_density": 13812.9, "pop_density_peak": 13812.9}}, {"type": "Feature", "geometry": {"type": "LineString", "coordinates": [[121.072203, 14.813095], [121.0722718, 14.8132328]]}, "properties": {"city": "sjdm", "name": "Quirino Highway", "highway": "primary", "v_posted": 60, "posted_imputed": false, "v_safe": 50, "gap": 10, "R": 2.07, "exposure": 0.465, "vru_150m": 1, "sss": 18.3, "recommended": 50, "fatal_reduction_pct": 51.8, "why": "undivided arterial, side-impact intersections", "pop_density": 10718.7, "pop_density_peak": 12680.9}}, {"type": "Feature", "geometry": {"type": "LineString", "coordinates": [[121.0721794, 14.8132037], [121.072203, 14.813095]]}, "properties": {"city": "sjdm", "name": "Quirino Highway", "highway": "primary", "v_posted": 60, "posted_imputed": false, "v_safe": 50, "gap": 10, "R": 2.07, "exposure": 0.465, "vru_150m": 1, "sss": 18.3, "recommended": 50, "fatal_reduction_pct": 51.8, "why": "undivided arterial, side-impact intersections", "pop_density": 10718.7, "pop_density_peak": 12680.9}}, {"type": "Feature", "geometry": {"type": "LineString", "coordinates": [[121.0726041, 14.8142424], [121.0728359, 14.814431]]}, "properties": {"city": "sjdm", "name": "Quirino Highway", "highway": "primary", "v_posted": 60, "posted_imputed": false, "v_safe": 50, "gap": 10, "R": 2.07, "exposure": 0.53, "vru_150m": 1, "sss": 19.1, "recommended": 50, "fatal_reduction_pct": 51.8, "why": "undivided arterial, side-impact intersections", "pop_density": 13352.7, "pop_density_peak": 13812.9}}, {"type": "Feature", "geometry": {"type": "LineString", "coordinates": [[121.0721714, 14.8136019], [121.0721659, 14.8135167], [121.0721637, 14.8133715], [121.0721707, 14.8132766]]}, "properties": {"city": "sjdm", "name": "Quirino Highway", "highway": "primary", "v_posted": 60, "posted_imputed": false, "v_safe": 50, "gap": 10, "R": 2.07, "exposure": 0.514, "vru_150m": 1, "sss": 18.9, "recommended": 50, "fatal_reduction_pct": 51.8, "why": "undivided arterial, side-impact intersections", "pop_density": 12680.9, "pop_density_peak": 12680.9}}, {"type": "Feature", "geometry": {"type": "LineString", "coordinates": [[121.0728359, 14.814431], [121.0726502, 14.8143869], [121.0725404, 14.8143431]]}, "properties": {"city": "sjdm", "name": "Quirino Highway", "highway": "primary", "v_posted": 60, "posted_imputed": false, "v_safe": 50, "gap": 10, "R": 2.07, "exposure": 0.53, "vru_150m": 1, "sss": 19.1, "recommended": 50, "fatal_reduction_pct": 51.8, "why": "undivided arterial, side-impact intersections", "pop_density": 13352.7, "pop_density_peak": 13812.9}}, {"type": "Feature", "geometry": {"type": "LineString", "coordinates": [[121.0686663, 14.8018336], [121.0686828, 14.8017031], [121.0686882, 14.8016253], [121.0686775, 14.8015462], [121.0686466, 14.8014165], [121.0685108, 14.8011632], [121.0684942, 14.8011323], [121.0683221, 14.8008343], [121.0682899, 14.8007397], [121.068259, 14.8006411], [121.068247, 14.8005763], [121.0682376, 14.8005134], [121.068247, 14.8004045], [121.0682805, 14.8003125], [121.0686272, 14.7993211], [121.0686477, 14.7992527], [121.0686652, 14.799218], [121.0687253, 14.7990984], [121.0688572, 14.7989202], [121.0689024, 14.7988684], [121.06892, 14.798849], [121.068986, 14.7987776], [121.0690672, 14.7986952], [121.0690795, 14.7986863], [121.0691417, 14.7986381], [121.0692632, 14.7985438], [121.0693067, 14.7985101], [121.0693519, 14.798475], [121.0695218, 14.7983432]]}, "properties": {"city": "sjdm", "name": "Quirino Highway", "highway": "primary", "v_posted": 60, "posted_imputed": false, "v_safe": 50, "gap": 10, "R": 2.07, "exposure": 0.076, "vru_150m": 0, "sss": 13.5, "recommended": 50, "fatal_reduction_pct": 51.8, "why": "undivided arterial, side-impact intersections", "pop_density": 2470.1, "pop_density_peak": 2795.7}}, {"type": "Feature", "geometry": {"type": "LineString", "coordinates": [[121.0721794, 14.8132037], [121.0721707, 14.8132766]]}, "properties": {"city": "sjdm", "name": "Quirino Highway", "highway": "primary", "v_posted": 60, "posted_imputed": false, "v_safe": 50, "gap": 10, "R": 2.07, "exposure": 0.514, "vru_150m": 1, "sss": 18.9, "recommended": 50, "fatal_reduction_pct": 51.8, "why": "undivided arterial, side-impact intersections", "pop_density": 12680.9, "pop_density_peak": 12680.9}}, {"type": "Feature", "geometry": {"type": "LineString", "coordinates": [[121.0722718, 14.8132328], [121.0722764, 14.8133087]]}, "properties": {"city": "sjdm", "name": "Quirino Highway", "highway": "primary", "v_posted": 60, "posted_imputed": false, "v_safe": 50, "gap": 10, "R": 2.07, "exposure": 0.514, "vru_150m": 1, "sss": 18.9, "recommended": 50, "fatal_reduction_pct": 51.8, "why": "undivided arterial, side-impact intersections", "pop_density": 12680.9, "pop_density_peak": 12680.9}}, {"type": "Feature", "geometry": {"type": "LineString", "coordinates": [[121.0485314, 14.8585593], [121.0484684, 14.8584738], [121.0482216, 14.8581471], [121.0479051, 14.857779], [121.0473445, 14.856996], [121.0470803, 14.8566447], [121.046906, 14.8564049], [121.046741, 14.8561573], [121.0465921, 14.8559383], [121.0465023, 14.8558229], [121.0464218, 14.8557179], [121.0461159, 14.8553675], [121.045701, 14.854865], [121.045489, 14.85458], [121.0453691, 14.8544255], [121.0452546, 14.8543732], [121.0451161, 14.8543423], [121.0449734, 14.8543283], [121.0447135, 14.8543241]]}, "properties": {"city": "sjdm", "name": "", "highway": "tertiary", "v_posted": 40, "posted_imputed": false, "v_safe": 30, "gap": 10, "R": 3.16, "exposure": 0.343, "vru_150m": 1, "sss": 16.8, "recommended": 30, "fatal_reduction_pct": 68.4, "why": "pedestrian activity (1 VRU site<=50m)", "pop_density": 5761.8, "pop_density_peak": 6232.5}}, {"type": "Feature", "geometry": {"type": "LineString", "coordinates": [[121.0468585, 14.8580402], [121.0471286, 14.8581017], [121.0473223, 14.8581371], [121.0474267, 14.8581667], [121.0476594, 14.8582803], [121.0481398, 14.8585224], [121.0482168, 14.8585551], [121.0483559, 14.8585677]]}, "properties": {"city": "sjdm", "name": "Jose Pantaleon Street", "highway": "secondary", "v_posted": 40, "posted_imputed": false, "v_safe": 30, "gap": 10, "R": 3.16, "exposure": 0.516, "vru_150m": 2, "sss": 18.9, "recommended": 30, "fatal_reduction_pct": 68.4, "why": "pedestrian activity (1 VRU site<=50m)", "pop_density": 6230.0, "pop_density_peak": 6494.1}}, {"type": "Feature", "geometry": {"type": "LineString", "coordinates": [[121.0763038, 14.8341242], [121.0766596, 14.8348762]]}, "properties": {"city": "sjdm", "name": "Quirino Highway", "highway": "primary", "v_posted": 60, "posted_imputed": false, "v_safe": 50, "gap": 10, "R": 2.07, "exposure": 0.346, "vru_150m": 0, "sss": 16.8, "recommended": 50, "fatal_reduction_pct": 51.8, "why": "undivided arterial, side-impact intersections", "pop_density": 11185.6, "pop_density_peak": 11804.6}}, {"type": "Feature", "geometry": {"type": "LineString", "coordinates": [[121.0772137, 14.8361639], [121.0777254, 14.8367535], [121.077847, 14.836911], [121.0779079, 14.8370767], [121.0780406, 14.8374795], [121.0780701, 14.8376201], [121.078131, 14.8378456], [121.0781564, 14.8379725], [121.0782134, 14.8382061], [121.078237, 14.8382808], [121.078281, 14.8384188], [121.0783819, 14.8387867], [121.0784597, 14.8391413], [121.078518, 14.8393986], [121.0785413, 14.8394962], [121.0786465, 14.839981], [121.0786845, 14.8401465], [121.0786907, 14.8402326], [121.078701, 14.8403365], [121.0786687, 14.8406605], [121.0785218, 14.8414912], [121.0784579, 14.8418136], [121.0784528, 14.8419805], [121.0784806, 14.8421842], [121.0784981, 14.8422828], [121.0785585, 14.8426507], [121.0785826, 14.8427585], [121.0785909, 14.8428157], [121.0786525, 14.843099], [121.0787002, 14.8433442], [121.0787902, 14.8438316], [121.0788055, 14.8439215], [121.0788738, 14.844115], [121.0789489, 14.8442443], [121.0790753, 14.8444199], [121.0793472, 14.8446193], [121.0796731, 14.8448748], [121.0797758, 14.8449775], [121.0800151, 14.8451816], [121.0801313, 14.8453064], [121.0803352, 14.8455892], [121.0805872, 14.8460131], [121.0806401, 14.8461588], [121.0806516, 14.8463309], [121.080649, 14.8465546], [121.0805784, 14.846847], [121.0805291, 14.8470918], [121.080514, 14.8472505], [121.0805849, 14.8477884], [121.0806324, 14.8480155], [121.0806588, 14.8484379], [121.0806427, 14.8485777], [121.0806487, 14.8487376], [121.0806618, 14.8494472]]}, "properties": {"city": "sjdm", "name": "Quirino Highway", "highway": "primary", "v_posted": 60, "posted_imputed": false, "v_safe": 50, "gap": 10, "R": 2.07, "exposure": 0.622, "vru_150m": 0, "sss": 20.3, "recommended": 50, "fatal_reduction_pct": 51.8, "why": "undivided arterial, side-impact intersections", "pop_density": 20117.1, "pop_density_peak": 35758.9}}, {"type": "Feature", "geometry": {"type": "LineString", "coordinates": [[121.0854454, 14.8574318], [121.0850462, 14.8583112], [121.0848899, 14.8586556], [121.084727, 14.8590349], [121.0845789, 14.8593475], [121.0842604, 14.8600866], [121.0831658, 14.8619071], [121.0829128, 14.8622872], [121.0826754, 14.8626714], [121.0826391, 14.8628101], [121.0825948, 14.8629209], [121.0825493, 14.8630827], [121.0825029, 14.8632984], [121.0824639, 14.8635435], [121.0824037, 14.8637884], [121.0823474, 14.8639965], [121.0821875, 14.8644213], [121.0813418, 14.8659472], [121.0811672, 14.866259], [121.0808721, 14.8667671], [121.0803371, 14.867718], [121.0803048, 14.867782], [121.0799607, 14.8683849], [121.0797917, 14.8686715], [121.079676, 14.8688679], [121.0795214, 14.8690507], [121.0794389, 14.8691238], [121.0789209, 14.869583], [121.0788651, 14.8696314], [121.0784042, 14.8700123], [121.0781617, 14.8701839], [121.0779466, 14.8703025], [121.0778182, 14.8703539], [121.0766553, 14.8709249], [121.0762983, 14.8710912], [121.0756555, 14.8714899], [121.0749582, 14.8721752], [121.0741329, 14.8726805], [121.0740263, 14.8727788], [121.0739416, 14.8728759], [121.0739097, 14.8729347], [121.0738388, 14.8731092], [121.073781, 14.8732862], [121.0737461, 14.8742589], [121.0737537, 14.8743327], [121.0738883, 14.874782], [121.0739074, 14.8748781], [121.0739051, 14.8750672], [121.0738849, 14.8752862], [121.07383, 14.8755608], [121.07378, 14.8756661], [121.0737066, 14.8757711], [121.0734778, 14.8759098], [121.0730437, 14.8760994], [121.0729, 14.8762473], [121.0728003, 14.8764318], [121.0725485, 14.877165], [121.0724001, 14.8773891], [121.0720636, 14.8776957], [121.07198, 14.8777719], [121.0716986, 14.8780109], [121.0715128, 14.8783098], [121.07131, 14.8787541], [121.071241, 14.8789797], [121.0711994, 14.8791099], [121.0710713, 14.8794741], [121.0710184, 14.8795668], [121.0708779, 14.8797923], [121.0707716, 14.8798892], [121.0706673, 14.879954], [121.0705628, 14.8800065], [121.0703347, 14.8801107], [121.0700816, 14.8801907], [121.0699166, 14.8802275], [121.0694413, 14.8803137], [121.0690484, 14.8803485], [121.0685971, 14.8803333], [121.0681152, 14.880299], [121.0679797, 14.8803156], [121.0679036, 14.8803435], [121.0678611, 14.880383], [121.0678259, 14.8804222], [121.0677863, 14.8805091], [121.067744, 14.8806167], [121.0677159, 14.8808331], [121.0677709, 14.8812544], [121.067817, 14.8815631], [121.0678232, 14.8816043], [121.0677876, 14.8819335], [121.0677139, 14.8820813], [121.0674443, 14.8823969], [121.0673293, 14.882476], [121.0672086, 14.8825297], [121.0671125, 14.8825642], [121.0670091, 14.8825855], [121.0658463, 14.8825784], [121.0653703, 14.8824852], [121.0640708, 14.8819752], [121.0637828, 14.8818882], [121.0636168, 14.8818402], [121.0634907, 14.8818396], [121.0633687, 14.881881], [121.0632574, 14.8819595], [121.0631173, 14.8821563], [121.063006, 14.8823385], [121.0629599, 14.882387], [121.0628888, 14.8824375], [121.062782, 14.8824819], [121.0626936, 14.882478], [121.0625338, 14.8824338], [121.0620955, 14.8823189], [121.0617107, 14.8822628], [121.0614369, 14.882283], [121.0612782, 14.882305], [121.0610776, 14.8823755]]}, "properties": {"city": "sjdm", "name": "San Jose Del Monte-Norzagaray Road", "highway": "primary", "v_posted": 60, "posted_imputed": false, "v_safe": 50, "gap": 10, "R": 2.07, "exposure": 0.166, "vru_150m": 0, "sss": 14.6, "recommended": 50, "fatal_reduction_pct": 51.8, "why": "undivided arterial, side-impact intersections", "pop_density": 5376.8, "pop_density_peak": 24773.6}}, {"type": "Feature", "geometry": {"type": "LineString", "coordinates": [[121.0854191, 14.8568499], [121.0853056, 14.8566941], [121.084943, 14.8562733], [121.0845554, 14.8557698], [121.0843637, 14.855519], [121.0841555, 14.8552713], [121.0839755, 14.8550468], [121.08384, 14.8548623], [121.0837079, 14.8546829], [121.0834205, 14.8542665], [121.0832687, 14.8540276], [121.0831333, 14.8538072], [121.0830279, 14.8536672], [121.0829289, 14.8534896], [121.0828516, 14.8533543], [121.0827639, 14.8530982], [121.082653, 14.8526083], [121.0825917, 14.8520696], [121.0825178, 14.8517563], [121.0817952, 14.850359], [121.0816913, 14.8502417], [121.0815932, 14.8501697], [121.0814766, 14.8501147], [121.0813179, 14.8500531], [121.0812056, 14.8500095], [121.0810612, 14.8499459], [121.0809445, 14.8498976], [121.0808668, 14.849846], [121.080787, 14.8497461], [121.0807329, 14.8496562], [121.0806946, 14.8495591], [121.0806618, 14.8494472]]}, "properties": {"city": "sjdm", "name": "Del Monte-Norzagaray Road", "highway": "primary", "v_posted": 60, "posted_imputed": false, "v_safe": 50, "gap": 10, "R": 2.07, "exposure": 0.536, "vru_150m": 0, "sss": 19.2, "recommended": 50, "fatal_reduction_pct": 51.8, "why": "undivided arterial, side-impact intersections", "pop_density": 17351.5, "pop_density_peak": 27271.4}}, {"type": "Feature", "geometry": {"type": "LineString", "coordinates": [[121.0766596, 14.8348762], [121.0768432, 14.8353559], [121.0768578, 14.8353875], [121.0770207, 14.8357401], [121.0771834, 14.836109], [121.0772137, 14.8361639]]}, "properties": {"city": "sjdm", "name": "Quirino Highway", "highway": "primary", "v_posted": 60, "posted_imputed": false, "v_safe": 50, "gap": 10, "R": 2.07, "exposure": 0.38, "vru_150m": 0, "sss": 17.2, "recommended": 50, "fatal_reduction_pct": 51.8, "why": "undivided arterial, side-impact intersections", "pop_density": 12289.2, "pop_density_peak": 12773.7}}]}