{"type": "FeatureCollection", "features": [{"type": "Feature", "geometry": {"type": "LineString", "coordinates": [[124.2219903, 8.203262], [124.2226136, 8.2034003], [124.2228383, 8.2034464], [124.2229204, 8.2034518], [124.2230129, 8.2034412], [124.2230813, 8.2034173], [124.2231498, 8.2033728], [124.2233965, 8.2031551], [124.223723, 8.2028684], [124.2239144, 8.2026858], [124.2240965, 8.202512], [124.2248844, 8.20177], [124.2258943, 8.2008222], [124.2261089, 8.2006301], [124.2261846, 8.2005773], [124.2262684, 8.2005388], [124.2263576, 8.2005135], [124.2264593, 8.2004985], [124.2265593, 8.2004967], [124.2266762, 8.2005014], [124.2269616, 8.20052], [124.2272156, 8.2005262], [124.2275216, 8.2005388], [124.2278831, 8.2005536], [124.22809, 8.2005683], [124.2282422, 8.2005916], [124.2283619, 8.2006211], [124.2285038, 8.200685], [124.2286295, 8.2007577], [124.228828, 8.2009085], [124.229064, 8.2011023], [124.2292732, 8.2012908], [124.2294019, 8.2014315], [124.2295361, 8.2015908], [124.2297426, 8.2019041], [124.2298246, 8.2020108], [124.2299237, 8.20211], [124.2299942, 8.2021679], [124.2300923, 8.202235], [124.2302039, 8.2022969], [124.2304191, 8.2024084], [124.2306344, 8.2024983], [124.2310595, 8.2026713], [124.2312446, 8.2027615], [124.2313412, 8.2028199], [124.2314404, 8.2029261], [124.2316148, 8.203112], [124.2317435, 8.2032739], [124.2318696, 8.203396], [124.2320305, 8.2034916], [124.2323014, 8.2035288], [124.2325348, 8.2035447], [124.2327306, 8.2035792], [124.2328593, 8.2036243], [124.233098, 8.2037199], [124.2334547, 8.203927], [124.233664, 8.2040623], [124.2337873, 8.2041898], [124.2338759, 8.2043385], [124.2339885, 8.2045721], [124.2340636, 8.2046969], [124.2341387, 8.2047765], [124.234356, 8.2050075], [124.2346403, 8.2052783], [124.234938, 8.2055331], [124.2352009, 8.2056791], [124.235445, 8.2057853], [124.2356837, 8.2058623], [124.2360592, 8.2059844], [124.2363167, 8.2060216], [124.2364481, 8.2060269], [124.2365715, 8.2060136], [124.2368048, 8.2059658], [124.2369771, 8.2059127], [124.2372179, 8.2058596], [124.2373949, 8.2058198], [124.2375666, 8.2058119], [124.2377919, 8.2058437], [124.2379716, 8.2059074], [124.2381245, 8.2059897], [124.2383069, 8.2060853], [124.2384276, 8.2061384], [124.2385912, 8.2061915], [124.2388648, 8.2062472], [124.2390525, 8.2062818], [124.2392564, 8.2063402], [124.2394736, 8.2064145], [124.2397258, 8.2064994], [124.2399511, 8.2065764], [124.2401791, 8.2066747], [124.2403749, 8.2067304], [124.2405975, 8.2067251], [124.2407316, 8.2066773], [124.2408174, 8.2065791], [124.2408711, 8.206457], [124.2408898, 8.2062605], [124.2408791, 8.2057083], [124.2408603, 8.2053765], [124.2408738, 8.2051668], [124.2409059, 8.2050314], [124.2409945, 8.2049039], [124.2410991, 8.2048216], [124.2412198, 8.2047393], [124.2413539, 8.2047154], [124.2415363, 8.2047367], [124.2416918, 8.2047739], [124.2418581, 8.2048296], [124.2420593, 8.2047977], [124.2421961, 8.2047526], [124.2422873, 8.2046624], [124.2424133, 8.2045163], [124.2425072, 8.2043597], [124.2425957, 8.2042535], [124.2427084, 8.20415], [124.2428532, 8.2040703], [124.2431571, 8.2039236], [124.2436148, 8.2036939], [124.2439502, 8.203481], [124.2442131, 8.2033562], [124.2444438, 8.2032845], [124.2446637, 8.2032606], [124.244881, 8.2032394], [124.2452162, 8.2032208], [124.2453625, 8.203185], [124.2454724, 8.2031213], [124.2455354, 8.2030496], [124.245569, 8.2029593], [124.2455783, 8.2028438], [124.2455676, 8.2027058], [124.2455354, 8.2024164], [124.2454818, 8.2021085], [124.2454684, 8.2019173], [124.2454711, 8.2018032], [124.2455059, 8.2017023], [124.2455837, 8.2016465], [124.2457178, 8.2016147], [124.2458412, 8.2016173], [124.2459539, 8.2016465], [124.2460504, 8.2016784], [124.2461604, 8.2017926], [124.246442, 8.2021829], [124.2465842, 8.2023872], [124.2472329, 8.2031881], [124.2476276, 8.2035792], [124.2477724, 8.2037491], [124.2478448, 8.2039429], [124.247877, 8.2041181], [124.2478784, 8.2042548], [124.2478582, 8.2043823], [124.2478046, 8.2045787], [124.2476517, 8.2049916], [124.2475323, 8.2052557], [124.247468, 8.205415], [124.2474411, 8.2055079], [124.2474318, 8.2056274], [124.2474411, 8.2057428], [124.2474626, 8.2058556], [124.2475028, 8.2059552], [124.2475632, 8.2060468], [124.2476403, 8.2061364], [124.2477603, 8.2062572]]}, "properties": {"city": "iligan", "name": "Circumferential Road 3", "highway": "primary", "v_posted": 80, "posted_imputed": false, "v_safe": 50, "gap": 30, "R": 6.55, "exposure": 0.197, "vru_150m": 0, "sss": 44.9, "recommended": 50, "fatal_reduction_pct": 84.7, "why": "undivided arterial, side-impact intersections", "pop_density": 6369.9, "pop_density_peak": 22646.3, "v_design": 45, "design_gap": -5}}, {"type": "Feature", "geometry": {"type": "LineString", "coordinates": [[124.2166298, 8.2084837], [124.2166571, 8.2084096], [124.2166925, 8.2083364], [124.2167322, 8.2082727], [124.2167872, 8.2082032], [124.2173005, 8.2076257], [124.2175781, 8.2073324], [124.2179228, 8.2069481], [124.2184867, 8.2063309], [124.2187489, 8.2060355], [124.2190037, 8.2057554], [124.2192189, 8.2054833], [124.2193779, 8.2052225], [124.2194865, 8.2049345], [124.219571, 8.2046657], [124.2196749, 8.2043942], [124.2198017, 8.2042038], [124.2199438, 8.2040538], [124.2205976, 8.2035434], [124.2209141, 8.2032859], [124.220993, 8.2032302], [124.2210693, 8.203189], [124.2211559, 8.203158], [124.2212456, 8.2031364], [124.2213413, 8.2031294], [124.2214695, 8.2031383], [124.2215872, 8.2031584], [124.2217419, 8.2031999]]}, "properties": {"city": "iligan", "name": "Circumferential Road 3", "highway": "primary", "v_posted": 80, "posted_imputed": false, "v_safe": 50, "gap": 30, "R": 6.55, "exposure": 0.187, "vru_150m": 0, "sss": 44.5, "recommended": 50, "fatal_reduction_pct": 84.7, "why": "undivided arterial, side-impact intersections", "pop_density": 6034.6, "pop_density_peak": 12293.0, "v_design": 60, "design_gap": 10}}, {"type": "Feature", "geometry": {"type": "LineString", "coordinates": [[124.2217419, 8.2031999], [124.2219903, 8.203262]]}, "properties": {"city": "iligan", "name": "Circumferential Road 3", "highway": "primary", "v_posted": 80, "posted_imputed": false, "v_safe": 50, "gap": 30, "R": 6.55, "exposure": 0.031, "vru_150m": 0, "sss": 38.7, "recommended": 50, "fatal_reduction_pct": 84.7, "why": "undivided arterial, side-impact intersections", "pop_density": 996.7, "pop_density_peak": 996.7, "v_design": 60, "design_gap": 10}}, {"type": "Feature", "geometry": {"type": "LineString", "coordinates": [[124.2267879, 8.1986354], [124.2266916, 8.1989684], [124.2266123, 8.1992425], [124.2264669, 8.1997318], [124.2263104, 8.2002555], [124.2262785, 8.2003689], [124.2262678, 8.2004313], [124.2262638, 8.2004897], [124.2262684, 8.2005388]]}, "properties": {"city": "iligan", "name": "Circumferential Road 3 Extension", "highway": "secondary", "v_posted": 60, "posted_imputed": false, "v_safe": 50, "gap": 10, "R": 2.07, "exposure": 0.01, "vru_150m": 0, "sss": 12.6, "recommended": 50, "fatal_reduction_pct": 51.8, "why": "undivided arterial, side-impact intersections", "pop_density": 322.9, "pop_density_peak": 968.6, "v_design": 50, "design_gap": 0}}, {"type": "Feature", "geometry": {"type": "LineString", "coordinates": [[124.2221966, 8.1953246], [124.2222122, 8.195433], [124.2222485, 8.1955352], [124.2223107, 8.1956377], [124.2224021, 8.1957466], [124.222624, 8.1959759], [124.2227936, 8.1961443], [124.2228976, 8.1962356], [124.2230196, 8.196317], [124.2231626, 8.1963998], [124.2235178, 8.1965786], [124.2240107, 8.1968268], [124.2245863, 8.1971242], [124.2254305, 8.1975721], [124.2261587, 8.1979473], [124.2263214, 8.1980506], [124.226422, 8.198125], [124.2265038, 8.1982059], [124.2265662, 8.1982962], [124.2266225, 8.198411], [124.2266567, 8.1984794], [124.2266916, 8.1985338], [124.2267352, 8.1985876], [124.2267879, 8.1986354]]}, "properties": {"city": "iligan", "name": "Circumferential Road 3 Extension", "highway": "secondary", "v_posted": 60, "posted_imputed": false, "v_safe": 50, "gap": 10, "R": 2.07, "exposure": 0.121, "vru_150m": 0, "sss": 14.0, "recommended": 50, "fatal_reduction_pct": 51.8, "why": "undivided arterial, side-impact intersections", "pop_density": 3915.8, "pop_density_peak": 8445.8, "v_design": 50, "design_gap": 0}}, {"type": "Feature", "geometry": {"type": "LineString", "coordinates": [[124.219569, 8.1881707], [124.2196897, 8.1880804], [124.2197849, 8.188026], [124.2198828, 8.1879875], [124.2199787, 8.1879682], [124.2200759, 8.1879649], [124.2201591, 8.1879808], [124.2202348, 8.1880173], [124.2205118, 8.1882185], [124.220902, 8.1884946], [124.2210221, 8.1885895], [124.2211354, 8.188687], [124.2212708, 8.1888264], [124.2213714, 8.1889446], [124.2214492, 8.1890508], [124.2215069, 8.1891609], [124.2215672, 8.1893069], [124.2216356, 8.1895313], [124.2216758, 8.1896932], [124.2217094, 8.1898738], [124.2217389, 8.1900954], [124.221763, 8.1903941], [124.2217912, 8.1907499], [124.2218314, 8.1912676], [124.2218971, 8.1919299], [124.2219481, 8.192441], [124.2220084, 8.1930848], [124.222063, 8.1936932], [124.2221156, 8.1942514], [124.2221567, 8.1948001]]}, "properties": {"city": "iligan", "name": "Circumferential Road 3 Extension", "highway": "secondary", "v_posted": 60, "posted_imputed": false, "v_safe": 50, "gap": 10, "R": 2.07, "exposure": 0.144, "vru_150m": 0, "sss": 14.3, "recommended": 50, "fatal_reduction_pct": 51.8, "why": "undivided arterial, side-impact intersections", "pop_density": 4645.0, "pop_density_peak": 10637.2, "v_design": 45, "design_gap": -5}}, {"type": "Feature", "geometry": {"type": "LineString", "coordinates": [[124.2221567, 8.1948001], [124.2221966, 8.1953246]]}, "properties": {"city": "iligan", "name": "Circumferential Road 3 Extension", "highway": "secondary", "v_posted": 60, "posted_imputed": false, "v_safe": 50, "gap": 10, "R": 2.07, "exposure": 0.295, "vru_150m": 0, "sss": 16.2, "recommended": 50, "fatal_reduction_pct": 51.8, "why": "undivided arterial, side-impact intersections", "pop_density": 9541.5, "pop_density_peak": 10637.2, "v_design": 50, "design_gap": 0}}, {"type": "Feature", "geometry": {"type": "LineString", "coordinates": [[124.2638683, 8.2229499], [124.2638978, 8.2230049], [124.2639099, 8.2230634], [124.2639099, 8.2231211], [124.2639016, 8.2231592], [124.2638858, 8.223216], [124.263859, 8.2232744], [124.2638241, 8.2233188], [124.2637535, 8.2233721], [124.2636866, 8.2233832], [124.2635961, 8.2233925], [124.2634928, 8.2233939], [124.2633332, 8.2233819], [124.2631267, 8.2233421], [124.2629591, 8.2233049], [124.2627847, 8.2232824], [124.262609, 8.2232784], [124.2624924, 8.223289], [124.2623757, 8.2233076], [124.2622375, 8.2233554], [124.2621168, 8.2234032], [124.2619801, 8.2234416], [124.2618446, 8.2234655], [124.261681, 8.2234775], [124.261571, 8.2234761], [124.2614074, 8.2234549], [124.2612559, 8.2234363], [124.2610439, 8.2234244], [124.2607033, 8.2234231], [124.2604002, 8.2234337], [124.2600409, 8.2234788], [124.259896, 8.223508], [124.2597773, 8.2235492], [124.2597028, 8.2236215], [124.2596425, 8.2237065], [124.2595969, 8.2238067], [124.2595674, 8.2238969], [124.2595473, 8.2239938], [124.2595473, 8.2240748], [124.2595688, 8.2241716], [124.2596211, 8.2242752], [124.2596975, 8.2243642], [124.2598464, 8.2245048], [124.2602071, 8.2248128], [124.2603359, 8.2249083], [124.2605048, 8.2250212], [124.2606416, 8.2250995], [124.2608375, 8.2251884], [124.2611057, 8.2253105], [124.261229, 8.2253729], [124.2613028, 8.225426], [124.2613618, 8.2254977], [124.2614034, 8.225576], [124.2614369, 8.2256703], [124.2614637, 8.2258215], [124.2614892, 8.2261029], [124.2615013, 8.2262555], [124.2615214, 8.2264081], [124.2615482, 8.226527], [124.2615717, 8.226598], [124.2616152, 8.2266697], [124.2616756, 8.2267367], [124.2617333, 8.2267839], [124.2617983, 8.2268223], [124.2618768, 8.2268489], [124.2620042, 8.2268714], [124.2621624, 8.226886], [124.2622456, 8.2269033], [124.2623328, 8.2269431], [124.2624079, 8.2269949], [124.2624722, 8.2270732], [124.2625299, 8.2271648], [124.2625634, 8.227259], [124.2625929, 8.2273784], [124.2626345, 8.2275908], [124.26266, 8.2276983], [124.2626882, 8.2277859], [124.262723, 8.2278616], [124.262778, 8.2279399], [124.2628799, 8.2280394], [124.2630033, 8.228131], [124.2631415, 8.228208], [124.2633225, 8.2282956], [124.2634056, 8.2283527], [124.2634714, 8.2284244], [124.2635089, 8.2285013], [124.2635223, 8.228573], [124.2635237, 8.2286487], [124.2635062, 8.228727], [124.263474, 8.2288106], [124.2634124, 8.2289115], [124.2633158, 8.2290283], [124.2631549, 8.2291929], [124.2630126, 8.2293298], [124.2628598, 8.2294624], [124.2627552, 8.2295579], [124.2626989, 8.2296375], [124.262668, 8.2297317], [124.2626573, 8.2298433], [124.2626654, 8.2299454], [124.2626975, 8.2300557], [124.2627391, 8.2301631], [124.2628263, 8.2303463], [124.2629729, 8.2306574], [124.263364, 8.231436], [124.2637449, 8.2321806], [124.2638361, 8.232381], [124.263926, 8.2326066], [124.2639522, 8.2327035], [124.2639682, 8.2328057], [124.2639736, 8.232906], [124.2639716, 8.2329956], [124.2639635, 8.2330652], [124.2639499, 8.2331428], [124.2639139, 8.2332915], [124.2637061, 8.2340295], [124.2636605, 8.2341649], [124.2636135, 8.234279], [124.2635599, 8.2343772], [124.2634928, 8.2344715], [124.2634043, 8.2345724], [124.2632165, 8.2347582], [124.2629819, 8.2349772], [124.2627593, 8.2351723], [124.2626278, 8.2352732], [124.2625125, 8.2353382], [124.2623757, 8.2353953], [124.2622295, 8.2354284], [124.2619881, 8.2354524], [124.2616582, 8.2355001], [124.2614946, 8.2355333], [124.2613215, 8.2355941], [124.2611881, 8.2356746], [124.2610761, 8.2357735], [124.2609943, 8.2358691], [124.2609353, 8.2359779], [124.2608857, 8.2360921], [124.2608602, 8.2362168], [124.2608522, 8.2363562], [124.2608602, 8.2364797], [124.2608897, 8.2366164], [124.2609246, 8.2367173], [124.2609823, 8.2368247], [124.2610886, 8.2369829], [124.2613979, 8.2374208], [124.2618392, 8.2380419], [124.2623126, 8.2387015], [124.2624844, 8.2389523], [124.2626398, 8.2391714], [124.2627217, 8.2393173], [124.2627445, 8.2393996], [124.2627498, 8.2394859], [124.2627432, 8.2395788], [124.2627232, 8.2396677], [124.2626761, 8.2397633], [124.2625943, 8.239888], [124.2625091, 8.2400009], [124.2623204, 8.2402437], [124.2620417, 8.2406074], [124.261978, 8.2407063], [124.2619371, 8.2407919], [124.2619083, 8.2408835], [124.2618919, 8.2409706], [124.2618699, 8.2411036]]}, "properties": {"city": "iligan", "name": "Circumferential Road 3", "highway": "primary", "v_posted": 80, "posted_imputed": false, "v_safe": 50, "gap": 30, "R": 6.55, "exposure": 0.115, "vru_150m": 0, "sss": 41.8, "recommended": 50, "fatal_reduction_pct": 84.7, "why": "undivided arterial, side-impact intersections", "pop_density": 3718.6, "pop_density_peak": 11964.4, "v_design": 45, "design_gap": -5}}, {"type": "Feature", "geometry": {"type": "LineString", "coordinates": [[124.2490545, 8.2078268], [124.2491047, 8.2083661]]}, "properties": {"city": "iligan", "name": "Circumferential Road 3", "highway": "primary", "v_posted": 80, "posted_imputed": false, "v_safe": 50, "gap": 30, "R": 6.55, "exposure": 0.484, "vru_150m": 0, "sss": 55.7, "recommended": 50, "fatal_reduction_pct": 84.7, "why": "undivided arterial, side-impact intersections", "pop_density": 15658.7, "pop_density_peak": 15658.7, "v_design": 60, "design_gap": 10}}, {"type": "Feature", "geometry": {"type": "LineString", "coordinates": [[124.2491047, 8.2083661], [124.2491323, 8.2088051], [124.2491604, 8.2092152], [124.2491872, 8.209644], [124.2492208, 8.2104842], [124.2492422, 8.2105864], [124.2492945, 8.2107271], [124.2493549, 8.2108505], [124.249426, 8.2109567], [124.2496124, 8.2111412], [124.2497353, 8.2112355], [124.2498793, 8.2113271], [124.2500818, 8.2114399], [124.2502896, 8.2115501], [124.2505565, 8.2116934], [124.2507979, 8.2118487], [124.2509642, 8.2119496], [124.2511778, 8.2121011], [124.2512861, 8.2121964], [124.2514041, 8.2123027], [124.2516643, 8.2125788], [124.2517004, 8.2126244], [124.2517608, 8.2127009], [124.2518601, 8.2128814], [124.2519137, 8.2130539], [124.2519633, 8.2132703], [124.2520291, 8.2135796], [124.2520653, 8.2137548], [124.2520961, 8.2140282], [124.2521578, 8.2148618], [124.252304, 8.2156144], [124.252418, 8.2160843], [124.2524537, 8.2162132], [124.2525414, 8.2165303], [124.2525883, 8.2166524], [124.2526755, 8.2167612], [124.2527693, 8.2168196], [124.2528592, 8.2168555], [124.2530416, 8.2168873], [124.253228, 8.2169152], [124.2535499, 8.2169869], [124.2536464, 8.2170214], [124.2538154, 8.2171209], [124.2539522, 8.21717], [124.2540447, 8.2171767], [124.2541789, 8.2171355], [124.254262, 8.2171143], [124.2543451, 8.2171196], [124.254895, 8.217247], [124.2551163, 8.2173134], [124.2552048, 8.2173492], [124.2553094, 8.2174143], [124.2554569, 8.2174687], [124.2555508, 8.2174833], [124.2556581, 8.217474], [124.2559773, 8.217405], [124.256047, 8.2173864], [124.2561154, 8.2173877], [124.256161, 8.2174023], [124.2562442, 8.2174461], [124.2566237, 8.2178005], [124.257018, 8.218143], [124.2577985, 8.218733], [124.2579545, 8.218903], [124.2580332, 8.2190708], [124.2581244, 8.2192977], [124.2581874, 8.219384], [124.2582773, 8.2194185], [124.2584556, 8.2194464], [124.2586192, 8.2194836], [124.2587319, 8.2195579], [124.2588687, 8.2197437], [124.2589438, 8.2198844], [124.2591289, 8.2202269], [124.2592132, 8.2203474], [124.2592925, 8.2204326], [124.2593696, 8.2205036], [124.2594541, 8.2205634], [124.2595446, 8.2206171]]}, "properties": {"city": "iligan", "name": "Circumferential Road 3", "highway": "primary", "v_posted": 80, "posted_imputed": false, "v_safe": 50, "gap": 30, "R": 6.55, "exposure": 0.541, "vru_150m": 1, "sss": 57.8, "recommended": 50, "fatal_reduction_pct": 84.7, "why": "undivided arterial, side-impact intersections", "pop_density": 13774.7, "pop_density_peak": 21111.6, "v_design": 55, "design_gap": 5}}, {"type": "Feature", "geometry": {"type": "LineString", "coordinates": [[124.2638683, 8.2229499], [124.2636756, 8.2227364]]}, "properties": {"city": "iligan", "name": "Circumferential Road 3", "highway": "primary", "v_posted": 80, "posted_imputed": false, "v_safe": 50, "gap": 30, "R": 6.55, "exposure": 0.195, "vru_150m": 0, "sss": 44.8, "recommended": 50, "fatal_reduction_pct": 84.7, "why": "undivided arterial, side-impact intersections", "pop_density": 6299.0, "pop_density_peak": 7557.7, "v_design": 60, "design_gap": 10}}, {"type": "Feature", "geometry": {"type": "LineString", "coordinates": [[124.2637535, 8.2233721], [124.2638428, 8.2234151], [124.2639622, 8.2234616], [124.2640936, 8.2234894], [124.2642023, 8.2234815], [124.2643197, 8.2234709], [124.2644454, 8.2234212], [124.2646234, 8.2232718], [124.2646857, 8.2232366], [124.2647307, 8.2232213], [124.264783, 8.223214], [124.2648353, 8.2232186], [124.2648695, 8.2232399], [124.2649332, 8.2232956], [124.2649948, 8.2233753], [124.2650807, 8.2234987], [124.2651437, 8.2236182], [124.2652564, 8.2237987], [124.2653436, 8.2239261], [124.2654227, 8.2240336], [124.2655702, 8.2242354], [124.2656238, 8.2243601], [124.265648, 8.2244504], [124.2656896, 8.2249309], [124.2657123, 8.2250703], [124.2657553, 8.2251605], [124.2658076, 8.2252083], [124.2660758, 8.2254247], [124.2661992, 8.2255069], [124.2663333, 8.2256131], [124.2664191, 8.2257087], [124.2665774, 8.2259343], [124.2666632, 8.2260299], [124.2667356, 8.226083], [124.2668429, 8.2261202], [124.2671109, 8.2261536], [124.2675242, 8.2262099], [124.2678702, 8.2262343], [124.2681572, 8.2262396], [124.2683315, 8.2262038], [124.2684107, 8.2261772], [124.2684911, 8.2261295], [124.2686024, 8.2260551], [124.2686909, 8.2259967], [124.2688881, 8.2258759], [124.2690222, 8.2258321], [124.2691563, 8.2258202], [124.2692623, 8.2258348], [124.26934, 8.2258786], [124.269501, 8.2259914], [124.2696069, 8.2260578], [124.2696968, 8.2260936], [124.2698765, 8.2261507], [124.2700374, 8.2261719], [124.2703325, 8.2261998], [124.2705551, 8.2262078], [124.2708448, 8.2262025], [124.2710701, 8.2261892], [124.2713007, 8.2261839], [124.271518, 8.2262449], [124.2716601, 8.2263033], [124.2718935, 8.2264228], [124.2721081, 8.2265396], [124.2722744, 8.2266511], [124.2724568, 8.2267759], [124.2727599, 8.227036], [124.2730281, 8.2272829], [124.2734224, 8.227697], [124.2736906, 8.2279465], [124.2737635, 8.2280231], [124.2738649, 8.2281297], [124.2742558, 8.2285901], [124.2744897, 8.2288755]]}, "properties": {"city": "iligan", "name": "Pugaan-Mandulog Road", "highway": "secondary", "v_posted": 80, "posted_imputed": false, "v_safe": 50, "gap": 30, "R": 6.55, "exposure": 0.107, "vru_150m": 0, "sss": 41.5, "recommended": 50, "fatal_reduction_pct": 84.7, "why": "undivided arterial, side-impact intersections", "pop_density": 3469.5, "pop_density_peak": 14048.7, "v_design": 45, "design_gap": -5}}, {"type": "Feature", "geometry": {"type": "LineString", "coordinates": [[124.2477603, 8.2062572], [124.2478651, 8.2063994], [124.2479575, 8.2065247], [124.2480205, 8.2066176], [124.2480728, 8.2066879], [124.2481392, 8.2067662], [124.2481935, 8.2068207], [124.2482552, 8.2068618], [124.2483343, 8.2068976], [124.2484322, 8.2069295], [124.2484959, 8.2069425], [124.2486669, 8.2069773], [124.248736, 8.2069952], [124.248799, 8.2070171], [124.248858, 8.2070463], [124.2489056, 8.2070848], [124.2489505, 8.2071405], [124.2489713, 8.2071844], [124.2489861, 8.2072375], [124.2489955, 8.2073038], [124.2490545, 8.2078268]]}, "properties": {"city": "iligan", "name": "Circumferential Road 3", "highway": "primary", "v_posted": 80, "posted_imputed": false, "v_safe": 50, "gap": 30, "R": 6.55, "exposure": 0.597, "vru_150m": 0, "sss": 59.9, "recommended": 50, "fatal_reduction_pct": 84.7, "why": "undivided arterial, side-impact intersections", "pop_density": 19296.4, "pop_density_peak": 23560.5, "v_design": 55, "design_gap": 5}}, {"type": "Feature", "geometry": {"type": "LineString", "coordinates": [[124.2595446, 8.2206171], [124.2596365, 8.2206569], [124.2597411, 8.2206868], [124.2598671, 8.2207127], [124.2602058, 8.2207671], [124.2605799, 8.2208335], [124.2608683, 8.2208852], [124.2610587, 8.220929], [124.2612317, 8.2209861], [124.2613806, 8.221075], [124.2615281, 8.2211879], [124.2616528, 8.2213034], [124.2619693, 8.2216591], [124.2623717, 8.2221111], [124.2625178, 8.2222576], [124.2625701, 8.2222955], [124.2626325, 8.222326], [124.262709, 8.2223426], [124.2627975, 8.2223486], [124.2629095, 8.222346], [124.2630388, 8.2223486], [124.2631454, 8.2223592], [124.2632286, 8.2223798], [124.263297, 8.2224097], [124.2633956, 8.2224787], [124.2634674, 8.2225424], [124.2636756, 8.2227364]]}, "properties": {"city": "iligan", "name": "Circumferential Road 3", "highway": "primary", "v_posted": 80, "posted_imputed": false, "v_safe": 50, "gap": 30, "R": 6.55, "exposure": 0.3, "vru_150m": 0, "sss": 48.8, "recommended": 50, "fatal_reduction_pct": 84.7, "why": "undivided arterial, side-impact intersections", "pop_density": 9713.4, "pop_density_peak": 12050.1, "v_design": 60, "design_gap": 10}}, {"type": "Feature", "geometry": {"type": "LineString", "coordinates": [[124.263549, 8.2565877], [124.2635183, 8.2566941], [124.2634928, 8.2567644], [124.2634674, 8.2568196], [124.2634372, 8.2568687], [124.2634007, 8.2569106], [124.26335, 8.2569543], [124.263291, 8.2569974], [124.2627686, 8.2573372], [124.2626437, 8.257412], [124.2626098, 8.2574323], [124.262432, 8.2575389], [124.2620377, 8.2577513], [124.2618005, 8.2578692], [124.2617494, 8.2578946], [124.2614476, 8.258014], [124.2610592, 8.2581687], [124.2608307, 8.2582436], [124.2605719, 8.2583352], [124.2604364, 8.258379], [124.2602878, 8.2584162], [124.2601977, 8.2584387], [124.2598604, 8.258521], [124.2596599, 8.2585655], [124.2594447, 8.2586139], [124.2592462, 8.2586438], [124.2591047, 8.2586524], [124.2590062, 8.2586464], [124.2589022, 8.2586299], [124.2587426, 8.2585914], [124.2585656, 8.258525], [124.2582612, 8.2583631], [124.2580444, 8.2582479], [124.2577898, 8.2580912]]}, "properties": {"city": "iligan", "name": "Secondary Diversion Road", "highway": "primary", "v_posted": 80, "posted_imputed": false, "v_safe": 50, "gap": 30, "R": 6.55, "exposure": 0.481, "vru_150m": 2, "sss": 55.5, "recommended": 50, "fatal_reduction_pct": 84.7, "why": "undivided arterial, side-impact intersections", "pop_density": 4363.9, "pop_density_peak": 5097.8, "v_design": 60, "design_gap": 10}}, {"type": "Feature", "geometry": {"type": "LineString", "coordinates": [[124.2666638, 8.2649436], [124.2667946, 8.2648729], [124.266916, 8.2647922], [124.2674719, 8.264423], [124.2675295, 8.2643812], [124.2677025, 8.2642518], [124.2678098, 8.2641556], [124.2678729, 8.264076], [124.2679989, 8.263861], [124.2680432, 8.2637643], [124.2681056, 8.2636281], [124.2681887, 8.2634257], [124.268235, 8.2633427], [124.2683054, 8.2632677], [124.2683564, 8.2632376], [124.2685059, 8.2631947], [124.269104, 8.263072], [124.2691965, 8.2630428], [124.2692562, 8.2630096], [124.2693266, 8.2629552], [124.2694406, 8.2628271], [124.269556, 8.262705], [124.2696572, 8.2626174], [124.2697456, 8.2625457], [124.2698738, 8.2623931], [124.2699663, 8.2623155], [124.2700522, 8.2622684], [124.2701206, 8.2622511], [124.2701977, 8.2622478], [124.2702895, 8.2622677], [124.2703566, 8.2623009], [124.2704257, 8.2623473], [124.27048, 8.262415], [124.2705316, 8.2625298], [124.2705598, 8.262628], [124.2705819, 8.2627879], [124.2706107, 8.262922], [124.270665, 8.2630547], [124.27071, 8.2631317], [124.2707817, 8.2632126], [124.2709702, 8.263362], [124.2712511, 8.263571], [124.2716146, 8.2638311], [124.2717507, 8.263932], [124.2719371, 8.2640627], [124.2720678, 8.2641556], [124.2722757, 8.2642565], [124.2724762, 8.2643427], [124.2726063, 8.2643739], [124.2727089, 8.2643892], [124.2727967, 8.2643819], [124.2728598, 8.264362], [124.2729228, 8.2643129], [124.2730086, 8.2642034], [124.2731092, 8.2640733], [124.2731857, 8.2639897], [124.273238, 8.2639313], [124.273299, 8.2638888], [124.2734311, 8.2638411], [124.2738696, 8.2637389], [124.2741177, 8.2636738], [124.2743491, 8.2635849], [124.2744859, 8.2635093], [124.2745844, 8.263421], [124.2747265, 8.2632876], [124.2748661, 8.2631748], [124.2749854, 8.2631065], [124.2750632, 8.263072], [124.2751658, 8.2630354]]}, "properties": {"city": "iligan", "name": "Iligan-Bukidnon Road", "highway": "secondary", "v_posted": 80, "posted_imputed": false, "v_safe": 50, "gap": 30, "R": 6.55, "exposure": 0.022, "vru_150m": 0, "sss": 38.3, "recommended": 50, "fatal_reduction_pct": 84.7, "why": "undivided arterial, side-impact intersections", "pop_density": 713.2, "pop_density_peak": 3580.5, "v_design": 45, "design_gap": -5}}, {"type": "Feature", "geometry": {"type": "LineString", "coordinates": [[124.2640258, 8.2544333], [124.263549, 8.2565877]]}, "properties": {"city": "iligan", "name": "Secondary Diversion Road", "highway": "primary", "v_posted": 80, "posted_imputed": false, "v_safe": 50, "gap": 30, "R": 6.55, "exposure": 0.124, "vru_150m": 0, "sss": 42.1, "recommended": 50, "fatal_reduction_pct": 84.7, "why": "undivided arterial, side-impact intersections", "pop_density": 4003.1, "pop_density_peak": 4719.2, "v_design": 60, "design_gap": 10}}, {"type": "Feature", "geometry": {"type": "LineString", "coordinates": [[124.2641823, 8.253712], [124.2642332, 8.2538503], [124.2642827, 8.2539793], [124.2643471, 8.2541014], [124.2644289, 8.2542063], [124.2644826, 8.2542607], [124.2645496, 8.2543125], [124.264622, 8.2543523], [124.2647132, 8.2543815], [124.2648607, 8.2544279], [124.2650974, 8.2544867], [124.2652497, 8.2545261], [124.2654093, 8.254559], [124.265613, 8.2545933], [124.2659185, 8.2546514], [124.2662798, 8.2547173], [124.2665261, 8.2547709], [124.2666437, 8.2548049], [124.2667349, 8.2548493], [124.2668121, 8.2548925], [124.2668825, 8.2549562], [124.2669287, 8.2550132], [124.2669784, 8.2551055], [124.267022, 8.2551813], [124.2670826, 8.2552339], [124.267144, 8.2552647], [124.2672177, 8.2552966], [124.267492, 8.2553835], [124.2675857, 8.2554111], [124.2678226, 8.2554855], [124.2679282, 8.2555205], [124.2681978, 8.2556143], [124.2684835, 8.2557083], [124.268897, 8.2558389]]}, "properties": {"city": "iligan", "name": "Hinaplanon-Mandulog Road", "highway": "tertiary", "v_posted": 40, "posted_imputed": false, "v_safe": 30, "gap": 10, "R": 3.16, "exposure": 0.473, "vru_150m": 2, "sss": 18.4, "recommended": 30, "fatal_reduction_pct": 68.4, "why": "pedestrian activity (1 VRU site<=50m)", "pop_density": 3915.1, "pop_density_peak": 4677.5, "v_design": 45, "design_gap": 15}}, {"type": "Feature", "geometry": {"type": "LineString", "coordinates": [[124.268897, 8.2558389], [124.2693318, 8.2559794], [124.2697353, 8.256151], [124.2698283, 8.2561807], [124.2699682, 8.2562268], [124.2701913, 8.2562836], [124.270412, 8.2563235], [124.2705389, 8.2563385], [124.2707855, 8.2563669], [124.2709561, 8.2564022], [124.2710432, 8.2564327], [124.2711344, 8.2564771], [124.2712276, 8.2565442], [124.2713262, 8.2566391], [124.2714261, 8.2567532], [124.2715012, 8.2568103], [124.2715958, 8.2568534], [124.2717386, 8.2569005], [124.271917, 8.2569437], [124.2720363, 8.2569563], [124.2721262, 8.2569609], [124.2723012, 8.2569536]]}, "properties": {"city": "iligan", "name": "Hinaplanon-Mandulog Road", "highway": "tertiary", "v_posted": 40, "posted_imputed": false, "v_safe": 30, "gap": 10, "R": 3.16, "exposure": 0.443, "vru_150m": 2, "sss": 18.0, "recommended": 30, "fatal_reduction_pct": 68.4, "why": "pedestrian activity (1 VRU site<=50m)", "pop_density": 2327.2, "pop_density_peak": 4677.5, "v_design": 45, "design_gap": 15}}, {"type": "Feature", "geometry": {"type": "LineString", "coordinates": [[124.2641823, 8.253712], [124.2641553, 8.2538466], [124.2641325, 8.2539674], [124.2640789, 8.2542013], [124.2640258, 8.2544333]]}, "properties": {"city": "iligan", "name": "Secondary Diversion Road", "highway": "primary", "v_posted": 40, "posted_imputed": false, "v_safe": 30, "gap": 10, "R": 3.16, "exposure": 0.466, "vru_150m": 2, "sss": 18.3, "recommended": 30, "fatal_reduction_pct": 68.4, "why": "pedestrian activity (1 VRU site<=50m)", "pop_density": 3579.8, "pop_density_peak": 3872.6, "v_design": 60, "design_gap": 30}}, {"type": "Feature", "geometry": {"type": "LineString", "coordinates": [[124.2751658, 8.2630354], [124.2753651, 8.2631282], [124.2755098, 8.2632067], [124.2756413, 8.2632908], [124.2757948, 8.2634024], [124.2759705, 8.2635531], [124.2760706, 8.2636202], [124.2761723, 8.2636732], [124.2762742, 8.2637243], [124.2765686, 8.263855], [124.2770093, 8.2640767], [124.2773151, 8.2642307], [124.2774537, 8.2642943], [124.2775297, 8.264321], [124.2775986, 8.2643275], [124.2776777, 8.2643169], [124.2778037, 8.2642452], [124.277903, 8.2641457], [124.2780439, 8.2639334], [124.278129, 8.2638125], [124.2782503, 8.2636154], [124.2783006, 8.2635444], [124.278363, 8.2634728], [124.2783912, 8.2634522], [124.2784327, 8.263433], [124.2785011, 8.2634197], [124.2785896, 8.263423], [124.2787144, 8.2634356], [124.2788552, 8.2634542], [124.2789638, 8.2634675], [124.2790195, 8.2634867], [124.2790952, 8.2635272], [124.2791811, 8.2635896], [124.2792803, 8.2636838], [124.279405, 8.2637966], [124.2795579, 8.2639373], [124.2796652, 8.2640255], [124.2797282, 8.2640673], [124.2797832, 8.2640873], [124.2799334, 8.2641337], [124.2800917, 8.2641948], [124.2801936, 8.2642717], [124.2802955, 8.2643487], [124.2803773, 8.2644323], [124.2804591, 8.2645099], [124.2805396, 8.264569], [124.2806147, 8.2645943], [124.2807072, 8.2645943], [124.2807984, 8.2645743], [124.2809607, 8.2645398], [124.281076, 8.2645146], [124.2811079, 8.2645146], [124.2811418, 8.2645212], [124.2812169, 8.2645451], [124.2813047, 8.2646082], [124.2813885, 8.2646805], [124.2814784, 8.2647721], [124.281579, 8.2649021], [124.2816688, 8.2650481], [124.2817473, 8.2651868], [124.2818029, 8.2653003], [124.2818378, 8.2653759], [124.2818867, 8.2654815], [124.2819283, 8.2655578], [124.2819766, 8.2656115], [124.2820296, 8.2656547], [124.2821315, 8.265717], [124.2822146, 8.2657847], [124.2822871, 8.2658524], [124.2823461, 8.2659161], [124.2824413, 8.2660123], [124.2825499, 8.2661139], [124.2826934, 8.2662731], [124.2827913, 8.2663886], [124.2829093, 8.2665558], [124.2830072, 8.2666925], [124.2830689, 8.2667721], [124.2831078, 8.266877], [124.2831387, 8.2669898], [124.2831534, 8.2670893], [124.2831789, 8.2672287], [124.2832084, 8.2673203], [124.2832647, 8.2674304], [124.2833157, 8.2675379], [124.2833962, 8.26766], [124.283427, 8.2677277], [124.283431, 8.2677808], [124.2834337, 8.2678816], [124.283431, 8.2680051], [124.2834498, 8.2682028], [124.2834511, 8.2684948], [124.2834605, 8.2687111], [124.283482, 8.2688996], [124.2834904, 8.2690921], [124.2835053, 8.2693428], [124.2835477, 8.2696242], [124.2836067, 8.2698127], [124.283714, 8.2700011], [124.2838387, 8.270163], [124.2839326, 8.2702652], [124.2840493, 8.2704178], [124.2841794, 8.2705691], [124.2842545, 8.2706687], [124.2843483, 8.2707881], [124.2844395, 8.2708837], [124.2845656, 8.2709965], [124.2846568, 8.2710628], [124.2848097, 8.2711332], [124.2849062, 8.2711823], [124.2850202, 8.2712367], [124.2851584, 8.2712964], [124.2853253, 8.2713458], [124.2854695, 8.2713708], [124.286065, 8.27138], [124.2866631, 8.2713893], [124.2871124, 8.2713933], [124.2874999, 8.2713681], [124.2876354, 8.2713508], [124.2877413, 8.2713323], [124.2878352, 8.2712712], [124.2879385, 8.2711863], [124.2880538, 8.2710283], [124.2884776, 8.2703449], [124.2887659, 8.2699653], [124.2888799, 8.2698074], [124.2890677, 8.269599], [124.2892043, 8.2694419], [124.2893569, 8.2692849], [124.2896434, 8.2689804], [124.289761, 8.268877], [124.2897999, 8.2688217], [124.2898951, 8.268589], [124.2899982, 8.2682618], [124.2900611, 8.2680776]]}, "properties": {"city": "iligan", "name": "Iligan-Bukidnon Road", "highway": "secondary", "v_posted": 80, "posted_imputed": false, "v_safe": 50, "gap": 30, "R": 6.55, "exposure": 0.002, "vru_150m": 0, "sss": 37.6, "recommended": 50, "fatal_reduction_pct": 84.7, "why": "undivided arterial, side-impact intersections", "pop_density": 72.8, "pop_density_peak": 873.1, "v_design": 35, "design_gap": -15}}, {"type": "Feature", "geometry": {"type": "LineString", "coordinates": [[124.2867732, 8.2329887], [124.2866604, 8.2328701], [124.2865531, 8.2327673], [124.286431, 8.232669], [124.2863036, 8.2325669], [124.2861642, 8.2324593], [124.2860086, 8.2323585], [124.2858973, 8.2323027], [124.2857605, 8.232251], [124.2856573, 8.2322257], [124.2854695, 8.2321925], [124.2853461, 8.2321753], [124.2851101, 8.2321487], [124.2848982, 8.2321487], [124.2847064, 8.2321434], [124.2845307, 8.2321102], [124.284343, 8.2320625], [124.2841995, 8.2320173], [124.2840546, 8.231947], [124.2838883, 8.2318528], [124.2836416, 8.2317187], [124.2833211, 8.2315462], [124.2829764, 8.2313285], [124.2827699, 8.2311665], [124.2825928, 8.2310179], [124.2824614, 8.2309329], [124.2823085, 8.2308453], [124.2820135, 8.2307206], [124.281815, 8.2306383], [124.2815763, 8.2305348], [124.2815092, 8.230487], [124.2814207, 8.2304126], [124.2812705, 8.2302932], [124.2811525, 8.2302082], [124.2809701, 8.23011], [124.2808226, 8.2300569], [124.2806804, 8.2300277], [124.2804444, 8.2300384], [124.2800742, 8.2300861], [124.2796518, 8.2301326], [124.2794707, 8.2301525], [124.2793822, 8.2301631], [124.2792803, 8.230195], [124.2789718, 8.230325], [124.2785239, 8.2305056], [124.2782611, 8.2306197], [124.2780679, 8.2306542], [124.2779446, 8.2306409], [124.2778131, 8.2306091], [124.2775986, 8.2304949], [124.277274, 8.2302932], [124.2771238, 8.2302003], [124.2769334, 8.2300861], [124.2768127, 8.2300171], [124.2766732, 8.229972], [124.2765123, 8.2299083], [124.276059, 8.2297012], [124.2757753, 8.229597], [124.2755762, 8.2294995], [124.2751229, 8.2293057], [124.2746643, 8.2290189], [124.2745702, 8.2289485], [124.2744897, 8.2288755]]}, "properties": {"city": "iligan", "name": "Pugaan-Mandulog Road", "highway": "secondary", "v_posted": 80, "posted_imputed": false, "v_safe": 50, "gap": 30, "R": 6.55, "exposure": 0.45, "vru_150m": 0, "sss": 54.4, "recommended": 50, "fatal_reduction_pct": 84.7, "why": "undivided arterial, side-impact intersections", "pop_density": 14562.3, "pop_density_peak": 60188.1, "v_design": 50, "design_gap": 0}}, {"type": "Feature", "geometry": {"type": "LineString", "coordinates": [[124.2899613, 8.2389638], [124.2899273, 8.2389815], [124.2897879, 8.2390227], [124.2896377, 8.2390399], [124.2895518, 8.2390393], [124.2894955, 8.2390227], [124.2894482, 8.2390041], [124.2894137, 8.2389839], [124.2893982, 8.2389742], [124.2893359, 8.2389351], [124.2892595, 8.2388993], [124.2891736, 8.2388661], [124.2891066, 8.2388621], [124.2890248, 8.2388913], [124.2889309, 8.2389298], [124.2888504, 8.2389656], [124.2887887, 8.2389669], [124.2887136, 8.238955], [124.2886439, 8.2389125], [124.2885916, 8.2388634], [124.288554, 8.2387758], [124.288546, 8.2386922], [124.28855, 8.2386192], [124.2885768, 8.2385051], [124.288601, 8.2384268], [124.2886426, 8.2383153], [124.2886761, 8.2382224], [124.288715, 8.2381241], [124.2888048, 8.2379396], [124.2888665, 8.237799], [124.2889175, 8.2376835], [124.2889389, 8.2375866], [124.288947, 8.2374977], [124.2889443, 8.2374101], [124.2889255, 8.2371818], [124.288896, 8.2369057], [124.2888799, 8.2367186], [124.2888612, 8.2366124], [124.2888223, 8.2365115], [124.2887673, 8.2364279], [124.2886828, 8.236323], [124.2885715, 8.2361837], [124.2884032, 8.2359919], [124.2883046, 8.2358824], [124.2882322, 8.2358007], [124.2881423, 8.2356813], [124.2880739, 8.2355884], [124.288021, 8.2354988], [124.2879679, 8.2353774], [124.2879385, 8.2352997], [124.287909, 8.2352021], [124.2878935, 8.2351159], [124.2878826, 8.2350139], [124.2878621, 8.2348206], [124.2878473, 8.234725], [124.2878312, 8.2346613], [124.2877735, 8.2345763], [124.2877005, 8.2345133], [124.2875858, 8.2344277], [124.2874443, 8.2343328], [124.2873229, 8.2342664], [124.2872109, 8.2341981], [124.2871573, 8.234143], [124.2870808, 8.2340262], [124.2870359, 8.2339041], [124.2870084, 8.2337607], [124.2869957, 8.2336466], [124.2869809, 8.2334993], [124.2869608, 8.2333824], [124.286932, 8.2332656], [124.2868984, 8.2331688], [124.2868449, 8.2330838], [124.2867732, 8.2329887]]}, "properties": {"city": "iligan", "name": "Pugaan-Mandulog Road", "highway": "secondary", "v_posted": 80, "posted_imputed": false, "v_safe": 50, "gap": 30, "R": 6.55, "exposure": 0.0, "vru_150m": 0, "sss": 37.5, "recommended": 50, "fatal_reduction_pct": 84.7, "why": "undivided arterial, side-impact intersections", "pop_density": 0.0, "pop_density_peak": 0.0, "v_design": 45, "design_gap": -5}}, {"type": "Feature", "geometry": {"type": "LineString", "coordinates": [[124.2970848, 8.2438048], [124.2970687, 8.243611], [124.2970553, 8.2434385], [124.2969882, 8.2430987], [124.2968971, 8.2427908], [124.2967978, 8.2425306], [124.2966771, 8.2422493], [124.296551, 8.2419971], [124.2964357, 8.2418206], [124.2962842, 8.2415923], [124.2961809, 8.2414171], [124.2960441, 8.2411609], [124.2959301, 8.2409923], [124.2958322, 8.2408862], [124.2957424, 8.2408238], [124.2956525, 8.2407999], [124.295564, 8.2408012], [124.2954728, 8.240845], [124.2953293, 8.24093], [124.295285, 8.2409552], [124.2952193, 8.2409698], [124.2951429, 8.2409631], [124.2950879, 8.2409286], [124.2950182, 8.2408463], [124.2949015, 8.2406897], [124.2948277, 8.2405955], [124.2947473, 8.2405092], [124.2946547, 8.2404283], [124.2945139, 8.2403659], [124.2942739, 8.2402955], [124.2941223, 8.240261], [124.2938943, 8.2402491], [124.2937361, 8.2402597], [124.2936663, 8.2402809], [124.2935926, 8.2403101], [124.2934759, 8.2404044], [124.2933364, 8.2405358], [124.2931969, 8.2406526], [124.2930642, 8.2406964], [124.292969, 8.240711], [124.2928657, 8.2407017], [124.292745, 8.2406831], [124.2926176, 8.2406459], [124.2925063, 8.2405982], [124.2923936, 8.2405358], [124.2923427, 8.2404893], [124.2923199, 8.2404243], [124.2923172, 8.2403208], [124.292344, 8.2402132], [124.2923762, 8.2401323], [124.2924245, 8.2400208], [124.2924607, 8.2399027], [124.2924768, 8.2397646], [124.2924727, 8.2395921], [124.2924647, 8.2393678], [124.2924218, 8.2391514], [124.2923561, 8.2389377], [124.2922287, 8.2387174], [124.2920744, 8.238513], [124.2919913, 8.2384307], [124.2917365, 8.23816], [124.2916104, 8.2380525], [124.2915192, 8.2379914], [124.29142, 8.2379516], [124.2913087, 8.237941], [124.2911813, 8.2379436], [124.2909855, 8.2379914], [124.2907883, 8.238087], [124.2906314, 8.2381971], [124.2905161, 8.2382781], [124.2903793, 8.2384002], [124.2902613, 8.2385515], [124.2902103, 8.2386404], [124.2901486, 8.238748], [124.2900896, 8.2388435], [124.290036, 8.2389125], [124.2899613, 8.2389638]]}, "properties": {"city": "iligan", "name": "Pugaan-Mandulog Road", "highway": "secondary", "v_posted": 80, "posted_imputed": false, "v_safe": 50, "gap": 30, "R": 6.55, "exposure": 0.0, "vru_150m": 0, "sss": 37.5, "recommended": 50, "fatal_reduction_pct": 84.7, "why": "undivided arterial, side-impact intersections", "pop_density": 0.0, "pop_density_peak": 0.0, "v_design": 35, "design_gap": -15}}, {"type": "Feature", "geometry": {"type": "LineString", "coordinates": [[124.2900611, 8.2680776], [124.2901178, 8.2678976], [124.2901352, 8.2678126], [124.2901513, 8.2675777], [124.2901567, 8.2672857], [124.2901459, 8.2667469], [124.2901417, 8.2666046], [124.2901379, 8.2664936], [124.2901125, 8.2657447], [124.2901345, 8.2651998], [124.2901245, 8.2650597], [124.2901205, 8.2650043], [124.2900923, 8.2648623], [124.2900467, 8.264581], [124.2899126, 8.2640554], [124.2897758, 8.2635935], [124.2897248, 8.263283], [124.2896947, 8.2631124], [124.2896914, 8.2630573], [124.2896712, 8.2623725], [124.2896685, 8.2621336], [124.2897248, 8.261977], [124.2898589, 8.2617541], [124.2900172, 8.2615815], [124.2902425, 8.2614701], [124.2904919, 8.2613506], [124.2906877, 8.2612312], [124.2908031, 8.2611462], [124.2908406, 8.2610772], [124.2908433, 8.2610042], [124.2908299, 8.2608065], [124.2908084, 8.2606499], [124.2907414, 8.2601906], [124.2907319, 8.2596575], [124.2908058, 8.2594607], [124.2908401, 8.2594103], [124.2909111, 8.2593402], [124.2910042, 8.2592882], [124.2910981, 8.2592696], [124.2918981, 8.2592122], [124.2920396, 8.2591873], [124.2921522, 8.2591183], [124.2925975, 8.2586591], [124.292745, 8.2585131], [124.2929542, 8.2584281], [124.2930937, 8.2584228], [124.2932192, 8.2584568], [124.2933618, 8.2585428], [124.2936398, 8.2586996], [124.293893, 8.2587838], [124.2941397, 8.2588024], [124.2943409, 8.2587971], [124.2945313, 8.2587599], [124.2946762, 8.2586909], [124.294817, 8.2585861], [124.294872, 8.2585383], [124.2949364, 8.2584626], [124.2950477, 8.2583402], [124.2952234, 8.2581468], [124.295395, 8.2579105], [124.2956471, 8.2575124], [124.2957786, 8.2572496], [124.295918, 8.2571222], [124.2961943, 8.2569748], [124.2965323, 8.2568408], [124.2966647, 8.256792], [124.2967361, 8.2567744], [124.2967924, 8.2567399], [124.2968903, 8.2566576], [124.2969829, 8.256517], [124.2970969, 8.2564081], [124.2971411, 8.2563816], [124.2972023, 8.2563673], [124.2972887, 8.2563749], [124.2973906, 8.2564015], [124.2977355, 8.2565358], [124.2978278, 8.25657], [124.2979349, 8.2565758], [124.2981148, 8.2565763], [124.2983025, 8.2565793], [124.298615, 8.2565714], [124.2991119, 8.2565378], [124.2992252, 8.2565475], [124.299303, 8.2565621], [124.2993499, 8.2565939], [124.2993982, 8.2566404], [124.299484, 8.2567718], [124.2995927, 8.2569642], [124.2997389, 8.2571434], [124.29978, 8.2571763], [124.3002552, 8.2575761], [124.3005314, 8.257803], [124.3007353, 8.2579702], [124.3009002, 8.2580685], [124.3011068, 8.2581468], [124.3011698, 8.2581667], [124.301253, 8.2581826], [124.3013576, 8.2581892], [124.3014595, 8.258176], [124.3017109, 8.2581368], [124.3018858, 8.2580944]]}, "properties": {"city": "iligan", "name": "Iligan-Bukidnon Road", "highway": "secondary", "v_posted": 80, "posted_imputed": false, "v_safe": 50, "gap": 30, "R": 6.55, "exposure": 0.013, "vru_150m": 0, "sss": 38.0, "recommended": 50, "fatal_reduction_pct": 84.7, "why": "undivided arterial, side-impact intersections", "pop_density": 411.1, "pop_density_peak": 2666.3, "v_design": 35, "design_gap": -15}}, {"type": "Feature", "geometry": {"type": "LineString", "coordinates": [[124.3024148, 8.2578821], [124.302546, 8.2578227], [124.302639, 8.2577665], [124.3027215, 8.257683], [124.3027697, 8.2575482], [124.3027912, 8.2574424], [124.3027886, 8.2573027], [124.3027617, 8.257154], [124.3027174, 8.2569417], [124.3025914, 8.2566099], [124.3025498, 8.2565024], [124.3025485, 8.2563763], [124.3025726, 8.2562462], [124.3026035, 8.2561599], [124.3028542, 8.2556994], [124.3029146, 8.2555627], [124.3029669, 8.2553981], [124.302983, 8.2552893], [124.3030058, 8.2551685], [124.3030272, 8.2550517], [124.3030567, 8.2549416], [124.3031023, 8.2548115], [124.3031158, 8.2547491], [124.3031198, 8.2546735], [124.3031171, 8.2545932], [124.303105, 8.2545089], [124.3030883, 8.2544439], [124.3030708, 8.2543967], [124.3030433, 8.254351], [124.3029736, 8.254274], [124.302932, 8.2542076], [124.3029106, 8.25412], [124.3029012, 8.2540377], [124.3029039, 8.253974], [124.3029253, 8.2538997], [124.3029508, 8.2538254], [124.3030071, 8.2537285], [124.3030782, 8.2536343], [124.3031546, 8.2535493], [124.3032512, 8.253483], [124.303561, 8.2533184], [124.3038373, 8.2532069], [124.3039808, 8.253106], [124.3041135, 8.2529786], [124.3042597, 8.252818], [124.3045413, 8.2524583], [124.3048578, 8.2520841], [124.3053956, 8.2515253], [124.3056893, 8.2512333], [124.30581, 8.2511537], [124.3059415, 8.2510979], [124.3060809, 8.2510581], [124.3064377, 8.2509772], [124.3068446, 8.2509173], [124.3072101, 8.2508936], [124.3076366, 8.2508657], [124.307811, 8.250875], [124.3079518, 8.2509267], [124.3080537, 8.2509931], [124.3082321, 8.2511802], [124.3083568, 8.251378], [124.3085875, 8.2518452], [124.3086492, 8.2519513], [124.3087323, 8.2520562], [124.3088691, 8.2521942], [124.3090153, 8.252323], [124.3091132, 8.2524185], [124.3091695, 8.2525048], [124.3092272, 8.2526747], [124.3092754, 8.2529733], [124.309195, 8.2532653], [124.3091869, 8.2536316], [124.3091977, 8.2538466], [124.3092245, 8.254043], [124.309321, 8.2543775], [124.3095289, 8.2549402], [124.3095691, 8.2550159], [124.3096362, 8.255065], [124.309718, 8.2550809], [124.3098119, 8.2550836], [124.3099242, 8.2550361], [124.310443, 8.2547799], [124.3108579, 8.2546137], [124.3110645, 8.2545315], [124.31155, 8.2543271], [124.3116747, 8.2542872], [124.3118075, 8.2542634], [124.3119214, 8.2542554], [124.3120274, 8.2542687], [124.3124726, 8.2544027], [124.3125853, 8.2544266], [124.3126631, 8.2544293], [124.3127395, 8.2544253], [124.3128803, 8.2543868], [124.3131365, 8.2543085], [124.3132599, 8.2542806], [124.3133564, 8.2542713], [124.3134691, 8.2542713], [124.3136354, 8.2542819], [124.3142979, 8.2543894], [124.3150878, 8.2545235], [124.3152018, 8.2545341], [124.3152769, 8.2545235], [124.3153641, 8.2545023], [124.3154378, 8.2544664], [124.3155062, 8.2544014], [124.3159327, 8.2538917], [124.3160896, 8.2537285], [124.3162559, 8.2535931], [124.316339, 8.2535255], [124.3164263, 8.2534418], [124.3164892, 8.2533728], [124.3165402, 8.2532626], [124.3165683, 8.2531658], [124.3165657, 8.2530861], [124.3165295, 8.2529972], [124.3164799, 8.2529096], [124.3164101, 8.2528233]]}, "properties": {"city": "iligan", "name": "Iligan-Bukidnon Road", "highway": "secondary", "v_posted": 80, "posted_imputed": false, "v_safe": 50, "gap": 30, "R": 6.55, "exposure": 0.026, "vru_150m": 0, "sss": 38.5, "recommended": 50, "fatal_reduction_pct": 84.7, "why": "undivided arterial, side-impact intersections", "pop_density": 844.9, "pop_density_peak": 5432.5, "v_design": 35, "design_gap": -15}}, {"type": "Feature", "geometry": {"type": "LineString", "coordinates": [[124.3018858, 8.2580944], [124.3024148, 8.2578821]]}, "properties": {"city": "iligan", "name": "Iligan-Bukidnon Road", "highway": "secondary", "v_posted": 80, "posted_imputed": false, "v_safe": 50, "gap": 30, "R": 6.55, "exposure": 0.0, "vru_150m": 0, "sss": 37.5, "recommended": 50, "fatal_reduction_pct": 84.7, "why": "undivided arterial, side-impact intersections", "pop_density": 0.0, "pop_density_peak": 0.0, "v_design": 50, "design_gap": 0}}, {"type": "Feature", "geometry": {"type": "LineString", "coordinates": [[124.2970848, 8.2438048], [124.2974402, 8.2438035], [124.2977205, 8.2438061], [124.2979994, 8.2438141], [124.2984299, 8.2438194], [124.2990857, 8.2437889], [124.2994586, 8.2437623], [124.2996289, 8.2437411], [124.2997429, 8.2437145], [124.2999279, 8.2436614], [124.300054, 8.2436243], [124.3002069, 8.2435924], [124.3004617, 8.2435632], [124.3007755, 8.2435314], [124.3010786, 8.2435075], [124.3012409, 8.2434942], [124.3014139, 8.2434756], [124.3015514, 8.2434583], [124.3016325, 8.2434471], [124.3019114, 8.2434159], [124.3020338, 8.2434275], [124.3021817, 8.2434498], [124.3023299, 8.2434743], [124.30259, 8.2435121], [124.3028214, 8.243542], [124.3030735, 8.2435795], [124.3034068, 8.2436356], [124.3038024, 8.2437049], [124.304247, 8.2437557], [124.3044401, 8.2437909], [124.3045152, 8.2438313], [124.3045655, 8.2438619], [124.3046661, 8.2439488], [124.3048029, 8.2441273], [124.3049692, 8.2443284], [124.3050402, 8.2443875], [124.305114, 8.2444352], [124.3052059, 8.2444717], [124.3052857, 8.2444784], [124.305336, 8.2444684], [124.3053869, 8.2444465], [124.3054835, 8.2443974], [124.3058831, 8.2440709], [124.3059582, 8.2440125], [124.3060152, 8.2439883], [124.3060588, 8.2439863], [124.3061101, 8.2439979], [124.3061554, 8.2440231], [124.3063062, 8.2441233], [124.3064243, 8.2441605], [124.3065765, 8.2441771], [124.3068219, 8.2441943], [124.3068708, 8.244205], [124.3069359, 8.2442322], [124.3070519, 8.2442972], [124.3071632, 8.2443503], [124.3072209, 8.2443583], [124.3072692, 8.2443543], [124.3073758, 8.2443231], [124.3075152, 8.2442826], [124.3075984, 8.244272], [124.307707, 8.244272], [124.3078096, 8.2442899], [124.3079478, 8.244331], [124.3080309, 8.2443729], [124.3080953, 8.2444259], [124.3082978, 8.2446725], [124.3084131, 8.2448059], [124.3088812, 8.2452654], [124.3091547, 8.2455136], [124.3093774, 8.2457246], [124.3094337, 8.2457671], [124.3094873, 8.2457937], [124.3095249, 8.2458036], [124.3095645, 8.2458069], [124.3096067, 8.2457943], [124.3096516, 8.2457592], [124.3096898, 8.2457081], [124.309773, 8.2455627], [124.3098447, 8.2453842], [124.3099084, 8.2452163], [124.3099614, 8.2450995], [124.3100399, 8.2449675], [124.3102303, 8.2447133], [124.3103296, 8.2445812], [124.3104583, 8.2443237], [124.3105549, 8.2440264], [124.3106286, 8.2438267], [124.3107185, 8.2436084], [124.3109733, 8.2430868], [124.3111382, 8.2428001], [124.3112227, 8.2426448], [124.3113421, 8.2423753], [124.3115433, 8.2419281], [124.3117109, 8.2416016], [124.3117954, 8.2414575], [124.3118544, 8.2413733], [124.3119134, 8.2413102], [124.3119818, 8.2412631], [124.3121763, 8.2411901], [124.3123466, 8.2411556], [124.3127234, 8.241133], [124.312989, 8.2411715], [124.3131861, 8.2412153], [124.3132579, 8.2412419], [124.3134148, 8.2413202], [124.3135744, 8.2413699], [124.3137816, 8.2414078], [124.3139291, 8.2414287], [124.3139817, 8.2414297], [124.3140303, 8.2414274], [124.3140675, 8.2414118], [124.3140971, 8.2413872], [124.3141155, 8.241352], [124.3141638, 8.2412379], [124.3142365, 8.2410229], [124.3143126, 8.2407747], [124.3143958, 8.2404681], [124.3145701, 8.2398151], [124.3146439, 8.2394726], [124.3146895, 8.2392974], [124.3148008, 8.238876], [124.3149121, 8.238517], [124.3149899, 8.2382728], [124.315122, 8.2378686], [124.3152266, 8.237574], [124.3153533, 8.2371725], [124.3154258, 8.2369508], [124.3154516, 8.2368596], [124.3154817, 8.2367587], [124.3155076, 8.2366748], [124.3155357, 8.2365858], [124.3155666, 8.2364843], [124.3156537, 8.2361916], [124.3157101, 8.2360204], [124.3157785, 8.2358333], [124.3158398, 8.2356893], [124.3159595, 8.2354238], [124.3160366, 8.2352333], [124.3161546, 8.2348829], [124.3162418, 8.2346507], [124.3163203, 8.2344449], [124.3163793, 8.2343215], [124.316449, 8.2342047], [124.3165536, 8.2340959], [124.3166743, 8.2340083], [124.3168018, 8.2339348]]}, "properties": {"city": "iligan", "name": "Mandulog-Lanipao Road", "highway": "secondary", "v_posted": 80, "posted_imputed": false, "v_safe": 50, "gap": 30, "R": 6.55, "exposure": 0.016, "vru_150m": 0, "sss": 38.1, "recommended": 50, "fatal_reduction_pct": 84.7, "why": "undivided arterial, side-impact intersections", "pop_density": 511.2, "pop_density_peak": 6134.4, "v_design": 35, "design_gap": -15}}, {"type": "Feature", "geometry": {"type": "LineString", "coordinates": [[124.2666638, 8.2649436], [124.2664164, 8.2650773], [124.2659578, 8.2653242], [124.2655005, 8.2655604], [124.2651021, 8.2658113], [124.2650123, 8.2658789], [124.2649573, 8.2659334], [124.2649003, 8.2660044], [124.2648541, 8.2660776], [124.2643699, 8.2670495], [124.2643297, 8.2671278], [124.26428, 8.2671902], [124.2637141, 8.2678777], [124.2636484, 8.26794], [124.2635974, 8.2679852], [124.2635312, 8.2680225], [124.2633464, 8.26812], [124.2631093, 8.2682612], [124.2630355, 8.2683183], [124.2629845, 8.2683687], [124.2626426, 8.2687735], [124.2625688, 8.2688545], [124.262495, 8.2689221], [124.2622818, 8.269088], [124.2621008, 8.2692592], [124.2619894, 8.26938], [124.2618848, 8.2695154], [124.2617293, 8.2697569], [124.2615557, 8.2700236], [124.2614275, 8.2702095], [124.2613628, 8.2703014]]}, "properties": {"city": "iligan", "name": "Iligan-Bukidnon Road", "highway": "secondary", "v_posted": 80, "posted_imputed": false, "v_safe": 50, "gap": 30, "R": 6.55, "exposure": 0.037, "vru_150m": 0, "sss": 38.9, "recommended": 50, "fatal_reduction_pct": 84.7, "why": "undivided arterial, side-impact intersections", "pop_density": 1192.6, "pop_density_peak": 3262.2, "v_design": 50, "design_gap": 0}}]}