{"type": "FeatureCollection", "features": [{"type": "Feature", "geometry": {"type": "LineString", "coordinates": [[120.8957704, 14.2869982], [120.8957575, 14.2868473], [120.895815, 14.2864836], [120.8959096, 14.2858179], [120.8960959, 14.2840725], [120.896287, 14.2815295], [120.8963318, 14.2812465], [120.8964147, 14.2809479], [120.896539, 14.2807292], [120.8974721, 14.2795], [120.8976195, 14.2792896], [120.8976662, 14.2790811], [120.8976791, 14.2788432], [120.8976138, 14.2786342], [120.8972946, 14.2780353], [120.8969379, 14.2776049]]}, "properties": {"city": "dasmarinas", "name": "", "highway": "unclassified", "v_posted": 40, "posted_imputed": false, "v_safe": 30, "gap": 10, "R": 3.16, "exposure": 0.033, "vru_150m": 0, "sss": 12.9, "recommended": 30, "fatal_reduction_pct": 68.4, "why": "local road, frontage/pedestrian mixing", "pop_density": 1064.9, "pop_density_peak": 4474.5}}, {"type": "Feature", "geometry": {"type": "LineString", "coordinates": [[120.8970184, 14.2775139], [120.8973738, 14.2779351], [120.8977533, 14.278577], [120.8978284, 14.2788474], [120.8978208, 14.2790886], [120.8977265, 14.2793672], [120.8966403, 14.2807999], [120.8965168, 14.2809944], [120.896439, 14.2812647], [120.8963961, 14.2815351], [120.8961949, 14.2840824], [120.8959837, 14.2858258], [120.8958253, 14.2868624], [120.8957704, 14.2869982]]}, "properties": {"city": "dasmarinas", "name": "", "highway": "unclassified", "v_posted": 40, "posted_imputed": false, "v_safe": 30, "gap": 10, "R": 3.16, "exposure": 0.059, "vru_150m": 0, "sss": 13.2, "recommended": 30, "fatal_reduction_pct": 68.4, "why": "local road, frontage/pedestrian mixing", "pop_density": 1913.1, "pop_density_peak": 5089.2}}, {"type": "Feature", "geometry": {"type": "LineString", "coordinates": [[120.909639, 14.2981076], [120.9099727, 14.2983078], [120.9112821, 14.2990931]]}, "properties": {"city": "dasmarinas", "name": "", "highway": "residential", "v_posted": 40, "posted_imputed": false, "v_safe": 30, "gap": 10, "R": 3.16, "exposure": 0.298, "vru_150m": 0, "sss": 16.2, "recommended": 30, "fatal_reduction_pct": 68.4, "why": "local road, frontage/pedestrian mixing", "pop_density": 9642.0, "pop_density_peak": 12248.3}}, {"type": "Feature", "geometry": {"type": "LineString", "coordinates": [[120.8967168, 14.2774604], [120.8964057, 14.2773402], [120.8959723, 14.2772254], [120.8953929, 14.2771266], [120.894304, 14.2769498], [120.8940392, 14.2769081]]}, "properties": {"city": "dasmarinas", "name": "", "highway": "unclassified", "v_posted": 40, "posted_imputed": false, "v_safe": 30, "gap": 10, "R": 3.16, "exposure": 0.0, "vru_150m": 0, "sss": 12.5, "recommended": 30, "fatal_reduction_pct": 68.4, "why": "local road, frontage/pedestrian mixing", "pop_density": 0.0, "pop_density_peak": 0.0}}, {"type": "Feature", "geometry": {"type": "LineString", "coordinates": [[120.8940506, 14.2767968], [120.8943254, 14.2768303], [120.8953876, 14.2769862], [120.8960152, 14.2771058], [120.896439, 14.277215], [120.8967287, 14.2773137]]}, "properties": {"city": "dasmarinas", "name": "", "highway": "unclassified", "v_posted": 40, "posted_imputed": false, "v_safe": 30, "gap": 10, "R": 3.16, "exposure": 0.0, "vru_150m": 0, "sss": 12.5, "recommended": 30, "fatal_reduction_pct": 68.4, "why": "local road, frontage/pedestrian mixing", "pop_density": 0.0, "pop_density_peak": 0.0}}, {"type": "Feature", "geometry": {"type": "LineString", "coordinates": [[120.8967287, 14.2773137], [120.8970184, 14.2775139]]}, "properties": {"city": "dasmarinas", "name": "", "highway": "unclassified", "v_posted": 40, "posted_imputed": false, "v_safe": 30, "gap": 10, "R": 3.16, "exposure": 0.0, "vru_150m": 0, "sss": 12.5, "recommended": 30, "fatal_reduction_pct": 68.4, "why": "local road, frontage/pedestrian mixing", "pop_density": 0.0, "pop_density_peak": 0.0}}, {"type": "Feature", "geometry": {"type": "LineString", "coordinates": [[120.8969379, 14.2776049], [120.8967168, 14.2774604]]}, "properties": {"city": "dasmarinas", "name": "", "highway": "unclassified", "v_posted": 40, "posted_imputed": false, "v_safe": 30, "gap": 10, "R": 3.16, "exposure": 0.0, "vru_150m": 0, "sss": 12.5, "recommended": 30, "fatal_reduction_pct": 68.4, "why": "local road, frontage/pedestrian mixing", "pop_density": 0.0, "pop_density_peak": 0.0}}, {"type": "Feature", "geometry": {"type": "LineString", "coordinates": [[120.9375711, 14.2764092], [120.9373492, 14.2769488], [120.9372621, 14.2771605], [120.9370053, 14.2777767], [120.9369714, 14.2778581], [120.9365246, 14.2789319], [120.9365087, 14.2789702], [120.9363696, 14.2793043], [120.9360299, 14.2801162], [120.9356762, 14.2809614], [120.9356377, 14.2810533], [120.9349147, 14.2827808], [120.9345614, 14.2836049], [120.9341266, 14.2846192], [120.9340904, 14.2847035], [120.9340377, 14.2848266], [120.9338334, 14.285303], [120.9337744, 14.2854902], [120.9337547, 14.2855634], [120.93374, 14.2856387], [120.9337276, 14.2857555], [120.9336529, 14.2864568], [120.9336263, 14.2867059], [120.933601, 14.2869366], [120.9335755, 14.2871694], [120.9335557, 14.2873489], [120.9335226, 14.28765], [120.9334331, 14.2884639], [120.9334251, 14.2885337], [120.9333906, 14.2888503]]}, "properties": {"city": "dasmarinas", "name": "FCIE Main Drive", "highway": "unclassified", "v_posted": 45, "posted_imputed": false, "v_safe": 30, "gap": 15, "R": 5.06, "exposure": 0.105, "vru_150m": 0, "sss": 20.7, "recommended": 30, "fatal_reduction_pct": 80.2, "why": "local road, frontage/pedestrian mixing", "pop_density": 3406.2, "pop_density_peak": 4257.9}}, {"type": "Feature", "geometry": {"type": "LineString", "coordinates": [[120.9404046, 14.3013921], [120.940323, 14.3015089], [120.9402791, 14.3016119], [120.9402157, 14.3018303], [120.9400069, 14.3027026], [120.9398732, 14.3031547], [120.9396512, 14.3038168], [120.9396216, 14.3039494], [120.9395988, 14.3041275], [120.939576, 14.304976], [120.9395452, 14.3057207], [120.9394164, 14.3060079], [120.9391133, 14.3065394], [120.9389082, 14.3069357], [120.938817, 14.3071579], [120.9387888, 14.3072541], [120.9387834, 14.3073425], [120.9387875, 14.3074529]]}, "properties": {"city": "dasmarinas", "name": "Greenbreeze Avenue", "highway": "residential", "v_posted": 40, "posted_imputed": false, "v_safe": 30, "gap": 10, "R": 3.16, "exposure": 0.113, "vru_150m": 0, "sss": 13.9, "recommended": 30, "fatal_reduction_pct": 68.4, "why": "local road, frontage/pedestrian mixing", "pop_density": 3647.3, "pop_density_peak": 4969.7}}, {"type": "Feature", "geometry": {"type": "LineString", "coordinates": [[120.9330738, 14.2921078], [120.9330478, 14.2922144]]}, "properties": {"city": "dasmarinas", "name": "FCIE Main Drive", "highway": "unclassified", "v_posted": 45, "posted_imputed": false, "v_safe": 30, "gap": 15, "R": 5.06, "exposure": 0.318, "vru_150m": 1, "sss": 24.7, "recommended": 30, "fatal_reduction_pct": 80.2, "why": "local road, frontage/pedestrian mixing", "pop_density": 4789.2, "pop_density_peak": 4789.2}}, {"type": "Feature", "geometry": {"type": "LineString", "coordinates": [[120.9333906, 14.2888503], [120.9333931, 14.2892518], [120.9333595, 14.2895681], [120.9333538, 14.2896201], [120.9332655, 14.2904297]]}, "properties": {"city": "dasmarinas", "name": "FCIE Main Drive", "highway": "unclassified", "v_posted": 45, "posted_imputed": false, "v_safe": 30, "gap": 15, "R": 5.06, "exposure": 0.107, "vru_150m": 0, "sss": 20.7, "recommended": 30, "fatal_reduction_pct": 80.2, "why": "local road, frontage/pedestrian mixing", "pop_density": 3449.3, "pop_density_peak": 3509.3}}, {"type": "Feature", "geometry": {"type": "LineString", "coordinates": [[120.9329558, 14.29208], [120.9329819, 14.292011], [120.9329896, 14.2919573]]}, "properties": {"city": "dasmarinas", "name": "FCIE Main Drive", "highway": "unclassified", "v_posted": 45, "posted_imputed": false, "v_safe": 30, "gap": 15, "R": 5.06, "exposure": 0.318, "vru_150m": 1, "sss": 24.7, "recommended": 30, "fatal_reduction_pct": 80.2, "why": "local road, frontage/pedestrian mixing", "pop_density": 4789.2, "pop_density_peak": 4789.2}}, {"type": "Feature", "geometry": {"type": "LineString", "coordinates": [[120.9329896, 14.2919573], [120.9329583, 14.2918434], [120.9329701, 14.2917038], [120.9330136, 14.2916186], [120.9330427, 14.2915241], [120.9330495, 14.2914507], [120.9330623, 14.2913118], [120.9331042, 14.2912593]]}, "properties": {"city": "dasmarinas", "name": "FCIE Main Drive", "highway": "unclassified", "v_posted": 45, "posted_imputed": false, "v_safe": 30, "gap": 15, "R": 5.06, "exposure": 0.302, "vru_150m": 1, "sss": 24.4, "recommended": 30, "fatal_reduction_pct": 80.2, "why": "local road, frontage/pedestrian mixing", "pop_density": 4141.2, "pop_density_peak": 4789.2}}, {"type": "Feature", "geometry": {"type": "LineString", "coordinates": [[120.9329896, 14.2919573], [120.9330251, 14.291851], [120.9330831, 14.2915262], [120.9330987, 14.291329], [120.9331042, 14.2912593]]}, "properties": {"city": "dasmarinas", "name": "FCIE Main Drive", "highway": "unclassified", "v_posted": 45, "posted_imputed": false, "v_safe": 30, "gap": 15, "R": 5.06, "exposure": 0.128, "vru_150m": 0, "sss": 21.2, "recommended": 30, "fatal_reduction_pct": 80.2, "why": "local road, frontage/pedestrian mixing", "pop_density": 4141.2, "pop_density_peak": 4789.2}}, {"type": "Feature", "geometry": {"type": "LineString", "coordinates": [[120.9331042, 14.2912593], [120.9331188, 14.2910496], [120.9331399, 14.2908397], [120.9331822, 14.2904197], [120.9332462, 14.2897843], [120.9332636, 14.2896117], [120.933269, 14.2895579], [120.9333115, 14.289145], [120.9333906, 14.2888503]]}, "properties": {"city": "dasmarinas", "name": "FCIE Main Drive", "highway": "unclassified", "v_posted": 45, "posted_imputed": false, "v_safe": 30, "gap": 15, "R": 5.06, "exposure": 0.108, "vru_150m": 0, "sss": 20.8, "recommended": 30, "fatal_reduction_pct": 80.2, "why": "local road, frontage/pedestrian mixing", "pop_density": 3478.5, "pop_density_peak": 3552.9}}, {"type": "Feature", "geometry": {"type": "LineString", "coordinates": [[120.9331525, 14.2915353], [120.93313, 14.2917515], [120.9331186, 14.2918616], [120.9331035, 14.2919862], [120.9330918, 14.2920341], [120.9330738, 14.2921078]]}, "properties": {"city": "dasmarinas", "name": "FCIE Main Drive", "highway": "unclassified", "v_posted": 45, "posted_imputed": false, "v_safe": 30, "gap": 15, "R": 5.06, "exposure": 0.302, "vru_150m": 1, "sss": 24.4, "recommended": 30, "fatal_reduction_pct": 80.2, "why": "local road, frontage/pedestrian mixing", "pop_density": 4141.2, "pop_density_peak": 4789.2}}, {"type": "Feature", "geometry": {"type": "LineString", "coordinates": [[120.9332655, 14.2904297], [120.9332213, 14.2908483]]}, "properties": {"city": "dasmarinas", "name": "FCIE Main Drive", "highway": "unclassified", "v_posted": 45, "posted_imputed": false, "v_safe": 30, "gap": 15, "R": 5.06, "exposure": 0.108, "vru_150m": 0, "sss": 20.8, "recommended": 30, "fatal_reduction_pct": 80.2, "why": "local road, frontage/pedestrian mixing", "pop_density": 3509.3, "pop_density_peak": 3509.3}}, {"type": "Feature", "geometry": {"type": "LineString", "coordinates": [[120.9329238, 14.2921822], [120.9329558, 14.29208]]}, "properties": {"city": "dasmarinas", "name": "FCIE Main Drive", "highway": "unclassified", "v_posted": 45, "posted_imputed": false, "v_safe": 30, "gap": 15, "R": 5.06, "exposure": 0.318, "vru_150m": 1, "sss": 24.7, "recommended": 30, "fatal_reduction_pct": 80.2, "why": "local road, frontage/pedestrian mixing", "pop_density": 4789.2, "pop_density_peak": 4789.2}}, {"type": "Feature", "geometry": {"type": "LineString", "coordinates": [[120.9387057, 14.3080468], [120.9385118, 14.3086088], [120.9384513, 14.3087822], [120.9383822, 14.3089804], [120.9380603, 14.309833], [120.9378152, 14.3104757], [120.9377669, 14.3106023], [120.9377249, 14.3106847], [120.9376987, 14.3107361], [120.9375322, 14.3109208], [120.9373806, 14.311089], [120.9371898, 14.3113006], [120.9371399, 14.311356], [120.9370173, 14.3114992], [120.9367454, 14.3118168], [120.9364782, 14.3121289], [120.9361966, 14.3124562], [120.9360103, 14.3127196], [120.9357329, 14.3131302], [120.9355078, 14.3134209], [120.9354146, 14.3135366]]}, "properties": {"city": "dasmarinas", "name": "Amuntay Road", "highway": "unclassified", "v_posted": 40, "posted_imputed": false, "v_safe": 30, "gap": 10, "R": 3.16, "exposure": 0.266, "vru_150m": 1, "sss": 15.8, "recommended": 30, "fatal_reduction_pct": 68.4, "why": "local road, frontage/pedestrian mixing", "pop_density": 2649.6, "pop_density_peak": 5021.7}}, {"type": "Feature", "geometry": {"type": "LineString", "coordinates": [[120.9387875, 14.3074529], [120.9387888, 14.3075426], [120.9387875, 14.307692], [120.9387539, 14.3079155]]}, "properties": {"city": "dasmarinas", "name": "Greenbreeze Avenue", "highway": "residential", "v_posted": 40, "posted_imputed": false, "v_safe": 30, "gap": 10, "R": 3.16, "exposure": 0.082, "vru_150m": 0, "sss": 13.5, "recommended": 30, "fatal_reduction_pct": 68.4, "why": "local road, frontage/pedestrian mixing", "pop_density": 2663.3, "pop_density_peak": 2835.9}}, {"type": "Feature", "geometry": {"type": "LineString", "coordinates": [[120.9376665, 14.2760585], [120.9377558, 14.2758668], [120.9378647, 14.2757365]]}, "properties": {"city": "dasmarinas", "name": "FCIE Main Drive", "highway": "unclassified", "v_posted": 45, "posted_imputed": false, "v_safe": 30, "gap": 15, "R": 5.06, "exposure": 0.098, "vru_150m": 0, "sss": 20.6, "recommended": 30, "fatal_reduction_pct": 80.2, "why": "local road, frontage/pedestrian mixing", "pop_density": 3183.0, "pop_density_peak": 3346.7}}, {"type": "Feature", "geometry": {"type": "LineString", "coordinates": [[120.9375711, 14.2764092], [120.937611, 14.2761808]]}, "properties": {"city": "dasmarinas", "name": "FCIE Main Drive", "highway": "unclassified", "v_posted": 45, "posted_imputed": false, "v_safe": 30, "gap": 15, "R": 5.06, "exposure": 0.093, "vru_150m": 0, "sss": 20.5, "recommended": 30, "fatal_reduction_pct": 80.2, "why": "local road, frontage/pedestrian mixing", "pop_density": 3019.2, "pop_density_peak": 3019.2}}, {"type": "Feature", "geometry": {"type": "LineString", "coordinates": [[120.937611, 14.2761808], [120.9376665, 14.2760585]]}, "properties": {"city": "dasmarinas", "name": "FCIE Main Drive", "highway": "unclassified", "v_posted": 45, "posted_imputed": false, "v_safe": 30, "gap": 15, "R": 5.06, "exposure": 0.093, "vru_150m": 0, "sss": 20.5, "recommended": 30, "fatal_reduction_pct": 80.2, "why": "local road, frontage/pedestrian mixing", "pop_density": 3019.2, "pop_density_peak": 3019.2}}, {"type": "Feature", "geometry": {"type": "LineString", "coordinates": [[120.9377213, 14.2761629], [120.9376975, 14.2762176], [120.9375711, 14.2764092]]}, "properties": {"city": "dasmarinas", "name": "FCIE Main Drive", "highway": "unclassified", "v_posted": 45, "posted_imputed": false, "v_safe": 30, "gap": 15, "R": 5.06, "exposure": 0.093, "vru_150m": 0, "sss": 20.5, "recommended": 30, "fatal_reduction_pct": 80.2, "why": "local road, frontage/pedestrian mixing", "pop_density": 3019.2, "pop_density_peak": 3019.2}}, {"type": "Feature", "geometry": {"type": "LineString", "coordinates": [[120.9378647, 14.2757365], [120.9378359, 14.2759066]]}, "properties": {"city": "dasmarinas", "name": "FCIE Main Drive", "highway": "unclassified", "v_posted": 45, "posted_imputed": false, "v_safe": 30, "gap": 15, "R": 5.06, "exposure": 0.103, "vru_150m": 0, "sss": 20.7, "recommended": 30, "fatal_reduction_pct": 80.2, "why": "local road, frontage/pedestrian mixing", "pop_density": 3346.7, "pop_density_peak": 3346.7}}, {"type": "Feature", "geometry": {"type": "LineString", "coordinates": [[120.9378359, 14.2759066], [120.9377213, 14.2761629]]}, "properties": {"city": "dasmarinas", "name": "FCIE Main Drive", "highway": "unclassified", "v_posted": 45, "posted_imputed": false, "v_safe": 30, "gap": 15, "R": 5.06, "exposure": 0.098, "vru_150m": 0, "sss": 20.6, "recommended": 30, "fatal_reduction_pct": 80.2, "why": "local road, frontage/pedestrian mixing", "pop_density": 3183.0, "pop_density_peak": 3346.7}}, {"type": "Feature", "geometry": {"type": "LineString", "coordinates": [[120.9415943, 14.2683552], [120.941188, 14.2682059], [120.9411377, 14.2682107], [120.9410883, 14.2682278], [120.9410531, 14.2682503], [120.941009, 14.2683017], [120.9409668, 14.2683889], [120.9408276, 14.2687176], [120.9406985, 14.2690226], [120.9405192, 14.269446], [120.9404691, 14.2695644], [120.9403498, 14.2698461], [120.9399359, 14.2708237], [120.9387333, 14.2736307], [120.9387026, 14.2737051], [120.9384924, 14.2742142], [120.938111, 14.2751612], [120.9378647, 14.2757365]]}, "properties": {"city": "dasmarinas", "name": "FCIE Main Drive", "highway": "unclassified", "v_posted": 45, "posted_imputed": false, "v_safe": 30, "gap": 15, "R": 5.06, "exposure": 0.12, "vru_150m": 0, "sss": 21.0, "recommended": 30, "fatal_reduction_pct": 80.2, "why": "local road, frontage/pedestrian mixing", "pop_density": 3877.6, "pop_density_peak": 9462.7}}, {"type": "Feature", "geometry": {"type": "LineString", "coordinates": [[120.9262538, 14.2914318], [120.9261757, 14.2914516], [120.9260972, 14.2914735], [120.9260087, 14.2915004], [120.9259145, 14.2915306], [120.9255888, 14.291642], [120.9253527, 14.2917235], [120.9252269, 14.2917636]]}, "properties": {"city": "dasmarinas", "name": "Governor's Drive", "highway": "primary", "v_posted": 60, "posted_imputed": false, "v_safe": 50, "gap": 10, "R": 2.07, "exposure": 0.136, "vru_150m": 0, "sss": 14.2, "recommended": 50, "fatal_reduction_pct": 51.8, "why": "undivided arterial, side-impact intersections", "pop_density": 4404.6, "pop_density_peak": 5029.0}}, {"type": "Feature", "geometry": {"type": "LineString", "coordinates": [[120.9387539, 14.3079155], [120.9387057, 14.3080468]]}, "properties": {"city": "dasmarinas", "name": "Amuntay Road", "highway": "residential", "v_posted": 40, "posted_imputed": false, "v_safe": 30, "gap": 10, "R": 3.16, "exposure": 0.077, "vru_150m": 0, "sss": 13.5, "recommended": 30, "fatal_reduction_pct": 68.4, "why": "local road, frontage/pedestrian mixing", "pop_density": 2490.6, "pop_density_peak": 2490.6}}, {"type": "Feature", "geometry": {"type": "LineString", "coordinates": [[120.9331993, 14.2910568], [120.9331727, 14.2913283], [120.9331525, 14.2915353]]}, "properties": {"city": "dasmarinas", "name": "FCIE Main Drive", "highway": "unclassified", "v_posted": 45, "posted_imputed": false, "v_safe": 30, "gap": 15, "R": 5.06, "exposure": 0.108, "vru_150m": 0, "sss": 20.8, "recommended": 30, "fatal_reduction_pct": 80.2, "why": "local road, frontage/pedestrian mixing", "pop_density": 3493.2, "pop_density_peak": 3493.2}}, {"type": "Feature", "geometry": {"type": "LineString", "coordinates": [[120.9404633, 14.3012417], [120.9404046, 14.3013921]]}, "properties": {"city": "dasmarinas", "name": "Greenbreeze Avenue", "highway": "residential", "v_posted": 40, "posted_imputed": false, "v_safe": 30, "gap": 10, "R": 3.16, "exposure": 0.127, "vru_150m": 0, "sss": 14.1, "recommended": 30, "fatal_reduction_pct": 68.4, "why": "local road, frontage/pedestrian mixing", "pop_density": 4106.2, "pop_density_peak": 4106.2}}, {"type": "Feature", "geometry": {"type": "LineString", "coordinates": [[120.9332213, 14.2908483], [120.9331993, 14.2910568]]}, "properties": {"city": "dasmarinas", "name": "FCIE Main Drive", "highway": "unclassified", "v_posted": 45, "posted_imputed": false, "v_safe": 30, "gap": 15, "R": 5.06, "exposure": 0.108, "vru_150m": 0, "sss": 20.8, "recommended": 30, "fatal_reduction_pct": 80.2, "why": "local road, frontage/pedestrian mixing", "pop_density": 3501.3, "pop_density_peak": 3509.3}}, {"type": "Feature", "geometry": {"type": "LineString", "coordinates": [[120.9273787, 14.2914368], [120.9273231, 14.291427], [120.9271606, 14.291401], [120.927054, 14.2913845], [120.9269653, 14.2913754], [120.9268902, 14.2913698], [120.926817, 14.291367], [120.9267725, 14.2913671]]}, "properties": {"city": "dasmarinas", "name": "Governor's Drive", "highway": "primary", "v_posted": 60, "posted_imputed": false, "v_safe": 50, "gap": 10, "R": 2.07, "exposure": 0.445, "vru_150m": 2, "sss": 18.1, "recommended": 50, "fatal_reduction_pct": 51.8, "why": "undivided arterial, side-impact intersections", "pop_density": 2425.9, "pop_density_peak": 2425.9}}, {"type": "Feature", "geometry": {"type": "LineString", "coordinates": [[120.9277415, 14.2915041], [120.9276015, 14.2914773], [120.9274705, 14.2914532], [120.9273787, 14.2914368]]}, "properties": {"city": "dasmarinas", "name": "Governor's Drive", "highway": "primary", "v_posted": 60, "posted_imputed": false, "v_safe": 30, "gap": 30, "R": 16.0, "exposure": 0.455, "vru_150m": 2, "sss": 54.6, "recommended": 30, "fatal_reduction_pct": 93.8, "why": "pedestrian activity (1 VRU site<=50m)", "pop_density": 2991.3, "pop_density_peak": 3556.8}}, {"type": "Feature", "geometry": {"type": "LineString", "coordinates": [[120.9157642, 14.3124643], [120.9157398, 14.3132649]]}, "properties": {"city": "dasmarinas", "name": "Arnaldo Highway", "highway": "secondary", "v_posted": 40, "posted_imputed": false, "v_safe": 30, "gap": 10, "R": 3.16, "exposure": 0.961, "vru_150m": 4, "sss": 24.5, "recommended": 30, "fatal_reduction_pct": 68.4, "why": "pedestrian activity (2 VRU site<=50m)", "pop_density": 26021.4, "pop_density_peak": 27076.2}}, {"type": "Feature", "geometry": {"type": "LineString", "coordinates": [[120.9158916, 14.3108767], [120.9158439, 14.3111015], [120.9158332, 14.3111516], [120.9158269, 14.3112712], [120.9158112, 14.3115698], [120.915807, 14.3116505], [120.9158026, 14.3117453], [120.9157996, 14.3118114], [120.9157901, 14.3119435], [120.9157642, 14.3124643]]}, "properties": {"city": "dasmarinas", "name": "Arnaldo Highway", "highway": "secondary", "v_posted": 40, "posted_imputed": false, "v_safe": 30, "gap": 10, "R": 3.16, "exposure": 0.928, "vru_150m": 3, "sss": 24.1, "recommended": 30, "fatal_reduction_pct": 68.4, "why": "pedestrian activity (1 VRU site<=50m)", "pop_density": 26536.6, "pop_density_peak": 27076.2}}, {"type": "Feature", "geometry": {"type": "LineString", "coordinates": [[120.9161216, 14.3103213], [120.9161163, 14.3103316], [120.9160224, 14.3105136], [120.9159447, 14.3106954], [120.9159011, 14.3108443], [120.9158916, 14.3108767]]}, "properties": {"city": "dasmarinas", "name": "Arnaldo Highway", "highway": "secondary", "v_posted": 40, "posted_imputed": false, "v_safe": 30, "gap": 10, "R": 3.16, "exposure": 0.961, "vru_150m": 4, "sss": 24.5, "recommended": 30, "fatal_reduction_pct": 68.4, "why": "pedestrian activity (1 VRU site<=50m)", "pop_density": 25997.0, "pop_density_peak": 25997.0}}, {"type": "Feature", "geometry": {"type": "LineString", "coordinates": [[120.9156348, 14.3143663], [120.9156397, 14.3142547], [120.9156491, 14.3140368], [120.9156587, 14.3138128], [120.9156622, 14.3137311], [120.9156821, 14.3132667], [120.9157642, 14.3124643]]}, "properties": {"city": "dasmarinas", "name": "Arnaldo Highway", "highway": "secondary", "v_posted": 40, "posted_imputed": false, "v_safe": 30, "gap": 10, "R": 3.16, "exposure": 1.0, "vru_150m": 6, "sss": 25.0, "recommended": 30, "fatal_reduction_pct": 68.4, "why": "pedestrian activity (2 VRU site<=50m)", "pop_density": 24112.3, "pop_density_peak": 27076.2}}, {"type": "Feature", "geometry": {"type": "LineString", "coordinates": [[120.9168121, 14.3096829], [120.9166037, 14.3098061], [120.9165074, 14.3098917], [120.9164708, 14.3099243], [120.9163426, 14.3100384], [120.9163079, 14.3100828], [120.916301, 14.3100917], [120.9162755, 14.3101243], [120.9162346, 14.3101767], [120.9162211, 14.3101939], [120.9161216, 14.3103213]]}, "properties": {"city": "dasmarinas", "name": "Arnaldo Highway", "highway": "secondary", "v_posted": 40, "posted_imputed": false, "v_safe": 30, "gap": 10, "R": 3.16, "exposure": 0.889, "vru_150m": 3, "sss": 23.6, "recommended": 30, "fatal_reduction_pct": 68.4, "why": "pedestrian activity (1 VRU site<=50m)", "pop_density": 23356.6, "pop_density_peak": 25996.9}}, {"type": "Feature", "geometry": {"type": "LineString", "coordinates": [[120.9156437, 14.3148878], [120.9156137, 14.3149912], [120.9155794, 14.3151093], [120.9155723, 14.3151339], [120.9155086, 14.3152893], [120.9154589, 14.3154505]]}, "properties": {"city": "dasmarinas", "name": "Arnaldo Highway", "highway": "secondary", "v_posted": 40, "posted_imputed": false, "v_safe": 30, "gap": 10, "R": 3.16, "exposure": 1.0, "vru_150m": 5, "sss": 25.0, "recommended": 30, "fatal_reduction_pct": 68.4, "why": "pedestrian activity (3 VRU site<=50m)", "pop_density": 20690.5, "pop_density_peak": 21148.5}}, {"type": "Feature", "geometry": {"type": "LineString", "coordinates": [[120.9156958, 14.3142578], [120.9156907, 14.3143659], [120.9156875, 14.3144344], [120.9156785, 14.3146232], [120.9156761, 14.3146574], [120.9156691, 14.3147555], [120.9156437, 14.3148878]]}, "properties": {"city": "dasmarinas", "name": "Arnaldo Highway", "highway": "secondary", "v_posted": 40, "posted_imputed": false, "v_safe": 30, "gap": 10, "R": 3.16, "exposure": 1.0, "vru_150m": 6, "sss": 25.0, "recommended": 30, "fatal_reduction_pct": 68.4, "why": "pedestrian activity (1 VRU site<=50m)", "pop_density": 22786.7, "pop_density_peak": 24424.9}}, {"type": "Feature", "geometry": {"type": "LineString", "coordinates": [[120.9157398, 14.3132649], [120.9157205, 14.3137299]]}, "properties": {"city": "dasmarinas", "name": "Arnaldo Highway", "highway": "secondary", "v_posted": 40, "posted_imputed": false, "v_safe": 30, "gap": 10, "R": 3.16, "exposure": 1.0, "vru_150m": 5, "sss": 25.0, "recommended": 30, "fatal_reduction_pct": 68.4, "why": "pedestrian activity (2 VRU site<=50m)", "pop_density": 24695.8, "pop_density_peak": 24966.6}}, {"type": "Feature", "geometry": {"type": "LineString", "coordinates": [[120.9157205, 14.3137299], [120.9157168, 14.3138132], [120.9157062, 14.3140385], [120.9156958, 14.3142578]]}, "properties": {"city": "dasmarinas", "name": "Arnaldo Highway", "highway": "secondary", "v_posted": 40, "posted_imputed": false, "v_safe": 30, "gap": 10, "R": 3.16, "exposure": 1.0, "vru_150m": 8, "sss": 25.0, "recommended": 30, "fatal_reduction_pct": 68.4, "why": "pedestrian activity (1 VRU site<=50m)", "pop_density": 24424.9, "pop_density_peak": 24424.9}}, {"type": "Feature", "geometry": {"type": "LineString", "coordinates": [[120.9174341, 14.3094184], [120.9173466, 14.3094523]]}, "properties": {"city": "dasmarinas", "name": "Arnaldo Highway", "highway": "secondary", "v_posted": 40, "posted_imputed": false, "v_safe": 30, "gap": 10, "R": 3.16, "exposure": 0.777, "vru_150m": 2, "sss": 22.2, "recommended": 30, "fatal_reduction_pct": 68.4, "why": "pedestrian activity (2 VRU site<=50m)", "pop_density": 20300.9, "pop_density_peak": 20716.2}}, {"type": "Feature", "geometry": {"type": "LineString", "coordinates": [[120.9606673, 14.3813938], [120.9607167, 14.3814655], [120.9607375, 14.3814961], [120.9613639, 14.3823635], [120.9615068, 14.3825673], [120.9615641, 14.3826478], [120.961606, 14.3827074], [120.9617046, 14.3828474], [120.9617395, 14.38289], [120.961781, 14.3829286], [120.961856, 14.3829305]]}, "properties": {"city": "dasmarinas", "name": "Champions Loop", "highway": "unclassified", "v_posted": 40, "posted_imputed": false, "v_safe": 30, "gap": 10, "R": 3.16, "exposure": 0.02, "vru_150m": 0, "sss": 12.8, "recommended": 30, "fatal_reduction_pct": 68.4, "why": "local road, frontage/pedestrian mixing", "pop_density": 662.0, "pop_density_peak": 1504.1}}]}