{"type": "FeatureCollection", "features": [{"type": "Feature", "geometry": {"type": "LineString", "coordinates": [[126.1570439, 6.9147537], [126.1575186, 6.9153502], [126.1577305, 6.9156111], [126.1579451, 6.9158721], [126.1580524, 6.9159732], [126.1581999, 6.9160611], [126.158385, 6.916141], [126.1585808, 6.9161889], [126.1587766, 6.9161969], [126.1590019, 6.9161836], [126.1592621, 6.916101], [126.1595115, 6.9159732], [126.1596751, 6.9158534], [126.1598194, 6.9157213], [126.1598769, 6.9156049], [126.1599071, 6.915458], [126.1599621, 6.9150227], [126.1599997, 6.9148602], [126.1600453, 6.9147564], [126.1600976, 6.9146812], [126.1601613, 6.9146259], [126.1602867, 6.914554], [126.1604516, 6.9144728], [126.1605844, 6.9144342], [126.1606917, 6.9144169], [126.1608995, 6.9144169], [126.1610913, 6.9144249], [126.1612026, 6.9144275], [126.1612777, 6.9144209], [126.161318, 6.9144049], [126.1613542, 6.9143836], [126.1616009, 6.9140734], [126.161668, 6.9140055], [126.1617284, 6.9139629], [126.1618021, 6.9139336], [126.1618745, 6.9139163], [126.1620542, 6.9139123], [126.1622098, 6.9139363], [126.1623265, 6.9139722], [126.1623855, 6.9140095], [126.1624277, 6.9140554], [126.1624606, 6.9141107], [126.1625907, 6.9145766], [126.162647, 6.9147151], [126.1626926, 6.9147857], [126.162761, 6.9148589], [126.1628267, 6.9149255], [126.162938, 6.914988], [126.1630279, 6.915016], [126.1631137, 6.9150353], [126.1632197, 6.9150346], [126.1633645, 6.9150133], [126.1637226, 6.9149175], [126.1641276, 6.9148403], [126.1642295, 6.9148203], [126.1642966, 6.9147977], [126.1643569, 6.9147684], [126.164428, 6.9147218], [126.1649242, 6.9143077], [126.1650462, 6.9142025], [126.1651079, 6.9141306], [126.1651361, 6.9140761], [126.1651468, 6.9140228], [126.1651428, 6.9139456], [126.1651281, 6.9138777], [126.1650798, 6.9137406], [126.1647901, 6.9131375], [126.1647579, 6.9130323], [126.1647338, 6.9129484], [126.1647284, 6.9128565], [126.1647405, 6.9127753], [126.1647753, 6.9126941], [126.1648303, 6.9126302], [126.1648893, 6.9125943], [126.1649711, 6.9125636], [126.1655425, 6.9124398], [126.1657959, 6.9123986], [126.1658938, 6.9123986], [126.1659984, 6.9124172], [126.1660816, 6.9124598], [126.1664061, 6.9127793], [126.166555, 6.9129125], [126.1666784, 6.9130003], [126.1667722, 6.9130522], [126.1668608, 6.9130709], [126.1669292, 6.9130682], [126.1670083, 6.9130509], [126.1670968, 6.913011], [126.1671608, 6.9129574], [126.1671903, 6.9129238], [126.1672148, 6.9128832], [126.1672403, 6.9128273], [126.1672487, 6.9127986], [126.1672544, 6.9127703], [126.1672604, 6.9126635], [126.1672416, 6.9123706], [126.1672349, 6.9122588], [126.1672457, 6.9121789], [126.1672671, 6.9121283], [126.1673006, 6.912099], [126.1673596, 6.9120724], [126.1674871, 6.9120577], [126.1678022, 6.9120724], [126.1679243, 6.9120777], [126.168002, 6.912071], [126.168061, 6.9120577], [126.1681026, 6.9120398], [126.1682703, 6.9119426], [126.1687048, 6.9117049], [126.1688469, 6.9116237], [126.1689301, 6.9115465], [126.1689703, 6.9114932], [126.1689918, 6.9114227], [126.1690012, 6.9113641], [126.1689891, 6.9113042], [126.1689582, 6.911231], [126.1688818, 6.9111378], [126.1684363, 6.9107842], [126.1683219, 6.9106858], [126.1682394, 6.9106185], [126.1682133, 6.9105779], [126.1681965, 6.9105466], [126.1681891, 6.9105054], [126.1681871, 6.9104588], [126.1682113, 6.9099582], [126.1682247, 6.9098304], [126.1682448, 6.9097531], [126.1682864, 6.9096879], [126.168348, 6.9096333], [126.1684299, 6.9095841], [126.1685184, 6.9095667], [126.1686029, 6.9095674], [126.1687088, 6.9095821], [126.1689596, 6.909636], [126.169083, 6.9096333], [126.1692613, 6.9096333], [126.1694035, 6.909644], [126.1696583, 6.9096879], [126.1698662, 6.9097412], [126.1700271, 6.9097665], [126.1702551, 6.9098144], [126.1710718, 6.9101605], [126.1712703, 6.9102351], [126.1713642, 6.9102537], [126.1714326, 6.9102564], [126.1714903, 6.9102404], [126.1715164, 6.9102151], [126.1715533, 6.9101273], [126.1716069, 6.9098077], [126.1716324, 6.9097239], [126.1716565, 6.9096733], [126.1719435, 6.9093897], [126.1719905, 6.9093351], [126.172024, 6.9092725], [126.1720347, 6.9092219], [126.1720347, 6.909178], [126.1720146, 6.9091161], [126.1719885, 6.9090761], [126.1719301, 6.9090156], [126.171788, 6.9089184], [126.1715721, 6.9088212], [126.1713964, 6.9087719], [126.1712784, 6.9087346], [126.1712301, 6.908708], [126.1711818, 6.9086694], [126.1710061, 6.908471], [126.1707486, 6.908278], [126.1706427, 6.9082074], [126.1705823, 6.9081635], [126.1705515, 6.9081289], [126.1705381, 6.9080876], [126.1705381, 6.908017], [126.1705689, 6.907828], [126.1705877, 6.9077654], [126.1706185, 6.9076895], [126.1706601, 6.9076269], [126.1707312, 6.9075617], [126.1707969, 6.9075284], [126.1709256, 6.9074991], [126.171041, 6.9074925], [126.171163, 6.9075085], [126.1717613, 6.907664], [126.1720428, 6.9077268], [126.1722627, 6.9077295], [126.1723888, 6.9077188], [126.1725068, 6.9076815], [126.1725685, 6.9076256], [126.1725913, 6.9075863], [126.1726, 6.9075537], [126.1726007, 6.9072515], [126.1726074, 6.9071117], [126.1726275, 6.9070298], [126.1726812, 6.9069047], [126.1728233, 6.9066311], [126.1729574, 6.9063368], [126.1730097, 6.9061771], [126.1730144, 6.9060919], [126.1730003, 6.906006], [126.1729453, 6.9058988], [126.1728005, 6.9057184], [126.1727589, 6.9056179], [126.1727589, 6.9055354], [126.1727844, 6.9054222], [126.172834, 6.9053383], [126.1729004, 6.9052518], [126.173007, 6.9051899], [126.1731304, 6.9051786], [126.1732713, 6.9052185], [126.1734282, 6.9053077], [126.1736038, 6.9054714], [126.173754, 6.9056658], [126.1738358, 6.9058016], [126.1738774, 6.9059441], [126.1738788, 6.9060772], [126.1738251, 6.9062663], [126.1737178, 6.906464], [126.173632, 6.9066491], [126.1736025, 6.9067642], [126.1735958, 6.9068587], [126.1736052, 6.9069653], [126.1736427, 6.9071556], [126.1737849, 6.9075417], [126.1738305, 6.9076522], [126.1738721, 6.9077201], [126.173923, 6.9077667], [126.1740209, 6.9078227], [126.1741604, 6.9078786], [126.1743763, 6.9079491], [126.1744796, 6.9079678], [126.1745413, 6.9079691], [126.1745949, 6.9079571], [126.1746888, 6.9078946], [126.1748578, 6.9077707], [126.1749, 6.9077448], [126.1749664, 6.9077175], [126.1752185, 6.9076669], [126.1754774, 6.9076256], [126.1755685, 6.9075977], [126.1756651, 6.9075644], [126.1757965, 6.9075178], [126.1758723, 6.9075038], [126.1759115, 6.9075015], [126.1759484, 6.9075108], [126.1759846, 6.9075321], [126.1760426, 6.9076216], [126.1760909, 6.9077528], [126.1761298, 6.9079212], [126.1761332, 6.9080104], [126.1761278, 6.9080716], [126.1760835, 6.9081755], [126.1759481, 6.9083672], [126.1758569, 6.908507], [126.1758019, 6.9086268], [126.1757845, 6.908724], [126.1757845, 6.9089077], [126.1758019, 6.9091034], [126.1758009, 6.9091613], [126.1757952, 6.9092079], [126.1757905, 6.9092499], [126.1757808, 6.9092878], [126.1757664, 6.9093231], [126.1756745, 6.9094503], [126.1756115, 6.9095215], [126.1752225, 6.9098876], [126.1751179, 6.9100008], [126.1750871, 6.910058], [126.1750737, 6.9101286], [126.1750697, 6.9101965], [126.1750925, 6.910271], [126.1751501, 6.9103696], [126.1752024, 6.9104361], [126.1752842, 6.9104974], [126.1754586, 6.9105653], [126.1758864, 6.9106824], [126.1762632, 6.910745], [126.1766401, 6.9107663], [126.1769687, 6.9107743], [126.1770934, 6.9107676], [126.1772101, 6.9107477], [126.1773375, 6.9107077], [126.1780778, 6.9103722], [126.1782226, 6.9103203], [126.1783487, 6.9103123], [126.1784539, 6.9103396], [126.1785217, 6.9103982], [126.1785606, 6.9104827], [126.1785525, 6.9106452], [126.1785069, 6.9108236], [126.1784707, 6.910954], [126.1784533, 6.9110659], [126.1784761, 6.911175], [126.1785874, 6.9114413], [126.1786424, 6.9115878], [126.1786511, 6.9116829], [126.178635, 6.9117935], [126.1785713, 6.9118813], [126.1784647, 6.9119412], [126.1783386, 6.9119619], [126.1781542, 6.9119579], [126.1778954, 6.9119419], [126.1775789, 6.9119246], [126.177316, 6.9119113], [126.1772248, 6.9119246], [126.1771564, 6.9119406], [126.1771068, 6.9119778], [126.1770706, 6.9120204], [126.1770532, 6.9120923], [126.1770572, 6.9121869], [126.177084, 6.9122667], [126.1771336, 6.912332], [126.1772449, 6.9124159], [126.1774394, 6.9125277], [126.1776312, 6.9126515], [126.1777371, 6.9127367], [126.1779691, 6.9129777], [126.1780697, 6.9131654], [126.1781462, 6.9133811], [126.1782265, 6.9137481], [126.1782615, 6.9139056], [126.1783567, 6.9140388], [126.1784841, 6.9141173], [126.1786115, 6.914136], [126.1787657, 6.9140974], [126.1789548, 6.9139429], [126.1792392, 6.9136913], [126.1793585, 6.9136487], [126.1794658, 6.9136514], [126.1795382, 6.91369], [126.1795919, 6.9137765], [126.1796442, 6.9139243], [126.1797126, 6.9141027], [126.179793, 6.9142132], [126.1799741, 6.9143264], [126.1801082, 6.9144102], [126.1801752, 6.9145008], [126.1802034, 6.91459], [126.1801967, 6.9146885], [126.1800908, 6.9149987], [126.1800639, 6.9151465], [126.1800814, 6.9152969], [126.1801592, 6.9154793], [126.1803456, 6.9157203], [126.1804689, 6.9158414], [126.1805762, 6.915896], [126.1807023, 6.9159226], [126.1808552, 6.9159107], [126.1810537, 6.9158135], [126.1812857, 6.9157456], [126.1816236, 6.9157056], [126.1819214, 6.9156963], [126.1821413, 6.9156604], [126.1823623, 6.9155415], [126.1825597, 6.9154354], [126.1827984, 6.9153022], [126.1829232, 6.9152663], [126.1830439, 6.9152543], [126.1831565, 6.9152863], [126.1833335, 6.9153981], [126.1835334, 6.9155539], [126.1836621, 6.9157229], [126.1837721, 6.9159253], [126.1838686, 6.916141], [126.1839022, 6.9163087], [126.1838861, 6.9165044], [126.1838324, 6.9167095], [126.1836889, 6.9169345], [126.1835897, 6.9171248], [126.1835267, 6.9173485], [126.1834931, 6.9175429], [126.1834449, 6.9176853], [126.1833563, 6.9178251], [126.1832381, 6.9179502], [126.1831713, 6.9180208], [126.183127, 6.9181034], [126.1831143, 6.9181813], [126.1831176, 6.9182438], [126.1831458, 6.9183044], [126.1831934, 6.9183477], [126.1832605, 6.9183743], [126.1833738, 6.9183776], [126.1836608, 6.9183284], [126.1838217, 6.9183277], [126.1839397, 6.9183537], [126.1840135, 6.9184282], [126.1840564, 6.9185494], [126.1840698, 6.9189461], [126.1840812, 6.9191239], [126.1841127, 6.9192497], [126.1841851, 6.9193382], [126.1843199, 6.9194214], [126.1845593, 6.9195639], [126.1847363, 6.9197223], [126.1848892, 6.9199406], [126.1849643, 6.9201084], [126.184965, 6.9201809], [126.1849516, 6.9202641], [126.1848939, 6.920334], [126.1847766, 6.9203986], [126.1843313, 6.9205797], [126.1842361, 6.9206516], [126.1841851, 6.9207541], [126.1841691, 6.9208712], [126.1842093, 6.9209684], [126.1843018, 6.9210603], [126.184444, 6.9211495], [126.184566, 6.9212573], [126.1846519, 6.9214171], [126.1847015, 6.9216487], [126.1847015, 6.9218298], [126.1846358, 6.9220055], [126.1844963, 6.9222105], [126.1837614, 6.9230666], [126.1835119, 6.923261], [126.1828021, 6.9236185], [126.1825289, 6.9237562], [126.182152, 6.9239306], [126.1818436, 6.9240212], [126.1814694, 6.9240997], [126.1810443, 6.9241396], [126.1808029, 6.9241716], [126.1805427, 6.9242781], [126.1795181, 6.9248905], [126.1783218, 6.9256294], [126.1781408, 6.9258271], [126.1780315, 6.9260111], [126.1779655, 6.926182], [126.1779393, 6.9263496], [126.1779021, 6.92697], [126.1778907, 6.9273874], [126.1778075, 6.9293424], [126.1777908, 6.9297951], [126.1778223, 6.9301479], [126.1778927, 6.9304447], [126.178065, 6.9307975], [126.1783902, 6.9312182], [126.1786094, 6.9314375], [126.1791096, 6.9319379], [126.1820576, 6.9348874], [126.1830659, 6.9359145], [126.1833038, 6.9361616], [126.1833272, 6.9361848], [126.1837477, 6.9366191], [126.1837853, 6.9366571]]}, "properties": {"city": "mati", "name": "President Diosdado P. Macapagal Highway", "highway": "trunk", "v_posted": 80, "posted_imputed": false, "v_safe": 70, "gap": 10, "R": 1.71, "exposure": 0.0, "vru_150m": 0, "sss": 12.5, "recommended": 70, "fatal_reduction_pct": 41.4, "why": "trunk highway (head-on only; no at-grade ped mixing assumed)", "pop_density": 0.0, "pop_density_peak": 0.0}}, {"type": "Feature", "geometry": {"type": "LineString", "coordinates": [[126.1837853, 6.9366571], [126.1838402, 6.9367139]]}, "properties": {"city": "mati", "name": "President Diosdado P. Macapagal Highway", "highway": "trunk", "v_posted": 80, "posted_imputed": false, "v_safe": 70, "gap": 10, "R": 1.71, "exposure": 0.0, "vru_150m": 0, "sss": 12.5, "recommended": 70, "fatal_reduction_pct": 41.4, "why": "trunk highway (head-on only; no at-grade ped mixing assumed)", "pop_density": 0.0, "pop_density_peak": 0.0}}, {"type": "Feature", "geometry": {"type": "LineString", "coordinates": [[126.1838402, 6.9367139], [126.1838611, 6.9367369], [126.1838931, 6.9367687]]}, "properties": {"city": "mati", "name": "President Diosdado P. Macapagal Highway", "highway": "trunk", "v_posted": 80, "posted_imputed": false, "v_safe": 70, "gap": 10, "R": 1.71, "exposure": 0.0, "vru_150m": 0, "sss": 12.5, "recommended": 70, "fatal_reduction_pct": 41.4, "why": "trunk highway (head-on only; no at-grade ped mixing assumed)", "pop_density": 0.0, "pop_density_peak": 0.0}}, {"type": "Feature", "geometry": {"type": "LineString", "coordinates": [[126.199497, 6.9552918], [126.2007941, 6.9565244], [126.2007985, 6.9566009], [126.2021172, 6.9579022], [126.202295, 6.9580904], [126.2026482, 6.9584402], [126.202845, 6.9586365], [126.2030201, 6.9588063], [126.2032334, 6.9590306], [126.2041551, 6.9599581]]}, "properties": {"city": "mati", "name": "President Diosdado P. Macapagal Highway", "highway": "trunk", "v_posted": 80, "posted_imputed": false, "v_safe": 70, "gap": 10, "R": 1.71, "exposure": 0.048, "vru_150m": 0, "sss": 13.1, "recommended": 70, "fatal_reduction_pct": 41.4, "why": "trunk highway (head-on only; no at-grade ped mixing assumed)", "pop_density": 1552.4, "pop_density_peak": 1916.4}}, {"type": "Feature", "geometry": {"type": "LineString", "coordinates": [[126.1894824, 6.9405021], [126.1884511, 6.9428189], [126.1883892, 6.9429588], [126.1883603, 6.9430282], [126.1883354, 6.9430956], [126.1882992, 6.9431893], [126.1882766, 6.9432583], [126.1882559, 6.9433273], [126.1882445, 6.9434139], [126.1882398, 6.9434945], [126.1882395, 6.9435711], [126.1882432, 6.9436397], [126.1882531, 6.9437366], [126.1882712, 6.9438315], [126.1882935, 6.9439022], [126.1883219, 6.9439728], [126.1883574, 6.9440418], [126.1884147, 6.9441317], [126.1884536, 6.9441851], [126.1884924, 6.9442318], [126.1885915, 6.9443376], [126.1894252, 6.9451903], [126.1895972, 6.9453583], [126.1899396, 6.9456943], [126.191076, 6.9468263], [126.1918746, 6.9476305], [126.1921697, 6.9479288], [126.1923276, 6.9480873]]}, "properties": {"city": "mati", "name": "President Diosdado P. Macapagal Highway", "highway": "trunk", "v_posted": 80, "posted_imputed": false, "v_safe": 70, "gap": 10, "R": 1.71, "exposure": 0.039, "vru_150m": 0, "sss": 13.0, "recommended": 70, "fatal_reduction_pct": 41.4, "why": "trunk highway (head-on only; no at-grade ped mixing assumed)", "pop_density": 1250.2, "pop_density_peak": 8751.4}}, {"type": "Feature", "geometry": {"type": "LineString", "coordinates": [[126.1993499, 6.955141], [126.199497, 6.9552918]]}, "properties": {"city": "mati", "name": "President Diosdado P. Macapagal Highway", "highway": "trunk", "v_posted": 80, "posted_imputed": false, "v_safe": 70, "gap": 10, "R": 1.71, "exposure": 0.027, "vru_150m": 0, "sss": 12.8, "recommended": 70, "fatal_reduction_pct": 41.4, "why": "trunk highway (head-on only; no at-grade ped mixing assumed)", "pop_density": 873.7, "pop_density_peak": 908.3}}, {"type": "Feature", "geometry": {"type": "LineString", "coordinates": [[126.1894824, 6.9405021], [126.1893323, 6.9404258], [126.1892519, 6.940381], [126.1891836, 6.9403482], [126.1891235, 6.9403196], [126.1890725, 6.9402911], [126.1890288, 6.9402578], [126.188982, 6.9402144], [126.1889408, 6.9401696], [126.1889005, 6.9401138], [126.1888637, 6.9400557], [126.1888217, 6.9399976], [126.1887881, 6.9399453], [126.1887556, 6.9398951], [126.1887148, 6.9398383], [126.1886785, 6.9397956], [126.188637, 6.9397601], [126.1885969, 6.9397406], [126.1885534, 6.9397258], [126.188508, 6.9397201], [126.1884736, 6.9397184], [126.1884422, 6.9397227], [126.1884086, 6.9397259], [126.188374, 6.9397401], [126.1883509, 6.9397596], [126.1883287, 6.9397859], [126.1883106, 6.9398194], [126.1882938, 6.9398667], [126.1882763, 6.9399348], [126.1882629, 6.9399948], [126.1882486, 6.9400578], [126.1882353, 6.9401036], [126.1882128, 6.9401422], [126.1881861, 6.9401758], [126.188161, 6.9402029], [126.1881321, 6.9402225], [126.1880983, 6.9402425], [126.1880655, 6.9402513], [126.1880325, 6.9402526], [126.1879979, 6.9402505], [126.1879624, 6.9402434], [126.1879248, 6.9402263], [126.1878865, 6.9402002], [126.1878492, 6.9401701], [126.1877863, 6.9401038], [126.1877295, 6.9400334], [126.1876095, 6.9399051], [126.1875606, 6.93986], [126.1875142, 6.9398274], [126.1874576, 6.9398078], [126.1874004, 6.9397949], [126.1873462, 6.9397869], [126.1872926, 6.93979], [126.18724, 6.939796], [126.1871942, 6.9398099], [126.1871363, 6.9398287], [126.1870864, 6.9398483], [126.1870474, 6.9398681], [126.1870104, 6.9398898], [126.1868031, 6.9401189], [126.1867056, 6.940233], [126.1866492, 6.9402961], [126.1866161, 6.9403259], [126.1865738, 6.9403513], [126.1865303, 6.9403721], [126.1864882, 6.9403835], [126.1864449, 6.9403861], [126.1863954, 6.9403858], [126.1863218, 6.9403832], [126.1858469, 6.9403642], [126.1857476, 6.9403628], [126.1856586, 6.9403705], [126.1855807, 6.9403816], [126.1855089, 6.9404039], [126.1854022, 6.9404437], [126.1852734, 6.9404943], [126.1852067, 6.9405286], [126.1851364, 6.9405881], [126.1850223, 6.9407051], [126.1847952, 6.9409661], [126.1847254, 6.9410396], [126.1846465, 6.9411092], [126.1845638, 6.9411598], [126.1844769, 6.9412014], [126.1844085, 6.9412195], [126.1843208, 6.9412376], [126.183863, 6.9412679], [126.18364, 6.9412806], [126.1834003, 6.9413315], [126.1828913, 6.9415172], [126.1826983, 6.9415888], [126.1825505, 6.9416411], [126.1824742, 6.9416705], [126.1824097, 6.9416945], [126.1823393, 6.9417238], [126.1822633, 6.941766], [126.1821888, 6.9418225], [126.1821204, 6.9418992], [126.1820775, 6.9419595], [126.1820306, 6.9420412], [126.1819748, 6.9421521], [126.1818858, 6.9423508], [126.1818082, 6.9425493], [126.1816781, 6.9428853], [126.1815871, 6.9431306], [126.181565, 6.9432092], [126.181544, 6.9432889], [126.1815426, 6.9433594], [126.1815535, 6.943433], [126.1815651, 6.9435048], [126.1815798, 6.9435776], [126.1815844, 6.9436306], [126.1815788, 6.9436777], [126.1815657, 6.9437167], [126.1815465, 6.9437496], [126.1815174, 6.9437872], [126.1814822, 6.9438124], [126.1814394, 6.943833], [126.1813865, 6.9438445], [126.1813122, 6.943849], [126.1811674, 6.9438459], [126.181106, 6.9438475], [126.1810549, 6.9438564], [126.181008, 6.9438693], [126.1809476, 6.9438925], [126.1808155, 6.9439482], [126.1806633, 6.9440088], [126.1804815, 6.9440737], [126.1804042, 6.9441076], [126.1803533, 6.9441325], [126.1803074, 6.9441663], [126.1802471, 6.94423], [126.1802106, 6.9442857], [126.1801761, 6.9443516], [126.1801461, 6.9444337], [126.1801265, 6.9445144], [126.1801114, 6.9445975], [126.1800809, 6.9446698], [126.1800429, 6.9447192], [126.1799968, 6.944769], [126.1799399, 6.9448249], [126.1799002, 6.9448725], [126.1798651, 6.9449231], [126.1798403, 6.9449822], [126.179834, 6.9450438], [126.1798277, 6.9450962], [126.1798364, 6.9451665], [126.1798528, 6.9452184], [126.1798756, 6.945275], [126.1799071, 6.9453232], [126.1799354, 6.9453592], [126.1799841, 6.9454003], [126.1800358, 6.9454322], [126.1800963, 6.9454645], [126.1801637, 6.9454983], [126.1802763, 6.945555], [126.1803535, 6.945598], [126.1804107, 6.9456491], [126.180443, 6.9456964], [126.1804603, 6.945747], [126.180466, 6.9458009], [126.1804589, 6.9458495], [126.1804425, 6.9458843], [126.1804067, 6.945917], [126.1803601, 6.9459465], [126.1802472, 6.9459962], [126.1801346, 6.9460451], [126.1800725, 6.9460851], [126.1800397, 6.9461091], [126.1800115, 6.9461484], [126.1799735, 6.946208], [126.1799429, 6.9462818], [126.1798999, 6.9464474], [126.1798359, 6.9466803], [126.1798127, 6.9467869], [126.17981, 6.9468506], [126.1798233, 6.9469107], [126.1798428, 6.9469641], [126.1798935, 6.9470099], [126.1799612, 6.9470626], [126.1800316, 6.947112], [126.1801151, 6.9471789], [126.1801617, 6.9472266], [126.1802091, 6.9472965], [126.1802776, 6.9474132], [126.1803419, 6.9475544], [126.1803828, 6.947668], [126.1803927, 6.9477475], [126.1803902, 6.9478454], [126.1803829, 6.9479518], [126.1803508, 6.9480887], [126.1803032, 6.948224], [126.1802367, 6.9483372], [126.1801198, 6.9484321], [126.1799542, 6.9485072], [126.1797088, 6.948553], [126.1795574, 6.9485716], [126.1794017, 6.9485716], [126.1792636, 6.9485669], [126.1791364, 6.9485622], [126.1790212, 6.9485689], [126.1789412, 6.9485932], [126.1788689, 6.9486374], [126.178656, 6.9488484], [126.1783789, 6.949127], [126.1780919, 6.9494187], [126.1778122, 6.9496737], [126.177548, 6.9499586], [126.1772449, 6.9502981], [126.1770125, 6.9505874], [126.1767527, 6.9509168], [126.1765208, 6.9512858], [126.1763069, 6.951641], [126.1762632, 6.9517012], [126.176189, 6.951768], [126.1760071, 6.9519249], [126.1756673, 6.9522105], [126.1754157, 6.952464], [126.1752075, 6.9526371], [126.1750896, 6.9526847], [126.1749656, 6.9526807], [126.1748077, 6.9526152], [126.1746178, 6.9525021], [126.1744379, 6.9524446], [126.1742972, 6.9524554], [126.1741986, 6.952486], [126.1740625, 6.9525852], [126.1740109, 6.9526571], [126.1738171, 6.9530471], [126.1737607, 6.9531536], [126.1736904, 6.9532363], [126.1730347, 6.9537641], [126.1728019, 6.9539923], [126.1727516, 6.9540715], [126.1727069, 6.9541788], [126.1726919, 6.9542505], [126.1726946, 6.9548296], [126.1726758, 6.9549428], [126.1726369, 6.9550677], [126.172503, 6.9553871], [126.1724009, 6.9555805], [126.172307, 6.9557429], [126.1722238, 6.955856], [126.1718254, 6.9563157], [126.1716753, 6.956471], [126.1714728, 6.9566468], [126.1710718, 6.956953], [126.1708693, 6.9571114], [126.170706, 6.957288], [126.1705941, 6.9574547], [126.1701579, 6.958177], [126.1699259, 6.9585278], [126.1698434, 6.9586123], [126.1697904, 6.9586443], [126.1697012, 6.9586816], [126.1693579, 6.958826], [126.1692908, 6.9588679], [126.1692526, 6.9589065], [126.1691819, 6.9590233], [126.1691547, 6.959055], [126.1691145, 6.9590803], [126.1690572, 6.9590986], [126.1689941, 6.9591052], [126.1687222, 6.9590956], [126.1686324, 6.9591095], [126.1685224, 6.9591694], [126.1684513, 6.9592513], [126.1684124, 6.9593472], [126.1683829, 6.9594557], [126.1682408, 6.9604381], [126.1682193, 6.9605859], [126.1682287, 6.960727], [126.1682783, 6.9608335], [126.1683454, 6.9609333], [126.1684285, 6.9610558], [126.1684781, 6.9611343], [126.1685023, 6.9612142], [126.168513, 6.961322], [126.168513, 6.9614219], [126.1684929, 6.9615577], [126.1684647, 6.9616495], [126.1684325, 6.9617374], [126.1683722, 6.9618119], [126.168289, 6.9618652], [126.1682086, 6.9618931], [126.168061, 6.9619078], [126.1679323, 6.9619211], [126.1678498, 6.9619371], [126.1677593, 6.961969], [126.167703, 6.962001], [126.1676654, 6.9620475], [126.1676386, 6.9621181], [126.1676252, 6.9621727], [126.1676346, 6.9622472], [126.1676587, 6.9623138], [126.1680208, 6.9628023], [126.1680691, 6.9628902], [126.1680865, 6.9629687], [126.1680892, 6.963042], [126.1680818, 6.9630892], [126.1680624, 6.9631258], [126.1680161, 6.9631598], [126.1679491, 6.963201], [126.1676493, 6.9633402], [126.1675313, 6.9633947], [126.167416, 6.9634653], [126.1673342, 6.9635438], [126.1672631, 6.963625], [126.1669439, 6.9641176], [126.1668728, 6.9641961], [126.1668111, 6.9642447], [126.1667273, 6.9642866], [126.1666086, 6.9642893], [126.1665121, 6.964276], [126.1664048, 6.9642347], [126.1663176, 6.9641735], [126.1657865, 6.9637169], [126.165694, 6.9636477], [126.1656357, 6.9636164], [126.165572, 6.9635891], [126.1654499, 6.9635558], [126.1652608, 6.9635159], [126.16501, 6.9634666], [126.164829, 6.963444], [126.1647472, 6.963452], [126.1646788, 6.9634839], [126.1646359, 6.9635225], [126.1645983, 6.9635731], [126.1644575, 6.963838], [126.1644226, 6.9638926], [126.1643891, 6.9639359], [126.1643516, 6.9639831], [126.1642617, 6.964075], [126.1641799, 6.9641522], [126.1640726, 6.9642321], [126.1636301, 6.9645156], [126.1635683, 6.9645609], [126.1635107, 6.9646194], [126.1634704, 6.9646634], [126.1634396, 6.9647066], [126.1633752, 6.9647992], [126.1633176, 6.9649176], [126.163276, 6.9650135], [126.1632572, 6.9650747], [126.1632022, 6.9653676], [126.1631875, 6.9654634], [126.1631607, 6.9655526], [126.1631083, 6.9656804], [126.1630145, 6.9659107], [126.1629809, 6.9660279], [126.1629608, 6.966137], [126.162883, 6.9665816], [126.162871, 6.9666802], [126.1628683, 6.9667627], [126.1628763, 6.9669091], [126.162895, 6.9670728], [126.1629689, 6.9677651], [126.1629769, 6.9678569], [126.1629823, 6.9679688], [126.1629796, 6.9681192], [126.162926, 6.9690989], [126.1629219, 6.9692214], [126.162926, 6.9693386], [126.1629555, 6.969682], [126.1629662, 6.9698431], [126.1629662, 6.9699735], [126.1629634, 6.9699933], [126.1629559, 6.9701323], [126.162957, 6.9701693], [126.1629099, 6.9705393], [126.1628991, 6.9706578], [126.1628938, 6.9708069], [126.1629018, 6.9709574], [126.1629273, 6.9710731], [126.1630306, 6.9713526], [126.1630949, 6.9715191], [126.1631137, 6.9716149], [126.163119, 6.9716861]]}, "properties": {"city": "mati", "name": "Badas-Culian Road", "highway": "secondary", "v_posted": 80, "posted_imputed": false, "v_safe": 50, "gap": 30, "R": 6.55, "exposure": 0.04, "vru_150m": 0, "sss": 39.0, "recommended": 50, "fatal_reduction_pct": 84.7, "why": "undivided arterial, side-impact intersections", "pop_density": 1298.8, "pop_density_peak": 8751.4}}, {"type": "Feature", "geometry": {"type": "LineString", "coordinates": [[126.18473, 6.9376305], [126.1847507, 6.9376536], [126.1854715, 6.9384003], [126.1855243, 6.9384547], [126.1861453, 6.9390887], [126.1862276, 6.939158], [126.186317, 6.9392256], [126.1864107, 6.9392763], [126.1864796, 6.9393051], [126.1865548, 6.9393181], [126.1866333, 6.9393242], [126.1866964, 6.9393141], [126.1867631, 6.9392969], [126.1869754, 6.9392349], [126.1873062, 6.9391317], [126.1875835, 6.9390515], [126.1877292, 6.9390167], [126.1878564, 6.9390039], [126.1879658, 6.9390015], [126.1880567, 6.9390104], [126.1881621, 6.939037], [126.1882621, 6.9390671], [126.1889814, 6.9393286], [126.1891605, 6.9394014], [126.1892971, 6.939468], [126.1894191, 6.9395466], [126.1894967, 6.939613], [126.1895478, 6.9396691], [126.1895963, 6.9397375], [126.189621, 6.9397972], [126.1896394, 6.9398781], [126.1896496, 6.939963], [126.1896494, 6.9400397], [126.1896413, 6.9400927], [126.1896203, 6.9401631], [126.1895547, 6.9403331], [126.1894824, 6.9405021]]}, "properties": {"city": "mati", "name": "President Diosdado P. Macapagal Highway", "highway": "trunk", "v_posted": 80, "posted_imputed": false, "v_safe": 70, "gap": 10, "R": 1.71, "exposure": 0.045, "vru_150m": 0, "sss": 13.1, "recommended": 70, "fatal_reduction_pct": 41.4, "why": "trunk highway (head-on only; no at-grade ped mixing assumed)", "pop_density": 1458.6, "pop_density_peak": 8751.4}}, {"type": "Feature", "geometry": {"type": "LineString", "coordinates": [[126.1983821, 6.9541526], [126.198433, 6.9542026], [126.1988729, 6.9546499], [126.1993499, 6.955141]]}, "properties": {"city": "mati", "name": "President Diosdado P. Macapagal Highway", "highway": "trunk", "v_posted": 80, "posted_imputed": false, "v_safe": 70, "gap": 10, "R": 1.71, "exposure": 0.027, "vru_150m": 0, "sss": 12.8, "recommended": 70, "fatal_reduction_pct": 41.4, "why": "trunk highway (head-on only; no at-grade ped mixing assumed)", "pop_density": 882.9, "pop_density_peak": 926.8}}, {"type": "Feature", "geometry": {"type": "LineString", "coordinates": [[126.1983821, 6.9541526], [126.1983067, 6.9541289], [126.1977144, 6.9535393], [126.1976867, 6.9534696]]}, "properties": {"city": "mati", "name": "President Diosdado P. Macapagal Highway", "highway": "trunk", "v_posted": 80, "posted_imputed": false, "v_safe": 70, "gap": 10, "R": 1.71, "exposure": 0.022, "vru_150m": 0, "sss": 12.8, "recommended": 70, "fatal_reduction_pct": 41.4, "why": "trunk highway (head-on only; no at-grade ped mixing assumed)", "pop_density": 712.5, "pop_density_peak": 926.8}}, {"type": "Feature", "geometry": {"type": "LineString", "coordinates": [[126.1976867, 6.9534696], [126.1977592, 6.9534981], [126.1983514, 6.9540855], [126.1983821, 6.9541526]]}, "properties": {"city": "mati", "name": "President Diosdado P. Macapagal Highway", "highway": "trunk", "v_posted": 80, "posted_imputed": false, "v_safe": 70, "gap": 10, "R": 1.71, "exposure": 0.022, "vru_150m": 0, "sss": 12.8, "recommended": 70, "fatal_reduction_pct": 41.4, "why": "trunk highway (head-on only; no at-grade ped mixing assumed)", "pop_density": 712.5, "pop_density_peak": 926.8}}, {"type": "Feature", "geometry": {"type": "LineString", "coordinates": [[126.1932589, 6.9490219], [126.1957689, 6.9515542], [126.1965174, 6.9522968], [126.1976134, 6.9533982], [126.1976867, 6.9534696]]}, "properties": {"city": "mati", "name": "President Diosdado P. Macapagal Highway", "highway": "trunk", "v_posted": 80, "posted_imputed": false, "v_safe": 70, "gap": 10, "R": 1.71, "exposure": 0.008, "vru_150m": 0, "sss": 12.6, "recommended": 70, "fatal_reduction_pct": 41.4, "why": "trunk highway (head-on only; no at-grade ped mixing assumed)", "pop_density": 249.1, "pop_density_peak": 498.2}}, {"type": "Feature", "geometry": {"type": "LineString", "coordinates": [[126.1932589, 6.9490219], [126.1931767, 6.9489874], [126.1928251, 6.9486308], [126.1927698, 6.9485747], [126.1927153, 6.9485195], [126.1925528, 6.9483545], [126.1923627, 6.9481613], [126.1923276, 6.9480873]]}, "properties": {"city": "mati", "name": "President Diosdado P. Macapagal Highway", "highway": "trunk", "v_posted": 80, "posted_imputed": false, "v_safe": 70, "gap": 10, "R": 1.71, "exposure": 0.2, "vru_150m": 1, "sss": 15.0, "recommended": 70, "fatal_reduction_pct": 41.4, "why": "trunk highway (head-on only; no at-grade ped mixing assumed)", "pop_density": 0.0, "pop_density_peak": 0.0}}, {"type": "Feature", "geometry": {"type": "LineString", "coordinates": [[126.1923276, 6.9480873], [126.1924082, 6.9481154], [126.1927629, 6.9484743], [126.1928158, 6.9485279], [126.1928721, 6.948585], [126.1932234, 6.9489414], [126.1932589, 6.9490219]]}, "properties": {"city": "mati", "name": "President Diosdado P. Macapagal Highway", "highway": "trunk", "v_posted": 80, "posted_imputed": false, "v_safe": 70, "gap": 10, "R": 1.71, "exposure": 0.2, "vru_150m": 1, "sss": 15.0, "recommended": 70, "fatal_reduction_pct": 41.4, "why": "trunk highway (head-on only; no at-grade ped mixing assumed)", "pop_density": 0.0, "pop_density_peak": 0.0}}, {"type": "Feature", "geometry": {"type": "LineString", "coordinates": [[126.1928158, 6.9485279], [126.1927698, 6.9485747]]}, "properties": {"city": "mati", "name": "President Diosdado P. Macapagal Highway", "highway": "trunk_link", "v_posted": 80, "posted_imputed": false, "v_safe": 70, "gap": 10, "R": 1.71, "exposure": 0.2, "vru_150m": 1, "sss": 15.0, "recommended": 70, "fatal_reduction_pct": 41.4, "why": "trunk highway (head-on only; no at-grade ped mixing assumed)", "pop_density": 0.0, "pop_density_peak": 0.0}}, {"type": "Feature", "geometry": {"type": "LineString", "coordinates": [[126.213852, 6.9534904], [126.2140022, 6.9536936], [126.2142777, 6.9540418], [126.2147194, 6.9546339], [126.2150823, 6.9551337], [126.2154615, 6.9556525]]}, "properties": {"city": "mati", "name": "Don Enrique Lopez Street", "highway": "tertiary", "v_posted": 40, "posted_imputed": false, "v_safe": 30, "gap": 10, "R": 3.16, "exposure": 0.261, "vru_150m": 1, "sss": 15.8, "recommended": 30, "fatal_reduction_pct": 68.4, "why": "pedestrian activity (1 VRU site<=50m)", "pop_density": 2459.5, "pop_density_peak": 2681.8}}, {"type": "Feature", "geometry": {"type": "LineString", "coordinates": [[126.2100348, 6.9555983], [126.2097789, 6.9556762], [126.2095087, 6.9557585], [126.2090047, 6.9559121], [126.2087001, 6.9560049], [126.2083808, 6.9561022], [126.2080112, 6.9562148]]}, "properties": {"city": "mati", "name": "", "highway": "unclassified", "v_posted": 40, "posted_imputed": false, "v_safe": 30, "gap": 10, "R": 3.16, "exposure": 0.076, "vru_150m": 0, "sss": 13.5, "recommended": 30, "fatal_reduction_pct": 68.4, "why": "local road, frontage/pedestrian mixing", "pop_density": 2461.4, "pop_density_peak": 2565.2}}, {"type": "Feature", "geometry": {"type": "LineString", "coordinates": [[126.2315531, 6.9452661], [126.2317012, 6.9451916], [126.2321609, 6.9449685], [126.2323408, 6.9448885], [126.2325601, 6.9447961]]}, "properties": {"city": "mati", "name": "President Diosdado P. Macapagal Highway", "highway": "primary", "v_posted": 40, "posted_imputed": false, "v_safe": 30, "gap": 10, "R": 3.16, "exposure": 0.444, "vru_150m": 2, "sss": 18.0, "recommended": 30, "fatal_reduction_pct": 68.4, "why": "pedestrian activity (1 VRU site<=50m)", "pop_density": 2371.8, "pop_density_peak": 2531.8}}, {"type": "Feature", "geometry": {"type": "LineString", "coordinates": [[126.2071134, 6.9577204], [126.2070398, 6.9574856], [126.2069518, 6.9572046], [126.206854, 6.9568929], [126.2067529, 6.9565701], [126.2067338, 6.9564983], [126.2067184, 6.9564245], [126.2067103, 6.9563379]]}, "properties": {"city": "mati", "name": "", "highway": "unclassified", "v_posted": 40, "posted_imputed": false, "v_safe": 30, "gap": 10, "R": 3.16, "exposure": 0.262, "vru_150m": 1, "sss": 15.8, "recommended": 30, "fatal_reduction_pct": 68.4, "why": "local road, frontage/pedestrian mixing", "pop_density": 2515.0, "pop_density_peak": 2565.4}}, {"type": "Feature", "geometry": {"type": "LineString", "coordinates": [[126.2067103, 6.9563379], [126.2067144, 6.9562574], [126.2067238, 6.9561875], [126.2067492, 6.956069], [126.2067653, 6.9559585], [126.2067787, 6.9558427]]}, "properties": {"city": "mati", "name": "", "highway": "unclassified", "v_posted": 40, "posted_imputed": false, "v_safe": 30, "gap": 10, "R": 3.16, "exposure": 0.258, "vru_150m": 1, "sss": 15.7, "recommended": 30, "fatal_reduction_pct": 68.4, "why": "local road, frontage/pedestrian mixing", "pop_density": 2337.8, "pop_density_peak": 2565.4}}, {"type": "Feature", "geometry": {"type": "LineString", "coordinates": [[126.2087001, 6.9560049], [126.2085711, 6.9555784]]}, "properties": {"city": "mati", "name": "", "highway": "unclassified", "v_posted": 40, "posted_imputed": false, "v_safe": 30, "gap": 10, "R": 3.16, "exposure": 0.076, "vru_150m": 0, "sss": 13.4, "recommended": 30, "fatal_reduction_pct": 68.4, "why": "local road, frontage/pedestrian mixing", "pop_density": 2448.2, "pop_density_peak": 2488.5}}, {"type": "Feature", "geometry": {"type": "LineString", "coordinates": [[126.2109452, 6.9586765], [126.2109054, 6.9585038], [126.2108707, 6.958371], [126.2108388, 6.9582485], [126.2104681, 6.9569849], [126.210157, 6.9559236], [126.2100348, 6.9555983], [126.2098778, 6.9551575]]}, "properties": {"city": "mati", "name": "", "highway": "unclassified", "v_posted": 40, "posted_imputed": false, "v_safe": 30, "gap": 10, "R": 3.16, "exposure": 0.063, "vru_150m": 0, "sss": 13.3, "recommended": 30, "fatal_reduction_pct": 68.4, "why": "local road, frontage/pedestrian mixing", "pop_density": 2034.6, "pop_density_peak": 2330.5}}, {"type": "Feature", "geometry": {"type": "LineString", "coordinates": [[126.2084497, 6.957586], [126.2087927, 6.9574838], [126.2091182, 6.9573869], [126.2094101, 6.9573], [126.2096601, 6.9572255], [126.2099263, 6.9571463], [126.2101941, 6.9570665], [126.2104681, 6.9569849]]}, "properties": {"city": "mati", "name": "Do\u00f1a Rosa Street", "highway": "unclassified", "v_posted": 40, "posted_imputed": false, "v_safe": 30, "gap": 10, "R": 3.16, "exposure": 0.051, "vru_150m": 0, "sss": 13.1, "recommended": 30, "fatal_reduction_pct": 68.4, "why": "local road, frontage/pedestrian mixing", "pop_density": 1656.0, "pop_density_peak": 2337.8}}, {"type": "Feature", "geometry": {"type": "LineString", "coordinates": [[126.2068334, 6.9616206], [126.2067756, 6.9617251], [126.2067189, 6.9618495], [126.2066714, 6.9619623], [126.2066295, 6.9621006], [126.2066004, 6.9622166], [126.2065804, 6.9623461], [126.2065672, 6.9624702], [126.2065591, 6.9626231]]}, "properties": {"city": "mati", "name": "", "highway": "unclassified", "v_posted": 40, "posted_imputed": false, "v_safe": 30, "gap": 10, "R": 3.16, "exposure": 0.041, "vru_150m": 0, "sss": 13.0, "recommended": 30, "fatal_reduction_pct": 68.4, "why": "local road, frontage/pedestrian mixing", "pop_density": 1315.8, "pop_density_peak": 1767.6}}, {"type": "Feature", "geometry": {"type": "LineString", "coordinates": [[126.2284805, 6.9451741], [126.2284081, 6.9452327], [126.228345, 6.9452899], [126.2282766, 6.9453791]]}, "properties": {"city": "mati", "name": "", "highway": "unclassified", "v_posted": 40, "posted_imputed": false, "v_safe": 30, "gap": 10, "R": 3.16, "exposure": 0.244, "vru_150m": 1, "sss": 15.6, "recommended": 30, "fatal_reduction_pct": 68.4, "why": "local road, frontage/pedestrian mixing", "pop_density": 1784.0, "pop_density_peak": 1838.0}}, {"type": "Feature", "geometry": {"type": "LineString", "coordinates": [[126.2086073, 7.0068159], [126.2086312, 7.0067355], [126.208671, 7.0066685], [126.2087274, 7.0066172], [126.2088601, 7.0065573], [126.20895, 7.0065267], [126.2090144, 7.0064814], [126.2091082, 7.0063883], [126.2091847, 7.0062272], [126.2092222, 7.0060715], [126.2092745, 7.0059117], [126.2093322, 7.0057613], [126.2094314, 7.0055057], [126.2094851, 7.0054166], [126.2095588, 7.0053314], [126.2096634, 7.0052409], [126.2097962, 7.005133], [126.209933, 7.0050492], [126.2100229, 7.0049959], [126.2101074, 7.0049121], [126.210224, 7.0047723], [126.2104104, 7.0045953], [126.2105365, 7.0044821], [126.2106451, 7.0044156], [126.210802, 7.0043756], [126.2109576, 7.004365], [126.2111279, 7.0043743], [126.2112929, 7.004389], [126.2114806, 7.004389], [126.211592, 7.004361], [126.2117153, 7.0043118], [126.2117918, 7.0042519], [126.2118709, 7.0041946], [126.2119782, 7.004153], [126.2121082, 7.0041372], [126.2122807, 7.0041492], [126.2124406, 7.0041759], [126.2126124, 7.0042025], [126.2127779, 7.0042163], [126.2129187, 7.0042301], [126.2131047, 7.0042183], [126.2132206, 7.0042005], [126.2133423, 7.0041494], [126.2134376, 7.0040732], [126.2134937, 7.0040213], [126.2135321, 7.0039858], [126.2136798, 7.0038], [126.2138155, 7.0036156], [126.2140234, 7.0033347], [126.2142133, 7.003093], [126.2143753, 7.0028765], [126.2144552, 7.0027559], [126.2145378, 7.0026046], [126.2146577, 7.0023409], [126.2147239, 7.0022034], [126.2147739, 7.002108], [126.2148315, 7.0020348], [126.2149107, 7.0019709], [126.215077, 7.0018595], [126.2153577, 7.0016967], [126.2158687, 7.0013833], [126.2164596, 7.0009926], [126.2167065, 7.0008277], [126.2169792, 7.0006512], [126.2173962, 7.0003576], [126.2177047, 7.0001043], [126.2179354, 6.9998539], [126.2182795, 6.9994368], [126.2185825, 6.998962], [126.2188144, 6.9986168], [126.2189635, 6.9983674], [126.2190654, 6.9981519], [126.2191342, 6.9978856], [126.2191986, 6.99757], [126.2192455, 6.9974637], [126.2193172, 6.9973437], [126.2194261, 6.9972423], [126.2195903, 6.9970612], [126.2197405, 6.9968695], [126.2200543, 6.996417], [126.2201962, 6.9962218], [126.2203503, 6.9960606], [126.220631, 6.9958233], [126.2209751, 6.9954673], [126.2212515, 6.9952376], [126.2216423, 6.9950168], [126.2219927, 6.9948331], [126.2222457, 6.9946785], [126.2223651, 6.9945986], [126.2224375, 6.9945301], [126.2225582, 6.994359], [126.2226574, 6.9942352], [126.2227894, 6.994073], [126.2231442, 6.9937627], [126.223416, 6.9935617], [126.2235313, 6.9934672], [126.2236206, 6.9933599], [126.2236975, 6.9932108], [126.2237209, 6.9930359], [126.2238309, 6.9926153], [126.224142, 6.9917447], [126.2242708, 6.9913294], [126.2243861, 6.9911537], [126.2245658, 6.9909274], [126.2247777, 6.9906692], [126.2248662, 6.99056], [126.224944, 6.9903923], [126.2249842, 6.9901873], [126.2251076, 6.9898465], [126.2252551, 6.9894871], [126.2254536, 6.9891916], [126.2257299, 6.9889413], [126.2259998, 6.9887332], [126.2261885, 6.9885641], [126.2262603, 6.9884837], [126.2263126, 6.9884247], [126.2263422, 6.9883577], [126.22637, 6.9882649], [126.2263954, 6.9881042], [126.2264119, 6.9879645], [126.2264357, 6.9878776], [126.2264719, 6.9877837], [126.2265292, 6.9876834], [126.2266472, 6.9875303], [126.2268175, 6.987316], [126.2269352, 6.9871908], [126.2270423, 6.9870972], [126.2272252, 6.9869779], [126.2274519, 6.9868528], [126.2275927, 6.9867316], [126.2277751, 6.9865439], [126.2278448, 6.9864508], [126.2279188, 6.986328], [126.2280124, 6.9860421], [126.2280527, 6.9859569], [126.2281117, 6.9858504], [126.2282297, 6.9857146], [126.228388, 6.9855948], [126.2286642, 6.9854391], [126.2288614, 6.9853259], [126.2289713, 6.9852461], [126.2290893, 6.9851143], [126.2292141, 6.9849479], [126.2293562, 6.9847362], [126.2294514, 6.9845925], [126.2295296, 6.9844937], [126.2296004, 6.9842944], [126.2296433, 6.9841034], [126.2296823, 6.9839249], [126.2297264, 6.9837585], [126.2297653, 6.9836128], [126.2297837, 6.9834929], [126.2297699, 6.9833525], [126.2297408, 6.9832377], [126.2296929, 6.9830996], [126.2296322, 6.9828876], [126.2295624, 6.9827112], [126.229492, 6.9825152], [126.2294484, 6.9823585], [126.2294303, 6.982219], [126.2294444, 6.9820719], [126.2294833, 6.9819022], [126.2295356, 6.9816509], [126.2295644, 6.9814643], [126.2296084, 6.9812333], [126.2296355, 6.9810357], [126.2296348, 6.9808606], [126.2296165, 6.9807184], [126.2295467, 6.9805803], [126.2294314, 6.9803987], [126.2292909, 6.980239], [126.229095, 6.9800449], [126.2289897, 6.9799208], [126.2289116, 6.9798173], [126.2288761, 6.9797111], [126.22886, 6.9795607], [126.2288721, 6.9793424], [126.228907, 6.9789963], [126.2289003, 6.9787567], [126.2288547, 6.9785131], [126.2287286, 6.9779899], [126.2286079, 6.9775253], [126.228518, 6.9772205], [126.2284242, 6.9769702], [126.2282833, 6.9766587], [126.2281144, 6.976314], [126.2279172, 6.9759559], [126.2276584, 6.975502], [126.2274545, 6.9751732], [126.2272923, 6.9749122], [126.227181, 6.9747112], [126.22713, 6.9745182], [126.2271206, 6.9742733], [126.2271461, 6.9739738], [126.2271836, 6.9737515], [126.2272547, 6.9734892], [126.2273168, 6.9732549], [126.2273298, 6.9730255], [126.2273141, 6.972714], [126.227311, 6.9724256], [126.227295, 6.9722659], [126.2272453, 6.9721168], [126.2271702, 6.9719464], [126.2271461, 6.9717959], [126.2271541, 6.9716415], [126.2272119, 6.9714631], [126.2272481, 6.9712796], [126.2272536, 6.9711001], [126.2272127, 6.9709207], [126.2271367, 6.970744], [126.2270497, 6.9705805], [126.2269477, 6.9704208], [126.2268348, 6.9702504], [126.2267476, 6.9700548], [126.2267062, 6.9698716], [126.2266969, 6.9696814], [126.2267062, 6.969439], [126.226733, 6.969083], [126.226725, 6.9688513], [126.2266834, 6.9686876], [126.2265614, 6.9684853], [126.2263991, 6.9683056], [126.2262006, 6.9681551], [126.2259552, 6.9680273], [126.2254778, 6.967833], [126.2238805, 6.9671873], [126.2233467, 6.966985], [126.2229176, 6.9668226], [126.2227271, 6.9667241], [126.2225609, 6.9665883], [126.2223597, 6.9664006], [126.2221357, 6.9661916], [126.2219641, 6.9659999], [126.2218487, 6.9657882], [126.2217468, 6.9655526], [126.2215564, 6.9651053], [126.2213874, 6.9648324], [126.2211862, 6.9645675], [126.2210307, 6.9644025], [126.2209059, 6.9642347], [126.2207939, 6.9639931], [126.2206464, 6.963671], [126.220572, 6.9635026], [126.2205137, 6.9633761], [126.2204707, 6.9632936], [126.2204365, 6.9632164], [126.2204131, 6.9631364], [126.2203909, 6.9630047]]}, "properties": {"city": "mati", "name": "Mapantad-Tagbobolo-Taguibo Road", "highway": "secondary", "v_posted": 80, "posted_imputed": false, "v_safe": 50, "gap": 30, "R": 6.55, "exposure": 0.347, "vru_150m": 0, "sss": 50.5, "recommended": 50, "fatal_reduction_pct": 84.7, "why": "undivided arterial, side-impact intersections", "pop_density": 11226.6, "pop_density_peak": 134537.7}}, {"type": "Feature", "geometry": {"type": "LineString", "coordinates": [[126.2256998, 6.9518693], [126.2255864, 6.9518516], [126.2254778, 6.9518477], [126.2253383, 6.951857], [126.2251103, 6.9518943], [126.2250562, 6.9519053], [126.2246945, 6.9519795], [126.2225596, 6.9525205], [126.2220862, 6.952635], [126.2219098, 6.9526793], [126.2214975, 6.9527577]]}, "properties": {"city": "mati", "name": "Upper Limatoc Street", "highway": "unclassified", "v_posted": 40, "posted_imputed": false, "v_safe": 30, "gap": 10, "R": 3.16, "exposure": 0.233, "vru_150m": 1, "sss": 15.4, "recommended": 30, "fatal_reduction_pct": 68.4, "why": "local road, frontage/pedestrian mixing", "pop_density": 1321.1, "pop_density_peak": 1953.6}}, {"type": "Feature", "geometry": {"type": "LineString", "coordinates": [[126.2110312, 6.958833], [126.211073, 6.9588915]]}, "properties": {"city": "mati", "name": "", "highway": "unclassified", "v_posted": 40, "posted_imputed": false, "v_safe": 30, "gap": 10, "R": 3.16, "exposure": 0.07, "vru_150m": 0, "sss": 13.4, "recommended": 30, "fatal_reduction_pct": 68.4, "why": "local road, frontage/pedestrian mixing", "pop_density": 2269.8, "pop_density_peak": 2269.8}}, {"type": "Feature", "geometry": {"type": "LineString", "coordinates": [[126.2109151, 6.9589171], [126.2109452, 6.9586765]]}, "properties": {"city": "mati", "name": "", "highway": "unclassified", "v_posted": 40, "posted_imputed": false, "v_safe": 30, "gap": 10, "R": 3.16, "exposure": 0.07, "vru_150m": 0, "sss": 13.4, "recommended": 30, "fatal_reduction_pct": 68.4, "why": "local road, frontage/pedestrian mixing", "pop_density": 2269.8, "pop_density_peak": 2269.8}}, {"type": "Feature", "geometry": {"type": "LineString", "coordinates": [[126.2325601, 6.9448639], [126.2323708, 6.9449453], [126.2321892, 6.945034], [126.2317352, 6.945256], [126.2315876, 6.9453293]]}, "properties": {"city": "mati", "name": "President Diosdado P. Macapagal Highway", "highway": "primary", "v_posted": 40, "posted_imputed": false, "v_safe": 30, "gap": 10, "R": 3.16, "exposure": 0.444, "vru_150m": 2, "sss": 18.0, "recommended": 30, "fatal_reduction_pct": 68.4, "why": "pedestrian activity (1 VRU site<=50m)", "pop_density": 2371.8, "pop_density_peak": 2531.8}}, {"type": "Feature", "geometry": {"type": "LineString", "coordinates": [[126.2315876, 6.9453293], [126.231328, 6.9454597], [126.2310511, 6.9455989], [126.2308734, 6.9456882], [126.230755, 6.9457448], [126.2306595, 6.9457892], [126.2305871, 6.9458224], [126.2305026, 6.9458583], [126.2304262, 6.9458849], [126.2303511, 6.9459082], [126.2302525, 6.9459348], [126.2301714, 6.9459528], [126.2300748, 6.9459701], [126.229993, 6.9459801], [126.2299486, 6.9459827], [126.2298193, 6.9459854], [126.2296959, 6.9459801], [126.2295929, 6.9459629], [126.2295009, 6.9459382], [126.2293949, 6.9459016], [126.2293453, 6.9458796], [126.2292467, 6.9458323], [126.2291575, 6.9457771], [126.2290925, 6.9457265], [126.2289785, 6.9456236], [126.2288236, 6.9454836], [126.2286161, 6.9452965], [126.2284805, 6.9451741]]}, "properties": {"city": "mati", "name": "President Diosdado P. Macapagal Highway", "highway": "primary", "v_posted": 40, "posted_imputed": false, "v_safe": 30, "gap": 10, "R": 3.16, "exposure": 0.249, "vru_150m": 1, "sss": 15.6, "recommended": 30, "fatal_reduction_pct": 68.4, "why": "pedestrian activity (1 VRU site<=50m)", "pop_density": 1975.3, "pop_density_peak": 2211.7}}, {"type": "Feature", "geometry": {"type": "LineString", "coordinates": [[126.2284805, 6.9451741], [126.2285301, 6.9451315]]}, "properties": {"city": "mati", "name": "", "highway": "unclassified", "v_posted": 40, "posted_imputed": false, "v_safe": 30, "gap": 10, "R": 3.16, "exposure": 0.053, "vru_150m": 0, "sss": 13.2, "recommended": 30, "fatal_reduction_pct": 68.4, "why": "local road, frontage/pedestrian mixing", "pop_density": 1730.1, "pop_density_peak": 1730.1}}, {"type": "Feature", "geometry": {"type": "LineString", "coordinates": [[126.2080112, 6.9562148], [126.207686, 6.9562456], [126.2073607, 6.9562764], [126.2070355, 6.9563072], [126.2067103, 6.9563379]]}, "properties": {"city": "mati", "name": "", "highway": "unclassified", "v_posted": 40, "posted_imputed": false, "v_safe": 30, "gap": 10, "R": 3.16, "exposure": 0.263, "vru_150m": 1, "sss": 15.8, "recommended": 30, "fatal_reduction_pct": 68.4, "why": "local road, frontage/pedestrian mixing", "pop_density": 2565.3, "pop_density_peak": 2565.4}}, {"type": "Feature", "geometry": {"type": "LineString", "coordinates": [[126.2080112, 6.9562148], [126.2084497, 6.957586]]}, "properties": {"city": "mati", "name": "", "highway": "unclassified", "v_posted": 40, "posted_imputed": false, "v_safe": 30, "gap": 10, "R": 3.16, "exposure": 0.445, "vru_150m": 2, "sss": 18.1, "recommended": 30, "fatal_reduction_pct": 68.4, "why": "local road, frontage/pedestrian mixing", "pop_density": 2451.5, "pop_density_peak": 2565.2}}, {"type": "Feature", "geometry": {"type": "LineString", "coordinates": [[126.2043132, 6.9601225], [126.2046396, 6.960474]]}, "properties": {"city": "mati", "name": "President Diosdado P. Macapagal Highway", "highway": "trunk", "v_posted": 80, "posted_imputed": false, "v_safe": 70, "gap": 10, "R": 1.71, "exposure": 0.248, "vru_150m": 1, "sss": 15.6, "recommended": 70, "fatal_reduction_pct": 41.4, "why": "trunk highway (head-on only; no at-grade ped mixing assumed)", "pop_density": 1922.0, "pop_density_peak": 1927.5}}, {"type": "Feature", "geometry": {"type": "LineString", "coordinates": [[126.2041551, 6.9599581], [126.2043132, 6.9601225]]}, "properties": {"city": "mati", "name": "President Diosdado P. Macapagal Highway", "highway": "trunk", "v_posted": 80, "posted_imputed": false, "v_safe": 70, "gap": 10, "R": 1.71, "exposure": 0.436, "vru_150m": 2, "sss": 17.9, "recommended": 70, "fatal_reduction_pct": 41.4, "why": "trunk highway (head-on only; no at-grade ped mixing assumed)", "pop_density": 1916.4, "pop_density_peak": 1916.4}}, {"type": "Feature", "geometry": {"type": "LineString", "coordinates": [[126.2109452, 6.9586765], [126.2110312, 6.958833]]}, "properties": {"city": "mati", "name": "", "highway": "unclassified", "v_posted": 40, "posted_imputed": false, "v_safe": 30, "gap": 10, "R": 3.16, "exposure": 0.07, "vru_150m": 0, "sss": 13.4, "recommended": 30, "fatal_reduction_pct": 68.4, "why": "local road, frontage/pedestrian mixing", "pop_density": 2269.8, "pop_density_peak": 2269.8}}, {"type": "Feature", "geometry": {"type": "LineString", "coordinates": [[126.2274148, 6.9474025], [126.2273522, 6.9471492]]}, "properties": {"city": "mati", "name": "", "highway": "unclassified", "v_posted": 40, "posted_imputed": false, "v_safe": 30, "gap": 10, "R": 3.16, "exposure": 0.221, "vru_150m": 1, "sss": 15.3, "recommended": 30, "fatal_reduction_pct": 68.4, "why": "local road, frontage/pedestrian mixing", "pop_density": 836.6, "pop_density_peak": 836.6}}, {"type": "Feature", "geometry": {"type": "LineString", "coordinates": [[126.2282766, 6.9453791], [126.228231, 6.9454709], [126.2282042, 6.9455681], [126.2281895, 6.9456746], [126.2281847, 6.9457549], [126.2281801, 6.9458331], [126.2281854, 6.9460461], [126.2282136, 6.9463443], [126.2282538, 6.9466997], [126.2282458, 6.9467623], [126.228227, 6.9468062], [126.2281694, 6.9468515], [126.2280554, 6.9469021], [126.2279577, 6.9469387], [126.2274885, 6.9471034]]}, "properties": {"city": "mati", "name": "", "highway": "unclassified", "v_posted": 40, "posted_imputed": false, "v_safe": 30, "gap": 10, "R": 3.16, "exposure": 0.232, "vru_150m": 1, "sss": 15.4, "recommended": 30, "fatal_reduction_pct": 68.4, "why": "local road, frontage/pedestrian mixing", "pop_density": 1287.0, "pop_density_peak": 1838.0}}, {"type": "Feature", "geometry": {"type": "LineString", "coordinates": [[126.2068282, 6.9615527], [126.2068334, 6.9616206]]}, "properties": {"city": "mati", "name": "", "highway": "unclassified", "v_posted": 40, "posted_imputed": false, "v_safe": 30, "gap": 10, "R": 3.16, "exposure": 0.055, "vru_150m": 0, "sss": 13.2, "recommended": 30, "fatal_reduction_pct": 68.4, "why": "local road, frontage/pedestrian mixing", "pop_density": 1767.6, "pop_density_peak": 1767.6}}, {"type": "Feature", "geometry": {"type": "LineString", "coordinates": [[126.2109561, 6.9589762], [126.2109151, 6.9589171]]}, "properties": {"city": "mati", "name": "", "highway": "unclassified", "v_posted": 40, "posted_imputed": false, "v_safe": 30, "gap": 10, "R": 3.16, "exposure": 0.07, "vru_150m": 0, "sss": 13.4, "recommended": 30, "fatal_reduction_pct": 68.4, "why": "local road, frontage/pedestrian mixing", "pop_density": 2269.8, "pop_density_peak": 2269.8}}, {"type": "Feature", "geometry": {"type": "LineString", "coordinates": [[126.2273522, 6.9471492], [126.2270529, 6.9472752]]}, "properties": {"city": "mati", "name": "", "highway": "unclassified", "v_posted": 40, "posted_imputed": false, "v_safe": 30, "gap": 10, "R": 3.16, "exposure": 0.026, "vru_150m": 0, "sss": 12.8, "recommended": 30, "fatal_reduction_pct": 68.4, "why": "local road, frontage/pedestrian mixing", "pop_density": 836.6, "pop_density_peak": 836.6}}, {"type": "Feature", "geometry": {"type": "LineString", "coordinates": [[126.2274885, 6.9471034], [126.2273522, 6.9471492]]}, "properties": {"city": "mati", "name": "", "highway": "unclassified", "v_posted": 40, "posted_imputed": false, "v_safe": 30, "gap": 10, "R": 3.16, "exposure": 0.221, "vru_150m": 1, "sss": 15.3, "recommended": 30, "fatal_reduction_pct": 68.4, "why": "local road, frontage/pedestrian mixing", "pop_density": 836.6, "pop_density_peak": 836.6}}, {"type": "Feature", "geometry": {"type": "LineString", "coordinates": [[126.2325601, 6.9447961], [126.2325601, 6.9448639]]}, "properties": {"city": "mati", "name": "", "highway": "tertiary", "v_posted": 40, "posted_imputed": false, "v_safe": 30, "gap": 10, "R": 3.16, "exposure": 0.447, "vru_150m": 2, "sss": 18.1, "recommended": 30, "fatal_reduction_pct": 68.4, "why": "pedestrian activity (1 VRU site<=50m)", "pop_density": 2531.8, "pop_density_peak": 2531.8}}, {"type": "Feature", "geometry": {"type": "LineString", "coordinates": [[126.26095, 6.9482952], [126.2609239, 6.9483303], [126.260667, 6.9487152], [126.2603968, 6.9491204], [126.2601204, 6.9495147], [126.2597956, 6.949965], [126.2595841, 6.9502442]]}, "properties": {"city": "mati", "name": "Dahican-Lawigan Road", "highway": "secondary", "v_posted": 60, "posted_imputed": false, "v_safe": 50, "gap": 10, "R": 2.07, "exposure": 0.026, "vru_150m": 0, "sss": 12.8, "recommended": 50, "fatal_reduction_pct": 51.8, "why": "undivided arterial, side-impact intersections", "pop_density": 836.8, "pop_density_peak": 1060.7}}, {"type": "Feature", "geometry": {"type": "LineString", "coordinates": [[126.2611967, 6.9478925], [126.2611309, 6.9478712]]}, "properties": {"city": "mati", "name": "Dahican-Lawigan Road", "highway": "secondary", "v_posted": 60, "posted_imputed": false, "v_safe": 50, "gap": 10, "R": 2.07, "exposure": 0.033, "vru_150m": 0, "sss": 12.9, "recommended": 50, "fatal_reduction_pct": 51.8, "why": "undivided arterial, side-impact intersections", "pop_density": 1055.9, "pop_density_peak": 1055.9}}, {"type": "Feature", "geometry": {"type": "LineString", "coordinates": [[126.2611967, 6.9478925], [126.2611715, 6.9479474]]}, "properties": {"city": "mati", "name": "Dahican-Lawigan Road", "highway": "secondary", "v_posted": 60, "posted_imputed": false, "v_safe": 50, "gap": 10, "R": 2.07, "exposure": 0.033, "vru_150m": 0, "sss": 12.9, "recommended": 50, "fatal_reduction_pct": 51.8, "why": "undivided arterial, side-impact intersections", "pop_density": 1055.9, "pop_density_peak": 1055.9}}, {"type": "Feature", "geometry": {"type": "LineString", "coordinates": [[126.2612642, 6.9477067], [126.2612204, 6.9478376], [126.2611967, 6.9478925]]}, "properties": {"city": "mati", "name": "Dahican-Lawigan Road", "highway": "secondary", "v_posted": 60, "posted_imputed": false, "v_safe": 50, "gap": 10, "R": 2.07, "exposure": 0.022, "vru_150m": 0, "sss": 12.8, "recommended": 50, "fatal_reduction_pct": 51.8, "why": "undivided arterial, side-impact intersections", "pop_density": 711.7, "pop_density_peak": 1055.9}}, {"type": "Feature", "geometry": {"type": "LineString", "coordinates": [[126.2669085, 6.9357087], [126.2667999, 6.9357407], [126.2661939, 6.9359292], [126.2650099, 6.9362893], [126.2647043, 6.9363906], [126.2644234, 6.9364955], [126.2643209, 6.9365379], [126.2642681, 6.9365715], [126.2642117, 6.9366121], [126.2641468, 6.9366748], [126.2640801, 6.9367551], [126.2638691, 6.9370218], [126.2636741, 6.9372696], [126.2634459, 6.9375743], [126.2633646, 6.9377051], [126.2633044, 6.937812], [126.263263, 6.9379304], [126.2631759, 6.9381794], [126.2629035, 6.9389883], [126.2628703, 6.9390981], [126.2627979, 6.9393379], [126.2624006, 6.9408883], [126.2622781, 6.9413505], [126.2621871, 6.9417213], [126.2619877, 6.9425333], [126.2619408, 6.9427105], [126.2617204, 6.9435943], [126.2616919, 6.94377], [126.2616681, 6.943964], [126.2616463, 6.9442165], [126.2616289, 6.9444676], [126.2616033, 6.9447826], [126.2615851, 6.944997], [126.2615797, 6.9450708], [126.2615331, 6.9455147], [126.2614735, 6.9460833], [126.2613907, 6.9469176], [126.2613445, 6.9473453], [126.2613238, 6.9474677], [126.2612926, 6.9475996], [126.2612642, 6.9477067]]}, "properties": {"city": "mati", "name": "Dahican-Lawigan Road", "highway": "secondary", "v_posted": 60, "posted_imputed": false, "v_safe": 50, "gap": 10, "R": 2.07, "exposure": 0.009, "vru_150m": 0, "sss": 12.6, "recommended": 50, "fatal_reduction_pct": 51.8, "why": "undivided arterial, side-impact intersections", "pop_density": 305.2, "pop_density_peak": 748.8}}]}