{"type": "FeatureCollection", "features": [{"type": "Feature", "geometry": {"type": "LineString", "coordinates": [[124.7952689, 6.4543348], [124.7953478, 6.4545099], [124.7955519, 6.4549624], [124.7957852, 6.4554808], [124.79588, 6.4557171], [124.7960642, 6.4561764], [124.7962546, 6.4566535], [124.7963646, 6.4568934], [124.7964786, 6.4571159], [124.7965842, 6.4572919], [124.7966972, 6.4574917], [124.7968147, 6.4576758], [124.7968896, 6.4577815], [124.7970069, 6.4579435], [124.7971907, 6.4581806], [124.7974294, 6.4584645], [124.7977754, 6.4588363], [124.7979458, 6.4590015], [124.7981376, 6.4591681], [124.7983812, 6.4593537], [124.7985707, 6.4595066], [124.7986928, 6.4596212], [124.7988188, 6.4597504], [124.7989422, 6.4599277], [124.7990213, 6.4601089], [124.7990589, 6.4602515], [124.7990924, 6.4604048], [124.7991043, 6.460562], [124.7991037, 6.4606766], [124.7991031, 6.4608072], [124.7990844, 6.461059], [124.7990375, 6.4612816], [124.7989583, 6.4615854], [124.7988832, 6.4618186], [124.7987732, 6.4620798], [124.7986398, 6.4623333], [124.7984633, 6.4626253], [124.7983615, 6.4628087], [124.7982985, 6.4629393], [124.7982609, 6.4630566], [124.7982582, 6.4631765], [124.7982676, 6.4633071], [124.7983038, 6.4634217], [124.7983642, 6.463539], [124.7984366, 6.4636416], [124.7985412, 6.4637255], [124.798682, 6.4638068], [124.7988483, 6.4638548], [124.7990347, 6.4638561], [124.7991608, 6.4638268], [124.7992748, 6.4637695], [124.7999829, 6.4633418], [124.8003557, 6.4631605], [124.8007809, 6.4630033], [124.8011309, 6.4629167], [124.8015419, 6.4628483], [124.8020533, 6.4627632], [124.8024519, 6.4626968], [124.8027228, 6.4626755], [124.802995, 6.4626835], [124.803164, 6.4627061], [124.8033223, 6.4627514], [124.8035382, 6.462866], [124.8036522, 6.4629273], [124.8038359, 6.4630806], [124.8040116, 6.4632605], [124.8041846, 6.4635003], [124.8043361, 6.4637695], [124.8044769, 6.4640733], [124.804607, 6.4644491], [124.8046379, 6.4645904], [124.8046768, 6.4648063], [124.8047049, 6.4650874], [124.8047358, 6.4660049], [124.8047492, 6.4661262], [124.8047733, 6.4662294], [124.8048364, 6.4663347], [124.804941, 6.4664453], [124.8051167, 6.4665906], [124.8054736, 6.4668555], [124.8057362, 6.4670503], [124.8058408, 6.4671449], [124.8059079, 6.4672129], [124.805979, 6.4673235], [124.8060206, 6.4674168], [124.8060514, 6.4675154], [124.8060568, 6.4676793], [124.8060407, 6.4678392], [124.8059857, 6.4679964], [124.8059066, 6.4681337], [124.8057151, 6.4683513], [124.805516, 6.4685775], [124.8052552, 6.4688738], [124.805122, 6.4690252], [124.8050295, 6.4691851], [124.8049638, 6.469361], [124.8049423, 6.4695409], [124.8049517, 6.4697234], [124.8049892, 6.4698873], [124.8050697, 6.4700539], [124.8052503, 6.4702588], [124.8054198, 6.470451], [124.8057818, 6.4708002], [124.8058274, 6.4708481], [124.8058864, 6.4709068], [124.8059428, 6.4710027], [124.8061386, 6.4713971], [124.8064543, 6.4721577], [124.8067198, 6.4727975], [124.8070275, 6.4735388], [124.8073647, 6.4743512], [124.8076352, 6.475003], [124.8079426, 6.4757716], [124.8081481, 6.4762853], [124.8083647, 6.4768268], [124.8083782, 6.4768606], [124.8084956, 6.4771398], [124.8086669, 6.4775469], [124.8088369, 6.4779511], [124.8089821, 6.4782963], [124.8091158, 6.4786142], [124.8091882, 6.4787861], [124.8092889, 6.478958], [124.8094256, 6.4791526], [124.8096161, 6.4793871], [124.8098534, 6.4796376], [124.8101331, 6.4798955], [124.8103469, 6.4800797], [124.8105858, 6.4802714], [124.8109129, 6.4805278], [124.8112653, 6.4807849], [124.8115875, 6.4810201], [124.812014, 6.4813313], [124.8124629, 6.4816806], [124.8129363, 6.482049], [124.8132278, 6.4822758], [124.8135065, 6.4824927], [124.8137829, 6.4827078], [124.8140387, 6.4828991], [124.8142925, 6.4830889], [124.8145232, 6.4832514], [124.814638, 6.4833329], [124.814759, 6.4834125], [124.8148517, 6.4834783], [124.8152114, 6.4836918], [124.8153385, 6.4837525]]}, "properties": {"city": "koronadal", "name": "Maharlika Highway", "highway": "trunk", "v_posted": 80, "posted_imputed": false, "v_safe": 70, "gap": 10, "R": 1.71, "exposure": 0.017, "vru_150m": 0, "sss": 12.7, "recommended": 70, "fatal_reduction_pct": 41.4, "why": "trunk highway (head-on only; no at-grade ped mixing assumed)", "pop_density": 564.1, "pop_density_peak": 6212.3}}, {"type": "Feature", "geometry": {"type": "LineString", "coordinates": [[124.7870024, 6.4423199], [124.7870842, 6.4423905], [124.787268, 6.4425538], [124.7874517, 6.4427169], [124.7877291, 6.442973], [124.7879411, 6.4431901], [124.7882617, 6.4435139], [124.7884548, 6.4437178], [124.7886512, 6.4439817], [124.7889403, 6.4443881], [124.7892012, 6.4447917], [124.7893657, 6.4450598], [124.7895625, 6.4453804], [124.7897581, 6.4457033], [124.7898848, 6.4459124], [124.7900568, 6.4461963], [124.790189, 6.4464144], [124.7903888, 6.4467441], [124.7905741, 6.4470499], [124.7907879, 6.4474028], [124.7910667, 6.4478629], [124.7913529, 6.4483353], [124.7914588, 6.4485286], [124.7915768, 6.4487497], [124.7916774, 6.449031], [124.7917874, 6.4494188], [124.791843, 6.4498306], [124.79191, 6.4503112], [124.7919711, 6.4506861], [124.7920369, 6.4511485], [124.7920932, 6.4513964], [124.7921535, 6.451587], [124.79223, 6.4517495], [124.7923252, 6.4519081], [124.7923493, 6.4519415], [124.7924419, 6.4520787], [124.7925733, 6.4522226], [124.7927181, 6.4523571], [124.7928472, 6.4524624], [124.7929851, 6.4525651], [124.7931141, 6.4526542], [124.793327, 6.4527836], [124.7935094, 6.4528729], [124.7937857, 6.4530062], [124.7940901, 6.4531407], [124.7942738, 6.453242], [124.7944334, 6.4533473], [124.7946064, 6.4534872], [124.7947365, 6.4536111], [124.7948545, 6.4537497], [124.7948961, 6.4537986], [124.7949095, 6.4538144], [124.7949819, 6.453911], [124.7951402, 6.4541389], [124.7952383, 6.4542881], [124.7952689, 6.4543348]]}, "properties": {"city": "koronadal", "name": "Maharlika Highway", "highway": "trunk", "v_posted": 80, "posted_imputed": false, "v_safe": 70, "gap": 10, "R": 1.71, "exposure": 0.142, "vru_150m": 0, "sss": 14.3, "recommended": 70, "fatal_reduction_pct": 41.4, "why": "trunk highway (head-on only; no at-grade ped mixing assumed)", "pop_density": 4592.9, "pop_density_peak": 19839.1}}, {"type": "Feature", "geometry": {"type": "LineString", "coordinates": [[124.8430094, 6.4859396], [124.8426263, 6.4854876], [124.8422354, 6.4850265], [124.8417032, 6.4843986], [124.8413705, 6.4840062], [124.8409062, 6.4834584], [124.8404828, 6.4829589], [124.8402049, 6.4826311], [124.8397958, 6.4821485], [124.8394536, 6.4817448]]}, "properties": {"city": "koronadal", "name": "Santa Cruz - Bayanihan Road", "highway": "residential", "v_posted": 40, "posted_imputed": false, "v_safe": 30, "gap": 10, "R": 3.16, "exposure": 0.107, "vru_150m": 0, "sss": 13.8, "recommended": 30, "fatal_reduction_pct": 68.4, "why": "local road, frontage/pedestrian mixing", "pop_density": 3465.3, "pop_density_peak": 4429.2}}, {"type": "Feature", "geometry": {"type": "LineString", "coordinates": [[124.8398298, 6.4742275], [124.8408878, 6.4754735], [124.8411407, 6.4757877], [124.8414521, 6.4761744], [124.8420227, 6.476921], [124.8425577, 6.4776209], [124.8432, 6.4784201]]}, "properties": {"city": "koronadal", "name": "", "highway": "residential", "v_posted": 40, "posted_imputed": false, "v_safe": 30, "gap": 10, "R": 3.16, "exposure": 0.485, "vru_150m": 0, "sss": 18.6, "recommended": 30, "fatal_reduction_pct": 68.4, "why": "local road, frontage/pedestrian mixing", "pop_density": 15691.9, "pop_density_peak": 55455.0}}, {"type": "Feature", "geometry": {"type": "LineString", "coordinates": [[124.8568028, 6.4814359], [124.8593642, 6.4845134], [124.8604098, 6.485766], [124.8604677, 6.4858366], [124.8605295, 6.4859126]]}, "properties": {"city": "koronadal", "name": "Masagana I Road", "highway": "residential", "v_posted": 40, "posted_imputed": false, "v_safe": 30, "gap": 10, "R": 3.16, "exposure": 0.426, "vru_150m": 0, "sss": 17.8, "recommended": 30, "fatal_reduction_pct": 68.4, "why": "local road, frontage/pedestrian mixing", "pop_density": 13784.8, "pop_density_peak": 22769.4}}, {"type": "Feature", "geometry": {"type": "LineString", "coordinates": [[124.8409818, 6.4732813], [124.8407242, 6.4729357], [124.8404808, 6.4726424], [124.8402509, 6.4723655], [124.8399715, 6.4720338], [124.8397521, 6.4717733], [124.8395626, 6.4715484], [124.839351, 6.4712972], [124.8390985, 6.4709878], [124.8388863, 6.4707228], [124.8386016, 6.4703672], [124.8383144, 6.4700086], [124.8380917, 6.4697394], [124.8378986, 6.4695049], [124.8375115, 6.4690266]]}, "properties": {"city": "koronadal", "name": "Mambucal-Santa Cruz Road", "highway": "residential", "v_posted": 40, "posted_imputed": false, "v_safe": 30, "gap": 10, "R": 3.16, "exposure": 0.068, "vru_150m": 0, "sss": 13.4, "recommended": 30, "fatal_reduction_pct": 68.4, "why": "local road, frontage/pedestrian mixing", "pop_density": 2211.1, "pop_density_peak": 3070.8}}, {"type": "Feature", "geometry": {"type": "LineString", "coordinates": [[124.8380568, 6.4739513], [124.8378699, 6.4737253], [124.8375951, 6.4733929], [124.837011, 6.4726867], [124.8367202, 6.472335]]}, "properties": {"city": "koronadal", "name": "", "highway": "residential", "v_posted": 40, "posted_imputed": false, "v_safe": 30, "gap": 10, "R": 3.16, "exposure": 0.106, "vru_150m": 0, "sss": 13.8, "recommended": 30, "fatal_reduction_pct": 68.4, "why": "local road, frontage/pedestrian mixing", "pop_density": 3429.0, "pop_density_peak": 4199.6}}, {"type": "Feature", "geometry": {"type": "LineString", "coordinates": [[124.8471334, 6.4680777], [124.8472837, 6.468268], [124.847505, 6.4685496], [124.8478932, 6.468998], [124.8481446, 6.469305], [124.8482674, 6.4694786], [124.8483834, 6.4696395], [124.848492, 6.4697834], [124.8486596, 6.4699819], [124.8489921, 6.4704043], [124.8491062, 6.470527], [124.8493784, 6.4708601], [124.8496632, 6.4711952], [124.8497528, 6.4713042], [124.849986, 6.4715691], [124.8501308, 6.4717582]]}, "properties": {"city": "koronadal", "name": "Guadalupe-San Isidro Road", "highway": "residential", "v_posted": 40, "posted_imputed": false, "v_safe": 30, "gap": 10, "R": 3.16, "exposure": 0.256, "vru_150m": 0, "sss": 15.7, "recommended": 30, "fatal_reduction_pct": 68.4, "why": "local road, frontage/pedestrian mixing", "pop_density": 8266.6, "pop_density_peak": 20513.6}}, {"type": "Feature", "geometry": {"type": "LineString", "coordinates": [[124.8347367, 6.4667339], [124.8348328, 6.4667999], [124.8349187, 6.4668545], [124.8350448, 6.4668931], [124.8351883, 6.4669037], [124.8352902, 6.4669184], [124.8353987, 6.4669504], [124.8354726, 6.4670063], [124.8355517, 6.4671023], [124.8356335, 6.4672582], [124.8357944, 6.467626], [124.8358454, 6.4677459], [124.8358923, 6.4678365], [124.8359728, 6.4679284], [124.8361069, 6.4680631], [124.8362879, 6.4682883], [124.836343, 6.4683748], [124.8363818, 6.4684575], [124.836418, 6.4685215], [124.8364649, 6.4685814], [124.8365374, 6.4686588], [124.8366594, 6.4687813], [124.8368834, 6.4690079], [124.8370148, 6.4691438], [124.8371629, 6.4693036], [124.8371687, 6.4693098]]}, "properties": {"city": "koronadal", "name": "", "highway": "unclassified", "v_posted": 40, "posted_imputed": false, "v_safe": 30, "gap": 10, "R": 3.16, "exposure": 0.259, "vru_150m": 1, "sss": 15.7, "recommended": 30, "fatal_reduction_pct": 68.4, "why": "local road, frontage/pedestrian mixing", "pop_density": 2393.7, "pop_density_peak": 2843.0}}, {"type": "Feature", "geometry": {"type": "LineString", "coordinates": [[124.8361244, 6.4701288], [124.8357636, 6.4699047], [124.835659, 6.4698287], [124.8356026, 6.4697501], [124.8355651, 6.4696542], [124.8355477, 6.4695596], [124.8355423, 6.4694343], [124.8355601, 6.4692571], [124.8355772, 6.4690438], [124.835616, 6.4686068], [124.8356187, 6.4684362], [124.8355865, 6.4682336], [124.8355251, 6.4680305], [124.8354842, 6.4678641], [124.8354149, 6.4677033], [124.8353505, 6.4676073], [124.8352406, 6.4675234], [124.8349683, 6.4673701], [124.8348081, 6.4673064], [124.8346673, 6.4672365], [124.8345789, 6.467157], [124.8345493, 6.4670693], [124.8345485, 6.4669777], [124.8345815, 6.4668706], [124.8346378, 6.4667864], [124.8347367, 6.4667339]]}, "properties": {"city": "koronadal", "name": "", "highway": "unclassified", "v_posted": 40, "posted_imputed": false, "v_safe": 30, "gap": 10, "R": 3.16, "exposure": 0.252, "vru_150m": 1, "sss": 15.7, "recommended": 30, "fatal_reduction_pct": 68.4, "why": "local road, frontage/pedestrian mixing", "pop_density": 2107.0, "pop_density_peak": 2398.4}}, {"type": "Feature", "geometry": {"type": "LineString", "coordinates": [[124.8495957, 6.4722087], [124.8501308, 6.4717582]]}, "properties": {"city": "koronadal", "name": "", "highway": "residential", "v_posted": 40, "posted_imputed": false, "v_safe": 30, "gap": 10, "R": 3.16, "exposure": 0.5, "vru_150m": 0, "sss": 18.8, "recommended": 30, "fatal_reduction_pct": 68.4, "why": "local road, frontage/pedestrian mixing", "pop_density": 16176.7, "pop_density_peak": 20513.6}}, {"type": "Feature", "geometry": {"type": "LineString", "coordinates": [[124.8506928, 6.472206], [124.8507826, 6.4722607]]}, "properties": {"city": "koronadal", "name": "", "highway": "unclassified", "v_posted": 40, "posted_imputed": false, "v_safe": 30, "gap": 10, "R": 3.16, "exposure": 0.606, "vru_150m": 0, "sss": 20.1, "recommended": 30, "fatal_reduction_pct": 68.4, "why": "local road, frontage/pedestrian mixing", "pop_density": 19605.1, "pop_density_peak": 19605.1}}, {"type": "Feature", "geometry": {"type": "LineString", "coordinates": [[124.850631, 6.4721647], [124.8506928, 6.472206]]}, "properties": {"city": "koronadal", "name": "", "highway": "unclassified", "v_posted": 40, "posted_imputed": false, "v_safe": 30, "gap": 10, "R": 3.16, "exposure": 0.606, "vru_150m": 0, "sss": 20.1, "recommended": 30, "fatal_reduction_pct": 68.4, "why": "local road, frontage/pedestrian mixing", "pop_density": 19605.1, "pop_density_peak": 19605.1}}, {"type": "Feature", "geometry": {"type": "LineString", "coordinates": [[124.8546474, 6.4687151], [124.8542213, 6.4691], [124.8533447, 6.4699014], [124.8529914, 6.4702094], [124.8524569, 6.470666], [124.8520764, 6.470991], [124.8518193, 6.4712106], [124.851602, 6.4713851], [124.8514491, 6.4715091], [124.8513392, 6.4716157], [124.8512352, 6.4717389], [124.8510971, 6.4719262], [124.851024, 6.4720194], [124.8509408, 6.4721026], [124.8507826, 6.4722607]]}, "properties": {"city": "koronadal", "name": "", "highway": "residential", "v_posted": 40, "posted_imputed": false, "v_safe": 30, "gap": 10, "R": 3.16, "exposure": 0.278, "vru_150m": 0, "sss": 16.0, "recommended": 30, "fatal_reduction_pct": 68.4, "why": "local road, frontage/pedestrian mixing", "pop_density": 8998.3, "pop_density_peak": 19605.1}}, {"type": "Feature", "geometry": {"type": "LineString", "coordinates": [[124.8495957, 6.4722087], [124.8500387, 6.4727358]]}, "properties": {"city": "koronadal", "name": "", "highway": "residential", "v_posted": 40, "posted_imputed": false, "v_safe": 30, "gap": 10, "R": 3.16, "exposure": 0.486, "vru_150m": 0, "sss": 18.6, "recommended": 30, "fatal_reduction_pct": 68.4, "why": "local road, frontage/pedestrian mixing", "pop_density": 15712.0, "pop_density_peak": 19584.0}}, {"type": "Feature", "geometry": {"type": "LineString", "coordinates": [[124.8464575, 6.4756347], [124.8473386, 6.4749577], [124.8478169, 6.4745663], [124.8479851, 6.4744287], [124.8483175, 6.4741681], [124.8484203, 6.4740874], [124.8488179, 6.4737758], [124.8495273, 6.4731854], [124.8500387, 6.4727358]]}, "properties": {"city": "koronadal", "name": "", "highway": "residential", "v_posted": 40, "posted_imputed": false, "v_safe": 30, "gap": 10, "R": 3.16, "exposure": 0.234, "vru_150m": 0, "sss": 15.4, "recommended": 30, "fatal_reduction_pct": 68.4, "why": "local road, frontage/pedestrian mixing", "pop_density": 7553.0, "pop_density_peak": 19584.0}}, {"type": "Feature", "geometry": {"type": "LineString", "coordinates": [[124.8501308, 6.4717582], [124.8504433, 6.4720808], [124.8505138, 6.4721194], [124.850631, 6.4721647]]}, "properties": {"city": "koronadal", "name": "", "highway": "residential", "v_posted": 40, "posted_imputed": false, "v_safe": 30, "gap": 10, "R": 3.16, "exposure": 0.62, "vru_150m": 0, "sss": 20.3, "recommended": 30, "fatal_reduction_pct": 68.4, "why": "local road, frontage/pedestrian mixing", "pop_density": 20059.3, "pop_density_peak": 20513.6}}, {"type": "Feature", "geometry": {"type": "LineString", "coordinates": [[124.8367202, 6.472335], [124.8363624, 6.4719024], [124.8363309, 6.4718642], [124.8362052, 6.4717123], [124.8359845, 6.4714454], [124.835815, 6.4712404], [124.8355726, 6.4709473], [124.835406, 6.4707459]]}, "properties": {"city": "koronadal", "name": "", "highway": "residential", "v_posted": 40, "posted_imputed": false, "v_safe": 30, "gap": 10, "R": 3.16, "exposure": 0.04, "vru_150m": 0, "sss": 13.0, "recommended": 30, "fatal_reduction_pct": 68.4, "why": "local road, frontage/pedestrian mixing", "pop_density": 1303.1, "pop_density_peak": 2016.6}}, {"type": "Feature", "geometry": {"type": "LineString", "coordinates": [[124.8389178, 6.4749924], [124.8385944, 6.4746013], [124.8383219, 6.4742718], [124.8381186, 6.474026], [124.8380568, 6.4739513]]}, "properties": {"city": "koronadal", "name": "", "highway": "residential", "v_posted": 40, "posted_imputed": false, "v_safe": 30, "gap": 10, "R": 3.16, "exposure": 0.108, "vru_150m": 0, "sss": 13.8, "recommended": 30, "fatal_reduction_pct": 68.4, "why": "local road, frontage/pedestrian mixing", "pop_density": 3480.3, "pop_density_peak": 4199.6}}, {"type": "Feature", "geometry": {"type": "LineString", "coordinates": [[124.8700033, 6.4837791], [124.8696019, 6.4833145], [124.8692981, 6.482965], [124.8692234, 6.4828791], [124.8690109, 6.4826394], [124.8686129, 6.4821906], [124.8681801, 6.4817025], [124.8677062, 6.481152], [124.8674733, 6.4808713], [124.8671898, 6.4805439], [124.867138, 6.4804764], [124.86705, 6.4803618]]}, "properties": {"city": "koronadal", "name": "Carillo Village Road", "highway": "residential", "v_posted": 40, "posted_imputed": false, "v_safe": 30, "gap": 10, "R": 3.16, "exposure": 0.038, "vru_150m": 0, "sss": 13.0, "recommended": 30, "fatal_reduction_pct": 68.4, "why": "local road, frontage/pedestrian mixing", "pop_density": 1237.6, "pop_density_peak": 2897.9}}, {"type": "Feature", "geometry": {"type": "LineString", "coordinates": [[124.87914, 6.460733], [124.8791698, 6.4603367], [124.8791878, 6.4600955], [124.8793897, 6.4576103], [124.8794343, 6.4570165], [124.8794857, 6.4563527], [124.8794928, 6.4562588], [124.879544, 6.4555805], [124.8795667, 6.4552836], [124.8795895, 6.4548984], [124.8796043, 6.4546492], [124.8796851, 6.4536518], [124.879703, 6.4534313], [124.8797638, 6.452633], [124.8798191, 6.4518004], [124.879894, 6.4508913], [124.879902, 6.4507848], [124.8800292, 6.449098], [124.8800544, 6.4487571], [124.8801568, 6.4473732], [124.8801851, 6.4470385], [124.8802079, 6.446747], [124.8802423, 6.4463037], [124.8802639, 6.4460143], [124.8803472, 6.4448972], [124.8803955, 6.4442788], [124.880527, 6.4425531], [124.8806161, 6.441425], [124.8806503, 6.4409926], [124.8806751, 6.4406008], [124.880712, 6.4400184], [124.8807932, 6.4390129], [124.8808636, 6.4380381], [124.8809182, 6.4372992], [124.88096, 6.4367337], [124.8810036, 6.4361735], [124.8810337, 6.4357867], [124.8810768, 6.4352329], [124.8811897, 6.4337763], [124.8812378, 6.4329929], [124.881284, 6.432397]]}, "properties": {"city": "koronadal", "name": "General Santos Drive", "highway": "trunk", "v_posted": 80, "posted_imputed": false, "v_safe": 70, "gap": 10, "R": 1.71, "exposure": 0.116, "vru_150m": 0, "sss": 13.9, "recommended": 70, "fatal_reduction_pct": 41.4, "why": "trunk highway (head-on only; no at-grade ped mixing assumed)", "pop_density": 3751.9, "pop_density_peak": 20373.1}}, {"type": "Feature", "geometry": {"type": "LineString", "coordinates": [[124.86705, 6.4803618], [124.8669466, 6.4802367], [124.8668832, 6.4801601], [124.8663213, 6.4794804], [124.8662971, 6.4794378], [124.8662891, 6.4793898], [124.8663025, 6.4793258], [124.8663307, 6.4792752], [124.8663845, 6.4792202]]}, "properties": {"city": "koronadal", "name": "Villegas Road", "highway": "residential", "v_posted": 40, "posted_imputed": false, "v_safe": 30, "gap": 10, "R": 3.16, "exposure": 0.064, "vru_150m": 0, "sss": 13.3, "recommended": 30, "fatal_reduction_pct": 68.4, "why": "local road, frontage/pedestrian mixing", "pop_density": 2079.7, "pop_density_peak": 3412.8}}, {"type": "Feature", "geometry": {"type": "LineString", "coordinates": [[124.87914, 6.460733], [124.8790972, 6.4613346], [124.8790812, 6.4615601], [124.8790591, 6.4618819], [124.8790181, 6.4624316], [124.8790115, 6.4625196], [124.8790062, 6.462593], [124.8789753, 6.4630246], [124.8789502, 6.4633915], [124.8788933, 6.4641007], [124.8788708, 6.4643963], [124.8788483, 6.4646907], [124.8788258, 6.4650001], [124.8788179, 6.4651051], [124.8787977, 6.4653769], [124.8787833, 6.4655704], [124.8787755, 6.4656751], [124.8787151, 6.4664653], [124.8786199, 6.4674981], [124.8785891, 6.4677286], [124.8785596, 6.4679045], [124.8784992, 6.4682256], [124.8783826, 6.4687], [124.8782779, 6.4690512], [124.8782133, 6.4692339], [124.8781157, 6.4695102], [124.8779742, 6.4698614], [124.8778273, 6.4701918], [124.8775913, 6.4706516], [124.877142, 6.4713465], [124.8769626, 6.4716024], [124.8766896, 6.471963], [124.876454, 6.4722417], [124.8763246, 6.4723846], [124.8759901, 6.4727338]]}, "properties": {"city": "koronadal", "name": "General Santos Drive", "highway": "trunk", "v_posted": 80, "posted_imputed": false, "v_safe": 70, "gap": 10, "R": 1.71, "exposure": 0.372, "vru_150m": 1, "sss": 17.1, "recommended": 70, "fatal_reduction_pct": 41.4, "why": "trunk highway (head-on only; no at-grade ped mixing assumed)", "pop_density": 6945.1, "pop_density_peak": 17345.2}}, {"type": "Feature", "geometry": {"type": "LineString", "coordinates": [[124.8759901, 6.4727338], [124.8758733, 6.4728376], [124.8757467, 6.472941], [124.8755259, 6.4731214], [124.8754068, 6.4732216], [124.8751352, 6.4734563]]}, "properties": {"city": "koronadal", "name": "General Santos Drive", "highway": "trunk", "v_posted": 80, "posted_imputed": false, "v_safe": 70, "gap": 10, "R": 1.71, "exposure": 0.367, "vru_150m": 0, "sss": 17.1, "recommended": 70, "fatal_reduction_pct": 41.4, "why": "trunk highway (head-on only; no at-grade ped mixing assumed)", "pop_density": 11857.6, "pop_density_peak": 17345.2}}, {"type": "Feature", "geometry": {"type": "LineString", "coordinates": [[124.8038553, 6.5073637], [124.8040156, 6.5074822], [124.8041648, 6.5075651], [124.8043261, 6.507638], [124.8044972, 6.5076941], [124.8048295, 6.5077789], [124.8051067, 6.5078365], [124.8053594, 6.5078797], [124.8055518, 6.5079058], [124.8056892, 6.5079095], [124.8058509, 6.5078962], [124.8059508, 6.5078726], [124.8060373, 6.5078427], [124.8061064, 6.507814], [124.8061808, 6.5077687], [124.8062633, 6.5077034], [124.8063565, 6.5076235], [124.8064886, 6.5074809], [124.8067112, 6.5072624], [124.8068038, 6.5071924], [124.8068876, 6.5071351], [124.8069714, 6.5070958], [124.8070499, 6.5070652], [124.8072182, 6.5070498], [124.807306, 6.5070498], [124.8074012, 6.5070612], [124.8074884, 6.5070825], [124.8075769, 6.5071158], [124.8076728, 6.5071664], [124.8080392, 6.5073787], [124.8080999, 6.5074129], [124.8081583, 6.5074582], [124.8082106, 6.5075122], [124.8082756, 6.5076015], [124.8084185, 6.507838], [124.8086954, 6.508309], [124.8088168, 6.5085402], [124.808857, 6.5086135], [124.8088979, 6.5086994], [124.80892, 6.508766], [124.8089381, 6.508826], [124.8089556, 6.5088946], [124.8090114, 6.5092225], [124.8090957, 6.5097381], [124.8092895, 6.5110086], [124.8093257, 6.5112844], [124.8094941, 6.5121734], [124.8095383, 6.5126797], [124.8095516, 6.5132381], [124.8094479, 6.513992], [124.8094343, 6.5142228], [124.8094374, 6.5143575], [124.8094557, 6.5144701], [124.8095105, 6.5146766], [124.8095908, 6.5149631], [124.8097566, 6.5155545], [124.8098992, 6.5161127], [124.8099893, 6.5164714], [124.8099986, 6.5166214], [124.8099775, 6.5167471], [124.809926, 6.5168701], [124.8098594, 6.5169576], [124.8097698, 6.517041], [124.8093785, 6.5173297], [124.8090426, 6.5175776], [124.8085596, 6.5179636], [124.8084842, 6.5180625], [124.8084487, 6.5181519], [124.8084385, 6.5182507], [124.8084479, 6.5183526], [124.8085092, 6.5184867], [124.808607, 6.5186418], [124.8088168, 6.5188913], [124.8090481, 6.5191267], [124.809427, 6.5195122], [124.8100158, 6.5201201], [124.8104798, 6.5206522], [124.8107822, 6.5210338], [124.8111058, 6.5214422], [124.8111396, 6.5215109], [124.8111476, 6.5215815], [124.8111358, 6.521658], [124.8111114, 6.5217274]]}, "properties": {"city": "koronadal", "name": "San Felipe-Tinongcop-Paraiso Diversion Road", "highway": "secondary", "v_posted": 80, "posted_imputed": false, "v_safe": 50, "gap": 30, "R": 6.55, "exposure": 0.0, "vru_150m": 0, "sss": 37.5, "recommended": 50, "fatal_reduction_pct": 84.7, "why": "undivided arterial, side-impact intersections", "pop_density": 0.0, "pop_density_peak": 0.0}}, {"type": "Feature", "geometry": {"type": "LineString", "coordinates": [[124.8086277, 6.4910341], [124.8084963, 6.4911334]]}, "properties": {"city": "koronadal", "name": "Paraiso-Tinongcop-San Felipe Diversion Road", "highway": "secondary", "v_posted": 80, "posted_imputed": false, "v_safe": 50, "gap": 30, "R": 6.55, "exposure": 0.0, "vru_150m": 0, "sss": 37.5, "recommended": 50, "fatal_reduction_pct": 84.7, "why": "undivided arterial, side-impact intersections", "pop_density": 0.0, "pop_density_peak": 0.0}}, {"type": "Feature", "geometry": {"type": "LineString", "coordinates": [[124.8084963, 6.4911334], [124.8080675, 6.4914646], [124.8080131, 6.4915041], [124.8074766, 6.4918389], [124.8070215, 6.4921229], [124.8064296, 6.4924923], [124.806103, 6.4926911], [124.8051755, 6.4932555], [124.8047926, 6.493476], [124.8041418, 6.4938755], [124.80372, 6.4941466], [124.8035174, 6.494332], [124.8034315, 6.4944466], [124.8033915, 6.4945257], [124.8033705, 6.4946524], [124.8033789, 6.4948161], [124.8034993, 6.4957318], [124.8035556, 6.4962323], [124.8036103, 6.4967195], [124.803714, 6.4974849], [124.8038064, 6.4981669], [124.8038761, 6.498526], [124.8038983, 6.4986406], [124.8039345, 6.4988758], [124.8039727, 6.4991749], [124.8040102, 6.4994028], [124.8040431, 6.4997079], [124.8040438, 6.4998638], [124.8040337, 6.4999644], [124.8040176, 6.5000497], [124.8039968, 6.5001136], [124.8039687, 6.5001663], [124.8039392, 6.5002149], [124.8038869, 6.5002755], [124.8038557, 6.5002965], [124.8038245, 6.5003175], [124.8037232, 6.5003695], [124.8036019, 6.5004068], [124.8030674, 6.5005114], [124.8025222, 6.5006013], [124.8023727, 6.500626], [124.8022467, 6.5006486], [124.8018913, 6.5007126], [124.8017934, 6.5007392], [124.8016526, 6.5007832], [124.8015037, 6.5008512], [124.8013481, 6.5009364], [124.8011014, 6.5010804], [124.8007366, 6.5012802], [124.8002806, 6.5015614], [124.7999896, 6.5017413], [124.7998032, 6.5018625], [124.7997066, 6.5019212], [124.7996537, 6.5019764], [124.7996221, 6.5020397], [124.7996168, 6.5021304], [124.7996342, 6.502205], [124.7997549, 6.5024875], [124.7998568, 6.502666], [124.7999655, 6.5028192], [124.8000285, 6.5029178], [124.8001197, 6.5030404], [124.8002337, 6.5031977], [124.8003356, 6.5032976], [124.8004536, 6.5034269], [124.8006548, 6.5036587], [124.8008841, 6.5039305]]}, "properties": {"city": "koronadal", "name": "Paraiso-Tinongcop-San Felipe Diversion Road", "highway": "secondary", "v_posted": 80, "posted_imputed": false, "v_safe": 50, "gap": 30, "R": 6.55, "exposure": 0.0, "vru_150m": 0, "sss": 37.5, "recommended": 50, "fatal_reduction_pct": 84.7, "why": "undivided arterial, side-impact intersections", "pop_density": 0.0, "pop_density_peak": 0.0}}, {"type": "Feature", "geometry": {"type": "LineString", "coordinates": [[124.8108876, 6.4888842], [124.8104968, 6.4892741], [124.810347, 6.4894236], [124.8100111, 6.4897587], [124.8097545, 6.4900232], [124.8092181, 6.4905166], [124.8090253, 6.4906896], [124.8088346, 6.4908626], [124.8086277, 6.4910341]]}, "properties": {"city": "koronadal", "name": "Paraiso-Tinongcop-San Felipe Diversion Road", "highway": "secondary", "v_posted": 80, "posted_imputed": false, "v_safe": 50, "gap": 30, "R": 6.55, "exposure": 0.0, "vru_150m": 0, "sss": 37.5, "recommended": 50, "fatal_reduction_pct": 84.7, "why": "undivided arterial, side-impact intersections", "pop_density": 0.0, "pop_density_peak": 0.0}}, {"type": "Feature", "geometry": {"type": "LineString", "coordinates": [[124.8256291, 6.4834757], [124.82583, 6.4836285], [124.8259574, 6.4836992], [124.8261016, 6.4837431], [124.8262283, 6.4837645], [124.8263504, 6.4837605], [124.826628, 6.4837138], [124.8270732, 6.4836019], [124.8272462, 6.4835806], [124.8273696, 6.4835886], [124.8274916, 6.4836086], [124.8277827, 6.4837152], [124.82802, 6.4838418], [124.8281944, 6.4839723], [124.828304, 6.4840691], [124.8285364, 6.4842695], [124.828696, 6.4844241], [124.8288274, 6.48458], [124.828877, 6.4846439], [124.8289239, 6.4847359], [124.8289548, 6.4848132], [124.8289843, 6.4849264], [124.8289957, 6.4850284], [124.8290031, 6.485149], [124.8290071, 6.4853142], [124.8290077, 6.4855167], [124.8290084, 6.4857919]]}, "properties": {"city": "koronadal", "name": "Maharlika Highway", "highway": "trunk", "v_posted": 80, "posted_imputed": false, "v_safe": 70, "gap": 10, "R": 1.71, "exposure": 0.0, "vru_150m": 0, "sss": 12.5, "recommended": 70, "fatal_reduction_pct": 41.4, "why": "trunk highway (head-on only; no at-grade ped mixing assumed)", "pop_density": 0.0, "pop_density_peak": 0.0}}, {"type": "Feature", "geometry": {"type": "LineString", "coordinates": [[124.8153385, 6.4837525], [124.8154794, 6.4838125], [124.8156497, 6.4838737], [124.8158026, 6.4839217], [124.8159903, 6.4839683], [124.8161754, 6.4840057], [124.8163806, 6.4840336], [124.8165563, 6.4840443], [124.816732, 6.4840443], [124.8169506, 6.4840336], [124.8172134, 6.4840137], [124.8176578, 6.4839745], [124.8181219, 6.4839335], [124.8185114, 6.4838973], [124.8189515, 6.4838564], [124.8197266, 6.4837818], [124.8206922, 6.4837151], [124.8209069, 6.4837035], [124.8210219, 6.4836973], [124.822158, 6.4835966], [124.8223633, 6.4835659], [124.8225376, 6.4835259], [124.822669, 6.4834846], [124.8228018, 6.4834407], [124.8230325, 6.4833407], [124.8232694, 6.4832027], [124.8234536, 6.4830955], [124.8236118, 6.4830116], [124.8237526, 6.4829436], [124.8239283, 6.482877], [124.8241174, 6.4828304], [124.8242623, 6.4828224], [124.8243776, 6.482829], [124.8245318, 6.4828424], [124.8246632, 6.4828703], [124.8247786, 6.4829089], [124.8248974, 6.4829617], [124.8250186, 6.4830276], [124.8251287, 6.483095], [124.8252437, 6.4831781], [124.8253423, 6.4832557], [124.8256291, 6.4834757]]}, "properties": {"city": "koronadal", "name": "Maharlika Highway", "highway": "trunk", "v_posted": 80, "posted_imputed": false, "v_safe": 70, "gap": 10, "R": 1.71, "exposure": 0.024, "vru_150m": 0, "sss": 12.8, "recommended": 70, "fatal_reduction_pct": 41.4, "why": "trunk highway (head-on only; no at-grade ped mixing assumed)", "pop_density": 776.5, "pop_density_peak": 6212.3}}, {"type": "Feature", "geometry": {"type": "LineString", "coordinates": [[124.8357125, 6.4993962], [124.8364733, 6.5003095], [124.8372427, 6.5012137], [124.8380281, 6.5020981]]}, "properties": {"city": "koronadal", "name": "Graciano Lopez Jaena Street", "highway": "residential", "v_posted": 40, "posted_imputed": false, "v_safe": 30, "gap": 10, "R": 3.16, "exposure": 0.604, "vru_150m": 3, "sss": 20.1, "recommended": 30, "fatal_reduction_pct": 68.4, "why": "local road, frontage/pedestrian mixing", "pop_density": 346.6, "pop_density_peak": 463.7}}, {"type": "Feature", "geometry": {"type": "LineString", "coordinates": [[124.8462254, 6.4981148], [124.8462781, 6.498177], [124.8462961, 6.4981982], [124.8463432, 6.4982537], [124.84652, 6.4984621], [124.8469971, 6.4990247], [124.8470354, 6.4990699], [124.8476833, 6.499839], [124.8477342, 6.4998994], [124.8480799, 6.5003007], [124.8483854, 6.5006728]]}, "properties": {"city": "koronadal", "name": "Benigno S. Aquino Sr. Street", "highway": "unclassified", "v_posted": 40, "posted_imputed": false, "v_safe": 30, "gap": 10, "R": 3.16, "exposure": 0.031, "vru_150m": 0, "sss": 12.9, "recommended": 30, "fatal_reduction_pct": 68.4, "why": "local road, frontage/pedestrian mixing", "pop_density": 995.2, "pop_density_peak": 1570.7}}, {"type": "Feature", "geometry": {"type": "LineString", "coordinates": [[124.8443961, 6.4959492], [124.8435994, 6.4966172], [124.8435481, 6.4966761], [124.8435232, 6.4967318], [124.8435131, 6.4967891]]}, "properties": {"city": "koronadal", "name": "Lapu-Lapu Street", "highway": "residential", "v_posted": 40, "posted_imputed": false, "v_safe": 30, "gap": 10, "R": 3.16, "exposure": 0.025, "vru_150m": 0, "sss": 12.8, "recommended": 30, "fatal_reduction_pct": 68.4, "why": "local road, frontage/pedestrian mixing", "pop_density": 815.6, "pop_density_peak": 820.6}}, {"type": "Feature", "geometry": {"type": "LineString", "coordinates": [[124.8383425, 6.5064436], [124.8388139, 6.5060614], [124.8390975, 6.5058219], [124.8392539, 6.5056897], [124.8397001, 6.5053165]]}, "properties": {"city": "koronadal", "name": "Sergio S. Osme\u00f1a Sr. Street", "highway": "residential", "v_posted": 40, "posted_imputed": false, "v_safe": 30, "gap": 10, "R": 3.16, "exposure": 0.424, "vru_150m": 2, "sss": 17.8, "recommended": 30, "fatal_reduction_pct": 68.4, "why": "pedestrian activity (1 VRU site<=50m)", "pop_density": 1295.8, "pop_density_peak": 1510.6}}, {"type": "Feature", "geometry": {"type": "LineString", "coordinates": [[124.8428553, 6.5052903], [124.8428242, 6.5052817], [124.842803, 6.5052643], [124.8422031, 6.5045268]]}, "properties": {"city": "koronadal", "name": "Datu Piang Tan Street", "highway": "residential", "v_posted": 40, "posted_imputed": false, "v_safe": 30, "gap": 10, "R": 3.16, "exposure": 0.025, "vru_150m": 0, "sss": 12.8, "recommended": 30, "fatal_reduction_pct": 68.4, "why": "local road, frontage/pedestrian mixing", "pop_density": 794.1, "pop_density_peak": 875.1}}, {"type": "Feature", "geometry": {"type": "LineString", "coordinates": [[124.8464354, 6.5057296], [124.8460796, 6.5053239], [124.8454393, 6.5045475], [124.8447585, 6.5037427]]}, "properties": {"city": "koronadal", "name": "Francisco C. Zulueta Street", "highway": "residential", "v_posted": 40, "posted_imputed": false, "v_safe": 30, "gap": 10, "R": 3.16, "exposure": 0.064, "vru_150m": 0, "sss": 13.3, "recommended": 30, "fatal_reduction_pct": 68.4, "why": "local road, frontage/pedestrian mixing", "pop_density": 2079.5, "pop_density_peak": 2304.7}}, {"type": "Feature", "geometry": {"type": "LineString", "coordinates": [[124.8358646, 6.498871], [124.8363007, 6.4984892], [124.8367936, 6.4980578]]}, "properties": {"city": "koronadal", "name": "Dahlia Street", "highway": "residential", "v_posted": 40, "posted_imputed": false, "v_safe": 30, "gap": 10, "R": 3.16, "exposure": 0.024, "vru_150m": 0, "sss": 12.8, "recommended": 30, "fatal_reduction_pct": 68.4, "why": "local road, frontage/pedestrian mixing", "pop_density": 788.3, "pop_density_peak": 813.3}}, {"type": "Feature", "geometry": {"type": "LineString", "coordinates": [[124.8386187, 6.4965113], [124.8394874, 6.4957862], [124.8395635, 6.4957227]]}, "properties": {"city": "koronadal", "name": "Dahlia Street", "highway": "residential", "v_posted": 40, "posted_imputed": false, "v_safe": 30, "gap": 10, "R": 3.16, "exposure": 0.217, "vru_150m": 0, "sss": 15.2, "recommended": 30, "fatal_reduction_pct": 68.4, "why": "local road, frontage/pedestrian mixing", "pop_density": 7012.4, "pop_density_peak": 8996.3}}, {"type": "Feature", "geometry": {"type": "LineString", "coordinates": [[124.8370552, 6.4965699], [124.8361216, 6.4973413], [124.8356992, 6.4976985], [124.8352216, 6.4981406]]}, "properties": {"city": "koronadal", "name": "Melchora D. Aquino Street", "highway": "residential", "v_posted": 40, "posted_imputed": false, "v_safe": 30, "gap": 10, "R": 3.16, "exposure": 0.052, "vru_150m": 0, "sss": 13.2, "recommended": 30, "fatal_reduction_pct": 68.4, "why": "local road, frontage/pedestrian mixing", "pop_density": 1690.0, "pop_density_peak": 1917.1}}, {"type": "Feature", "geometry": {"type": "LineString", "coordinates": [[124.8351087, 6.4999075], [124.8354557, 6.5003367], [124.8358734, 6.5008127], [124.8364258, 6.5014818], [124.8366282, 6.5017269], [124.8369721, 6.5021262], [124.8373876, 6.5026206], [124.83782, 6.5031011], [124.8380811, 6.5034164], [124.838218, 6.503585], [124.8387679, 6.5042247], [124.8388123, 6.5042768], [124.838856, 6.5043329], [124.8389025, 6.5043831]]}, "properties": {"city": "koronadal", "name": "Quintin B. Paredes Sr. Street", "highway": "unclassified", "v_posted": 40, "posted_imputed": false, "v_safe": 30, "gap": 10, "R": 3.16, "exposure": 0.417, "vru_150m": 2, "sss": 17.7, "recommended": 30, "fatal_reduction_pct": 68.4, "why": "local road, frontage/pedestrian mixing", "pop_density": 901.1, "pop_density_peak": 2113.0}}, {"type": "Feature", "geometry": {"type": "LineString", "coordinates": [[124.8330448, 6.501641], [124.8347127, 6.5036039], [124.8348693, 6.5037883], [124.8353498, 6.5043605], [124.8355873, 6.504652], [124.835598, 6.5046713], [124.8356032, 6.5046912], [124.8356046, 6.5047124], [124.8356007, 6.5047313], [124.8355894, 6.5047547], [124.8355703, 6.5047764], [124.8354156, 6.5049047]]}, "properties": {"city": "koronadal", "name": "San Sebastian Street", "highway": "residential", "v_posted": 40, "posted_imputed": false, "v_safe": 30, "gap": 10, "R": 3.16, "exposure": 0.208, "vru_150m": 1, "sss": 15.1, "recommended": 30, "fatal_reduction_pct": 68.4, "why": "local road, frontage/pedestrian mixing", "pop_density": 321.8, "pop_density_peak": 610.1}}, {"type": "Feature", "geometry": {"type": "LineString", "coordinates": [[124.8326024, 6.5020285], [124.8344136, 6.5041605], [124.8351498, 6.5050465], [124.8351691, 6.5050605], [124.8351886, 6.5050674], [124.8352105, 6.5050665], [124.8352282, 6.50506], [124.8354156, 6.5049047]]}, "properties": {"city": "koronadal", "name": "Lacson Street", "highway": "residential", "v_posted": 40, "posted_imputed": false, "v_safe": 30, "gap": 10, "R": 3.16, "exposure": 0.011, "vru_150m": 0, "sss": 12.6, "recommended": 30, "fatal_reduction_pct": 68.4, "why": "local road, frontage/pedestrian mixing", "pop_density": 340.1, "pop_density_peak": 575.8}}, {"type": "Feature", "geometry": {"type": "LineString", "coordinates": [[124.8335615, 6.4991069], [124.8332818, 6.4987903], [124.8330449, 6.4985089], [124.8328619, 6.4982774]]}, "properties": {"city": "koronadal", "name": "", "highway": "residential", "v_posted": 40, "posted_imputed": false, "v_safe": 30, "gap": 10, "R": 3.16, "exposure": 0.13, "vru_150m": 0, "sss": 14.1, "recommended": 30, "fatal_reduction_pct": 68.4, "why": "local road, frontage/pedestrian mixing", "pop_density": 4214.6, "pop_density_peak": 4851.8}}, {"type": "Feature", "geometry": {"type": "LineString", "coordinates": [[124.8341573, 6.5083824], [124.8337479, 6.507864], [124.8333925, 6.5074456], [124.832671, 6.5066181], [124.8315509, 6.5053138], [124.8313405, 6.5050688], [124.8303828, 6.5039536]]}, "properties": {"city": "koronadal", "name": "Reyes Subdivision Block I Road", "highway": "residential", "v_posted": 40, "posted_imputed": false, "v_safe": 30, "gap": 10, "R": 3.16, "exposure": 0.031, "vru_150m": 0, "sss": 12.9, "recommended": 30, "fatal_reduction_pct": 68.4, "why": "local road, frontage/pedestrian mixing", "pop_density": 1015.4, "pop_density_peak": 1848.7}}, {"type": "Feature", "geometry": {"type": "LineString", "coordinates": [[124.8278811, 6.5060676], [124.8283081, 6.5065591], [124.8284834, 6.506761], [124.8288903, 6.5072294], [124.8293166, 6.5077201], [124.8301052, 6.5086589], [124.8304085, 6.50902], [124.830693, 6.5093586], [124.8309552, 6.5096708], [124.8316578, 6.510508], [124.8316981, 6.5105585]]}, "properties": {"city": "koronadal", "name": "Belocura Street", "highway": "residential", "v_posted": 40, "posted_imputed": false, "v_safe": 30, "gap": 10, "R": 3.16, "exposure": 0.243, "vru_150m": 1, "sss": 15.5, "recommended": 30, "fatal_reduction_pct": 68.4, "why": "local road, frontage/pedestrian mixing", "pop_density": 1726.9, "pop_density_peak": 3766.4}}, {"type": "Feature", "geometry": {"type": "LineString", "coordinates": [[124.8428553, 6.5052903], [124.8428828, 6.505289], [124.8429157, 6.505277], [124.8434136, 6.5048636], [124.8437935, 6.5045545]]}, "properties": {"city": "koronadal", "name": "Antipolo Street", "highway": "residential", "v_posted": 40, "posted_imputed": false, "v_safe": 30, "gap": 10, "R": 3.16, "exposure": 0.033, "vru_150m": 0, "sss": 12.9, "recommended": 30, "fatal_reduction_pct": 68.4, "why": "local road, frontage/pedestrian mixing", "pop_density": 1070.9, "pop_density_peak": 1266.7}}, {"type": "Feature", "geometry": {"type": "LineString", "coordinates": [[124.8403915, 6.5061261], [124.839947, 6.5065122], [124.8394972, 6.5069044], [124.8391646, 6.5071964], [124.839111, 6.507229], [124.8390593, 6.5072417]]}, "properties": {"city": "koronadal", "name": "Albert Luis V. Morrow Street", "highway": "residential", "v_posted": 40, "posted_imputed": false, "v_safe": 30, "gap": 10, "R": 3.16, "exposure": 0.219, "vru_150m": 1, "sss": 15.2, "recommended": 30, "fatal_reduction_pct": 68.4, "why": "local road, frontage/pedestrian mixing", "pop_density": 774.9, "pop_density_peak": 883.0}}, {"type": "Feature", "geometry": {"type": "LineString", "coordinates": [[124.8499639, 6.5172557], [124.8504201, 6.5178198], [124.8507813, 6.5182664], [124.8509704, 6.5184916], [124.8511983, 6.5187541], [124.8519856, 6.5196774], [124.8522575, 6.5199962], [124.8523986, 6.5201871], [124.8525622, 6.520371], [124.8527151, 6.5205509], [124.8529498, 6.5208288], [124.8534849, 6.5214629]]}, "properties": {"city": "koronadal", "name": "Caloocan-Namnama Road", "highway": "unclassified", "v_posted": 40, "posted_imputed": false, "v_safe": 30, "gap": 10, "R": 3.16, "exposure": 0.0, "vru_150m": 0, "sss": 12.5, "recommended": 30, "fatal_reduction_pct": 68.4, "why": "local road, frontage/pedestrian mixing", "pop_density": 0.0, "pop_density_peak": 0.0}}, {"type": "Feature", "geometry": {"type": "LineString", "coordinates": [[124.8425963, 6.5012375], [124.8425513, 6.5011844], [124.8425174, 6.5011435], [124.8424682, 6.5010841], [124.8417971, 6.5002735], [124.8411204, 6.4994565]]}, "properties": {"city": "koronadal", "name": "Francisco C. Zulueta Street", "highway": "unclassified", "v_posted": 40, "posted_imputed": false, "v_safe": 30, "gap": 10, "R": 3.16, "exposure": 0.046, "vru_150m": 0, "sss": 13.1, "recommended": 30, "fatal_reduction_pct": 68.4, "why": "local road, frontage/pedestrian mixing", "pop_density": 1484.9, "pop_density_peak": 2176.0}}, {"type": "Feature", "geometry": {"type": "LineString", "coordinates": [[124.8425963, 6.5012375], [124.8426298, 6.5012744], [124.8426989, 6.5013518], [124.842754, 6.5014135], [124.8427578, 6.5014178], [124.8430856, 6.501785], [124.8434093, 6.502153], [124.8436664, 6.5024453]]}, "properties": {"city": "koronadal", "name": "Francisco C. Zulueta Street", "highway": "unclassified", "v_posted": 40, "posted_imputed": false, "v_safe": 30, "gap": 10, "R": 3.16, "exposure": 0.064, "vru_150m": 0, "sss": 13.3, "recommended": 30, "fatal_reduction_pct": 68.4, "why": "local road, frontage/pedestrian mixing", "pop_density": 2074.4, "pop_density_peak": 2176.0}}, {"type": "Feature", "geometry": {"type": "LineString", "coordinates": [[124.854854, 6.4907421], [124.8547451, 6.4906053], [124.8544177, 6.490204], [124.8541571, 6.4898846], [124.8541206, 6.4898434], [124.8539999, 6.4897072], [124.8538418, 6.4895193], [124.8535314, 6.4891502], [124.8511155, 6.4862888]]}, "properties": {"city": "koronadal", "name": "Hall of Justice Road", "highway": "residential", "v_posted": 40, "posted_imputed": false, "v_safe": 30, "gap": 10, "R": 3.16, "exposure": 0.401, "vru_150m": 0, "sss": 17.5, "recommended": 30, "fatal_reduction_pct": 68.4, "why": "local road, frontage/pedestrian mixing", "pop_density": 12959.0, "pop_density_peak": 18184.7}}, {"type": "Feature", "geometry": {"type": "LineString", "coordinates": [[124.8427363, 6.4994725], [124.8426589, 6.499538], [124.8422462, 6.4998886], [124.8417971, 6.5002735], [124.8413314, 6.5006727], [124.8408778, 6.5010595], [124.8403879, 6.5014772], [124.8399352, 6.5018632], [124.8394428, 6.5022675], [124.8389896, 6.5026396], [124.8384766, 6.5030782], [124.8384741, 6.5030804], [124.8380811, 6.5034164]]}, "properties": {"city": "koronadal", "name": "Jose B. Abad Santos Street", "highway": "tertiary", "v_posted": 40, "posted_imputed": false, "v_safe": 30, "gap": 10, "R": 3.16, "exposure": 0.417, "vru_150m": 2, "sss": 17.7, "recommended": 30, "fatal_reduction_pct": 68.4, "why": "pedestrian activity (1 VRU site<=50m)", "pop_density": 904.3, "pop_density_peak": 1979.4}}, {"type": "Feature", "geometry": {"type": "LineString", "coordinates": [[124.8500869, 6.4948187], [124.8501366, 6.4948772], [124.8502086, 6.494964], [124.8508818, 6.495753], [124.8512104, 6.4961394], [124.8516443, 6.4966502], [124.8519735, 6.4970402], [124.8523001, 6.4974343], [124.8529538, 6.4982062], [124.8535093, 6.4988771], [124.8539014, 6.4993506]]}, "properties": {"city": "koronadal", "name": "Primitivo Selotorio Osita Street", "highway": "residential", "v_posted": 40, "posted_imputed": false, "v_safe": 30, "gap": 10, "R": 3.16, "exposure": 0.3, "vru_150m": 1, "sss": 16.3, "recommended": 30, "fatal_reduction_pct": 68.4, "why": "local road, frontage/pedestrian mixing", "pop_density": 4046.8, "pop_density_peak": 9527.3}}, {"type": "Feature", "geometry": {"type": "LineString", "coordinates": [[124.855766, 6.4977388], [124.8555918, 6.4975562], [124.8552699, 6.4972188], [124.8547067, 6.4965913], [124.8542802, 6.4960929], [124.8539329, 6.4956944], [124.8536579, 6.4953614], [124.8535907, 6.4952823], [124.8531881, 6.4948084], [124.8527521, 6.4942953], [124.8526945, 6.4942276], [124.8522896, 6.4937518], [124.8519936, 6.4934076], [124.8519401, 6.4933454], [124.8518839, 6.4932799]]}, "properties": {"city": "koronadal", "name": "Do\u00f1a Lourdes Street", "highway": "residential", "v_posted": 40, "posted_imputed": false, "v_safe": 30, "gap": 10, "R": 3.16, "exposure": 0.2, "vru_150m": 0, "sss": 15.0, "recommended": 30, "fatal_reduction_pct": 68.4, "why": "local road, frontage/pedestrian mixing", "pop_density": 6463.4, "pop_density_peak": 11234.4}}, {"type": "Feature", "geometry": {"type": "LineString", "coordinates": [[124.8519735, 6.4970402], [124.8523422, 6.4967293], [124.8527539, 6.4963817], [124.8531552, 6.4960393]]}, "properties": {"city": "koronadal", "name": "", "highway": "residential", "v_posted": 40, "posted_imputed": false, "v_safe": 30, "gap": 10, "R": 3.16, "exposure": 0.248, "vru_150m": 1, "sss": 15.6, "recommended": 30, "fatal_reduction_pct": 68.4, "why": "pedestrian activity (1 VRU site<=50m)", "pop_density": 1925.7, "pop_density_peak": 2619.6}}, {"type": "Feature", "geometry": {"type": "LineString", "coordinates": [[124.8531552, 6.4960393], [124.8528054, 6.495632], [124.852761, 6.4955805], [124.85242, 6.4951849], [124.8523847, 6.495144], [124.8520877, 6.4947996], [124.8520513, 6.4947574], [124.8517494, 6.4944073], [124.8517217, 6.4943752], [124.8513584, 6.4939538], [124.8513015, 6.4938878], [124.8512509, 6.4938291]]}, "properties": {"city": "koronadal", "name": "Ireneo Selotorio Osita Street", "highway": "residential", "v_posted": 40, "posted_imputed": false, "v_safe": 30, "gap": 10, "R": 3.16, "exposure": 0.3, "vru_150m": 0, "sss": 16.3, "recommended": 30, "fatal_reduction_pct": 68.4, "why": "local road, frontage/pedestrian mixing", "pop_density": 9711.2, "pop_density_peak": 13372.9}}, {"type": "Feature", "geometry": {"type": "LineString", "coordinates": [[124.8537249, 6.4917151], [124.8536563, 6.4916334], [124.8536059, 6.4915733], [124.8533841, 6.4913091], [124.8531628, 6.4910462], [124.8528937, 6.4907273], [124.8525475, 6.4903018], [124.8521276, 6.4897877], [124.8517004, 6.4892647], [124.8513496, 6.4888446], [124.8509166, 6.4883261], [124.8505179, 6.4878595], [124.8499773, 6.4872382]]}, "properties": {"city": "koronadal", "name": "DSWD Road", "highway": "residential", "v_posted": 40, "posted_imputed": false, "v_safe": 30, "gap": 10, "R": 3.16, "exposure": 0.205, "vru_150m": 0, "sss": 15.1, "recommended": 30, "fatal_reduction_pct": 68.4, "why": "local road, frontage/pedestrian mixing", "pop_density": 6617.4, "pop_density_peak": 11350.7}}, {"type": "Feature", "geometry": {"type": "LineString", "coordinates": [[124.8473005, 6.5049836], [124.8475664, 6.5053053], [124.8478036, 6.5055924], [124.8480441, 6.5058782], [124.8483101, 6.5061942], [124.848384, 6.506283], [124.84851, 6.5064343], [124.8488269, 6.506815], [124.8497082, 6.5078004], [124.8498088, 6.5079127], [124.8501258, 6.5082513]]}, "properties": {"city": "koronadal", "name": "Sergio B. Morales Avenue", "highway": "primary", "v_posted": 40, "posted_imputed": false, "v_safe": 30, "gap": 10, "R": 3.16, "exposure": 0.245, "vru_150m": 1, "sss": 15.6, "recommended": 30, "fatal_reduction_pct": 68.4, "why": "pedestrian activity (1 VRU site<=50m)", "pop_density": 1809.1, "pop_density_peak": 2094.7}}, {"type": "Feature", "geometry": {"type": "LineString", "coordinates": [[124.8378598, 6.4876963], [124.8380869, 6.4875183], [124.8383185, 6.4873368], [124.8387748, 6.4869533], [124.8390171, 6.4867375], [124.8392666, 6.4865248], [124.8396018, 6.486239], [124.8398989, 6.4860125], [124.8401114, 6.4858505]]}, "properties": {"city": "koronadal", "name": "Pearl Street", "highway": "residential", "v_posted": 40, "posted_imputed": false, "v_safe": 30, "gap": 10, "R": 3.16, "exposure": 0.128, "vru_150m": 0, "sss": 14.1, "recommended": 30, "fatal_reduction_pct": 68.4, "why": "local road, frontage/pedestrian mixing", "pop_density": 4146.7, "pop_density_peak": 4597.9}}, {"type": "Feature", "geometry": {"type": "LineString", "coordinates": [[124.8398953, 6.4931456], [124.839052, 6.4938742], [124.8385106, 6.4943415], [124.838436, 6.4944059]]}, "properties": {"city": "koronadal", "name": "Apolinario M. Mabini Street", "highway": "unclassified", "v_posted": 40, "posted_imputed": false, "v_safe": 30, "gap": 10, "R": 3.16, "exposure": 0.455, "vru_150m": 0, "sss": 18.2, "recommended": 30, "fatal_reduction_pct": 68.4, "why": "local road, frontage/pedestrian mixing", "pop_density": 14720.0, "pop_density_peak": 15196.6}}, {"type": "Feature", "geometry": {"type": "LineString", "coordinates": [[124.8437066, 6.5024919], [124.8437104, 6.5024963], [124.8440872, 6.5029329]]}, "properties": {"city": "koronadal", "name": "Francisco C. Zulueta Street", "highway": "unclassified", "v_posted": 40, "posted_imputed": false, "v_safe": 30, "gap": 10, "R": 3.16, "exposure": 0.248, "vru_150m": 1, "sss": 15.6, "recommended": 30, "fatal_reduction_pct": 68.4, "why": "local road, frontage/pedestrian mixing", "pop_density": 1951.9, "pop_density_peak": 1972.9}}, {"type": "Feature", "geometry": {"type": "LineString", "coordinates": [[124.8436664, 6.5024453], [124.8437066, 6.5024919]]}, "properties": {"city": "koronadal", "name": "Francisco C. Zulueta Street", "highway": "unclassified", "v_posted": 40, "posted_imputed": false, "v_safe": 30, "gap": 10, "R": 3.16, "exposure": 0.249, "vru_150m": 1, "sss": 15.6, "recommended": 30, "fatal_reduction_pct": 68.4, "why": "local road, frontage/pedestrian mixing", "pop_density": 1972.9, "pop_density_peak": 1972.9}}, {"type": "Feature", "geometry": {"type": "LineString", "coordinates": [[124.8437475, 6.5032203], [124.8431269, 6.5037453]]}, "properties": {"city": "koronadal", "name": "Albert Luis V. Morrow Street", "highway": "unclassified", "v_posted": 40, "posted_imputed": false, "v_safe": 30, "gap": 10, "R": 3.16, "exposure": 0.043, "vru_150m": 0, "sss": 13.0, "recommended": 30, "fatal_reduction_pct": 68.4, "why": "local road, frontage/pedestrian mixing", "pop_density": 1378.5, "pop_density_peak": 1564.0}}, {"type": "Feature", "geometry": {"type": "LineString", "coordinates": [[124.8389025, 6.5043831], [124.8389522, 6.5044408], [124.8397001, 6.5053165], [124.8403915, 6.5061261]]}, "properties": {"city": "koronadal", "name": "Quintin B. Paredes Sr. Street", "highway": "secondary", "v_posted": 40, "posted_imputed": false, "v_safe": 30, "gap": 10, "R": 3.16, "exposure": 0.425, "vru_150m": 2, "sss": 17.8, "recommended": 30, "fatal_reduction_pct": 68.4, "why": "pedestrian activity (1 VRU site<=50m)", "pop_density": 1335.8, "pop_density_peak": 2113.0}}, {"type": "Feature", "geometry": {"type": "LineString", "coordinates": [[124.8406, 6.5045518], [124.8401385, 6.5039982], [124.8398576, 6.5036612], [124.8398141, 6.5036094]]}, "properties": {"city": "koronadal", "name": "Do\u00f1a Aurora Antonia A. Quezon Street", "highway": "residential", "v_posted": 40, "posted_imputed": false, "v_safe": 30, "gap": 10, "R": 3.16, "exposure": 0.243, "vru_150m": 1, "sss": 15.5, "recommended": 30, "fatal_reduction_pct": 68.4, "why": "local road, frontage/pedestrian mixing", "pop_density": 1741.2, "pop_density_peak": 2095.9}}, {"type": "Feature", "geometry": {"type": "LineString", "coordinates": [[124.8401114, 6.4858505], [124.8404496, 6.4862606], [124.8407344, 6.486606], [124.8409835, 6.4869081], [124.8412165, 6.4871907], [124.8412433, 6.4872174], [124.8412776, 6.4872364], [124.8413134, 6.4872453], [124.8413479, 6.4872424], [124.8413831, 6.4872307], [124.8414244, 6.4872051], [124.841533, 6.4871238], [124.8417231, 6.4869842]]}, "properties": {"city": "koronadal", "name": "Bautista G. Hubero Sr. Street", "highway": "residential", "v_posted": 40, "posted_imputed": false, "v_safe": 30, "gap": 10, "R": 3.16, "exposure": 0.084, "vru_150m": 0, "sss": 13.5, "recommended": 30, "fatal_reduction_pct": 68.4, "why": "local road, frontage/pedestrian mixing", "pop_density": 2716.4, "pop_density_peak": 4597.9}}, {"type": "Feature", "geometry": {"type": "LineString", "coordinates": [[124.8497726, 6.5003616], [124.8494572, 6.5006352], [124.8491419, 6.5009088], [124.8488265, 6.5011825]]}, "properties": {"city": "koronadal", "name": "Yap Ching Chuan Street", "highway": "residential", "v_posted": 40, "posted_imputed": false, "v_safe": 30, "gap": 10, "R": 3.16, "exposure": 0.013, "vru_150m": 0, "sss": 12.7, "recommended": 30, "fatal_reduction_pct": 68.4, "why": "local road, frontage/pedestrian mixing", "pop_density": 412.5, "pop_density_peak": 448.9}}, {"type": "Feature", "geometry": {"type": "LineString", "coordinates": [[124.8440872, 6.5029329], [124.8443142, 6.5032066], [124.8445411, 6.5034803], [124.8447585, 6.5037427]]}, "properties": {"city": "koronadal", "name": "Francisco C. Zulueta Street", "highway": "unclassified", "v_posted": 40, "posted_imputed": false, "v_safe": 30, "gap": 10, "R": 3.16, "exposure": 0.252, "vru_150m": 1, "sss": 15.7, "recommended": 30, "fatal_reduction_pct": 68.4, "why": "local road, frontage/pedestrian mixing", "pop_density": 2117.8, "pop_density_peak": 2304.7}}, {"type": "Feature", "geometry": {"type": "LineString", "coordinates": [[124.8414881, 6.5074083], [124.8415003, 6.5074225], [124.8419781, 6.5079794], [124.8423059, 6.5083948], [124.8427371, 6.5088732]]}, "properties": {"city": "koronadal", "name": "Quintin B. Paredes Sr. Street", "highway": "secondary", "v_posted": 40, "posted_imputed": false, "v_safe": 30, "gap": 10, "R": 3.16, "exposure": 0.235, "vru_150m": 1, "sss": 15.4, "recommended": 30, "fatal_reduction_pct": 68.4, "why": "pedestrian activity (1 VRU site<=50m)", "pop_density": 1413.7, "pop_density_peak": 1716.9}}, {"type": "Feature", "geometry": {"type": "LineString", "coordinates": [[124.8523001, 6.4974343], [124.8527653, 6.4970344], [124.8532401, 6.4966264], [124.8536885, 6.496241]]}, "properties": {"city": "koronadal", "name": "Jose Selotorio Osita Street", "highway": "tertiary", "v_posted": 40, "posted_imputed": false, "v_safe": 30, "gap": 10, "R": 3.16, "exposure": 0.257, "vru_150m": 1, "sss": 15.7, "recommended": 30, "fatal_reduction_pct": 68.4, "why": "pedestrian activity (1 VRU site<=50m)", "pop_density": 2317.7, "pop_density_peak": 2619.6}}, {"type": "Feature", "geometry": {"type": "LineString", "coordinates": [[124.8533636, 6.4958557], [124.8536885, 6.496241], [124.8548976, 6.497736], [124.855266, 6.4981917]]}, "properties": {"city": "koronadal", "name": "Ireneo Selotorio Osita Street", "highway": "residential", "v_posted": 40, "posted_imputed": false, "v_safe": 30, "gap": 10, "R": 3.16, "exposure": 0.101, "vru_150m": 0, "sss": 13.8, "recommended": 30, "fatal_reduction_pct": 68.4, "why": "local road, frontage/pedestrian mixing", "pop_density": 3277.4, "pop_density_peak": 3792.3}}, {"type": "Feature", "geometry": {"type": "LineString", "coordinates": [[124.8531552, 6.4960393], [124.8533636, 6.4958557]]}, "properties": {"city": "koronadal", "name": "Ireneo Selotorio Osita Street", "highway": "residential", "v_posted": 40, "posted_imputed": false, "v_safe": 30, "gap": 10, "R": 3.16, "exposure": 0.26, "vru_150m": 1, "sss": 15.8, "recommended": 30, "fatal_reduction_pct": 68.4, "why": "local road, frontage/pedestrian mixing", "pop_density": 2433.6, "pop_density_peak": 2619.6}}, {"type": "Feature", "geometry": {"type": "LineString", "coordinates": [[124.8346627, 6.4955687], [124.8349535, 6.4953093], [124.8351823, 6.4951127], [124.8355196, 6.4948186]]}, "properties": {"city": "koronadal", "name": "Apolinario M. Mabini Extension", "highway": "residential", "v_posted": 40, "posted_imputed": false, "v_safe": 30, "gap": 10, "R": 3.16, "exposure": 0.096, "vru_150m": 0, "sss": 13.7, "recommended": 30, "fatal_reduction_pct": 68.4, "why": "local road, frontage/pedestrian mixing", "pop_density": 3120.7, "pop_density_peak": 3485.8}}, {"type": "Feature", "geometry": {"type": "LineString", "coordinates": [[124.8462713, 6.4943757], [124.8458048, 6.4947621], [124.8453122, 6.4951698]]}, "properties": {"city": "koronadal", "name": "Lapu-Lapu Street", "highway": "residential", "v_posted": 40, "posted_imputed": false, "v_safe": 30, "gap": 10, "R": 3.16, "exposure": 0.218, "vru_150m": 1, "sss": 15.2, "recommended": 30, "fatal_reduction_pct": 68.4, "why": "local road, frontage/pedestrian mixing", "pop_density": 733.5, "pop_density_peak": 871.0}}, {"type": "Feature", "geometry": {"type": "LineString", "coordinates": [[124.8354156, 6.5049047], [124.8358803, 6.5054406], [124.8359566, 6.5055286], [124.8364711, 6.5061217], [124.836514, 6.5061739], [124.8365972, 6.506275], [124.8366335, 6.5063174]]}, "properties": {"city": "koronadal", "name": "Lacson Street", "highway": "residential", "v_posted": 40, "posted_imputed": false, "v_safe": 30, "gap": 10, "R": 3.16, "exposure": 0.237, "vru_150m": 1, "sss": 15.5, "recommended": 30, "fatal_reduction_pct": 68.4, "why": "local road, frontage/pedestrian mixing", "pop_density": 1492.7, "pop_density_peak": 2129.2}}, {"type": "Feature", "geometry": {"type": "LineString", "coordinates": [[124.8383289, 6.5018411], [124.8380281, 6.5020981], [124.8377386, 6.5023343], [124.8374721, 6.5025517], [124.8373876, 6.5026206], [124.8364851, 6.5034099], [124.8360061, 6.5038091], [124.8355941, 6.5041536], [124.8353498, 6.5043605]]}, "properties": {"city": "koronadal", "name": "Jose P. Rizal Street", "highway": "residential", "v_posted": 40, "posted_imputed": false, "v_safe": 30, "gap": 10, "R": 3.16, "exposure": 0.405, "vru_150m": 2, "sss": 17.6, "recommended": 30, "fatal_reduction_pct": 68.4, "why": "pedestrian activity (2 VRU site<=50m)", "pop_density": 248.0, "pop_density_peak": 309.0}}, {"type": "Feature", "geometry": {"type": "LineString", "coordinates": [[124.8333877, 6.497923], [124.8340517, 6.498678], [124.8343759, 6.4990466], [124.8351087, 6.4999075]]}, "properties": {"city": "koronadal", "name": "Quintin B. Paredes Sr. Street", "highway": "residential", "v_posted": 40, "posted_imputed": false, "v_safe": 30, "gap": 10, "R": 3.16, "exposure": 0.074, "vru_150m": 0, "sss": 13.4, "recommended": 30, "fatal_reduction_pct": 68.4, "why": "local road, frontage/pedestrian mixing", "pop_density": 2395.4, "pop_density_peak": 3940.0}}, {"type": "Feature", "geometry": {"type": "LineString", "coordinates": [[124.8345954, 6.5003115], [124.8335615, 6.4991069]]}, "properties": {"city": "koronadal", "name": "Baldostamon Block 1 Road", "highway": "residential", "v_posted": 40, "posted_imputed": false, "v_safe": 30, "gap": 10, "R": 3.16, "exposure": 0.069, "vru_150m": 0, "sss": 13.4, "recommended": 30, "fatal_reduction_pct": 68.4, "why": "local road, frontage/pedestrian mixing", "pop_density": 2229.8, "pop_density_peak": 3577.4}}, {"type": "Feature", "geometry": {"type": "LineString", "coordinates": [[124.8328619, 6.4982774], [124.8329808, 6.4981782], [124.8331017, 6.4980859], [124.8332356, 6.4980063], [124.8333877, 6.497923]]}, "properties": {"city": "koronadal", "name": "", "highway": "residential", "v_posted": 40, "posted_imputed": false, "v_safe": 30, "gap": 10, "R": 3.16, "exposure": 0.136, "vru_150m": 0, "sss": 14.2, "recommended": 30, "fatal_reduction_pct": 68.4, "why": "local road, frontage/pedestrian mixing", "pop_density": 4395.9, "pop_density_peak": 4851.8}}, {"type": "Feature", "geometry": {"type": "LineString", "coordinates": [[124.8500598, 6.5026072], [124.8504935, 6.5031059], [124.8508964, 6.5035928], [124.8513201, 6.5040616], [124.8516734, 6.5044672], [124.8523517, 6.5052823], [124.8524208, 6.5053663], [124.8525242, 6.5054849], [124.8525722, 6.5055392], [124.8528937, 6.5059127], [124.8532716, 6.5063517], [124.8536496, 6.5067918]]}, "properties": {"city": "koronadal", "name": "Benigno S. Aquino Sr. Street", "highway": "residential", "v_posted": 40, "posted_imputed": false, "v_safe": 30, "gap": 10, "R": 3.16, "exposure": 0.024, "vru_150m": 0, "sss": 12.8, "recommended": 30, "fatal_reduction_pct": 68.4, "why": "local road, frontage/pedestrian mixing", "pop_density": 770.2, "pop_density_peak": 1914.8}}, {"type": "Feature", "geometry": {"type": "LineString", "coordinates": [[124.8407464, 6.502806], [124.8407258, 6.5027822], [124.8407079, 6.5027621], [124.8406668, 6.5027158], [124.8399352, 6.5018632], [124.8392402, 6.5010663]]}, "properties": {"city": "koronadal", "name": "Datu Piang Tan Street", "highway": "unclassified", "v_posted": 40, "posted_imputed": false, "v_safe": 30, "gap": 10, "R": 3.16, "exposure": 0.23, "vru_150m": 1, "sss": 15.4, "recommended": 30, "fatal_reduction_pct": 68.4, "why": "local road, frontage/pedestrian mixing", "pop_density": 1214.9, "pop_density_peak": 2043.4}}, {"type": "Feature", "geometry": {"type": "LineString", "coordinates": [[124.849786, 6.4966932], [124.8503046, 6.4962449], [124.8506022, 6.4959877], [124.8508818, 6.495753], [124.8520513, 6.4947574]]}, "properties": {"city": "koronadal", "name": "Sergio S. Osme\u00f1a Sr. Street", "highway": "residential", "v_posted": 40, "posted_imputed": false, "v_safe": 30, "gap": 10, "R": 3.16, "exposure": 0.301, "vru_150m": 0, "sss": 16.3, "recommended": 30, "fatal_reduction_pct": 68.4, "why": "local road, frontage/pedestrian mixing", "pop_density": 9725.0, "pop_density_peak": 13372.8}}, {"type": "Feature", "geometry": {"type": "LineString", "coordinates": [[124.8453122, 6.4951698], [124.8447399, 6.4956567], [124.8443961, 6.4959492]]}, "properties": {"city": "koronadal", "name": "Lapu-Lapu Street", "highway": "residential", "v_posted": 40, "posted_imputed": false, "v_safe": 30, "gap": 10, "R": 3.16, "exposure": 0.022, "vru_150m": 0, "sss": 12.8, "recommended": 30, "fatal_reduction_pct": 68.4, "why": "local road, frontage/pedestrian mixing", "pop_density": 703.3, "pop_density_peak": 810.7}}, {"type": "Feature", "geometry": {"type": "LineString", "coordinates": [[124.8341578, 6.4975478], [124.8349581, 6.498533], [124.8357125, 6.4993962]]}, "properties": {"city": "koronadal", "name": "Graciano Lopez Jaena Street", "highway": "residential", "v_posted": 40, "posted_imputed": false, "v_safe": 30, "gap": 10, "R": 3.16, "exposure": 0.058, "vru_150m": 0, "sss": 13.2, "recommended": 30, "fatal_reduction_pct": 68.4, "why": "local road, frontage/pedestrian mixing", "pop_density": 1863.7, "pop_density_peak": 3263.7}}, {"type": "Feature", "geometry": {"type": "LineString", "coordinates": [[124.8415459, 6.5037481], [124.8411321, 6.5032579], [124.841071, 6.5031859], [124.840792, 6.5028566], [124.8407464, 6.502806]]}, "properties": {"city": "koronadal", "name": "Datu Piang Tan Street", "highway": "unclassified", "v_posted": 40, "posted_imputed": false, "v_safe": 30, "gap": 10, "R": 3.16, "exposure": 0.054, "vru_150m": 0, "sss": 13.2, "recommended": 30, "fatal_reduction_pct": 68.4, "why": "local road, frontage/pedestrian mixing", "pop_density": 1735.7, "pop_density_peak": 2043.4}}, {"type": "Feature", "geometry": {"type": "LineString", "coordinates": [[124.8431269, 6.5037453], [124.8422031, 6.5045268], [124.8412581, 6.5053416], [124.8406586, 6.5058759], [124.8403915, 6.5061261]]}, "properties": {"city": "koronadal", "name": "Albert Luis V. Morrow Street", "highway": "unclassified", "v_posted": 40, "posted_imputed": false, "v_safe": 30, "gap": 10, "R": 3.16, "exposure": 0.026, "vru_150m": 0, "sss": 12.8, "recommended": 30, "fatal_reduction_pct": 68.4, "why": "local road, frontage/pedestrian mixing", "pop_density": 856.3, "pop_density_peak": 1193.1}}, {"type": "Feature", "geometry": {"type": "LineString", "coordinates": [[124.8390593, 6.5072417], [124.8390023, 6.5072344], [124.838956, 6.5072044], [124.8383425, 6.5064436], [124.8376235, 6.5055849], [124.8375679, 6.5055187], [124.8375312, 6.505475]]}, "properties": {"city": "koronadal", "name": "Albert Luis V. Morrow Street", "highway": "residential", "v_posted": 40, "posted_imputed": false, "v_safe": 30, "gap": 10, "R": 3.16, "exposure": 0.241, "vru_150m": 1, "sss": 15.5, "recommended": 30, "fatal_reduction_pct": 68.4, "why": "local road, frontage/pedestrian mixing", "pop_density": 1671.7, "pop_density_peak": 2066.1}}, {"type": "Feature", "geometry": {"type": "LineString", "coordinates": [[124.8356455, 6.4967767], [124.8361216, 6.4973413], [124.8364403, 6.4977016]]}, "properties": {"city": "koronadal", "name": "Diego A. Silang Street", "highway": "residential", "v_posted": 40, "posted_imputed": false, "v_safe": 30, "gap": 10, "R": 3.16, "exposure": 0.04, "vru_150m": 0, "sss": 13.0, "recommended": 30, "fatal_reduction_pct": 68.4, "why": "local road, frontage/pedestrian mixing", "pop_density": 1279.6, "pop_density_peak": 1745.9}}, {"type": "Feature", "geometry": {"type": "LineString", "coordinates": [[124.8321594, 6.5024087], [124.8323942, 6.5022075], [124.8326024, 6.5020285], [124.8330448, 6.501641], [124.8334105, 6.501327], [124.8334817, 6.5012733], [124.8337611, 6.5010256], [124.8341396, 6.5007086], [124.8345954, 6.5003115], [124.8347836, 6.5001545], [124.8351087, 6.4999075], [124.8357125, 6.4993962], [124.8360565, 6.4991001]]}, "properties": {"city": "koronadal", "name": "Crisologo Street", "highway": "tertiary", "v_posted": 40, "posted_imputed": false, "v_safe": 30, "gap": 10, "R": 3.16, "exposure": 0.224, "vru_150m": 1, "sss": 15.3, "recommended": 30, "fatal_reduction_pct": 68.4, "why": "pedestrian activity (1 VRU site<=50m)", "pop_density": 956.3, "pop_density_peak": 2062.3}}, {"type": "Feature", "geometry": {"type": "LineString", "coordinates": [[124.8474775, 6.5014506], [124.8481259, 6.502213], [124.8488104, 6.5029816], [124.8491653, 6.5033808]]}, "properties": {"city": "koronadal", "name": "Juan P. Posadas Jr. Street", "highway": "residential", "v_posted": 40, "posted_imputed": false, "v_safe": 30, "gap": 10, "R": 3.16, "exposure": 0.013, "vru_150m": 0, "sss": 12.7, "recommended": 30, "fatal_reduction_pct": 68.4, "why": "local road, frontage/pedestrian mixing", "pop_density": 417.5, "pop_density_peak": 504.0}}, {"type": "Feature", "geometry": {"type": "LineString", "coordinates": [[124.8465417, 6.5022466], [124.8471937, 6.5030207], [124.8478537, 6.5038043], [124.8481937, 6.5042189]]}, "properties": {"city": "koronadal", "name": "Manuel A. Roxas Street", "highway": "residential", "v_posted": 40, "posted_imputed": false, "v_safe": 30, "gap": 10, "R": 3.16, "exposure": 0.217, "vru_150m": 1, "sss": 15.2, "recommended": 30, "fatal_reduction_pct": 68.4, "why": "local road, frontage/pedestrian mixing", "pop_density": 672.7, "pop_density_peak": 858.0}}, {"type": "Feature", "geometry": {"type": "LineString", "coordinates": [[124.8483854, 6.5006728], [124.8486546, 6.5009838], [124.8488265, 6.5011825], [124.8489436, 6.5013177], [124.8490426, 6.5014321], [124.8497204, 6.5022151], [124.8498243, 6.5023351], [124.8500598, 6.5026072]]}, "properties": {"city": "koronadal", "name": "Benigno S. Aquino Sr. Street", "highway": "unclassified", "v_posted": 40, "posted_imputed": false, "v_safe": 30, "gap": 10, "R": 3.16, "exposure": 0.013, "vru_150m": 0, "sss": 12.7, "recommended": 30, "fatal_reduction_pct": 68.4, "why": "local road, frontage/pedestrian mixing", "pop_density": 414.1, "pop_density_peak": 488.8}}, {"type": "Feature", "geometry": {"type": "LineString", "coordinates": [[124.8412581, 6.5053416], [124.8406, 6.5045518]]}, "properties": {"city": "koronadal", "name": "Do\u00f1a Aurora Antonia A. Quezon Street", "highway": "residential", "v_posted": 40, "posted_imputed": false, "v_safe": 30, "gap": 10, "R": 3.16, "exposure": 0.227, "vru_150m": 1, "sss": 15.3, "recommended": 30, "fatal_reduction_pct": 68.4, "why": "local road, frontage/pedestrian mixing", "pop_density": 1101.8, "pop_density_peak": 1386.4}}, {"type": "Feature", "geometry": {"type": "LineString", "coordinates": [[124.8397001, 6.5053165], [124.8406, 6.5045518], [124.8415459, 6.5037481], [124.8424724, 6.5029488]]}, "properties": {"city": "koronadal", "name": "Sergio S. Osme\u00f1a Sr. Street", "highway": "unclassified", "v_posted": 40, "posted_imputed": false, "v_safe": 30, "gap": 10, "R": 3.16, "exposure": 0.044, "vru_150m": 0, "sss": 13.0, "recommended": 30, "fatal_reduction_pct": 68.4, "why": "local road, frontage/pedestrian mixing", "pop_density": 1407.6, "pop_density_peak": 1713.6}}, {"type": "Feature", "geometry": {"type": "LineString", "coordinates": [[124.8422031, 6.5045268], [124.8415459, 6.5037481]]}, "properties": {"city": "koronadal", "name": "Datu Piang Tan Street", "highway": "unclassified", "v_posted": 40, "posted_imputed": false, "v_safe": 30, "gap": 10, "R": 3.16, "exposure": 0.033, "vru_150m": 0, "sss": 12.9, "recommended": 30, "fatal_reduction_pct": 68.4, "why": "local road, frontage/pedestrian mixing", "pop_density": 1070.6, "pop_density_peak": 1428.0}}, {"type": "Feature", "geometry": {"type": "LineString", "coordinates": [[124.8430712, 6.4982275], [124.8431367, 6.4983021]]}, "properties": {"city": "koronadal", "name": "Manuel A. Roxas Street", "highway": "unclassified", "v_posted": 40, "posted_imputed": false, "v_safe": 30, "gap": 10, "R": 3.16, "exposure": 0.228, "vru_150m": 1, "sss": 15.3, "recommended": 30, "fatal_reduction_pct": 68.4, "why": "local road, frontage/pedestrian mixing", "pop_density": 1114.8, "pop_density_peak": 1114.8}}, {"type": "Feature", "geometry": {"type": "LineString", "coordinates": [[124.8440872, 6.5029329], [124.8437999, 6.503176]]}, "properties": {"city": "koronadal", "name": "Albert Luis V. Morrow Street", "highway": "unclassified", "v_posted": 40, "posted_imputed": false, "v_safe": 30, "gap": 10, "R": 3.16, "exposure": 0.243, "vru_150m": 1, "sss": 15.5, "recommended": 30, "fatal_reduction_pct": 68.4, "why": "local road, frontage/pedestrian mixing", "pop_density": 1747.5, "pop_density_peak": 1930.9}}, {"type": "Feature", "geometry": {"type": "LineString", "coordinates": [[124.8437999, 6.503176], [124.8437475, 6.5032203]]}, "properties": {"city": "koronadal", "name": "Albert Luis V. Morrow Street", "highway": "unclassified", "v_posted": 40, "posted_imputed": false, "v_safe": 30, "gap": 10, "R": 3.16, "exposure": 0.239, "vru_150m": 1, "sss": 15.5, "recommended": 30, "fatal_reduction_pct": 68.4, "why": "local road, frontage/pedestrian mixing", "pop_density": 1564.0, "pop_density_peak": 1564.0}}, {"type": "Feature", "geometry": {"type": "LineString", "coordinates": [[124.8727606, 6.5357077], [124.8719767, 6.5348545], [124.8712659, 6.5340808], [124.8705691, 6.5333128], [124.8697586, 6.5324195], [124.8689571, 6.5315362], [124.8683481, 6.5308649], [124.8679354, 6.5304101], [124.8675019, 6.5299332], [124.8671873, 6.5295813], [124.8668904, 6.5292492], [124.8665287, 6.5288447], [124.8662786, 6.5285649]]}, "properties": {"city": "koronadal", "name": "Namnama-Avance\u00f1a Road", "highway": "primary", "v_posted": 80, "posted_imputed": false, "v_safe": 50, "gap": 30, "R": 6.55, "exposure": 0.0, "vru_150m": 0, "sss": 37.5, "recommended": 50, "fatal_reduction_pct": 84.7, "why": "undivided arterial, side-impact intersections", "pop_density": 0.0, "pop_density_peak": 0.0}}]}