{"type": "FeatureCollection", "features": [{"type": "Feature", "geometry": {"type": "LineString", "coordinates": [[120.297476, 14.8065343], [120.2975745, 14.8063259], [120.2976817, 14.806099], [120.2978976, 14.8057321], [120.298025, 14.8055113], [120.2982423, 14.8051595], [120.2983849, 14.8048961], [120.2985003, 14.8046624], [120.298645, 14.8043121], [120.2987185, 14.8041095], [120.2987732, 14.8039308], [120.2988026, 14.8037977], [120.2988362, 14.8036344], [120.2988702, 14.8033782], [120.2988903, 14.8031581], [120.2989048, 14.8029054], [120.2989041, 14.8026504], [120.2988863, 14.8024531], [120.2988707, 14.8022914], [120.2988522, 14.8021359], [120.2988096, 14.8019277]]}, "properties": {"city": "olongapo", "name": "Argonaut Highway", "highway": "primary", "v_posted": 60, "posted_imputed": false, "v_safe": 50, "gap": 10, "R": 2.07, "exposure": 0.027, "vru_150m": 0, "sss": 12.8, "recommended": 50, "fatal_reduction_pct": 51.8, "why": "undivided arterial, side-impact intersections", "pop_density": 859.5, "pop_density_peak": 1113.7}}, {"type": "Feature", "geometry": {"type": "LineString", "coordinates": [[120.2974405, 14.8066247], [120.297476, 14.8065343]]}, "properties": {"city": "olongapo", "name": "Argonaut Highway", "highway": "primary", "v_posted": 60, "posted_imputed": false, "v_safe": 50, "gap": 10, "R": 2.07, "exposure": 0.016, "vru_150m": 0, "sss": 12.7, "recommended": 50, "fatal_reduction_pct": 51.8, "why": "undivided arterial, side-impact intersections", "pop_density": 525.2, "pop_density_peak": 525.2}}, {"type": "Feature", "geometry": {"type": "LineString", "coordinates": [[120.2974405, 14.8066247], [120.297436, 14.8066367], [120.2972719, 14.8070744], [120.2971928, 14.8073568], [120.2971701, 14.8074331], [120.2970741, 14.8078638], [120.2970465, 14.8080092], [120.2970185, 14.8082033], [120.2970044, 14.808332], [120.2969998, 14.8085103], [120.2969787, 14.8098972], [120.296971, 14.8103172]]}, "properties": {"city": "olongapo", "name": "Argonaut Highway", "highway": "primary", "v_posted": 60, "posted_imputed": false, "v_safe": 50, "gap": 10, "R": 2.07, "exposure": 0.025, "vru_150m": 0, "sss": 12.8, "recommended": 50, "fatal_reduction_pct": 51.8, "why": "undivided arterial, side-impact intersections", "pop_density": 803.9, "pop_density_peak": 1073.3}}, {"type": "Feature", "geometry": {"type": "LineString", "coordinates": [[120.2689634, 14.8462588], [120.2689119, 14.8461128], [120.268874, 14.8459435], [120.2688525, 14.8458315], [120.2688419, 14.8456687], [120.2688507, 14.8454808], [120.2688628, 14.8453578], [120.268878, 14.8452295], [120.2688789, 14.8451297], [120.2688595, 14.845011], [120.2686386, 14.8441654], [120.2685919, 14.8440718], [120.2685193, 14.843969], [120.2683513, 14.8438205], [120.2682679, 14.8436912], [120.2682302, 14.8435913], [120.2682205, 14.8434785], [120.2682336, 14.8433863], [120.2682722, 14.843256], [120.2683121, 14.8430828], [120.2683089, 14.8429402], [120.2683072, 14.8428339], [120.268261, 14.8426712], [120.2680974, 14.8424117], [120.2679238, 14.842143], [120.2675512, 14.8417384], [120.2671674, 14.8413594], [120.267101, 14.8412492], [120.2670582, 14.8411337], [120.2670778, 14.8409795], [120.267168, 14.8408559], [120.2672734, 14.8407446], [120.2673044, 14.8406506], [120.26728, 14.8401987], [120.267259, 14.8400439], [120.2672669, 14.8399715], [120.267294, 14.839907], [120.2674144, 14.8397576], [120.2681831, 14.8389758], [120.268267, 14.8389075], [120.268355, 14.8388778], [120.2684708, 14.8388656], [120.2686071, 14.838857], [120.2690358, 14.8388423], [120.2694487, 14.8388063], [120.2695878, 14.8387805], [120.2696957, 14.8387388], [120.2697966, 14.8386519], [120.2698744, 14.8385586], [120.2699305, 14.8384681], [120.2702897, 14.8377838], [120.2703015, 14.8377614], [120.270364, 14.8376485], [120.2708349, 14.8367365], [120.2710926, 14.8361671], [120.2711361, 14.8359449], [120.2711209, 14.8357562], [120.2710333, 14.8354234], [120.2710081, 14.8352754], [120.2709953, 14.8350537], [120.2709872, 14.8348417], [120.2709509, 14.8346589], [120.2709176, 14.8345837], [120.2708275, 14.8344838], [120.2707404, 14.8344203], [120.2705906, 14.8343508], [120.2704483, 14.8342537], [120.2703348, 14.8341552], [120.2701883, 14.8339614], [120.270086, 14.83377], [120.2699727, 14.833659], [120.2697683, 14.8334914], [120.2696894, 14.8334324], [120.269502, 14.8332644], [120.2693227, 14.8330896], [120.2692795, 14.8330065], [120.269254, 14.8329324], [120.269245, 14.8328375], [120.2692407, 14.8327776], [120.2692415, 14.8327164], [120.2694285, 14.8324325], [120.2694748, 14.832318], [120.2694963, 14.832155], [120.2695014, 14.8318825], [120.2694814, 14.8317187], [120.2694262, 14.8315783], [120.2693594, 14.8314546], [120.2692675, 14.8313627], [120.2691421, 14.8312708], [120.2690051, 14.8312257], [120.2688847, 14.8311906], [120.2687895, 14.8311555], [120.2687043, 14.8310736], [120.2686458, 14.83097], [120.2685622, 14.8307895], [120.2684352, 14.830624], [120.268243, 14.8304903], [120.2680222, 14.8302766], [120.2678794, 14.8301191], [120.2677625, 14.8299884], [120.2677252, 14.8298617], [120.2677343, 14.8297879], [120.2677493, 14.8297166], [120.2677887, 14.8296641], [120.2678735, 14.8295979], [120.2679856, 14.8295177], [120.2680592, 14.8294375], [120.2680826, 14.8293472], [120.2680531, 14.8291566], [120.2679988, 14.8288488]]}, "properties": {"city": "olongapo", "name": "Zambales Highway", "highway": "primary", "v_posted": 80, "posted_imputed": false, "v_safe": 50, "gap": 30, "R": 6.55, "exposure": 0.174, "vru_150m": 0, "sss": 44.0, "recommended": 50, "fatal_reduction_pct": 84.7, "why": "undivided arterial, side-impact intersections", "pop_density": 5633.2, "pop_density_peak": 15154.7}}, {"type": "Feature", "geometry": {"type": "LineString", "coordinates": [[120.2679988, 14.8288488], [120.2680452, 14.8286802], [120.2680592, 14.8285716], [120.2681154, 14.8284554], [120.2682096, 14.8283528], [120.2683065, 14.8282542], [120.2683519, 14.8280999], [120.2683342, 14.8279451], [120.2682643, 14.8277167], [120.2682647, 14.8274494], [120.2682727, 14.827368], [120.2684168, 14.8270343], [120.2684853, 14.8268471], [120.2684937, 14.8267167], [120.2684582, 14.8265908], [120.2684143, 14.8264983], [120.2682086, 14.8260698], [120.2681427, 14.8259404], [120.2680933, 14.8257817], [120.268068, 14.8256089], [120.2680592, 14.8254841], [120.2680662, 14.8254136], [120.2680895, 14.825314], [120.268132, 14.8252394], [120.2681991, 14.8251921], [120.2682656, 14.8251671], [120.2683394, 14.8251608], [120.2683988, 14.825163], [120.2684243, 14.8251749], [120.2684719, 14.825197], [120.2687305, 14.8253871], [120.269009, 14.8255553]]}, "properties": {"city": "olongapo", "name": "Zambales Highway", "highway": "primary", "v_posted": 80, "posted_imputed": false, "v_safe": 50, "gap": 30, "R": 6.55, "exposure": 0.956, "vru_150m": 0, "sss": 73.3, "recommended": 50, "fatal_reduction_pct": 84.7, "why": "undivided arterial, side-impact intersections", "pop_density": 30917.1, "pop_density_peak": 47268.6}}, {"type": "Feature", "geometry": {"type": "LineString", "coordinates": [[120.269009, 14.8255553], [120.2690895, 14.8256059], [120.2691418, 14.8256435], [120.2691834, 14.8256927], [120.2692729, 14.8257855], [120.2693564, 14.8258976], [120.2694033, 14.8259637], [120.2694409, 14.8260207], [120.2695186, 14.8261024], [120.2696246, 14.8261893], [120.2698217, 14.8263371], [120.2699746, 14.8264304]]}, "properties": {"city": "olongapo", "name": "Zambales Highway", "highway": "primary", "v_posted": 80, "posted_imputed": false, "v_safe": 50, "gap": 30, "R": 6.55, "exposure": 1.0, "vru_150m": 0, "sss": 75.0, "recommended": 50, "fatal_reduction_pct": 84.7, "why": "undivided arterial, side-impact intersections", "pop_density": 44993.4, "pop_density_peak": 47268.6}}, {"type": "Feature", "geometry": {"type": "LineString", "coordinates": [[120.3098251, 14.8421272], [120.3101668, 14.8419583], [120.3103588, 14.8418599], [120.3105159, 14.8417663], [120.3106508, 14.8416711], [120.3107783, 14.8415582], [120.3109058, 14.8414196], [120.3110075, 14.8413039], [120.3110939, 14.8411845], [120.311168, 14.8410616], [120.3113313, 14.8407933], [120.3115112, 14.8405196], [120.3116772, 14.8402252], [120.311724, 14.8401293], [120.3117631, 14.8400371], [120.3117949, 14.8399049], [120.3118105, 14.8397731], [120.311818, 14.8396318], [120.3118089, 14.839443], [120.3117844, 14.8392774], [120.3117552, 14.8391237], [120.3117159, 14.8389856], [120.3116545, 14.8388537], [120.3115952, 14.838736], [120.3114967, 14.8385892], [120.3113939, 14.8384548], [120.3112928, 14.8383386], [120.3112031, 14.8382513], [120.3111025, 14.8381749], [120.3110202, 14.8381344], [120.3109041, 14.838084], [120.3107006, 14.8380321], [120.3104859, 14.8379965], [120.3103172, 14.8379738], [120.3100535, 14.837956], [120.3096983, 14.8379516], [120.309307, 14.837942], [120.3090586, 14.83793], [120.3089027, 14.8379093], [120.3087337, 14.8378692], [120.308558, 14.8377834], [120.3084063, 14.837664], [120.3082761, 14.8375227], [120.3081773, 14.8373906], [120.3081398, 14.8373074], [120.308117, 14.8371959], [120.3081116, 14.8370676], [120.3081183, 14.8369276], [120.3081411, 14.8367849], [120.3081982, 14.8365941], [120.3083208, 14.8361095], [120.3083396, 14.8359993], [120.3083409, 14.8358736], [120.3083248, 14.8356765], [120.3083007, 14.8355482], [120.3082404, 14.8353615], [120.3081532, 14.8351813], [120.3080218, 14.8349959], [120.3078334, 14.8347246], [120.3077656, 14.8346407], [120.3076006, 14.8344216], [120.3074947, 14.8343088], [120.3074171, 14.8342536], [120.307313, 14.8342014], [120.3071514, 14.8341332], [120.3067792, 14.8339999], [120.306319, 14.8338345], [120.3060794, 14.8337298], [120.3059561, 14.833664], [120.3058468, 14.8335846], [120.3057536, 14.8334932], [120.3056555, 14.8333803], [120.3055635, 14.8332699], [120.3055052, 14.8331504], [120.3054535, 14.8330267], [120.3054173, 14.8329165], [120.3053664, 14.8327687], [120.3052846, 14.832617], [120.30518, 14.8324563], [120.3050137, 14.8322514], [120.3047883, 14.8319908], [120.3046086, 14.8318055], [120.3043458, 14.8315151], [120.3041138, 14.8312635], [120.3039233, 14.8310574], [120.303757, 14.8308655], [120.3034848, 14.8305272], [120.3033521, 14.8303547], [120.3032474, 14.8301927], [120.3031227, 14.8299788], [120.3030306, 14.8298189], [120.3029272, 14.829626], [120.3028352, 14.8294376], [120.3027361, 14.829229], [120.302603, 14.8289601], [120.3024445, 14.8286587]]}, "properties": {"city": "olongapo", "name": "Argonaut Highway", "highway": "tertiary", "v_posted": 55, "posted_imputed": false, "v_safe": 50, "gap": 5, "R": 1.46, "exposure": 0.178, "vru_150m": 0, "sss": 7.4, "recommended": 50, "fatal_reduction_pct": 31.7, "why": "undivided arterial, side-impact intersections", "pop_density": 5743.0, "pop_density_peak": 28847.0}}, {"type": "Feature", "geometry": {"type": "LineString", "coordinates": [[120.3021968, 14.8281924], [120.3019345, 14.8276789], [120.3016443, 14.8271249], [120.3014834, 14.8268177], [120.3012666, 14.8264097], [120.3011079, 14.8261009], [120.3007756, 14.825457], [120.3006733, 14.8252692]]}, "properties": {"city": "olongapo", "name": "Argonaut Highway", "highway": "tertiary", "v_posted": 60, "posted_imputed": false, "v_safe": 50, "gap": 10, "R": 2.07, "exposure": 0.187, "vru_150m": 0, "sss": 14.8, "recommended": 50, "fatal_reduction_pct": 51.8, "why": "undivided arterial, side-impact intersections", "pop_density": 6057.0, "pop_density_peak": 8409.8}}, {"type": "Feature", "geometry": {"type": "LineString", "coordinates": [[120.2972155, 14.8124379], [120.2974766, 14.813281], [120.2976222, 14.8137501], [120.2977021, 14.8140475], [120.2979332, 14.8147743], [120.2982156, 14.8156896], [120.2983463, 14.8161344], [120.2983921, 14.8162644], [120.2984433, 14.816477], [120.2984641, 14.8165866], [120.2984798, 14.8167191], [120.2984897, 14.8168678], [120.2984956, 14.8170403], [120.2984946, 14.817312], [120.2984818, 14.8175341], [120.2984593, 14.8177178], [120.2984392, 14.8178252], [120.2984036, 14.8179954], [120.298368, 14.8181378], [120.2983028, 14.8183652], [120.2982419, 14.8185663]]}, "properties": {"city": "olongapo", "name": "Argonaut Highway", "highway": "primary", "v_posted": 60, "posted_imputed": false, "v_safe": 50, "gap": 10, "R": 2.07, "exposure": 0.023, "vru_150m": 0, "sss": 12.8, "recommended": 50, "fatal_reduction_pct": 51.8, "why": "undivided arterial, side-impact intersections", "pop_density": 730.5, "pop_density_peak": 1199.2}}, {"type": "Feature", "geometry": {"type": "LineString", "coordinates": [[120.2982419, 14.8185663], [120.2982024, 14.8186927], [120.2981692, 14.8188114], [120.2981002, 14.81908]]}, "properties": {"city": "olongapo", "name": "Argonaut Highway", "highway": "primary", "v_posted": 60, "posted_imputed": false, "v_safe": 50, "gap": 10, "R": 2.07, "exposure": 0.035, "vru_150m": 0, "sss": 12.9, "recommended": 50, "fatal_reduction_pct": 51.8, "why": "undivided arterial, side-impact intersections", "pop_density": 1122.1, "pop_density_peak": 1247.0}}, {"type": "Feature", "geometry": {"type": "LineString", "coordinates": [[120.2971812, 14.8123151], [120.2972155, 14.8124379]]}, "properties": {"city": "olongapo", "name": "Argonaut Highway", "highway": "primary", "v_posted": 60, "posted_imputed": false, "v_safe": 50, "gap": 10, "R": 2.07, "exposure": 0.037, "vru_150m": 0, "sss": 13.0, "recommended": 50, "fatal_reduction_pct": 51.8, "why": "undivided arterial, side-impact intersections", "pop_density": 1199.2, "pop_density_peak": 1199.2}}, {"type": "Feature", "geometry": {"type": "LineString", "coordinates": [[120.2969855, 14.8115712], [120.2970041, 14.8116939], [120.2970314, 14.811813]]}, "properties": {"city": "olongapo", "name": "Argonaut Highway", "highway": "primary", "v_posted": 60, "posted_imputed": false, "v_safe": 50, "gap": 10, "R": 2.07, "exposure": 0.045, "vru_150m": 0, "sss": 13.1, "recommended": 50, "fatal_reduction_pct": 51.8, "why": "undivided arterial, side-impact intersections", "pop_density": 1445.8, "pop_density_peak": 1445.8}}, {"type": "Feature", "geometry": {"type": "LineString", "coordinates": [[120.2970314, 14.811813], [120.2970622, 14.8119149], [120.2971495, 14.8122017]]}, "properties": {"city": "olongapo", "name": "Argonaut Highway", "highway": "primary", "v_posted": 60, "posted_imputed": false, "v_safe": 50, "gap": 10, "R": 2.07, "exposure": 0.041, "vru_150m": 0, "sss": 13.0, "recommended": 50, "fatal_reduction_pct": 51.8, "why": "undivided arterial, side-impact intersections", "pop_density": 1322.5, "pop_density_peak": 1445.8}}, {"type": "Feature", "geometry": {"type": "LineString", "coordinates": [[120.2969617, 14.8113019], [120.2969769, 14.8114488], [120.2969855, 14.8115712]]}, "properties": {"city": "olongapo", "name": "Argonaut Highway", "highway": "primary", "v_posted": 60, "posted_imputed": false, "v_safe": 50, "gap": 10, "R": 2.07, "exposure": 0.044, "vru_150m": 0, "sss": 13.1, "recommended": 50, "fatal_reduction_pct": 51.8, "why": "undivided arterial, side-impact intersections", "pop_density": 1426.7, "pop_density_peak": 1445.8}}, {"type": "Feature", "geometry": {"type": "LineString", "coordinates": [[120.3023783, 14.8285923], [120.3023647, 14.8285663], [120.3023584, 14.8284949]]}, "properties": {"city": "olongapo", "name": "Argonaut Highway", "highway": "tertiary", "v_posted": 55, "posted_imputed": false, "v_safe": 50, "gap": 5, "R": 1.46, "exposure": 0.138, "vru_150m": 0, "sss": 7.1, "recommended": 50, "fatal_reduction_pct": 31.7, "why": "undivided arterial, side-impact intersections", "pop_density": 4464.4, "pop_density_peak": 4464.4}}, {"type": "Feature", "geometry": {"type": "LineString", "coordinates": [[120.3023584, 14.8284949], [120.3024144, 14.8285419], [120.302428, 14.8285679]]}, "properties": {"city": "olongapo", "name": "Argonaut Highway", "highway": "tertiary", "v_posted": 55, "posted_imputed": false, "v_safe": 50, "gap": 5, "R": 1.46, "exposure": 0.138, "vru_150m": 0, "sss": 7.1, "recommended": 50, "fatal_reduction_pct": 31.7, "why": "undivided arterial, side-impact intersections", "pop_density": 4464.4, "pop_density_peak": 4464.4}}, {"type": "Feature", "geometry": {"type": "LineString", "coordinates": [[120.3024445, 14.8286587], [120.302392, 14.8286183], [120.3023783, 14.8285923]]}, "properties": {"city": "olongapo", "name": "Argonaut Highway", "highway": "tertiary", "v_posted": 55, "posted_imputed": false, "v_safe": 50, "gap": 5, "R": 1.46, "exposure": 0.138, "vru_150m": 0, "sss": 7.1, "recommended": 50, "fatal_reduction_pct": 31.7, "why": "undivided arterial, side-impact intersections", "pop_density": 4464.4, "pop_density_peak": 4464.4}}, {"type": "Feature", "geometry": {"type": "LineString", "coordinates": [[120.302428, 14.8285679], [120.3024417, 14.8285939], [120.3024445, 14.8286587]]}, "properties": {"city": "olongapo", "name": "Argonaut Highway", "highway": "tertiary", "v_posted": 55, "posted_imputed": false, "v_safe": 50, "gap": 5, "R": 1.46, "exposure": 0.138, "vru_150m": 0, "sss": 7.1, "recommended": 50, "fatal_reduction_pct": 31.7, "why": "undivided arterial, side-impact intersections", "pop_density": 4464.4, "pop_density_peak": 4464.4}}, {"type": "Feature", "geometry": {"type": "LineString", "coordinates": [[120.3023584, 14.8284949], [120.3022228, 14.8282437]]}, "properties": {"city": "olongapo", "name": "Argonaut Highway", "highway": "tertiary", "v_posted": 55, "posted_imputed": false, "v_safe": 50, "gap": 5, "R": 1.46, "exposure": 0.199, "vru_150m": 0, "sss": 7.5, "recommended": 50, "fatal_reduction_pct": 31.7, "why": "undivided arterial, side-impact intersections", "pop_density": 6437.1, "pop_density_peak": 8409.8}}, {"type": "Feature", "geometry": {"type": "LineString", "coordinates": [[120.3076072, 14.8443271], [120.3078061, 14.8439317], [120.3080067, 14.8435672], [120.3081037, 14.8434187], [120.308197, 14.8433006], [120.3083203, 14.8431647], [120.3084514, 14.8430332], [120.3085778, 14.8429031], [120.3087898, 14.8427217], [120.3089736, 14.8425804], [120.3092233, 14.8424149], [120.3094851, 14.8422898], [120.3098251, 14.8421272]]}, "properties": {"city": "olongapo", "name": "Argonaut Highway", "highway": "tertiary", "v_posted": 55, "posted_imputed": false, "v_safe": 50, "gap": 5, "R": 1.46, "exposure": 0.0, "vru_150m": 0, "sss": 6.2, "recommended": 50, "fatal_reduction_pct": 31.7, "why": "undivided arterial, side-impact intersections", "pop_density": 0.0, "pop_density_peak": 0.0}}, {"type": "Feature", "geometry": {"type": "LineString", "coordinates": [[120.2971495, 14.8122017], [120.2971812, 14.8123151]]}, "properties": {"city": "olongapo", "name": "Argonaut Highway", "highway": "primary", "v_posted": 60, "posted_imputed": false, "v_safe": 50, "gap": 10, "R": 2.07, "exposure": 0.037, "vru_150m": 0, "sss": 13.0, "recommended": 50, "fatal_reduction_pct": 51.8, "why": "undivided arterial, side-impact intersections", "pop_density": 1199.2, "pop_density_peak": 1199.2}}, {"type": "Feature", "geometry": {"type": "LineString", "coordinates": [[120.296956, 14.8107395], [120.2969574, 14.8109813]]}, "properties": {"city": "olongapo", "name": "Argonaut Highway", "highway": "primary", "v_posted": 60, "posted_imputed": false, "v_safe": 50, "gap": 10, "R": 2.07, "exposure": 0.044, "vru_150m": 0, "sss": 13.0, "recommended": 50, "fatal_reduction_pct": 51.8, "why": "undivided arterial, side-impact intersections", "pop_density": 1407.6, "pop_density_peak": 1407.6}}, {"type": "Feature", "geometry": {"type": "LineString", "coordinates": [[120.2969574, 14.8109813], [120.2969591, 14.8110984], [120.2969617, 14.8113019]]}, "properties": {"city": "olongapo", "name": "Argonaut Highway", "highway": "primary", "v_posted": 60, "posted_imputed": false, "v_safe": 50, "gap": 10, "R": 2.07, "exposure": 0.044, "vru_150m": 0, "sss": 13.0, "recommended": 50, "fatal_reduction_pct": 51.8, "why": "undivided arterial, side-impact intersections", "pop_density": 1407.6, "pop_density_peak": 1407.6}}, {"type": "Feature", "geometry": {"type": "LineString", "coordinates": [[120.296971, 14.8103172], [120.296956, 14.8107395]]}, "properties": {"city": "olongapo", "name": "Argonaut Highway", "highway": "primary", "v_posted": 60, "posted_imputed": false, "v_safe": 50, "gap": 10, "R": 2.07, "exposure": 0.038, "vru_150m": 0, "sss": 13.0, "recommended": 50, "fatal_reduction_pct": 51.8, "why": "undivided arterial, side-impact intersections", "pop_density": 1240.5, "pop_density_peak": 1407.6}}, {"type": "Feature", "geometry": {"type": "LineString", "coordinates": [[120.2520126, 14.8524349], [120.2521075, 14.8524147], [120.2522127, 14.8523917]]}, "properties": {"city": "olongapo", "name": "Zambales Highway", "highway": "primary", "v_posted": 60, "posted_imputed": false, "v_safe": 50, "gap": 10, "R": 2.07, "exposure": 0.117, "vru_150m": 0, "sss": 14.0, "recommended": 50, "fatal_reduction_pct": 51.8, "why": "undivided arterial, side-impact intersections", "pop_density": 3772.6, "pop_density_peak": 3772.6}}, {"type": "Feature", "geometry": {"type": "LineString", "coordinates": [[120.2577185, 14.8665741], [120.25767, 14.8664547], [120.2576293, 14.8663118], [120.2575911, 14.8661809], [120.257543, 14.8658614], [120.2574797, 14.8654527], [120.2574421, 14.8652036], [120.257391, 14.8649655], [120.2573445, 14.8648208], [120.2572738, 14.8646199], [120.2571154, 14.8642426], [120.2570682, 14.8641355], [120.2568657, 14.8637036], [120.2566671, 14.8632794], [120.2565043, 14.8629233], [120.2563732, 14.8626465], [120.2563415, 14.8625768], [120.2561729, 14.86216], [120.256084, 14.861954], [120.2559661, 14.8616765], [120.255938, 14.8615866], [120.2559251, 14.8614838], [120.2559288, 14.8613714], [120.2559518, 14.8612653]]}, "properties": {"city": "olongapo", "name": "San Isidro Road", "highway": "tertiary", "v_posted": 40, "posted_imputed": false, "v_safe": 30, "gap": 10, "R": 3.16, "exposure": 0.774, "vru_150m": 3, "sss": 22.2, "recommended": 30, "fatal_reduction_pct": 68.4, "why": "pedestrian activity (1 VRU site<=50m)", "pop_density": 14107.3, "pop_density_peak": 19124.8}}, {"type": "Feature", "geometry": {"type": "LineString", "coordinates": [[120.237117, 14.8622605], [120.2388725, 14.8619389]]}, "properties": {"city": "olongapo", "name": "Zambales Highway", "highway": "primary", "v_posted": 60, "posted_imputed": false, "v_safe": 50, "gap": 10, "R": 2.07, "exposure": 0.619, "vru_150m": 0, "sss": 20.2, "recommended": 50, "fatal_reduction_pct": 51.8, "why": "undivided arterial, side-impact intersections", "pop_density": 20017.9, "pop_density_peak": 23238.4}}, {"type": "Feature", "geometry": {"type": "LineString", "coordinates": [[120.2352887, 14.8686683], [120.2351849, 14.8684293], [120.2350592, 14.8681226], [120.234974, 14.8679287], [120.2349595, 14.8678959], [120.2348143, 14.8675582], [120.2347657, 14.8673471], [120.2347466, 14.8672529], [120.2347447, 14.8671792], [120.2347874, 14.8663729], [120.2348116, 14.8658455], [120.2347612, 14.8655178], [120.2346646, 14.8650741], [120.234654, 14.8649249], [120.2346633, 14.8648182], [120.2347053, 14.8646432], [120.234938, 14.8640547], [120.2349932, 14.8638011], [120.2350223, 14.8633886], [120.2350452, 14.8632225], [120.2350692, 14.8631551], [120.2350983, 14.8630897], [120.2351837, 14.8629911], [120.2353171, 14.8628931], [120.2357699, 14.8627063], [120.2361759, 14.8625413], [120.2365944, 14.8623893], [120.237117, 14.8622605]]}, "properties": {"city": "olongapo", "name": "Zambales Highway", "highway": "primary", "v_posted": 60, "posted_imputed": false, "v_safe": 50, "gap": 10, "R": 2.07, "exposure": 0.459, "vru_150m": 0, "sss": 18.2, "recommended": 50, "fatal_reduction_pct": 51.8, "why": "undivided arterial, side-impact intersections", "pop_density": 14854.5, "pop_density_peak": 18955.8}}, {"type": "Feature", "geometry": {"type": "LineString", "coordinates": [[120.2520126, 14.8524349], [120.2518287, 14.8524693], [120.2517214, 14.8524882], [120.2508851, 14.8526361], [120.2504426, 14.8527259]]}, "properties": {"city": "olongapo", "name": "Zambales Highway", "highway": "primary", "v_posted": 60, "posted_imputed": false, "v_safe": 50, "gap": 10, "R": 2.07, "exposure": 0.115, "vru_150m": 0, "sss": 13.9, "recommended": 50, "fatal_reduction_pct": 51.8, "why": "undivided arterial, side-impact intersections", "pop_density": 3724.0, "pop_density_peak": 3772.6}}, {"type": "Feature", "geometry": {"type": "LineString", "coordinates": [[120.2388725, 14.8619389], [120.2392349, 14.8618741]]}, "properties": {"city": "olongapo", "name": "Zambales Highway", "highway": "primary", "v_posted": 60, "posted_imputed": false, "v_safe": 50, "gap": 10, "R": 2.07, "exposure": 0.77, "vru_150m": 0, "sss": 22.1, "recommended": 50, "fatal_reduction_pct": 51.8, "why": "undivided arterial, side-impact intersections", "pop_density": 24895.6, "pop_density_peak": 26552.8}}, {"type": "Feature", "geometry": {"type": "LineString", "coordinates": [[120.2543097, 14.8519352], [120.2547885, 14.8518523]]}, "properties": {"city": "olongapo", "name": "Zambales Highway", "highway": "primary", "v_posted": 60, "posted_imputed": false, "v_safe": 50, "gap": 10, "R": 2.07, "exposure": 0.472, "vru_150m": 2, "sss": 18.4, "recommended": 50, "fatal_reduction_pct": 51.8, "why": "undivided arterial, side-impact intersections", "pop_density": 3854.8, "pop_density_peak": 3854.8}}, {"type": "Feature", "geometry": {"type": "LineString", "coordinates": [[120.2547885, 14.8518523], [120.2549309, 14.8518275], [120.2554853, 14.8517299], [120.2555463, 14.8517185], [120.2557534, 14.8516831], [120.2558313, 14.8516734], [120.2560317, 14.8516362], [120.2561957, 14.8516054], [120.2563663, 14.8515735], [120.2578925, 14.8513255], [120.2579985, 14.8513088], [120.2584276, 14.8512528], [120.2588504, 14.8512376], [120.2595918, 14.8512457], [120.2599003, 14.8512476], [120.2606049, 14.8512534], [120.2610187, 14.8512549], [120.2612859, 14.8512642], [120.2620765, 14.8512511], [120.2622105, 14.8512399], [120.2623847, 14.8512131], [120.2626179, 14.8511535], [120.2626609, 14.8511411], [120.2628874, 14.8510632], [120.2630553, 14.8509855], [120.2631363, 14.8509435], [120.2633326, 14.8508228], [120.2635441, 14.8506686], [120.2638639, 14.8504248], [120.2643265, 14.8500653], [120.264786, 14.8497116], [120.2651709, 14.8494154], [120.2652786, 14.8493306], [120.2654503, 14.8491973], [120.2665353, 14.8483552], [120.2666491, 14.8482672], [120.2666896, 14.8482358], [120.2672792, 14.8477798], [120.2674097, 14.8476788], [120.2675399, 14.8475781], [120.2678907, 14.8473067], [120.268002, 14.8472207], [120.2680392, 14.8471919], [120.268125, 14.8471255]]}, "properties": {"city": "olongapo", "name": "Zambales Highway", "highway": "primary", "v_posted": 60, "posted_imputed": false, "v_safe": 50, "gap": 10, "R": 2.07, "exposure": 0.455, "vru_150m": 2, "sss": 18.2, "recommended": 50, "fatal_reduction_pct": 51.8, "why": "undivided arterial, side-impact intersections", "pop_density": 2990.1, "pop_density_peak": 3854.8}}, {"type": "Feature", "geometry": {"type": "LineString", "coordinates": [[120.2504426, 14.8527259], [120.2495748, 14.8528964], [120.2495075, 14.8529089], [120.2494792, 14.8529151], [120.2494544, 14.8529207], [120.249031, 14.8530076], [120.2487628, 14.8530632], [120.2480498, 14.8531884], [120.2479459, 14.8532055], [120.2478859, 14.8532157], [120.2477698, 14.8532354], [120.2475834, 14.8532627], [120.2474364, 14.8532796], [120.2473347, 14.8532953], [120.2472256, 14.8533126], [120.2469878, 14.8533446], [120.2468453, 14.8533671], [120.2466595, 14.8533959], [120.2464245, 14.8534401], [120.2462808, 14.8534903], [120.2460176, 14.8536589], [120.2459192, 14.8537463], [120.2457968, 14.8538945], [120.2456592, 14.8540428], [120.2456004, 14.854119], [120.2455603, 14.8541643], [120.2454351, 14.8543055], [120.2452356, 14.8545304], [120.2452112, 14.8545583], [120.2451381, 14.8546419], [120.2449984, 14.8548017], [120.2448968, 14.8549179], [120.2448085, 14.855019], [120.2447522, 14.8550833], [120.2446615, 14.8551871], [120.2446235, 14.8552381], [120.2445504, 14.8553361], [120.2445023, 14.8554006], [120.2444507, 14.8555053], [120.2444261, 14.855594], [120.2444149, 14.8556765], [120.2444283, 14.8558179], [120.2444504, 14.8559098], [120.2445124, 14.856178], [120.2445511, 14.8563389], [120.2445835, 14.8564739], [120.2445914, 14.856507], [120.2446382, 14.8567017], [120.2446652, 14.8568038], [120.2447539, 14.8571808], [120.2447747, 14.8572645], [120.244845, 14.8575249], [120.2449082, 14.8577614], [120.2449513, 14.8579161], [120.2450167, 14.8581601], [120.245104, 14.8584623], [120.2451306, 14.8585659], [120.2451515, 14.8586963], [120.2451587, 14.8588438], [120.245101, 14.859023], [120.2450196, 14.8591553], [120.244959, 14.8592152], [120.2447985, 14.8593468], [120.2447654, 14.8593711], [120.2446973, 14.8594212], [120.2445905, 14.8594851], [120.2445088, 14.8595431], [120.2444059, 14.8596172], [120.2443113, 14.8596866], [120.2439882, 14.8599225], [120.243886, 14.8600013], [120.2437003, 14.860161], [120.2435886, 14.860241], [120.2434415, 14.8603452], [120.243334, 14.8604236], [120.243301, 14.8604437], [120.2432396, 14.8604873], [120.2432306, 14.860493], [120.242966, 14.8606763], [120.2428964, 14.8607224], [120.242802, 14.8607785], [120.2426604, 14.8608634], [120.2426428, 14.860872], [120.2425647, 14.8609162], [120.2424955, 14.8609532], [120.2423247, 14.8610532], [120.2422258, 14.8611083], [120.2421008, 14.8611753], [120.2419804, 14.8612299], [120.2419528, 14.86124], [120.241811, 14.8612972], [120.2417132, 14.8613317], [120.2416211, 14.8613614], [120.2414219, 14.8614268], [120.2411381, 14.8615113], [120.240781, 14.8616179], [120.2406514, 14.8616522], [120.2405962, 14.8616647], [120.240546, 14.8616712], [120.2402797, 14.8617161], [120.2398222, 14.8618017], [120.2397568, 14.8618123], [120.2397225, 14.8618136], [120.2392349, 14.8618741]]}, "properties": {"city": "olongapo", "name": "Zambales Highway", "highway": "primary", "v_posted": 60, "posted_imputed": false, "v_safe": 50, "gap": 10, "R": 2.07, "exposure": 1.0, "vru_150m": 6, "sss": 25.0, "recommended": 50, "fatal_reduction_pct": 51.8, "why": "undivided arterial, side-impact intersections", "pop_density": 18683.9, "pop_density_peak": 29227.6}}, {"type": "Feature", "geometry": {"type": "LineString", "coordinates": [[120.2543097, 14.8519352], [120.254216, 14.8519569], [120.2541536, 14.8519713], [120.2540381, 14.8519962], [120.2536339, 14.8520832], [120.2535244, 14.8521103], [120.2530579, 14.8522128], [120.2529423, 14.8522383], [120.2528198, 14.8522638], [120.2526539, 14.8522949], [120.2523752, 14.8523601], [120.2522127, 14.8523917]]}, "properties": {"city": "olongapo", "name": "Zambales Highway", "highway": "primary", "v_posted": 60, "posted_imputed": false, "v_safe": 50, "gap": 10, "R": 2.07, "exposure": 0.12, "vru_150m": 0, "sss": 14.0, "recommended": 50, "fatal_reduction_pct": 51.8, "why": "undivided arterial, side-impact intersections", "pop_density": 3890.8, "pop_density_peak": 4045.1}}, {"type": "Feature", "geometry": {"type": "LineString", "coordinates": [[120.268125, 14.8471255], [120.2683006, 14.846982]]}, "properties": {"city": "olongapo", "name": "Zambales Highway", "highway": "primary", "v_posted": 80, "posted_imputed": false, "v_safe": 50, "gap": 30, "R": 6.55, "exposure": 0.259, "vru_150m": 1, "sss": 47.2, "recommended": 50, "fatal_reduction_pct": 84.7, "why": "undivided arterial, side-impact intersections", "pop_density": 2399.7, "pop_density_peak": 2490.0}}, {"type": "Feature", "geometry": {"type": "LineString", "coordinates": [[120.2650336, 14.8800044], [120.2649821, 14.8798548], [120.2649096, 14.8796123], [120.2648214, 14.8793329], [120.2647763, 14.8792034], [120.2647309, 14.879073], [120.2646764, 14.8788857], [120.2646287, 14.8787097], [120.2645418, 14.878377]]}, "properties": {"city": "olongapo", "name": "", "highway": "residential", "v_posted": 40, "posted_imputed": false, "v_safe": 30, "gap": 10, "R": 3.16, "exposure": 0.774, "vru_150m": 3, "sss": 22.2, "recommended": 30, "fatal_reduction_pct": 68.4, "why": "local road, frontage/pedestrian mixing", "pop_density": 14090.5, "pop_density_peak": 15419.7}}, {"type": "Feature", "geometry": {"type": "LineString", "coordinates": [[120.2688106, 14.8465777], [120.2688883, 14.8464895], [120.268942, 14.8464092], [120.2689635, 14.8463351], [120.2689634, 14.8463003], [120.2689634, 14.8462588]]}, "properties": {"city": "olongapo", "name": "Zambales Highway", "highway": "primary", "v_posted": 80, "posted_imputed": false, "v_safe": 50, "gap": 30, "R": 6.55, "exposure": 0.056, "vru_150m": 0, "sss": 39.6, "recommended": 50, "fatal_reduction_pct": 84.7, "why": "undivided arterial, side-impact intersections", "pop_density": 1799.6, "pop_density_peak": 2309.5}}, {"type": "Feature", "geometry": {"type": "LineString", "coordinates": [[120.2683006, 14.846982], [120.2684929, 14.8468363], [120.2685803, 14.8467676], [120.2686948, 14.8466776], [120.2688106, 14.8465777]]}, "properties": {"city": "olongapo", "name": "Zambales Highway", "highway": "primary", "v_posted": 80, "posted_imputed": false, "v_safe": 50, "gap": 30, "R": 6.55, "exposure": 0.257, "vru_150m": 1, "sss": 47.1, "recommended": 50, "fatal_reduction_pct": 84.7, "why": "undivided arterial, side-impact intersections", "pop_density": 2309.5, "pop_density_peak": 2309.5}}, {"type": "Feature", "geometry": {"type": "LineString", "coordinates": [[120.3021913, 14.8498224], [120.3024589, 14.8498911], [120.3026976, 14.849939], [120.3028867, 14.8499727], [120.303112, 14.8499961], [120.3032649, 14.8500038], [120.3034171, 14.8499935], [120.3035253, 14.8499642], [120.3036294, 14.8499341], [120.3037394, 14.8498877], [120.3038802, 14.8498177], [120.3040658, 14.8497153], [120.3042114, 14.8496207], [120.3043415, 14.8495384], [120.3044946, 14.8494415], [120.3046266, 14.8493654], [120.3047001, 14.8493199], [120.3049358, 14.8491978], [120.3053357, 14.8490005], [120.3057582, 14.8487991], [120.3060517, 14.8486683], [120.3064373, 14.8484998], [120.3066109, 14.8484184], [120.3069703, 14.8483031], [120.3069982, 14.8482981], [120.3073035, 14.8482325], [120.3074565, 14.848224], [120.3076804, 14.848235], [120.307807, 14.8482527], [120.3080349, 14.8482902], [120.3083222, 14.848342], [120.3088392, 14.8484346], [120.3089247, 14.8484484], [120.3090447, 14.8484689], [120.3091193, 14.8484753], [120.309214, 14.8484891], [120.3092955, 14.8484975], [120.3094186, 14.8485086], [120.3095242, 14.8485171], [120.3096627, 14.8485266], [120.3097918, 14.8485356], [120.3102567, 14.8485584], [120.3103824, 14.848566], [120.310536, 14.8485737], [120.3107159, 14.8485832], [120.3111541, 14.8485974], [120.3112593, 14.8486054], [120.3113665, 14.8486156], [120.3114596, 14.8486247], [120.3115262, 14.8486349], [120.311661, 14.8486556], [120.3117326, 14.8486712], [120.3119234, 14.8487132], [120.3119418, 14.8487172]]}, "properties": {"city": "olongapo", "name": "Jose Abad Santos Avenue", "highway": "trunk", "v_posted": 80, "posted_imputed": false, "v_safe": 70, "gap": 10, "R": 1.71, "exposure": 0.388, "vru_150m": 0, "sss": 17.4, "recommended": 70, "fatal_reduction_pct": 41.4, "why": "trunk highway (head-on only; no at-grade ped mixing assumed)", "pop_density": 12563.1, "pop_density_peak": 22575.7}}, {"type": "Feature", "geometry": {"type": "LineString", "coordinates": [[120.3119418, 14.8487172], [120.3121591, 14.8487691]]}, "properties": {"city": "olongapo", "name": "Jose Abad Santos Avenue", "highway": "trunk", "v_posted": 80, "posted_imputed": false, "v_safe": 70, "gap": 10, "R": 1.71, "exposure": 0.298, "vru_150m": 1, "sss": 16.2, "recommended": 70, "fatal_reduction_pct": 41.4, "why": "trunk highway (head-on only; no at-grade ped mixing assumed)", "pop_density": 3965.1, "pop_density_peak": 3965.1}}, {"type": "Feature", "geometry": {"type": "LineString", "coordinates": [[120.3121591, 14.8487691], [120.312611, 14.8488696], [120.312725, 14.8488851], [120.3128578, 14.8488903], [120.3131609, 14.8488835], [120.3132025, 14.8488825], [120.3133768, 14.8488955], [120.3134747, 14.8489059], [120.3135712, 14.8489253], [120.3137121, 14.8489564], [120.3138544, 14.8489998], [120.3140098, 14.8490627], [120.3142619, 14.8492079], [120.3146092, 14.8494205], [120.3148164, 14.8495405], [120.3152148, 14.849731], [120.3153321, 14.8497582], [120.3154696, 14.849753], [120.3156789, 14.8497066], [120.315883, 14.8496507], [120.3159061, 14.8496448], [120.3160302, 14.8496247], [120.3161864, 14.8496117], [120.3162611, 14.8496156], [120.3164184, 14.8496299], [120.3165436, 14.8496449], [120.3166283, 14.8496551], [120.3167885, 14.8496616], [120.3169005, 14.8496525], [120.3169549, 14.8496409], [120.3170179, 14.8496175], [120.3171919, 14.8494864], [120.3172861, 14.8494153], [120.3175841, 14.8492005], [120.3177528, 14.8490789], [120.317907, 14.8490018], [120.3179942, 14.848972], [120.3181042, 14.8489596], [120.3181754, 14.8489667], [120.3182021, 14.8489694], [120.3183167, 14.8489992], [120.318878, 14.849182], [120.3189531, 14.8491962], [120.3190074, 14.8492001], [120.3190711, 14.8491949], [120.3191194, 14.8491833], [120.3191781, 14.8491563], [120.3192294, 14.8491185], [120.3193118, 14.849029], [120.3194734, 14.8487088], [120.3195445, 14.8486181], [120.3196196, 14.8485487], [120.320207, 14.8481676], [120.3205342, 14.8479518], [120.3206563, 14.8479103], [120.3207274, 14.8478999], [120.3208347, 14.8479116], [120.3210036, 14.8479725], [120.3213081, 14.8481268], [120.3214261, 14.8481851], [120.3219303, 14.8483433], [120.3220981, 14.848364], [120.322208, 14.8483666], [120.3224078, 14.8483173], [120.3224976, 14.8482629], [120.322566, 14.8481916], [120.3226291, 14.8480762], [120.322655, 14.8479797], [120.3226492, 14.847874], [120.3226224, 14.8477638], [120.3225768, 14.8476458], [120.3223957, 14.8472615], [120.3223793, 14.8472245], [120.3223407, 14.8471053], [120.3223166, 14.8470081], [120.3223195, 14.8468698], [120.3223407, 14.8467488], [120.3224007, 14.8466015], [120.322503, 14.8463884], [120.3226156, 14.8461835], [120.322684, 14.8461006], [120.3227806, 14.8460229], [120.3229248, 14.8459645], [120.3231454, 14.845945], [120.3232245, 14.8459496], [120.3235236, 14.8459742], [120.3239581, 14.8460008], [120.3240761, 14.8460164], [120.324233, 14.8460449], [120.3243269, 14.8460851], [120.3244758, 14.8461758], [120.3245401, 14.8462458], [120.3246086, 14.8463343], [120.3246494, 14.8464331], [120.3246729, 14.8465232], [120.3247413, 14.8468512], [120.3247762, 14.8471896], [120.3247755, 14.8473237]]}, "properties": {"city": "olongapo", "name": "Jose Abad Santos Avenue", "highway": "trunk", "v_posted": 80, "posted_imputed": false, "v_safe": 70, "gap": 10, "R": 1.71, "exposure": 0.202, "vru_150m": 0, "sss": 15.0, "recommended": 70, "fatal_reduction_pct": 41.4, "why": "trunk highway (head-on only; no at-grade ped mixing assumed)", "pop_density": 6539.5, "pop_density_peak": 9013.8}}, {"type": "Feature", "geometry": {"type": "LineString", "coordinates": [[120.3247755, 14.8473237], [120.3247675, 14.8474113], [120.3247319, 14.8475357], [120.3246738, 14.847668], [120.3246286, 14.8477508], [120.3245571, 14.8478549], [120.3244543, 14.8479608], [120.3239604, 14.8483908], [120.3238434, 14.8485339], [120.3238025, 14.8486712], [120.3237985, 14.848786], [120.323832, 14.848902], [120.3238729, 14.8489973], [120.3239742, 14.849119], [120.3240252, 14.8491495], [120.3241017, 14.84918], [120.324178, 14.8491923], [120.3242934, 14.8491988], [120.3244342, 14.8491936], [120.3245871, 14.8491755], [120.3247038, 14.8491444], [120.3248446, 14.8490822], [120.3249612, 14.8489888], [120.3250377, 14.8489059], [120.3252387, 14.8486788], [120.3253515, 14.8485896], [120.3254467, 14.8485507], [120.3255325, 14.8485364], [120.3256479, 14.8485442], [120.3257471, 14.8485792], [120.3258222, 14.8486259], [120.3258799, 14.8487101], [120.3259107, 14.8487672], [120.3259399, 14.8489026], [120.3259443, 14.8491456], [120.3259497, 14.8493414], [120.3259684, 14.8494283], [120.3260181, 14.8495256], [120.326065, 14.8495864], [120.3261414, 14.8496499], [120.3262755, 14.8497096], [120.3268857, 14.8499196], [120.3271164, 14.8499964], [120.3272512, 14.8500427], [120.32747, 14.8501186], [120.3279452, 14.8502864], [120.3281008, 14.8503266], [120.3282899, 14.8503629], [120.3285205, 14.8503927], [120.3289219, 14.8504237], [120.329297, 14.8504576], [120.3294177, 14.8504588], [120.3295414, 14.8504489], [120.3296792, 14.8504303], [120.3298241, 14.850385], [120.3299662, 14.8503305], [120.3301326, 14.8502424], [120.3302935, 14.8501594], [120.330437, 14.8500894], [120.3305129, 14.8500581], [120.3307548, 14.8499585], [120.3309385, 14.8499014], [120.3311397, 14.8498496], [120.3313441, 14.8498013], [120.3313925, 14.8497917], [120.3315735, 14.8497455], [120.3316595, 14.8497304], [120.3318312, 14.8496888], [120.331973, 14.8496543], [120.332041, 14.8496452], [120.3321227, 14.8496487], [120.3322106, 14.8496659], [120.3323011, 14.8497018], [120.3323883, 14.8497433], [120.3325666, 14.8498419], [120.3328443, 14.8500428], [120.3329827, 14.8501797], [120.3330769, 14.8503182], [120.3331004, 14.8503674], [120.3331366, 14.8504524], [120.3331863, 14.8506533], [120.3332359, 14.8509103], [120.3332613, 14.8510253], [120.3333062, 14.8511777], [120.3333246, 14.8512488], [120.3333579, 14.8513585], [120.3334625, 14.8515957], [120.3336259, 14.8519059], [120.3336824, 14.8519833], [120.3337965, 14.8521992], [120.3338769, 14.852345], [120.3339655, 14.8524293], [120.33405, 14.8524487], [120.3341169, 14.85245], [120.3342216, 14.8524021], [120.3342641, 14.8523413], [120.3343007, 14.852262], [120.3342833, 14.8521531], [120.3342242, 14.8520403], [120.3341277, 14.8519081], [120.3340472, 14.8518174], [120.3339601, 14.8517059], [120.3339279, 14.8515892], [120.3339157, 14.8514985], [120.3339091, 14.8513844], [120.3339239, 14.8512898], [120.3339507, 14.8511823], [120.3339828, 14.8511096], [120.3340472, 14.8510033], [120.334224, 14.8507716], [120.3342698, 14.8507039], [120.334459, 14.8504343], [120.3346695, 14.8501659], [120.3347338, 14.8500596], [120.3347648, 14.849972], [120.3348827, 14.8496007], [120.3349616, 14.8492407], [120.3349792, 14.849121], [120.3349887, 14.8490368], [120.3349833, 14.8489228], [120.3349632, 14.8487905], [120.3349364, 14.8486881], [120.3348787, 14.8485468], [120.3348532, 14.8484496], [120.3348372, 14.8483692], [120.3348371, 14.8482966], [120.3348666, 14.8481981], [120.3348908, 14.848141], [120.334948, 14.8480618], [120.3349995, 14.8480101], [120.335053, 14.8479751], [120.335133, 14.8479399], [120.3352013, 14.8479233], [120.3352542, 14.8479232], [120.3353306, 14.8479271], [120.3354118, 14.8479375], [120.3354674, 14.8479531], [120.3355533, 14.8479855], [120.3355915, 14.8480016], [120.3356264, 14.8480154], [120.3360817, 14.8482176], [120.3364266, 14.8483827], [120.3366978, 14.8485101], [120.3368193, 14.8485669], [120.3369856, 14.8486395], [120.3370822, 14.8486765], [120.3371666, 14.8487069], [120.337203, 14.8487181], [120.3372699, 14.8487353], [120.3373197, 14.8487408], [120.3374322, 14.8487451], [120.3375489, 14.84874], [120.3376267, 14.8487335], [120.3376984, 14.8487218], [120.3377606, 14.8487095], [120.3378734, 14.8486841], [120.3379807, 14.8486596], [120.3380362, 14.8486478], [120.3380961, 14.8486291], [120.3381481, 14.8486085], [120.3381993, 14.8485883], [120.3382891, 14.8485416], [120.3383591, 14.848486], [120.3384353, 14.8484133], [120.3384782, 14.8483497], [120.3384998, 14.8482987], [120.3385332, 14.8482033], [120.3385615, 14.8480794], [120.3386056, 14.8478351], [120.3386339, 14.8476542], [120.3386451, 14.8475977], [120.3386794, 14.8474306], [120.3387322, 14.8472297]]}, "properties": {"city": "olongapo", "name": "Jose Abad Santos Avenue", "highway": "trunk", "v_posted": 80, "posted_imputed": false, "v_safe": 70, "gap": 10, "R": 1.71, "exposure": 0.226, "vru_150m": 0, "sss": 15.3, "recommended": 70, "fatal_reduction_pct": 41.4, "why": "trunk highway (head-on only; no at-grade ped mixing assumed)", "pop_density": 7295.2, "pop_density_peak": 12963.2}}, {"type": "Feature", "geometry": {"type": "LineString", "coordinates": [[120.3025873, 14.8496667], [120.3025204, 14.8496965], [120.3024935, 14.8496962]]}, "properties": {"city": "olongapo", "name": "Argonaut Highway", "highway": "tertiary", "v_posted": 55, "posted_imputed": false, "v_safe": 50, "gap": 5, "R": 1.46, "exposure": 0.585, "vru_150m": 0, "sss": 9.9, "recommended": 50, "fatal_reduction_pct": 31.7, "why": "undivided arterial, side-impact intersections", "pop_density": 18912.2, "pop_density_peak": 18912.2}}, {"type": "Feature", "geometry": {"type": "LineString", "coordinates": [[120.3024943, 14.8496348], [120.3025212, 14.8496352], [120.3025873, 14.8496667]]}, "properties": {"city": "olongapo", "name": "Argonaut Highway", "highway": "tertiary", "v_posted": 55, "posted_imputed": false, "v_safe": 50, "gap": 5, "R": 1.46, "exposure": 0.507, "vru_150m": 0, "sss": 9.4, "recommended": 50, "fatal_reduction_pct": 31.7, "why": "undivided arterial, side-impact intersections", "pop_density": 16390.6, "pop_density_peak": 18912.2}}, {"type": "Feature", "geometry": {"type": "LineString", "coordinates": [[120.3024935, 14.8496962], [120.3024667, 14.8496958], [120.3024032, 14.8496644]]}, "properties": {"city": "olongapo", "name": "Argonaut Highway", "highway": "tertiary", "v_posted": 55, "posted_imputed": false, "v_safe": 50, "gap": 5, "R": 1.46, "exposure": 0.507, "vru_150m": 0, "sss": 9.4, "recommended": 50, "fatal_reduction_pct": 31.7, "why": "undivided arterial, side-impact intersections", "pop_density": 16390.6, "pop_density_peak": 18912.2}}, {"type": "Feature", "geometry": {"type": "LineString", "coordinates": [[120.3024032, 14.8496644], [120.3024675, 14.8496345], [120.3024943, 14.8496348]]}, "properties": {"city": "olongapo", "name": "Argonaut Highway", "highway": "tertiary", "v_posted": 55, "posted_imputed": false, "v_safe": 50, "gap": 5, "R": 1.46, "exposure": 0.429, "vru_150m": 0, "sss": 8.9, "recommended": 50, "fatal_reduction_pct": 31.7, "why": "undivided arterial, side-impact intersections", "pop_density": 13869.1, "pop_density_peak": 13869.1}}, {"type": "Feature", "geometry": {"type": "LineString", "coordinates": [[120.3024032, 14.8496644], [120.3023415, 14.8496762], [120.3022862, 14.8496992], [120.3022443, 14.8497297], [120.3022214, 14.8497623], [120.3021913, 14.8498224]]}, "properties": {"city": "olongapo", "name": "Argonaut Highway", "highway": "tertiary", "v_posted": 55, "posted_imputed": false, "v_safe": 50, "gap": 5, "R": 1.46, "exposure": 0.397, "vru_150m": 0, "sss": 8.7, "recommended": 50, "fatal_reduction_pct": 31.7, "why": "undivided arterial, side-impact intersections", "pop_density": 12854.6, "pop_density_peak": 13869.1}}, {"type": "Feature", "geometry": {"type": "LineString", "coordinates": [[120.3025873, 14.8496667], [120.3026789, 14.8496762], [120.3028377, 14.8496862], [120.3030076, 14.8496914], [120.3031531, 14.8496904], [120.303259, 14.8496847], [120.3033526, 14.8496652], [120.3034513, 14.8496286], [120.3035553, 14.8495675], [120.3036665, 14.8494911], [120.303749, 14.8494211], [120.3038661, 14.8493129], [120.3040238, 14.8491484], [120.3047184, 14.8483614], [120.3048493, 14.8482226], [120.3049902, 14.8480978], [120.305152, 14.8479723], [120.3053364, 14.8478463], [120.3059637, 14.847441], [120.3061158, 14.8473335], [120.3062211, 14.8472368], [120.3062949, 14.8471464], [120.3063643, 14.8470505], [120.3064258, 14.8469339], [120.3065093, 14.8467525], [120.3067496, 14.8462357], [120.306843, 14.8460401], [120.3069082, 14.8459085], [120.3069441, 14.8458049], [120.3070165, 14.8455581], [120.3070706, 14.8454304], [120.3071498, 14.845287], [120.3072132, 14.8451649], [120.3072722, 14.8450625], [120.3073602, 14.8448788], [120.3075346, 14.8444981], [120.3076072, 14.8443271]]}, "properties": {"city": "olongapo", "name": "Argonaut Highway", "highway": "tertiary", "v_posted": 55, "posted_imputed": false, "v_safe": 50, "gap": 5, "R": 1.46, "exposure": 0.324, "vru_150m": 0, "sss": 8.3, "recommended": 50, "fatal_reduction_pct": 31.7, "why": "undivided arterial, side-impact intersections", "pop_density": 10465.7, "pop_density_peak": 19111.6}}]}