{"type": "FeatureCollection", "features": [{"type": "Feature", "geometry": {"type": "LineString", "coordinates": [[121.5523685, 16.6746697], [121.5521659, 16.6759062], [121.5520246, 16.676962], [121.5519658, 16.6773191]]}, "properties": {"city": "santiago", "name": "Saguday - Santiago City Road", "highway": "secondary", "v_posted": 60, "posted_imputed": false, "v_safe": 50, "gap": 10, "R": 2.07, "exposure": 0.624, "vru_150m": 0, "sss": 20.3, "recommended": 50, "fatal_reduction_pct": 51.8, "why": "undivided arterial, side-impact intersections", "pop_density": 20179.8, "pop_density_peak": 24778.7, "v_design": 50, "design_gap": 0}}, {"type": "Feature", "geometry": {"type": "LineString", "coordinates": [[121.5524602, 16.6740116], [121.5523685, 16.6746697]]}, "properties": {"city": "santiago", "name": "Saguday - Santiago City Road", "highway": "secondary", "v_posted": 60, "posted_imputed": false, "v_safe": 50, "gap": 10, "R": 2.07, "exposure": 0.826, "vru_150m": 0, "sss": 22.8, "recommended": 50, "fatal_reduction_pct": 51.8, "why": "undivided arterial, side-impact intersections", "pop_density": 26732.9, "pop_density_peak": 28687.1, "v_design": 50, "design_gap": 0}}, {"type": "Feature", "geometry": {"type": "LineString", "coordinates": [[121.5532736, 16.6674801], [121.5532886, 16.6676366], [121.5533097, 16.6679188], [121.5533233, 16.6684706], [121.5533371, 16.6686608], [121.5533031, 16.6689165], [121.5531778, 16.6695381], [121.5529789, 16.6705757], [121.5526201, 16.672763], [121.5525352, 16.6733507], [121.552497, 16.6737184], [121.5524692, 16.6739491], [121.5524602, 16.6740116]]}, "properties": {"city": "santiago", "name": "Saguday - Santiago City Road", "highway": "secondary", "v_posted": 60, "posted_imputed": false, "v_safe": 50, "gap": 10, "R": 2.07, "exposure": 0.564, "vru_150m": 1, "sss": 19.6, "recommended": 50, "fatal_reduction_pct": 51.8, "why": "undivided arterial, side-impact intersections", "pop_density": 14736.6, "pop_density_peak": 28687.1, "v_design": 50, "design_gap": 0}}, {"type": "Feature", "geometry": {"type": "LineString", "coordinates": [[121.5531088, 16.6610238], [121.5530008, 16.6620896], [121.5529929, 16.6628844], [121.5530215, 16.6637573], [121.5531088, 16.6649741]]}, "properties": {"city": "santiago", "name": "Saguday - Santiago City Road", "highway": "secondary", "v_posted": 60, "posted_imputed": false, "v_safe": 50, "gap": 10, "R": 2.07, "exposure": 0.223, "vru_150m": 0, "sss": 15.3, "recommended": 50, "fatal_reduction_pct": 51.8, "why": "undivided arterial, side-impact intersections", "pop_density": 7206.3, "pop_density_peak": 7465.5, "v_design": 50, "design_gap": 0}}, {"type": "Feature", "geometry": {"type": "LineString", "coordinates": [[121.5531388, 16.6607562], [121.5531088, 16.6610238]]}, "properties": {"city": "santiago", "name": "Saguday - Santiago City Road", "highway": "secondary", "v_posted": 60, "posted_imputed": false, "v_safe": 50, "gap": 10, "R": 2.07, "exposure": 0.231, "vru_150m": 0, "sss": 15.4, "recommended": 50, "fatal_reduction_pct": 51.8, "why": "undivided arterial, side-impact intersections", "pop_density": 7465.5, "pop_density_peak": 7465.5, "v_design": 50, "design_gap": 0}}, {"type": "Feature", "geometry": {"type": "LineString", "coordinates": [[121.561317, 16.6443923], [121.5612034, 16.64458], [121.5608025, 16.6452623], [121.5606295, 16.6455578], [121.560384, 16.6459715], [121.5587784, 16.6486464], [121.5562301, 16.6528371], [121.5560433, 16.6531636], [121.5554186, 16.6539759], [121.5546043, 16.6556425], [121.5539052, 16.6568355], [121.5535934, 16.6572374], [121.5534488, 16.6575876], [121.5533655, 16.6579484], [121.5532657, 16.6584749], [121.5532431, 16.6591818], [121.5532374, 16.659382], [121.553207, 16.6598611], [121.5531388, 16.6607562]]}, "properties": {"city": "santiago", "name": "Saguday - Santiago City Road", "highway": "secondary", "v_posted": 60, "posted_imputed": false, "v_safe": 50, "gap": 10, "R": 2.07, "exposure": 0.074, "vru_150m": 0, "sss": 13.4, "recommended": 50, "fatal_reduction_pct": 51.8, "why": "undivided arterial, side-impact intersections", "pop_density": 2399.8, "pop_density_peak": 7553.2, "v_design": 50, "design_gap": 0}}, {"type": "Feature", "geometry": {"type": "LineString", "coordinates": [[121.5345616, 16.6921699], [121.5336457, 16.6926161], [121.5332212, 16.692828], [121.5330751, 16.6929014], [121.5328127, 16.693042], [121.5326621, 16.6930972], [121.5324384, 16.6931641], [121.5322133, 16.6932188], [121.5319261, 16.6932551], [121.5316432, 16.6932802], [121.5313171, 16.6932866], [121.5309677, 16.6932456], [121.5305907, 16.6931744], [121.5299079, 16.693005], [121.529218, 16.6928435], [121.5286677, 16.6927018], [121.5285287, 16.692665], [121.5279778, 16.6925277], [121.5270278, 16.6922893], [121.5266512, 16.6921915], [121.5262689, 16.6920873], [121.5258614, 16.6919756], [121.5251227, 16.6917686], [121.5247168, 16.6916514], [121.5244358, 16.6915665], [121.5242114, 16.691501], [121.5236998, 16.6913641], [121.5230674, 16.6912118], [121.5230081, 16.6911999], [121.5229332, 16.6911798], [121.5223202, 16.6910601], [121.5220757, 16.6910057], [121.5218618, 16.6909679]]}, "properties": {"city": "santiago", "name": "Maharlika Highway", "highway": "primary", "v_posted": 60, "posted_imputed": false, "v_safe": 50, "gap": 10, "R": 2.07, "exposure": 0.119, "vru_150m": 0, "sss": 14.0, "recommended": 50, "fatal_reduction_pct": 51.8, "why": "undivided arterial, side-impact intersections", "pop_density": 3838.8, "pop_density_peak": 4380.4, "v_design": 60, "design_gap": 10}}, {"type": "Feature", "geometry": {"type": "LineString", "coordinates": [[121.5180848, 16.6903223], [121.5178488, 16.6903095]]}, "properties": {"city": "santiago", "name": "Maharlika Highway", "highway": "trunk", "v_posted": 80, "posted_imputed": false, "v_safe": 50, "gap": 30, "R": 6.55, "exposure": 0.134, "vru_150m": 0, "sss": 42.5, "recommended": 50, "fatal_reduction_pct": 84.7, "why": "undivided arterial, side-impact intersections", "pop_density": 4320.9, "pop_density_peak": 4320.9, "v_design": 70, "design_gap": 20}}, {"type": "Feature", "geometry": {"type": "LineString", "coordinates": [[121.530519, 16.7010435], [121.5299275, 16.7008252], [121.529265, 16.7004938], [121.5288681, 16.7002291], [121.5280438, 16.6994001], [121.5279025, 16.699258], [121.5266713, 16.698048], [121.5255636, 16.696915], [121.524829, 16.6962346]]}, "properties": {"city": "santiago", "name": "Santiago Bypass Road", "highway": "trunk", "v_posted": 60, "posted_imputed": false, "v_safe": 50, "gap": 10, "R": 2.07, "exposure": 0.003, "vru_150m": 0, "sss": 12.5, "recommended": 50, "fatal_reduction_pct": 51.8, "why": "undivided arterial, side-impact intersections", "pop_density": 106.7, "pop_density_peak": 285.4, "v_design": 70, "design_gap": 20}}, {"type": "Feature", "geometry": {"type": "LineString", "coordinates": [[121.5218016, 16.6926849], [121.5218018, 16.692401]]}, "properties": {"city": "santiago", "name": "Santiago Bypass Road", "highway": "trunk", "v_posted": 60, "posted_imputed": false, "v_safe": 50, "gap": 10, "R": 2.07, "exposure": 0.045, "vru_150m": 0, "sss": 13.1, "recommended": 50, "fatal_reduction_pct": 51.8, "why": "undivided arterial, side-impact intersections", "pop_density": 1456.1, "pop_density_peak": 1456.1, "v_design": 70, "design_gap": 20}}, {"type": "Feature", "geometry": {"type": "LineString", "coordinates": [[121.5218018, 16.692401], [121.5218031, 16.6916508], [121.5218618, 16.6909679]]}, "properties": {"city": "santiago", "name": "Santiago Bypass Road", "highway": "trunk", "v_posted": 60, "posted_imputed": false, "v_safe": 50, "gap": 10, "R": 2.07, "exposure": 0.069, "vru_150m": 0, "sss": 13.4, "recommended": 50, "fatal_reduction_pct": 51.8, "why": "undivided arterial, side-impact intersections", "pop_density": 2240.6, "pop_density_peak": 3025.0, "v_design": 70, "design_gap": 20}}, {"type": "Feature", "geometry": {"type": "LineString", "coordinates": [[121.5308382, 16.701145], [121.530519, 16.7010435]]}, "properties": {"city": "santiago", "name": "Santiago Bypass Road", "highway": "trunk", "v_posted": 60, "posted_imputed": false, "v_safe": 50, "gap": 10, "R": 2.07, "exposure": 0.009, "vru_150m": 0, "sss": 12.6, "recommended": 50, "fatal_reduction_pct": 51.8, "why": "undivided arterial, side-impact intersections", "pop_density": 285.4, "pop_density_peak": 285.4, "v_design": 70, "design_gap": 20}}, {"type": "Feature", "geometry": {"type": "LineString", "coordinates": [[121.5382045, 16.7045061], [121.5376148, 16.7042292], [121.5359035, 16.7034405], [121.5337202, 16.7024283], [121.5324488, 16.7018143], [121.5311882, 16.7012568], [121.5308382, 16.701145]]}, "properties": {"city": "santiago", "name": "Santiago Bypass Road", "highway": "trunk", "v_posted": 60, "posted_imputed": false, "v_safe": 50, "gap": 10, "R": 2.07, "exposure": 0.002, "vru_150m": 0, "sss": 12.5, "recommended": 50, "fatal_reduction_pct": 51.8, "why": "undivided arterial, side-impact intersections", "pop_density": 57.1, "pop_density_peak": 285.4, "v_design": 70, "design_gap": 20}}, {"type": "Feature", "geometry": {"type": "LineString", "coordinates": [[121.524829, 16.6962346], [121.5238484, 16.6952632], [121.5234997, 16.6949652], [121.5232315, 16.6947648], [121.5225448, 16.6942624], [121.5222692, 16.6940417], [121.5220834, 16.6938774], [121.5219801, 16.693754], [121.5218957, 16.6936193], [121.521832, 16.6933846], [121.5218095, 16.6929442], [121.5218016, 16.6926849]]}, "properties": {"city": "santiago", "name": "Santiago Bypass Road", "highway": "trunk", "v_posted": 60, "posted_imputed": false, "v_safe": 50, "gap": 10, "R": 2.07, "exposure": 0.018, "vru_150m": 0, "sss": 12.7, "recommended": 50, "fatal_reduction_pct": 51.8, "why": "undivided arterial, side-impact intersections", "pop_density": 587.0, "pop_density_peak": 1456.1, "v_design": 70, "design_gap": 20}}, {"type": "Feature", "geometry": {"type": "LineString", "coordinates": [[121.5218618, 16.6909679], [121.5216591, 16.6909331], [121.5215336, 16.6909097], [121.520964, 16.6908145], [121.5201079, 16.6906582], [121.5187131, 16.6904146], [121.5185475, 16.6903843], [121.5183849, 16.6903596], [121.5182395, 16.6903363], [121.5180848, 16.6903223]]}, "properties": {"city": "santiago", "name": "Maharlika Highway", "highway": "trunk", "v_posted": 60, "posted_imputed": false, "v_safe": 50, "gap": 10, "R": 2.07, "exposure": 0.1, "vru_150m": 0, "sss": 13.7, "recommended": 50, "fatal_reduction_pct": 51.8, "why": "undivided arterial, side-impact intersections", "pop_density": 3226.9, "pop_density_peak": 4514.7, "v_design": 70, "design_gap": 20}}, {"type": "Feature", "geometry": {"type": "LineString", "coordinates": [[121.5588313, 16.696811], [121.5589747, 16.696837], [121.5590939, 16.6968606], [121.5593896, 16.6969343]]}, "properties": {"city": "santiago", "name": "Maharlika Highway", "highway": "primary", "v_posted": 60, "posted_imputed": false, "v_safe": 50, "gap": 10, "R": 2.07, "exposure": 1.0, "vru_150m": 0, "sss": 25.0, "recommended": 50, "fatal_reduction_pct": 51.8, "why": "undivided arterial, side-impact intersections", "pop_density": 51625.2, "pop_density_peak": 52351.6, "v_design": 60, "design_gap": 10}}, {"type": "Feature", "geometry": {"type": "LineString", "coordinates": [[121.5348597, 16.6920157], [121.5345616, 16.6921699]]}, "properties": {"city": "santiago", "name": "Maharlika Highway", "highway": "primary", "v_posted": 60, "posted_imputed": false, "v_safe": 50, "gap": 10, "R": 2.07, "exposure": 0.115, "vru_150m": 0, "sss": 13.9, "recommended": 50, "fatal_reduction_pct": 51.8, "why": "undivided arterial, side-impact intersections", "pop_density": 3729.4, "pop_density_peak": 3907.7, "v_design": 60, "design_gap": 10}}, {"type": "Feature", "geometry": {"type": "LineString", "coordinates": [[121.558547, 16.6973927], [121.5585456, 16.6971642], [121.5585456, 16.6970686]]}, "properties": {"city": "santiago", "name": "Santiago-Tuguegarao Road", "highway": "primary", "v_posted": 60, "posted_imputed": false, "v_safe": 50, "gap": 10, "R": 2.07, "exposure": 1.0, "vru_150m": 0, "sss": 25.0, "recommended": 50, "fatal_reduction_pct": 51.8, "why": "undivided arterial, side-impact intersections", "pop_density": 47371.2, "pop_density_peak": 52351.6, "v_design": 60, "design_gap": 10}}, {"type": "Feature", "geometry": {"type": "LineString", "coordinates": [[121.5587736, 16.6971778], [121.5587176, 16.6972225], [121.558685, 16.6972513], [121.5586358, 16.6973], [121.558547, 16.6973927]]}, "properties": {"city": "santiago", "name": "Santiago-Tuguegarao Road", "highway": "primary", "v_posted": 60, "posted_imputed": false, "v_safe": 50, "gap": 10, "R": 2.07, "exposure": 1.0, "vru_150m": 0, "sss": 25.0, "recommended": 50, "fatal_reduction_pct": 51.8, "why": "undivided arterial, side-impact intersections", "pop_density": 42390.8, "pop_density_peak": 42390.8, "v_design": 60, "design_gap": 10}}, {"type": "Feature", "geometry": {"type": "LineString", "coordinates": [[121.5400395, 16.7057397], [121.5396291, 16.7054186]]}, "properties": {"city": "santiago", "name": "Santiago Bypass Road", "highway": "trunk", "v_posted": 60, "posted_imputed": false, "v_safe": 50, "gap": 10, "R": 2.07, "exposure": 0.0, "vru_150m": 0, "sss": 12.5, "recommended": 50, "fatal_reduction_pct": 51.8, "why": "undivided arterial, side-impact intersections", "pop_density": 0.0, "pop_density_peak": 0.0, "v_design": 70, "design_gap": 20}}, {"type": "Feature", "geometry": {"type": "LineString", "coordinates": [[121.5400395, 16.7057397], [121.5413967, 16.7068238], [121.5419071, 16.7072022], [121.5442184, 16.7090203], [121.5452751, 16.709845], [121.5469006, 16.7111423], [121.5469649, 16.7111769], [121.547201, 16.7112861], [121.5491509, 16.7116406], [121.5498034, 16.7117684], [121.5504491, 16.7118917], [121.5507147, 16.7119431], [121.5509339, 16.7119669], [121.5511814, 16.7119553], [121.5524822, 16.7117896], [121.5527879, 16.7117409], [121.553002, 16.7117058], [121.5540016, 16.7115798], [121.5546353, 16.711464]]}, "properties": {"city": "santiago", "name": "Santiago Bypass Road", "highway": "trunk", "v_posted": 60, "posted_imputed": false, "v_safe": 50, "gap": 10, "R": 2.07, "exposure": 0.088, "vru_150m": 0, "sss": 13.6, "recommended": 50, "fatal_reduction_pct": 51.8, "why": "undivided arterial, side-impact intersections", "pop_density": 2834.3, "pop_density_peak": 8307.1, "v_design": 70, "design_gap": 20}}, {"type": "Feature", "geometry": {"type": "LineString", "coordinates": [[121.5593896, 16.6969343], [121.5597, 16.6969779], [121.560262, 16.6970268]]}, "properties": {"city": "santiago", "name": "Maharlika Highway", "highway": "primary", "v_posted": 60, "posted_imputed": false, "v_safe": 50, "gap": 10, "R": 2.07, "exposure": 1.0, "vru_150m": 0, "sss": 25.0, "recommended": 50, "fatal_reduction_pct": 51.8, "why": "undivided arterial, side-impact intersections", "pop_density": 36847.0, "pop_density_peak": 50898.8, "v_design": 60, "design_gap": 10}}, {"type": "Feature", "geometry": {"type": "LineString", "coordinates": [[121.558547, 16.6973927], [121.5583709, 16.6981122], [121.5581996, 16.6986946], [121.5580542, 16.6992146], [121.5579726, 16.6995063], [121.5578863, 16.6997851], [121.5577878, 16.7001518], [121.5575147, 16.7011685], [121.5569942, 16.7030084], [121.5569474, 16.7031878], [121.5568931, 16.703372], [121.5568486, 16.7035227], [121.5568089, 16.7036772], [121.5566582, 16.7042322], [121.5564062, 16.7051295], [121.5556052, 16.7079815], [121.5555232, 16.7082736], [121.5553229, 16.7090618], [121.5552637, 16.7092729], [121.5548763, 16.7105817], [121.5548264, 16.7107591], [121.5546353, 16.711464]]}, "properties": {"city": "santiago", "name": "Santiago-Tuguegarao Road", "highway": "primary", "v_posted": 60, "posted_imputed": false, "v_safe": 50, "gap": 10, "R": 2.07, "exposure": 0.295, "vru_150m": 0, "sss": 16.2, "recommended": 50, "fatal_reduction_pct": 51.8, "why": "undivided arterial, side-impact intersections", "pop_density": 9545.6, "pop_density_peak": 42390.8, "v_design": 60, "design_gap": 10}}, {"type": "Feature", "geometry": {"type": "LineString", "coordinates": [[121.5593896, 16.6969343], [121.5592682, 16.6969516], [121.5591502, 16.6969754], [121.5590322, 16.6970313], [121.5589501, 16.6970749], [121.558892, 16.6971092]]}, "properties": {"city": "santiago", "name": "Santiago-Tuguegarao Road", "highway": "primary", "v_posted": 60, "posted_imputed": false, "v_safe": 50, "gap": 10, "R": 2.07, "exposure": 1.0, "vru_150m": 0, "sss": 25.0, "recommended": 50, "fatal_reduction_pct": 51.8, "why": "undivided arterial, side-impact intersections", "pop_density": 46644.8, "pop_density_peak": 50898.8, "v_design": 60, "design_gap": 10}}, {"type": "Feature", "geometry": {"type": "LineString", "coordinates": [[121.560262, 16.6970268], [121.5603562, 16.6970334], [121.560459, 16.6970479], [121.5616992, 16.6971653], [121.5618096, 16.6971731], [121.5628539, 16.6972666], [121.5629772, 16.6972748], [121.5632049, 16.6972918], [121.5633501, 16.6973026], [121.5636677, 16.6973283], [121.5640091, 16.6973628], [121.5652636, 16.6974675], [121.5661267, 16.6975534], [121.5663213, 16.6975719], [121.5665706, 16.6976022], [121.5671857, 16.6976412], [121.5672671, 16.6976513], [121.5673561, 16.69766], [121.5680265, 16.6977199]]}, "properties": {"city": "santiago", "name": "Maharlika Highway", "highway": "primary", "v_posted": 60, "posted_imputed": false, "v_safe": 50, "gap": 10, "R": 2.07, "exposure": 0.214, "vru_150m": 0, "sss": 15.2, "recommended": 50, "fatal_reduction_pct": 51.8, "why": "undivided arterial, side-impact intersections", "pop_density": 6937.0, "pop_density_peak": 22795.1, "v_design": 60, "design_gap": 10}}, {"type": "Feature", "geometry": {"type": "LineString", "coordinates": [[121.5396291, 16.7054186], [121.5394601, 16.7052773], [121.5388839, 16.7048483], [121.5386249, 16.7047179], [121.5382045, 16.7045061]]}, "properties": {"city": "santiago", "name": "Santiago Bypass Road", "highway": "trunk", "v_posted": 60, "posted_imputed": false, "v_safe": 50, "gap": 10, "R": 2.07, "exposure": 0.0, "vru_150m": 0, "sss": 12.5, "recommended": 50, "fatal_reduction_pct": 51.8, "why": "undivided arterial, side-impact intersections", "pop_density": 0.0, "pop_density_peak": 0.0, "v_design": 70, "design_gap": 20}}, {"type": "Feature", "geometry": {"type": "LineString", "coordinates": [[121.5348597, 16.6920157], [121.5352311, 16.6917913], [121.5354729, 16.6916228], [121.5361233, 16.6911697], [121.5373811, 16.6903351], [121.5375073, 16.6902514], [121.5387299, 16.6894024], [121.5390539, 16.6891823], [121.5396411, 16.6887837], [121.5404223, 16.688415], [121.5409372, 16.6882279], [121.5411519, 16.6881532], [121.5415755, 16.6880072], [121.5417911, 16.6879309], [121.5420103, 16.6878499]]}, "properties": {"city": "santiago", "name": "Maharlika Highway", "highway": "primary", "v_posted": 60, "posted_imputed": false, "v_safe": 50, "gap": 10, "R": 2.07, "exposure": 0.232, "vru_150m": 0, "sss": 15.4, "recommended": 50, "fatal_reduction_pct": 51.8, "why": "undivided arterial, side-impact intersections", "pop_density": 7514.7, "pop_density_peak": 14239.1, "v_design": 60, "design_gap": 10}}, {"type": "Feature", "geometry": {"type": "LineString", "coordinates": [[121.571943, 16.6977178], [121.5721511, 16.6976982], [121.5727102, 16.6976453], [121.5727718, 16.6976395], [121.5730501, 16.6976132], [121.5731571, 16.6976031], [121.5740653, 16.6975175], [121.5746319, 16.6974622], [121.5749981, 16.6974179], [121.575338, 16.6973825], [121.5754487, 16.6973697], [121.5762431, 16.6972967], [121.5765899, 16.6972734], [121.577048, 16.6972278], [121.5773704, 16.6971958], [121.5774573, 16.6971872], [121.5779564, 16.6971375], [121.5790254, 16.6970313], [121.5791379, 16.6970207], [121.5793908, 16.6969967], [121.5802471, 16.6969158], [121.5804719, 16.6968945], [121.580968, 16.6968476], [121.5811595, 16.6968312], [121.5813509, 16.6968148], [121.5828738, 16.6966683], [121.5830439, 16.6966554], [121.5835067, 16.6966009], [121.5839258, 16.6965605], [121.584603, 16.6964949], [121.5846583, 16.6964895], [121.5858436, 16.6963736], [121.5867381, 16.6962827], [121.5873778, 16.6962278], [121.587998, 16.6961642], [121.5882871, 16.6961391], [121.588787, 16.6960806], [121.5888981, 16.6960676], [121.5904778, 16.6959055], [121.5910392, 16.6958387], [121.5916495, 16.6957669], [121.5923052, 16.6956888], [121.5923259, 16.695688], [121.5925395, 16.6956619], [121.592848, 16.6956339], [121.5933249, 16.6955656], [121.5935612, 16.6955359], [121.5938579, 16.6954964], [121.5947891, 16.6953797], [121.5959867, 16.6952369]]}, "properties": {"city": "santiago", "name": "Maharlika Highway", "highway": "primary", "v_posted": 60, "posted_imputed": false, "v_safe": 50, "gap": 10, "R": 2.07, "exposure": 0.251, "vru_150m": 0, "sss": 15.6, "recommended": 50, "fatal_reduction_pct": 51.8, "why": "undivided arterial, side-impact intersections", "pop_density": 8126.0, "pop_density_peak": 10349.2, "v_design": 60, "design_gap": 10}}, {"type": "Feature", "geometry": {"type": "LineString", "coordinates": [[121.571663, 16.6977422], [121.571943, 16.6977178]]}, "properties": {"city": "santiago", "name": "Maharlika Highway", "highway": "primary", "v_posted": 60, "posted_imputed": false, "v_safe": 50, "gap": 10, "R": 2.07, "exposure": 0.243, "vru_150m": 0, "sss": 15.5, "recommended": 50, "fatal_reduction_pct": 51.8, "why": "undivided arterial, side-impact intersections", "pop_density": 7873.7, "pop_density_peak": 7873.7, "v_design": 60, "design_gap": 10}}, {"type": "Feature", "geometry": {"type": "LineString", "coordinates": [[121.5680265, 16.6977199], [121.5682409, 16.697739], [121.5688048, 16.6977782], [121.5694794, 16.6978039], [121.5701339, 16.6978103], [121.5706502, 16.6978082], [121.5707682, 16.6978078], [121.5713073, 16.6977731], [121.571663, 16.6977422]]}, "properties": {"city": "santiago", "name": "Maharlika Highway", "highway": "primary", "v_posted": 60, "posted_imputed": false, "v_safe": 50, "gap": 10, "R": 2.07, "exposure": 0.149, "vru_150m": 0, "sss": 14.4, "recommended": 50, "fatal_reduction_pct": 51.8, "why": "undivided arterial, side-impact intersections", "pop_density": 4811.4, "pop_density_peak": 7873.7, "v_design": 60, "design_gap": 10}}, {"type": "Feature", "geometry": {"type": "LineString", "coordinates": [[121.5546353, 16.711464], [121.5549762, 16.7114082], [121.5553789, 16.7113625], [121.5555837, 16.7113502], [121.5560054, 16.7113357], [121.5562198, 16.7113315], [121.5650725, 16.7113465], [121.5680565, 16.7113532], [121.56855, 16.7113543], [121.5689872, 16.7113542], [121.5698361, 16.7113041], [121.5722304, 16.7111273], [121.5724377, 16.7111209], [121.5725889, 16.7111171], [121.5727071, 16.7111214], [121.5728295, 16.7111288], [121.5729394, 16.7111465], [121.5730697, 16.7111679], [121.5735293, 16.7112528], [121.574648, 16.7114621], [121.5756673, 16.7116907], [121.5766007, 16.7119309], [121.5778117, 16.7122212], [121.5787951, 16.7124539]]}, "properties": {"city": "santiago", "name": "Santiago Bypass Road", "highway": "trunk", "v_posted": 60, "posted_imputed": false, "v_safe": 50, "gap": 10, "R": 2.07, "exposure": 0.026, "vru_150m": 0, "sss": 12.8, "recommended": 50, "fatal_reduction_pct": 51.8, "why": "undivided arterial, side-impact intersections", "pop_density": 852.7, "pop_density_peak": 4988.6, "v_design": 70, "design_gap": 20}}, {"type": "Feature", "geometry": {"type": "LineString", "coordinates": [[121.5517319, 16.7219963], [121.5516694, 16.7222038], [121.5516424, 16.7223052], [121.5515835, 16.7225267], [121.5513306, 16.7234779], [121.5512793, 16.7236769], [121.5509668, 16.7247674], [121.5508917, 16.7250474], [121.5507643, 16.7255011], [121.5504451, 16.7264615], [121.550396, 16.7267952], [121.5501715, 16.7276373], [121.5500886, 16.7279439], [121.5500203, 16.7281962], [121.549935, 16.7285085], [121.5498336, 16.7288793], [121.5495908, 16.7297533], [121.5493293, 16.7306805], [121.5490271, 16.7317579], [121.5487249, 16.7328352], [121.5486655, 16.7330899], [121.5484093, 16.7340005], [121.5481838, 16.7348034], [121.5480097, 16.7354211]]}, "properties": {"city": "santiago", "name": "Santiago-Tuguegarao Road", "highway": "trunk", "v_posted": 60, "posted_imputed": false, "v_safe": 50, "gap": 10, "R": 2.07, "exposure": 0.275, "vru_150m": 1, "sss": 15.9, "recommended": 50, "fatal_reduction_pct": 51.8, "why": "undivided arterial, side-impact intersections", "pop_density": 3013.3, "pop_density_peak": 5060.5, "v_design": 70, "design_gap": 20}}, {"type": "Feature", "geometry": {"type": "LineString", "coordinates": [[121.5517708, 16.7218576], [121.5517319, 16.7219963]]}, "properties": {"city": "santiago", "name": "Santiago-Tuguegarao Road", "highway": "trunk", "v_posted": 60, "posted_imputed": false, "v_safe": 50, "gap": 10, "R": 2.07, "exposure": 0.156, "vru_150m": 0, "sss": 14.5, "recommended": 50, "fatal_reduction_pct": 51.8, "why": "undivided arterial, side-impact intersections", "pop_density": 5060.5, "pop_density_peak": 5060.5, "v_design": 70, "design_gap": 20}}, {"type": "Feature", "geometry": {"type": "LineString", "coordinates": [[121.5546353, 16.711464], [121.5542485, 16.7128162], [121.5539269, 16.7139723], [121.5536691, 16.7149506], [121.5534546, 16.7157223], [121.55345, 16.7157558], [121.5531812, 16.7167401], [121.5530415, 16.7172948], [121.5529758, 16.7175304], [121.5527746, 16.7182362], [121.5525084, 16.7191833], [121.5522264, 16.7201929], [121.5517708, 16.7218576]]}, "properties": {"city": "santiago", "name": "Santiago-Tuguegarao Road", "highway": "trunk", "v_posted": 60, "posted_imputed": false, "v_safe": 50, "gap": 10, "R": 2.07, "exposure": 0.494, "vru_150m": 2, "sss": 18.7, "recommended": 50, "fatal_reduction_pct": 51.8, "why": "undivided arterial, side-impact intersections", "pop_density": 5049.8, "pop_density_peak": 5257.8, "v_design": 70, "design_gap": 20}}, {"type": "Feature", "geometry": {"type": "LineString", "coordinates": [[121.5834721, 16.7119689], [121.5927365, 16.7090617], [121.5929085, 16.7090028], [121.5930816, 16.7089491], [121.5932118, 16.7088969], [121.5933803, 16.7088126], [121.5935073, 16.7087405], [121.5936352, 16.7086672], [121.5937583, 16.7085756], [121.5938731, 16.7084673], [121.5939579, 16.708361], [121.5940249, 16.7082664], [121.5941126, 16.7081185], [121.5941558, 16.7080143], [121.5942179, 16.7078844], [121.5942794, 16.707738], [121.5943374, 16.7075948], [121.5980171, 16.6975759], [121.5980975, 16.6973271], [121.5981656, 16.6970348], [121.5981909, 16.6967973], [121.5981999, 16.6965036], [121.5981837, 16.6959979], [121.5981861, 16.6955254]]}, "properties": {"city": "santiago", "name": "Santiago Bypass Road", "highway": "trunk", "v_posted": 60, "posted_imputed": false, "v_safe": 50, "gap": 10, "R": 2.07, "exposure": 0.047, "vru_150m": 0, "sss": 13.1, "recommended": 50, "fatal_reduction_pct": 51.8, "why": "undivided arterial, side-impact intersections", "pop_density": 1524.4, "pop_density_peak": 4573.2, "v_design": 60, "design_gap": 10}}]}