{"type": "FeatureCollection", "features": [{"type": "Feature", "geometry": {"type": "LineString", "coordinates": [[124.6216987, 10.9917874], [124.6217778, 10.9916567], [124.6219499, 10.9913569], [124.6220018, 10.9912742], [124.6226302, 10.9903631], [124.6226895, 10.9902849], [124.623194, 10.9895194], [124.6236586, 10.9888633], [124.6239122, 10.988509], [124.6241579, 10.9881358], [124.6247401, 10.9872789], [124.6262459, 10.9851341], [124.6263094, 10.9850382], [124.6264715, 10.9847942], [124.6271678, 10.98376], [124.6273327, 10.9835151], [124.6274756, 10.9833029], [124.6277201, 10.982965], [124.6280442, 10.9825089], [124.6281586, 10.9823351]]}, "properties": {"city": "ormoc", "name": "Ormoc \u2013 Albuera Road", "highway": "trunk", "v_posted": 80, "posted_imputed": false, "v_safe": 50, "gap": 30, "R": 6.55, "exposure": 0.161, "vru_150m": 0, "sss": 43.5, "recommended": 50, "fatal_reduction_pct": 84.7, "why": "undivided arterial, side-impact intersections", "pop_density": 5214.1, "pop_density_peak": 12141.9, "v_design": 70, "design_gap": 20}}, {"type": "Feature", "geometry": {"type": "LineString", "coordinates": [[124.6582487, 10.9550006], [124.6588968, 10.9545637]]}, "properties": {"city": "ormoc", "name": "Ormoc-Baybay Road", "highway": "trunk", "v_posted": 80, "posted_imputed": false, "v_safe": 50, "gap": 30, "R": 6.55, "exposure": 0.109, "vru_150m": 0, "sss": 41.6, "recommended": 50, "fatal_reduction_pct": 84.7, "why": "undivided arterial, side-impact intersections", "pop_density": 3511.5, "pop_density_peak": 3511.5, "v_design": 70, "design_gap": 20}}, {"type": "Feature", "geometry": {"type": "LineString", "coordinates": [[124.6588968, 10.9545637], [124.6589818, 10.9545096], [124.6593794, 10.9542577], [124.6598721, 10.9539332], [124.6603811, 10.9535979], [124.6616352, 10.9527718], [124.6629494, 10.9519062], [124.6644287, 10.9509318], [124.6646156, 10.9508087], [124.6653714, 10.9503109], [124.6662136, 10.9497561], [124.6667699, 10.9494339], [124.6667966, 10.9494184], [124.667276, 10.9491826], [124.6676437, 10.9490568], [124.6678165, 10.9490175], [124.667954, 10.9489762], [124.6691074, 10.9487575]]}, "properties": {"city": "ormoc", "name": "Ormoc-Baybay Road", "highway": "trunk", "v_posted": 80, "posted_imputed": false, "v_safe": 50, "gap": 30, "R": 6.55, "exposure": 0.092, "vru_150m": 0, "sss": 41.0, "recommended": 50, "fatal_reduction_pct": 84.7, "why": "undivided arterial, side-impact intersections", "pop_density": 2989.4, "pop_density_peak": 6669.8, "v_design": 70, "design_gap": 20}}, {"type": "Feature", "geometry": {"type": "LineString", "coordinates": [[124.6454537, 10.9639372], [124.6461779, 10.9632617]]}, "properties": {"city": "ormoc", "name": "Ormoc-Baybay Road", "highway": "trunk", "v_posted": 80, "posted_imputed": false, "v_safe": 50, "gap": 30, "R": 6.55, "exposure": 0.06, "vru_150m": 0, "sss": 39.7, "recommended": 50, "fatal_reduction_pct": 84.7, "why": "undivided arterial, side-impact intersections", "pop_density": 1939.1, "pop_density_peak": 3878.2, "v_design": 70, "design_gap": 20}}, {"type": "Feature", "geometry": {"type": "LineString", "coordinates": [[124.6461779, 10.9632617], [124.6467193, 10.9627763], [124.64681, 10.9627187], [124.6471705, 10.9624585], [124.6477302, 10.9620876], [124.6481584, 10.9618061], [124.6484618, 10.9616048], [124.6484974, 10.9615806], [124.6485578, 10.9615409], [124.6499904, 10.960598], [124.6503426, 10.9603662], [124.6511687, 10.9598225], [124.6512664, 10.9597553], [124.6518767, 10.9593358], [124.6533667, 10.9583297], [124.6534042, 10.958298]]}, "properties": {"city": "ormoc", "name": "Ormoc-Baybay Road", "highway": "trunk", "v_posted": 80, "posted_imputed": false, "v_safe": 50, "gap": 30, "R": 6.55, "exposure": 0.045, "vru_150m": 0, "sss": 39.2, "recommended": 50, "fatal_reduction_pct": 84.7, "why": "undivided arterial, side-impact intersections", "pop_density": 1463.4, "pop_density_peak": 3878.2, "v_design": 70, "design_gap": 20}}, {"type": "Feature", "geometry": {"type": "LineString", "coordinates": [[124.6285013, 10.9818723], [124.6285873, 10.9817637]]}, "properties": {"city": "ormoc", "name": "Ormoc-Baybay Road", "highway": "trunk", "v_posted": 80, "posted_imputed": false, "v_safe": 50, "gap": 30, "R": 6.55, "exposure": 0.42, "vru_150m": 0, "sss": 53.3, "recommended": 50, "fatal_reduction_pct": 84.7, "why": "undivided arterial, side-impact intersections", "pop_density": 13594.1, "pop_density_peak": 13594.1, "v_design": 70, "design_gap": 20}}, {"type": "Feature", "geometry": {"type": "LineString", "coordinates": [[124.6327875, 10.9766334], [124.6329712, 10.9764726]]}, "properties": {"city": "ormoc", "name": "Ormoc-Baybay Road", "highway": "trunk", "v_posted": 80, "posted_imputed": false, "v_safe": 50, "gap": 30, "R": 6.55, "exposure": 0.691, "vru_150m": 3, "sss": 63.4, "recommended": 50, "fatal_reduction_pct": 84.7, "why": "undivided arterial, side-impact intersections", "pop_density": 7343.2, "pop_density_peak": 7343.2, "v_design": 70, "design_gap": 20}}, {"type": "Feature", "geometry": {"type": "LineString", "coordinates": [[124.6537091, 10.958082], [124.6539945, 10.9578805], [124.655747, 10.956698], [124.6561179, 10.956445], [124.6566053, 10.9561124], [124.6572891, 10.9556459], [124.6574223, 10.9555588], [124.6575607, 10.9554684], [124.6576209, 10.9554274], [124.657745, 10.955343], [124.6581233, 10.9550856], [124.6582487, 10.9550006]]}, "properties": {"city": "ormoc", "name": "Ormoc-Baybay Road", "highway": "trunk", "v_posted": 80, "posted_imputed": false, "v_safe": 50, "gap": 30, "R": 6.55, "exposure": 0.076, "vru_150m": 0, "sss": 40.4, "recommended": 50, "fatal_reduction_pct": 84.7, "why": "undivided arterial, side-impact intersections", "pop_density": 2459.4, "pop_density_peak": 3511.5, "v_design": 70, "design_gap": 20}}, {"type": "Feature", "geometry": {"type": "LineString", "coordinates": [[124.6281586, 10.9823351], [124.6285013, 10.9818723]]}, "properties": {"city": "ormoc", "name": "Ormoc-Baybay Road", "highway": "trunk", "v_posted": 80, "posted_imputed": false, "v_safe": 50, "gap": 30, "R": 6.55, "exposure": 0.398, "vru_150m": 0, "sss": 52.4, "recommended": 50, "fatal_reduction_pct": 84.7, "why": "undivided arterial, side-impact intersections", "pop_density": 12868.0, "pop_density_peak": 13594.1, "v_design": 70, "design_gap": 20}}, {"type": "Feature", "geometry": {"type": "LineString", "coordinates": [[124.6534042, 10.958298], [124.6537091, 10.958082]]}, "properties": {"city": "ormoc", "name": "Ormoc-Baybay Road", "highway": "trunk", "v_posted": 80, "posted_imputed": false, "v_safe": 50, "gap": 30, "R": 6.55, "exposure": 0.219, "vru_150m": 1, "sss": 45.7, "recommended": 50, "fatal_reduction_pct": 84.7, "why": "undivided arterial, side-impact intersections", "pop_density": 756.8, "pop_density_peak": 756.8, "v_design": 70, "design_gap": 20}}, {"type": "Feature", "geometry": {"type": "LineString", "coordinates": [[124.6287568, 10.981542], [124.6288743, 10.9813772], [124.6293951, 10.9806975], [124.6296874, 10.980321], [124.6301877, 10.9796351], [124.6302474, 10.979562], [124.6304023, 10.9793606], [124.6308307, 10.9788089], [124.6311513, 10.9783949], [124.6312397, 10.9782797], [124.6316185, 10.9777861], [124.6317578, 10.9776259], [124.6318883, 10.9774757], [124.6323113, 10.9770711], [124.6326172, 10.9767921], [124.6327875, 10.9766334]]}, "properties": {"city": "ormoc", "name": "Ormoc-Baybay Road", "highway": "trunk", "v_posted": 80, "posted_imputed": false, "v_safe": 50, "gap": 30, "R": 6.55, "exposure": 0.262, "vru_150m": 0, "sss": 47.3, "recommended": 50, "fatal_reduction_pct": 84.7, "why": "undivided arterial, side-impact intersections", "pop_density": 8469.3, "pop_density_peak": 13594.1, "v_design": 70, "design_gap": 20}}, {"type": "Feature", "geometry": {"type": "LineString", "coordinates": [[124.6383865, 10.9703299], [124.6385782, 10.9701199], [124.6398973, 10.9690314], [124.6402046, 10.9687992], [124.6406851, 10.9683935], [124.6412649, 10.9679038], [124.6413925, 10.967796], [124.6414226, 10.9677706], [124.641532, 10.9676782], [124.6419511, 10.9673242], [124.6421887, 10.9671235], [124.6422664, 10.9670579], [124.6422777, 10.9670467], [124.6427012, 10.9666266], [124.6431448, 10.9661866], [124.6434385, 10.9658952], [124.6442211, 10.9651189], [124.6444291, 10.9649126], [124.6446966, 10.9646472], [124.6449591, 10.9643868], [124.6450614, 10.9642942], [124.6454537, 10.9639372]]}, "properties": {"city": "ormoc", "name": "Ormoc-Baybay Road", "highway": "trunk", "v_posted": 80, "posted_imputed": false, "v_safe": 50, "gap": 30, "R": 6.55, "exposure": 0.184, "vru_150m": 0, "sss": 44.4, "recommended": 50, "fatal_reduction_pct": 84.7, "why": "undivided arterial, side-impact intersections", "pop_density": 5937.9, "pop_density_peak": 10192.4, "v_design": 70, "design_gap": 20}}, {"type": "Feature", "geometry": {"type": "LineString", "coordinates": [[124.6329712, 10.9764726], [124.6331512, 10.9763351], [124.6332548, 10.9762454], [124.6336331, 10.9759179], [124.6337615, 10.9758119], [124.633822, 10.975762], [124.6340447, 10.9755781], [124.6351478, 10.9746005], [124.635528, 10.9742177], [124.6358616, 10.9737704], [124.63669, 10.9726599], [124.6369381, 10.9723176], [124.6373606, 10.9717475], [124.6374679, 10.9716014], [124.6378373, 10.9710668], [124.6380097, 10.9708548], [124.6380372, 10.970816], [124.6381753, 10.9705994], [124.6382273, 10.9705293]]}, "properties": {"city": "ormoc", "name": "Ormoc-Baybay Road", "highway": "trunk", "v_posted": 80, "posted_imputed": false, "v_safe": 50, "gap": 30, "R": 6.55, "exposure": 0.247, "vru_150m": 0, "sss": 46.8, "recommended": 50, "fatal_reduction_pct": 84.7, "why": "undivided arterial, side-impact intersections", "pop_density": 8004.3, "pop_density_peak": 10426.1, "v_design": 70, "design_gap": 20}}, {"type": "Feature", "geometry": {"type": "LineString", "coordinates": [[124.6382273, 10.9705293], [124.6383865, 10.9703299]]}, "properties": {"city": "ormoc", "name": "Ormoc-Baybay Road", "highway": "trunk", "v_posted": 80, "posted_imputed": false, "v_safe": 50, "gap": 30, "R": 6.55, "exposure": 0.319, "vru_150m": 0, "sss": 49.5, "recommended": 50, "fatal_reduction_pct": 84.7, "why": "undivided arterial, side-impact intersections", "pop_density": 10309.3, "pop_density_peak": 10426.1, "v_design": 70, "design_gap": 20}}, {"type": "Feature", "geometry": {"type": "LineString", "coordinates": [[124.6285873, 10.9817637], [124.6287568, 10.981542]]}, "properties": {"city": "ormoc", "name": "Ormoc-Baybay Road", "highway": "trunk", "v_posted": 80, "posted_imputed": false, "v_safe": 50, "gap": 30, "R": 6.55, "exposure": 0.42, "vru_150m": 0, "sss": 53.3, "recommended": 50, "fatal_reduction_pct": 84.7, "why": "undivided arterial, side-impact intersections", "pop_density": 13594.1, "pop_density_peak": 13594.1, "v_design": 70, "design_gap": 20}}, {"type": "Feature", "geometry": {"type": "LineString", "coordinates": [[124.5918907, 11.0268142], [124.5905434, 11.0272637], [124.5899545, 11.0274602], [124.5893609, 11.0276582]]}, "properties": {"city": "ormoc", "name": "Merida-Ormoc Road", "highway": "trunk", "v_posted": 60, "posted_imputed": false, "v_safe": 50, "gap": 10, "R": 2.07, "exposure": 0.33, "vru_150m": 0, "sss": 16.6, "recommended": 50, "fatal_reduction_pct": 51.8, "why": "undivided arterial, side-impact intersections", "pop_density": 10680.1, "pop_density_peak": 23927.3, "v_design": 70, "design_gap": 20}}, {"type": "Feature", "geometry": {"type": "LineString", "coordinates": [[124.5920092, 11.0267736], [124.5918907, 11.0268142]]}, "properties": {"city": "ormoc", "name": "Merida-Ormoc Road", "highway": "trunk", "v_posted": 60, "posted_imputed": false, "v_safe": 50, "gap": 10, "R": 2.07, "exposure": 0.74, "vru_150m": 0, "sss": 21.7, "recommended": 50, "fatal_reduction_pct": 51.8, "why": "undivided arterial, side-impact intersections", "pop_density": 23927.3, "pop_density_peak": 23927.3, "v_design": 70, "design_gap": 20}}, {"type": "Feature", "geometry": {"type": "LineString", "coordinates": [[124.60193, 11.0236191], [124.6017483, 11.0236757], [124.6014965, 11.0237402], [124.6014198, 11.0237657], [124.5999652, 11.0242289], [124.599801, 11.0242806], [124.5994308, 11.0243971], [124.5984399, 11.0247122], [124.5982247, 11.0247797], [124.5981423, 11.0248059], [124.5976202, 11.02498], [124.5972939, 11.0250816], [124.5971785, 11.0251174], [124.5968207, 11.0252342], [124.5964891, 11.0253362], [124.5961221, 11.025459], [124.5954376, 11.0256757], [124.5946636, 11.0259163], [124.5941109, 11.0261033], [124.5935317, 11.0262993], [124.5920536, 11.0267565], [124.5920092, 11.0267736]]}, "properties": {"city": "ormoc", "name": "Merida-Ormoc Road", "highway": "trunk", "v_posted": 60, "posted_imputed": false, "v_safe": 50, "gap": 10, "R": 2.07, "exposure": 0.427, "vru_150m": 0, "sss": 17.8, "recommended": 50, "fatal_reduction_pct": 51.8, "why": "undivided arterial, side-impact intersections", "pop_density": 13806.2, "pop_density_peak": 23927.3, "v_design": 70, "design_gap": 20}}, {"type": "Feature", "geometry": {"type": "LineString", "coordinates": [[124.603509, 11.023088], [124.6034395, 11.0231119], [124.6033633, 11.0231381], [124.6030591, 11.0232358], [124.6029637, 11.0232671], [124.6019872, 11.0236013]]}, "properties": {"city": "ormoc", "name": "Merida-Ormoc Road", "highway": "trunk", "v_posted": 60, "posted_imputed": false, "v_safe": 50, "gap": 10, "R": 2.07, "exposure": 0.569, "vru_150m": 2, "sss": 19.6, "recommended": 50, "fatal_reduction_pct": 51.8, "why": "undivided arterial, side-impact intersections", "pop_density": 9117.1, "pop_density_peak": 9170.5, "v_design": 70, "design_gap": 20}}, {"type": "Feature", "geometry": {"type": "LineString", "coordinates": [[124.6201107, 10.99376], [124.62017, 10.9937131]]}, "properties": {"city": "ormoc", "name": "Ormoc-Baybay Road", "highway": "trunk", "v_posted": 80, "posted_imputed": false, "v_safe": 50, "gap": 30, "R": 6.55, "exposure": 0.265, "vru_150m": 1, "sss": 47.5, "recommended": 50, "fatal_reduction_pct": 84.7, "why": "undivided arterial, side-impact intersections", "pop_density": 2643.4, "pop_density_peak": 2643.4, "v_design": 70, "design_gap": 20}}, {"type": "Feature", "geometry": {"type": "LineString", "coordinates": [[124.62017, 10.9937131], [124.6203241, 10.9935936], [124.6204071, 10.993536], [124.6204714, 10.9934857], [124.6205481, 10.9934243], [124.6206233, 10.9933657], [124.62072, 10.9932811], [124.6208, 10.9931768], [124.6208506, 10.9931004], [124.6211423, 10.9926332], [124.6211583, 10.9926115], [124.6213432, 10.9923135], [124.6216597, 10.991858], [124.6216987, 10.9917874]]}, "properties": {"city": "ormoc", "name": "Ormoc-Baybay Road", "highway": "trunk", "v_posted": 80, "posted_imputed": false, "v_safe": 30, "gap": 50, "R": 50.57, "exposure": 0.303, "vru_150m": 1, "sss": 65.1, "recommended": 30, "fatal_reduction_pct": 98.0, "why": "pedestrian activity (1 VRU site<=50m)", "pop_density": 4159.3, "pop_density_peak": 5047.8, "v_design": 70, "design_gap": 40}}, {"type": "Feature", "geometry": {"type": "LineString", "coordinates": [[124.6216597, 10.991858], [124.622745, 10.9925596], [124.6228103, 10.9926437], [124.6228551, 10.9927087], [124.6232283, 10.993307], [124.6234969, 10.9936761], [124.6237797, 10.994035], [124.6241358, 10.9944888], [124.6242209, 10.9946052], [124.6242459, 10.9946856], [124.6242558, 10.9947592], [124.6242497, 10.994833], [124.6242271, 10.9948878], [124.6241586, 10.9950302], [124.6241503, 10.9950939], [124.6241504, 10.9951367], [124.6241662, 10.9951972], [124.6242123, 10.9952772], [124.6247199, 10.9959737], [124.6252015, 10.9966388], [124.6253792, 10.9969058], [124.6255202, 10.9970726], [124.6256259, 10.9972209], [124.6257345, 10.9973674], [124.6258242, 10.9974898], [124.6259583, 10.9976752], [124.6261193, 10.9979018], [124.6262833, 10.9981353], [124.626469, 10.9983903], [124.6265815, 10.9985435], [124.6266926, 10.9987067], [124.6268713, 10.9989625], [124.6270544, 10.9992104], [124.6272189, 10.9994529], [124.6276797, 11.0001019], [124.628056, 11.0006913], [124.6283692, 11.0012362], [124.6284394, 11.0013663], [124.6285144, 11.0014869], [124.6285753, 11.0015762], [124.6286225, 11.0016399], [124.6286549, 11.0016878], [124.6287458, 11.0018072], [124.6288675, 11.0019731], [124.6289707, 11.0021217], [124.629124, 11.0023343], [124.62937, 11.0026782], [124.6295166, 11.0029195], [124.6295913, 11.0030643], [124.62966, 11.0031866], [124.6297281, 11.0033221], [124.6297911, 11.0034297], [124.6298588, 11.0035469], [124.6300018, 11.0038094], [124.6301235, 11.0040291], [124.6302316, 11.0042275], [124.6304203, 11.0045947], [124.6305329, 11.0048121], [124.6305761, 11.0049529], [124.6305812, 11.0050761], [124.6305609, 11.0052077], [124.6305327, 11.0053004], [124.6304861, 11.0054669], [124.6304749, 11.0055698], [124.6304907, 11.0056874], [124.6305191, 11.0057872], [124.6305752, 11.0058971], [124.6312476, 11.0068097], [124.631389, 11.0070124], [124.6314303, 11.0071417], [124.6314475, 11.0072812], [124.6314242, 11.0074275], [124.6313649, 11.0075724], [124.6312427, 11.007681], [124.6300142, 11.0083969], [124.6285771, 11.0094771], [124.6283157, 11.0097037], [124.6276096, 11.0103218], [124.6271797, 11.0106982], [124.6271585, 11.0107766], [124.6271478, 11.0108368], [124.6271464, 11.0108842], [124.6271764, 11.0109502], [124.627259, 11.0110403], [124.6275381, 11.0112702], [124.6277171, 11.0114074], [124.6278903, 11.0115505], [124.6281049, 11.01173], [124.6284696, 11.012033], [124.6287281, 11.0122427], [124.6290765, 11.0125011], [124.6293793, 11.0127228], [124.6296677, 11.0129262], [124.6299119, 11.0130983], [124.6300938, 11.0132263], [124.6302053, 11.0133077], [124.6304242, 11.0134694], [124.6308468, 11.0137778], [124.6311485, 11.0139853], [124.6313786, 11.0141593], [124.6316026, 11.014312], [124.6317876, 11.0144661], [124.6319089, 11.0145806], [124.6321466, 11.0147859], [124.6325259, 11.0151197], [124.6328183, 11.0153853], [124.6329685, 11.015538], [124.6331026, 11.015671], [124.6331723, 11.015742], [124.6332675, 11.0158092], [124.6333641, 11.0158605], [124.6334405, 11.0158974], [124.6335478, 11.0159329], [124.6336287, 11.0159527], [124.6337064, 11.0160001], [124.6338588, 11.0161008], [124.6340143, 11.0162366], [124.63412, 11.0163664], [124.6341698, 11.0164305], [124.634201, 11.0164672], [124.6342335, 11.0165053], [124.6343377, 11.0165831], [124.634417, 11.0166289], [124.6346907, 11.0168639], [124.6348182, 11.0169555], [124.6350485, 11.0171532], [124.6352336, 11.0173178], [124.6354267, 11.0174573], [124.6355729, 11.0175745], [124.6357968, 11.0177087], [124.6359658, 11.017818], [124.636112, 11.0179075], [124.6362434, 11.01797], [124.6363514, 11.0180194], [124.6364345, 11.0180872], [124.6365016, 11.0181293], [124.6366156, 11.0182037], [124.6367101, 11.0182721], [124.6367588, 11.0183032], [124.6368505, 11.0183811], [124.6370045, 11.0185337], [124.6371956, 11.018721], [124.6373498, 11.0188869], [124.6376422, 11.0191554], [124.6380365, 11.0196162], [124.6386427, 11.0203059], [124.639045, 11.0207482], [124.6394634, 11.0213327], [124.6396941, 11.0218316], [124.6398014, 11.022141], [124.6399181, 11.0223687], [124.6403255, 11.0227381], [124.640779, 11.0230557], [124.6409809, 11.0232299], [124.6411934, 11.0233915], [124.6415743, 11.0236811], [124.6419337, 11.0239812], [124.6422207, 11.0241971], [124.6423736, 11.0243077], [124.6425158, 11.0243919], [124.642631, 11.0244637], [124.6427116, 11.0245005], [124.642835, 11.024592], [124.6428913, 11.0246973], [124.6429905, 11.0250027], [124.6430576, 11.0252186], [124.6430951, 11.0253792], [124.6430978, 11.0256846], [124.6430484, 11.0258409], [124.6428215, 11.02604], [124.642666, 11.026169], [124.6424729, 11.0263744], [124.6422824, 11.0266139], [124.6419069, 11.0270404], [124.6417182, 11.0272773], [124.6414922, 11.0275356], [124.6412578, 11.0282594], [124.6403807, 11.0290939], [124.6399526, 11.0296674], [124.639686, 11.0299601], [124.6394867, 11.0301707], [124.6390859, 11.0305859], [124.6388448, 11.0308416], [124.6384802, 11.031182], [124.6381989, 11.0315378], [124.6380539, 11.0317174], [124.6379668, 11.0317674], [124.6373901, 11.0323163], [124.6370521, 11.0327191], [124.6367584, 11.0328086], [124.6364687, 11.032877], [124.6363735, 11.0329113], [124.6359926, 11.0333799], [124.6358505, 11.0335747], [124.6357217, 11.0338852], [124.6356547, 11.0339959], [124.6355192, 11.0342473], [124.6353261, 11.0344974], [124.6350378, 11.0348607], [124.634394, 11.0354675], [124.6336377, 11.0361731], [124.63332, 11.0364909], [124.6332622, 11.036589], [124.6332686, 11.0367005], [124.6333131, 11.0368207], [124.6333981, 11.0369265], [124.6334875, 11.0370155], [124.6335986, 11.0370912], [124.6337879, 11.0371998], [124.6339998, 11.0373314], [124.6341759, 11.0374396], [124.6343109, 11.0375104], [124.6345282, 11.0376526], [124.6347132, 11.0377711], [124.6349251, 11.037908], [124.6352328, 11.0382011], [124.6353929, 11.0384424], [124.6354289, 11.0384967], [124.6355286, 11.0388162], [124.6355072, 11.0393296], [124.6352926, 11.0397481], [124.6350726, 11.0399877], [124.6342622, 11.0405171], [124.6341861, 11.0405445], [124.6341191, 11.0405524], [124.6340521, 11.0405432], [124.6339917, 11.0405248], [124.6337262, 11.0403247], [124.6336551, 11.0402997], [124.633584, 11.0402905], [124.6335129, 11.0402931], [124.6334472, 11.0403089], [124.6327364, 11.0405537], [124.6326359, 11.0405761], [124.6325259, 11.0405893], [124.6321973, 11.0406235], [124.6321021, 11.0406485], [124.6320106, 11.0406772], [124.6307664, 11.0411371], [124.6304861, 11.0412566], [124.6302259, 11.041383], [124.6297555, 11.041683], [124.6277015, 11.0431189], [124.6275805, 11.0431754], [124.6274308, 11.0431793], [124.6253228, 11.0429019], [124.6245141, 11.0427743], [124.6243183, 11.0427295], [124.6241467, 11.0426558], [124.6239898, 11.042536], [124.6238556, 11.0424044], [124.6237725, 11.0422833], [124.6237242, 11.0421609], [124.6235887, 11.0415936], [124.6235606, 11.0415014], [124.6235231, 11.041408], [124.6234667, 11.041325], [124.6233896, 11.0412605], [124.6229645, 11.0410401], [124.6226835, 11.0409006], [124.622534, 11.0408565], [124.6223549, 11.0408585]]}, "properties": {"city": "ormoc", "name": "Ormoc Diversion Road", "highway": "secondary", "v_posted": 80, "posted_imputed": false, "v_safe": 50, "gap": 30, "R": 6.55, "exposure": 0.012, "vru_150m": 0, "sss": 38.0, "recommended": 50, "fatal_reduction_pct": 84.7, "why": "undivided arterial, side-impact intersections", "pop_density": 398.9, "pop_density_peak": 4786.6, "v_design": 35, "design_gap": -15}}, {"type": "Feature", "geometry": {"type": "LineString", "coordinates": [[124.6080041, 11.005686], [124.6080683, 11.0056692], [124.6087286, 11.0054963], [124.6088216, 11.005472], [124.6090135, 11.0054218], [124.609143, 11.0053879], [124.6092062, 11.0053714], [124.6092802, 11.005352], [124.6093071, 11.005345], [124.6094136, 11.0053196], [124.6100018, 11.0051623], [124.6105241, 11.0050226], [124.6114147, 11.0047878], [124.6121474, 11.0046061], [124.6124913, 11.0044962], [124.6127693, 11.0043639]]}, "properties": {"city": "ormoc", "name": "Aviles Street", "highway": "trunk", "v_posted": 40, "posted_imputed": false, "v_safe": 30, "gap": 10, "R": 3.16, "exposure": 1.0, "vru_150m": 5, "sss": 25.0, "recommended": 30, "fatal_reduction_pct": 68.4, "why": "pedestrian activity (1 VRU site<=50m)", "pop_density": 12813.0, "pop_density_peak": 16007.6, "v_design": 70, "design_gap": 40}}, {"type": "Feature", "geometry": {"type": "LineString", "coordinates": [[124.6198747, 10.9939227], [124.6201107, 10.99376]]}, "properties": {"city": "ormoc", "name": "Ormoc-Baybay Road", "highway": "trunk", "v_posted": 80, "posted_imputed": false, "v_safe": 50, "gap": 30, "R": 6.55, "exposure": 0.265, "vru_150m": 1, "sss": 47.5, "recommended": 50, "fatal_reduction_pct": 84.7, "why": "undivided arterial, side-impact intersections", "pop_density": 2643.4, "pop_density_peak": 2643.4, "v_design": 70, "design_gap": 20}}, {"type": "Feature", "geometry": {"type": "LineString", "coordinates": [[124.6152165, 10.9998576], [124.6153132, 10.9997135], [124.6153583, 10.9996434], [124.6163299, 10.9981997], [124.6180727, 10.9958214], [124.6187127, 10.9949481], [124.6189283, 10.9946849], [124.6191804, 10.9944609], [124.6197758, 10.9939994], [124.6198747, 10.9939227]]}, "properties": {"city": "ormoc", "name": "Ormoc-Baybay Road", "highway": "trunk", "v_posted": 80, "posted_imputed": false, "v_safe": 50, "gap": 30, "R": 6.55, "exposure": 0.524, "vru_150m": 1, "sss": 57.2, "recommended": 50, "fatal_reduction_pct": 84.7, "why": "undivided arterial, side-impact intersections", "pop_density": 13106.6, "pop_density_peak": 35961.2, "v_design": 70, "design_gap": 20}}, {"type": "Feature", "geometry": {"type": "LineString", "coordinates": [[124.6043813, 11.0230049], [124.6043734, 11.0231787], [124.6043593, 11.0234875]]}, "properties": {"city": "ormoc", "name": "Kananga-Ormoc Road", "highway": "trunk", "v_posted": 40, "posted_imputed": false, "v_safe": 30, "gap": 10, "R": 3.16, "exposure": 0.563, "vru_150m": 2, "sss": 19.5, "recommended": 30, "fatal_reduction_pct": 68.4, "why": "pedestrian activity (1 VRU site<=50m)", "pop_density": 8808.1, "pop_density_peak": 8808.1, "v_design": 70, "design_gap": 40}}, {"type": "Feature", "geometry": {"type": "LineString", "coordinates": [[124.6148822, 11.00038], [124.6151843, 10.9999099], [124.6152165, 10.9998576]]}, "properties": {"city": "ormoc", "name": "Ormoc-Baybay Road", "highway": "trunk", "v_posted": 80, "posted_imputed": false, "v_safe": 50, "gap": 30, "R": 6.55, "exposure": 0.226, "vru_150m": 0, "sss": 46.0, "recommended": 50, "fatal_reduction_pct": 84.7, "why": "undivided arterial, side-impact intersections", "pop_density": 7299.7, "pop_density_peak": 7828.9, "v_design": 70, "design_gap": 20}}, {"type": "Feature", "geometry": {"type": "LineString", "coordinates": [[124.6019872, 11.0236013], [124.60193, 11.0236191]]}, "properties": {"city": "ormoc", "name": "Merida-Ormoc Road", "highway": "trunk", "v_posted": 60, "posted_imputed": false, "v_safe": 50, "gap": 10, "R": 2.07, "exposure": 0.28, "vru_150m": 0, "sss": 16.0, "recommended": 50, "fatal_reduction_pct": 51.8, "why": "undivided arterial, side-impact intersections", "pop_density": 9063.8, "pop_density_peak": 9063.8, "v_design": 70, "design_gap": 20}}, {"type": "Feature", "geometry": {"type": "LineString", "coordinates": [[124.5807837, 11.0304142], [124.5804914, 11.0305055]]}, "properties": {"city": "ormoc", "name": "Merida-Ormoc Road", "highway": "trunk", "v_posted": 60, "posted_imputed": false, "v_safe": 50, "gap": 10, "R": 2.07, "exposure": 0.04, "vru_150m": 0, "sss": 13.0, "recommended": 50, "fatal_reduction_pct": 51.8, "why": "undivided arterial, side-impact intersections", "pop_density": 1306.5, "pop_density_peak": 1433.1, "v_design": 70, "design_gap": 20}}, {"type": "Feature", "geometry": {"type": "LineString", "coordinates": [[124.589206, 11.0277087], [124.5886155, 11.0278999], [124.5880268, 11.0280905], [124.5879029, 11.0281306], [124.5877165, 11.028191], [124.5870733, 11.0283993], [124.5854812, 11.0289151], [124.5847749, 11.0291466], [124.5842883, 11.0293063], [124.5836215, 11.0295252], [124.5822422, 11.0299779], [124.5817061, 11.0301502], [124.58161, 11.0301854], [124.5807837, 11.0304142]]}, "properties": {"city": "ormoc", "name": "Merida-Ormoc Road", "highway": "trunk", "v_posted": 60, "posted_imputed": false, "v_safe": 50, "gap": 10, "R": 2.07, "exposure": 0.079, "vru_150m": 0, "sss": 13.5, "recommended": 50, "fatal_reduction_pct": 51.8, "why": "undivided arterial, side-impact intersections", "pop_density": 2567.6, "pop_density_peak": 3979.2, "v_design": 70, "design_gap": 20}}, {"type": "Feature", "geometry": {"type": "LineString", "coordinates": [[124.5893609, 11.0276582], [124.589206, 11.0277087]]}, "properties": {"city": "ormoc", "name": "Merida-Ormoc Road", "highway": "trunk", "v_posted": 60, "posted_imputed": false, "v_safe": 50, "gap": 10, "R": 2.07, "exposure": 0.088, "vru_150m": 0, "sss": 13.6, "recommended": 50, "fatal_reduction_pct": 51.8, "why": "undivided arterial, side-impact intersections", "pop_density": 2838.5, "pop_density_peak": 2838.5, "v_design": 70, "design_gap": 20}}, {"type": "Feature", "geometry": {"type": "LineString", "coordinates": [[124.5653257, 11.0354439], [124.5651363, 11.0355072]]}, "properties": {"city": "ormoc", "name": "Merida-Ormoc Road", "highway": "trunk", "v_posted": 80, "posted_imputed": false, "v_safe": 50, "gap": 30, "R": 6.55, "exposure": 0.063, "vru_150m": 0, "sss": 39.9, "recommended": 50, "fatal_reduction_pct": 84.7, "why": "undivided arterial, side-impact intersections", "pop_density": 2048.2, "pop_density_peak": 2048.2, "v_design": 70, "design_gap": 20}}, {"type": "Feature", "geometry": {"type": "LineString", "coordinates": [[124.5804914, 11.0305055], [124.5799745, 11.0306693], [124.579678, 11.0307729], [124.5789638, 11.0310074], [124.5786965, 11.0310899], [124.5782285, 11.0312434], [124.5781196, 11.0312791], [124.5766636, 11.0317536], [124.576258, 11.0318792], [124.5754603, 11.0321431], [124.5749804, 11.0323019], [124.5746224, 11.0324204], [124.5743263, 11.0325133], [124.5741952, 11.0325544], [124.5708553, 11.0336494], [124.5688127, 11.0343231], [124.5684451, 11.0344408], [124.5680921, 11.0345559], [124.5677458, 11.0346666], [124.5663053, 11.0351306], [124.56548, 11.035395], [124.5653257, 11.0354439]]}, "properties": {"city": "ormoc", "name": "Merida-Ormoc Road", "highway": "trunk", "v_posted": 80, "posted_imputed": false, "v_safe": 50, "gap": 30, "R": 6.55, "exposure": 0.06, "vru_150m": 0, "sss": 39.8, "recommended": 50, "fatal_reduction_pct": 84.7, "why": "undivided arterial, side-impact intersections", "pop_density": 1947.6, "pop_density_peak": 2462.9, "v_design": 70, "design_gap": 20}}, {"type": "Feature", "geometry": {"type": "LineString", "coordinates": [[124.5651363, 11.0355072], [124.5649474, 11.0355698], [124.5648487, 11.0356043], [124.5637789, 11.0359539], [124.5625833, 11.0363567], [124.5619845, 11.0365606], [124.5612176, 11.0368136], [124.5593043, 11.0374276], [124.5586287, 11.0376409], [124.5579247, 11.0378543]]}, "properties": {"city": "ormoc", "name": "Merida-Ormoc Road", "highway": "trunk", "v_posted": 80, "posted_imputed": false, "v_safe": 50, "gap": 30, "R": 6.55, "exposure": 0.124, "vru_150m": 0, "sss": 42.1, "recommended": 50, "fatal_reduction_pct": 84.7, "why": "undivided arterial, side-impact intersections", "pop_density": 3996.0, "pop_density_peak": 8437.7, "v_design": 70, "design_gap": 20}}, {"type": "Feature", "geometry": {"type": "LineString", "coordinates": [[124.6073583, 11.0397716], [124.6073529, 11.0393699], [124.6073587, 11.0392453], [124.6073977, 11.0391229], [124.607466, 11.0390071], [124.6075747, 11.0389228]]}, "properties": {"city": "ormoc", "name": "Ormoc Diversion Road", "highway": "secondary", "v_posted": 80, "posted_imputed": false, "v_safe": 50, "gap": 30, "R": 6.55, "exposure": 0.0, "vru_150m": 0, "sss": 37.5, "recommended": 50, "fatal_reduction_pct": 84.7, "why": "undivided arterial, side-impact intersections", "pop_density": 0.0, "pop_density_peak": 0.0, "v_design": 50, "design_gap": 0}}, {"type": "Feature", "geometry": {"type": "LineString", "coordinates": [[124.6075747, 11.0389228], [124.6081663, 11.0388209]]}, "properties": {"city": "ormoc", "name": "Ormoc Diversion Road", "highway": "secondary", "v_posted": 80, "posted_imputed": false, "v_safe": 50, "gap": 30, "R": 6.55, "exposure": 0.0, "vru_150m": 0, "sss": 37.5, "recommended": 50, "fatal_reduction_pct": 84.7, "why": "undivided arterial, side-impact intersections", "pop_density": 0.0, "pop_density_peak": 0.0, "v_design": 50, "design_gap": 0}}, {"type": "Feature", "geometry": {"type": "LineString", "coordinates": [[124.5959516, 11.065919], [124.5961682, 11.0654897], [124.5964082, 11.0650423], [124.597235, 11.0634927], [124.5974173, 11.0631322], [124.5975358, 11.062898], [124.59759, 11.0627909], [124.5989069, 11.0602361], [124.5989929, 11.0600714]]}, "properties": {"city": "ormoc", "name": "Kananga-Ormoc Road", "highway": "trunk", "v_posted": 80, "posted_imputed": false, "v_safe": 50, "gap": 30, "R": 6.55, "exposure": 0.047, "vru_150m": 0, "sss": 39.3, "recommended": 50, "fatal_reduction_pct": 84.7, "why": "undivided arterial, side-impact intersections", "pop_density": 1516.7, "pop_density_peak": 1598.0, "v_design": 70, "design_gap": 20}}, {"type": "Feature", "geometry": {"type": "LineString", "coordinates": [[124.5989929, 11.0600714], [124.5990455, 11.0599688], [124.5993182, 11.0594735], [124.5994554, 11.0592243], [124.5996695, 11.0588046], [124.5997748, 11.0586077], [124.6001315, 11.0579412], [124.6001579, 11.0578918], [124.6001959, 11.0578169], [124.6007756, 11.0566761], [124.6010071, 11.0562514], [124.6011887, 11.0559182], [124.6012638, 11.0557723], [124.6013298, 11.0556441], [124.6013877, 11.0555316], [124.6015713, 11.0551494]]}, "properties": {"city": "ormoc", "name": "Kananga-Ormoc Road", "highway": "trunk", "v_posted": 80, "posted_imputed": false, "v_safe": 50, "gap": 30, "R": 6.55, "exposure": 0.012, "vru_150m": 0, "sss": 38.0, "recommended": 50, "fatal_reduction_pct": 84.7, "why": "undivided arterial, side-impact intersections", "pop_density": 399.5, "pop_density_peak": 1598.0, "v_design": 70, "design_gap": 20}}, {"type": "Feature", "geometry": {"type": "LineString", "coordinates": [[124.6051782, 11.0450756], [124.6050127, 11.0446113], [124.6049158, 11.0443174], [124.6048747, 11.0441882], [124.6048622, 11.0441488], [124.6046697, 11.043616], [124.6044582, 11.0430482], [124.6041741, 11.0421814], [124.6041445, 11.0420685], [124.6039799, 11.0412676], [124.6038802, 11.0407277], [124.6038105, 11.0401216], [124.6037424, 11.0393155], [124.6037929, 11.0379712], [124.6038409, 11.0363243], [124.6038481, 11.0361117], [124.6038863, 11.035115], [124.6039259, 11.0340813], [124.6039383, 11.0337592], [124.6039585, 11.0331961], [124.6039634, 11.0326185], [124.6039755, 11.0322595]]}, "properties": {"city": "ormoc", "name": "Route 70", "highway": "trunk", "v_posted": 60, "posted_imputed": false, "v_safe": 50, "gap": 10, "R": 2.07, "exposure": 0.117, "vru_150m": 0, "sss": 14.0, "recommended": 50, "fatal_reduction_pct": 51.8, "why": "undivided arterial, side-impact intersections", "pop_density": 3788.3, "pop_density_peak": 10489.5, "v_design": 70, "design_gap": 20}}, {"type": "Feature", "geometry": {"type": "LineString", "coordinates": [[124.6044582, 11.0430482], [124.6045772, 11.0430345], [124.6046286, 11.0430294], [124.604805, 11.0430158], [124.6052813, 11.0429803], [124.6057748, 11.0429436], [124.6059783, 11.042895], [124.606195, 11.0427994], [124.6064333, 11.042615], [124.6068933, 11.0421038], [124.606999, 11.0419282], [124.6071895, 11.041519], [124.607399, 11.0410552], [124.6074941, 11.0408051], [124.6074807, 11.0405629], [124.6073869, 11.0402062], [124.607355, 11.0399589], [124.6073583, 11.0397716]]}, "properties": {"city": "ormoc", "name": "Ormoc Diversion Road", "highway": "secondary", "v_posted": 80, "posted_imputed": false, "v_safe": 50, "gap": 30, "R": 6.55, "exposure": 0.091, "vru_150m": 0, "sss": 40.9, "recommended": 50, "fatal_reduction_pct": 84.7, "why": "undivided arterial, side-impact intersections", "pop_density": 2953.3, "pop_density_peak": 9723.8, "v_design": 45, "design_gap": -5}}, {"type": "Feature", "geometry": {"type": "LineString", "coordinates": [[124.6211285, 11.0410414], [124.6212104, 11.0409933], [124.6212633, 11.0409776], [124.6220266, 11.0408851], [124.6223549, 11.0408585]]}, "properties": {"city": "ormoc", "name": "Ormoc Diversion Road", "highway": "secondary", "v_posted": 80, "posted_imputed": false, "v_safe": 50, "gap": 30, "R": 6.55, "exposure": 0.0, "vru_150m": 0, "sss": 37.5, "recommended": 50, "fatal_reduction_pct": 84.7, "why": "undivided arterial, side-impact intersections", "pop_density": 0.0, "pop_density_peak": 0.0, "v_design": 50, "design_gap": 0}}, {"type": "Feature", "geometry": {"type": "LineString", "coordinates": [[124.6081663, 11.0388209], [124.6083253, 11.0388036], [124.6084598, 11.038807], [124.6086006, 11.0388254], [124.6086958, 11.0388886], [124.6087937, 11.0389768], [124.6093195, 11.0395757], [124.6094643, 11.0396955], [124.6096453, 11.03976], [124.6098022, 11.0397574], [124.6099738, 11.0397297], [124.6104795, 11.0396481], [124.6106753, 11.0395862], [124.610847, 11.0395007], [124.6110696, 11.0393217], [124.6112547, 11.0391163], [124.6113418, 11.0389768], [124.6114089, 11.0388307], [124.6114692, 11.0385898], [124.6114488, 11.0382033], [124.6114585, 11.0380883], [124.6115007, 11.0379827], [124.6115711, 11.0379264], [124.6116621, 11.037908], [124.6117826, 11.0379228], [124.6120665, 11.0380085], [124.6124401, 11.0382779], [124.6128252, 11.0386022], [124.6131619, 11.0388994], [124.6136338, 11.0394454], [124.6140093, 11.0399206], [124.6145028, 11.0405498], [124.6148998, 11.0410322], [124.6153665, 11.0415686], [124.6159109, 11.0421675], [124.6165153, 11.0428963], [124.6167612, 11.0431218], [124.6170509, 11.0433429], [124.6173164, 11.043539], [124.6180031, 11.0438154], [124.6191296, 11.0441445], [124.6191913, 11.0440787], [124.6199724, 11.0428121], [124.6205458, 11.0419279], [124.6210219, 11.0411559], [124.6210802, 11.0410921], [124.6211285, 11.0410414]]}, "properties": {"city": "ormoc", "name": "Ormoc Diversion Road", "highway": "secondary", "v_posted": 80, "posted_imputed": false, "v_safe": 50, "gap": 30, "R": 6.55, "exposure": 0.0, "vru_150m": 0, "sss": 37.5, "recommended": 50, "fatal_reduction_pct": 84.7, "why": "undivided arterial, side-impact intersections", "pop_density": 0.0, "pop_density_peak": 0.0, "v_design": 35, "design_gap": -15}}, {"type": "Feature", "geometry": {"type": "LineString", "coordinates": [[124.6015713, 11.0551494], [124.6017713, 11.0547936], [124.6021317, 11.0540905], [124.6022222, 11.0539197], [124.6024541, 11.0535003], [124.6032032, 11.052361], [124.6040589, 11.0510535], [124.6042144, 11.0508183], [124.6044288, 11.050498], [124.6049423, 11.0497216], [124.6051501, 11.0494049], [124.6052982, 11.0491917], [124.60544, 11.0489809]]}, "properties": {"city": "ormoc", "name": "Kananga-Ormoc Road", "highway": "trunk", "v_posted": 60, "posted_imputed": false, "v_safe": 50, "gap": 10, "R": 2.07, "exposure": 0.193, "vru_150m": 0, "sss": 14.9, "recommended": 50, "fatal_reduction_pct": 51.8, "why": "undivided arterial, side-impact intersections", "pop_density": 6228.7, "pop_density_peak": 13691.0, "v_design": 70, "design_gap": 20}}]}