{"type": "FeatureCollection", "features": [{"type": "Feature", "geometry": {"type": "LineString", "coordinates": [[122.927596, 10.630314], [122.9276651, 10.6303826], [122.9277116, 10.6304899], [122.9277353, 10.6305644], [122.9277478, 10.6305984], [122.9277924, 10.6307271], [122.9278538, 10.6309044], [122.9279251, 10.6310612], [122.9279649, 10.6311501], [122.9280081, 10.6312449], [122.9280302, 10.6312862], [122.9281762, 10.6316098], [122.9283948, 10.632102], [122.928469, 10.6322516], [122.92849, 10.6322956], [122.9285333, 10.6324041], [122.9285843, 10.6325211], [122.9286673, 10.632711], [122.9289015, 10.6332524], [122.9289732, 10.6334032], [122.9291813, 10.6338624], [122.9293919, 10.6343273], [122.9296437, 10.6349114], [122.9297744, 10.6352067], [122.9299346, 10.6355482], [122.9300387, 10.6357773], [122.93018, 10.6360907], [122.9301968, 10.6361284], [122.9304131, 10.6366112], [122.9310627, 10.6380387], [122.931176, 10.6383136], [122.9313174, 10.638602], [122.9315989, 10.6392535], [122.9316499, 10.6393703], [122.9317549, 10.6396002], [122.93204, 10.6402085], [122.9321289, 10.6404258], [122.9322168, 10.6406101], [122.9323064, 10.6408316], [122.9323552, 10.6409281], [122.9328653, 10.6420635], [122.9330784, 10.6425457], [122.9331141, 10.6426173], [122.9332605, 10.642946], [122.9335966, 10.6436693], [122.9336205, 10.6437092], [122.9340845, 10.6446899], [122.9347939, 10.6462727], [122.9350564, 10.6468768], [122.935122, 10.6470173], [122.9351511, 10.6470853], [122.9352753, 10.6473312]]}, "properties": {"city": "bacolod", "name": "Araneta Avenue", "highway": "primary", "v_posted": 60, "posted_imputed": false, "v_safe": 50, "gap": 10, "R": 2.07, "exposure": 0.383, "vru_150m": 1, "sss": 17.3, "recommended": 50, "fatal_reduction_pct": 51.8, "why": "undivided arterial, side-impact intersections", "pop_density": 7381.3, "pop_density_peak": 10459.2, "v_design": 60, "design_gap": 10}}, {"type": "Feature", "geometry": {"type": "LineString", "coordinates": [[122.9353069, 10.647673], [122.9352375, 10.6475392], [122.9350487, 10.6471256], [122.9350234, 10.6470742], [122.9346895, 10.646326], [122.9341789, 10.6451779], [122.9339456, 10.6446733], [122.9337623, 10.644269], [122.9335171, 10.6437556], [122.9334965, 10.6437185], [122.9332921, 10.6432867], [122.9330155, 10.642657], [122.9329865, 10.6425846], [122.9327662, 10.642107], [122.9322495, 10.6409716], [122.9322064, 10.6408843], [122.9321087, 10.6406593], [122.9320054, 10.6404338], [122.931708, 10.6397642], [122.9316565, 10.6396399], [122.9315508, 10.6394047], [122.9312023, 10.6386432], [122.9309524, 10.6380899], [122.9303743, 10.6367988], [122.9303337, 10.6367102], [122.9303087, 10.6366557], [122.9302396, 10.6365008], [122.9300969, 10.6361811], [122.9299308, 10.635815], [122.9298306, 10.6355887], [122.9296797, 10.6352446], [122.9295423, 10.6349529], [122.9292895, 10.6343734], [122.9291255, 10.6340318], [122.9290715, 10.6339104], [122.9290215, 10.6337991], [122.9288619, 10.6334477], [122.9288035, 10.6332849], [122.9285585, 10.6327594], [122.9284717, 10.6325657], [122.9283791, 10.6323483], [122.9282897, 10.6321485], [122.9280709, 10.631656], [122.9279239, 10.6313308], [122.9279033, 10.6312846], [122.9278658, 10.6312045], [122.9278215, 10.6311075], [122.9277831, 10.6310184], [122.9277482, 10.6309414], [122.927677, 10.6307736], [122.9276263, 10.6306378], [122.9276135, 10.6305961], [122.9275763, 10.6304708], [122.9275769, 10.630407], [122.9275795, 10.6303608], [122.927596, 10.630314]]}, "properties": {"city": "bacolod", "name": "Araneta Avenue", "highway": "primary", "v_posted": 60, "posted_imputed": false, "v_safe": 50, "gap": 10, "R": 2.07, "exposure": 0.386, "vru_150m": 1, "sss": 17.3, "recommended": 50, "fatal_reduction_pct": 51.8, "why": "undivided arterial, side-impact intersections", "pop_density": 7527.5, "pop_density_peak": 10459.2, "v_design": 60, "design_gap": 10}}, {"type": "Feature", "geometry": {"type": "LineString", "coordinates": [[122.927596, 10.630314], [122.927554, 10.6300989], [122.9275087, 10.6297872], [122.9274933, 10.6295663], [122.9274922, 10.6293285], [122.92752, 10.629072], [122.9275729, 10.6287594], [122.9276339, 10.6284961], [122.9276881, 10.6282396], [122.9277281, 10.6280611], [122.9277664, 10.6279424], [122.927817, 10.6277305], [122.9278825, 10.6274714], [122.927919, 10.6273108], [122.9279465, 10.6271868], [122.9279794, 10.6270399], [122.9279972, 10.6269634], [122.928542, 10.6246179], [122.9285728, 10.6244744]]}, "properties": {"city": "bacolod", "name": "Araneta Avenue", "highway": "primary", "v_posted": 60, "posted_imputed": false, "v_safe": 50, "gap": 10, "R": 2.07, "exposure": 0.501, "vru_150m": 2, "sss": 18.8, "recommended": 50, "fatal_reduction_pct": 51.8, "why": "undivided arterial, side-impact intersections", "pop_density": 5455.7, "pop_density_peak": 6261.3, "v_design": 60, "design_gap": 10}}, {"type": "Feature", "geometry": {"type": "LineString", "coordinates": [[122.9287503, 10.6234864], [122.9287785, 10.6233084]]}, "properties": {"city": "bacolod", "name": "Araneta Street", "highway": "primary", "v_posted": 60, "posted_imputed": false, "v_safe": 50, "gap": 10, "R": 2.07, "exposure": 0.087, "vru_150m": 0, "sss": 13.6, "recommended": 50, "fatal_reduction_pct": 51.8, "why": "undivided arterial, side-impact intersections", "pop_density": 2826.3, "pop_density_peak": 3675.5, "v_design": 60, "design_gap": 10}}, {"type": "Feature", "geometry": {"type": "LineString", "coordinates": [[122.9287785, 10.6233084], [122.9288612, 10.6227773], [122.92905, 10.6210935], [122.9290817, 10.6206875], [122.929098, 10.6204564], [122.9290973, 10.6202299], [122.929107, 10.6199917], [122.9290965, 10.6198654], [122.9290784, 10.6196806], [122.9290507, 10.6195291]]}, "properties": {"city": "bacolod", "name": "Araneta Avenue", "highway": "primary", "v_posted": 60, "posted_imputed": false, "v_safe": 50, "gap": 10, "R": 2.07, "exposure": 0.121, "vru_150m": 0, "sss": 14.0, "recommended": 50, "fatal_reduction_pct": 51.8, "why": "undivided arterial, side-impact intersections", "pop_density": 3915.0, "pop_density_peak": 5845.4, "v_design": 60, "design_gap": 10}}, {"type": "Feature", "geometry": {"type": "LineString", "coordinates": [[122.9285728, 10.6244744], [122.9286235, 10.6242443], [122.9287108, 10.623715], [122.9287503, 10.6234864]]}, "properties": {"city": "bacolod", "name": "Araneta Street", "highway": "primary", "v_posted": 60, "posted_imputed": false, "v_safe": 50, "gap": 10, "R": 2.07, "exposure": 0.134, "vru_150m": 0, "sss": 14.2, "recommended": 50, "fatal_reduction_pct": 51.8, "why": "undivided arterial, side-impact intersections", "pop_density": 4345.1, "pop_density_peak": 5014.6, "v_design": 60, "design_gap": 10}}, {"type": "Feature", "geometry": {"type": "LineString", "coordinates": [[122.9578471, 10.635169], [122.9580337, 10.6350271], [122.9581889, 10.6349091], [122.9583902, 10.6347388], [122.9585671, 10.6345718], [122.9592178, 10.6339528], [122.9594835, 10.6336863], [122.9596472, 10.6335221], [122.9598588, 10.6333408], [122.9600838, 10.6331602], [122.9602965, 10.6330146], [122.9603984, 10.6329711], [122.9606871, 10.6329054], [122.9608206, 10.6328944], [122.9609925, 10.632892], [122.9611221, 10.632898], [122.9622419, 10.6329362], [122.9624357, 10.6329464], [122.9628253, 10.6329669], [122.962995, 10.6329643], [122.9633266, 10.6329494], [122.9649081, 10.6326943], [122.9653724, 10.6326194], [122.9656264, 10.6325794], [122.966258, 10.6324889], [122.9664288, 10.6324604], [122.9676919, 10.632274]]}, "properties": {"city": "bacolod", "name": "Bacolod-Murcia Road", "highway": "primary", "v_posted": 60, "posted_imputed": false, "v_safe": 50, "gap": 10, "R": 2.07, "exposure": 0.185, "vru_150m": 0, "sss": 14.8, "recommended": 50, "fatal_reduction_pct": 51.8, "why": "undivided arterial, side-impact intersections", "pop_density": 5995.7, "pop_density_peak": 7709.5, "v_design": 60, "design_gap": 10}}, {"type": "Feature", "geometry": {"type": "LineString", "coordinates": [[122.936249, 10.6495021], [122.9359828, 10.6489464], [122.9358754, 10.6487208], [122.9358423, 10.6486654], [122.9356336, 10.6482617]]}, "properties": {"city": "bacolod", "name": "Araneta Avenue", "highway": "primary", "v_posted": 60, "posted_imputed": false, "v_safe": 50, "gap": 10, "R": 2.07, "exposure": 0.269, "vru_150m": 0, "sss": 15.9, "recommended": 50, "fatal_reduction_pct": 51.8, "why": "undivided arterial, side-impact intersections", "pop_density": 8693.0, "pop_density_peak": 10212.1, "v_design": 60, "design_gap": 10}}, {"type": "Feature", "geometry": {"type": "LineString", "coordinates": [[122.9354615, 10.6480104], [122.935338, 10.647736], [122.9353069, 10.647673]]}, "properties": {"city": "bacolod", "name": "Araneta Avenue", "highway": "primary", "v_posted": 60, "posted_imputed": false, "v_safe": 50, "gap": 10, "R": 2.07, "exposure": 0.222, "vru_150m": 0, "sss": 15.3, "recommended": 50, "fatal_reduction_pct": 51.8, "why": "undivided arterial, side-impact intersections", "pop_density": 7174.0, "pop_density_peak": 7174.0, "v_design": 60, "design_gap": 10}}, {"type": "Feature", "geometry": {"type": "LineString", "coordinates": [[122.9356478, 10.647401], [122.9359534, 10.6472187], [122.9364099, 10.6469737], [122.9367144, 10.6468024], [122.9371009, 10.646585], [122.9371512, 10.6465585], [122.9379384, 10.6461443], [122.9383226, 10.6459276], [122.938817, 10.6456292], [122.9401593, 10.6449127], [122.9408504, 10.6445245], [122.9411431, 10.6443638], [122.9413052, 10.6442666], [122.9415902, 10.6441054], [122.9418194, 10.6439831], [122.9423386, 10.6436915], [122.9430822, 10.6432799], [122.9434128, 10.6431017], [122.9435499, 10.6430249], [122.9444799, 10.6425046], [122.9447557, 10.6423349], [122.9452072, 10.6420773], [122.9456102, 10.6418551], [122.9456254, 10.6418467], [122.9459135, 10.6416872], [122.9466896, 10.6412907], [122.9468479, 10.6412021], [122.9476693, 10.6407621], [122.9478043, 10.6406898], [122.9481286, 10.6405116], [122.9483409, 10.6403949], [122.9486707, 10.6402137], [122.9489281, 10.6400723], [122.94929, 10.6398657], [122.9496804, 10.6396614], [122.9500313, 10.6394714], [122.9507695, 10.6390567], [122.951168, 10.6388534], [122.9512919, 10.6387856], [122.9518735, 10.6384758], [122.9518957, 10.6384612], [122.9520362, 10.6383865], [122.9522568, 10.6382667], [122.9523365, 10.6382233], [122.9530879, 10.6378176], [122.9531773, 10.637765], [122.9532626, 10.6377204], [122.9534292, 10.6376301], [122.9537675, 10.6374467], [122.9540363, 10.637301], [122.9540584, 10.637289], [122.954334, 10.6371396], [122.9544242, 10.6370907], [122.9545755, 10.6370087], [122.9548202, 10.6368761], [122.9550977, 10.6367257], [122.9555005, 10.6365073], [122.9557172, 10.6363818], [122.9563792, 10.636022], [122.9568916, 10.635737], [122.9569397, 10.6357103], [122.9572801, 10.635521], [122.9576761, 10.6352752], [122.9578471, 10.635169]]}, "properties": {"city": "bacolod", "name": "Alijis Road", "highway": "primary", "v_posted": 60, "posted_imputed": false, "v_safe": 50, "gap": 10, "R": 2.07, "exposure": 0.22, "vru_150m": 0, "sss": 15.2, "recommended": 50, "fatal_reduction_pct": 51.8, "why": "undivided arterial, side-impact intersections", "pop_density": 7115.4, "pop_density_peak": 8187.2, "v_design": 60, "design_gap": 10}}, {"type": "Feature", "geometry": {"type": "LineString", "coordinates": [[122.9652951, 10.6576038], [122.9653048, 10.6572627]]}, "properties": {"city": "bacolod", "name": "Carlos Hilado Highway", "highway": "primary", "v_posted": 60, "posted_imputed": false, "v_safe": 50, "gap": 10, "R": 2.07, "exposure": 0.385, "vru_150m": 0, "sss": 17.3, "recommended": 50, "fatal_reduction_pct": 51.8, "why": "undivided arterial, side-impact intersections", "pop_density": 12465.9, "pop_density_peak": 12465.9, "v_design": 60, "design_gap": 10}}, {"type": "Feature", "geometry": {"type": "LineString", "coordinates": [[122.9653961, 10.6534358], [122.9654216, 10.6528709], [122.9654073, 10.6523753], [122.96537, 10.6519426], [122.9652971, 10.6514922], [122.9651373, 10.650839], [122.964936, 10.6502649], [122.96473, 10.6497648], [122.9646936, 10.6496053], [122.9646869, 10.6495107], [122.9646983, 10.6493897], [122.9648045, 10.6490046], [122.9648696, 10.6487796], [122.9650716, 10.6480822], [122.9651193, 10.6479067], [122.9651848, 10.6476184], [122.9651744, 10.647314], [122.9651306, 10.6471126], [122.9649948, 10.6468466], [122.9648234, 10.6466372], [122.9646311, 10.6464513], [122.9643728, 10.6462037]]}, "properties": {"city": "bacolod", "name": "Carlos Hilado Highway", "highway": "primary", "v_posted": 60, "posted_imputed": false, "v_safe": 50, "gap": 10, "R": 2.07, "exposure": 0.354, "vru_150m": 1, "sss": 16.9, "recommended": 50, "fatal_reduction_pct": 51.8, "why": "undivided arterial, side-impact intersections", "pop_density": 6222.4, "pop_density_peak": 7579.9, "v_design": 60, "design_gap": 10}}, {"type": "Feature", "geometry": {"type": "LineString", "coordinates": [[122.9553574, 10.6282798], [122.9553143, 10.6281602], [122.9552732, 10.6280465], [122.9552172, 10.6279077], [122.9551479, 10.6277931], [122.9550571, 10.6276735], [122.9549745, 10.6275795], [122.9548524, 10.6274622], [122.954796, 10.6273961], [122.9547525, 10.6273429], [122.954723, 10.6272921], [122.9546972, 10.6272251], [122.9545568, 10.6267511], [122.9543493, 10.6258627], [122.9541806, 10.6252895], [122.9539362, 10.6243403], [122.9536901, 10.6233845], [122.9535046, 10.6226463], [122.9532882, 10.621837], [122.9531693, 10.621383], [122.9530469, 10.6210191], [122.9528695, 10.6205268], [122.9528373, 10.6204398], [122.9527327, 10.6202138], [122.9524897, 10.6196194], [122.9523899, 10.6193738], [122.9522455, 10.6190488]]}, "properties": {"city": "bacolod", "name": "Bacolod Circumferential Road", "highway": "primary", "v_posted": 60, "posted_imputed": false, "v_safe": 50, "gap": 10, "R": 2.07, "exposure": 0.129, "vru_150m": 0, "sss": 14.1, "recommended": 50, "fatal_reduction_pct": 51.8, "why": "undivided arterial, side-impact intersections", "pop_density": 4185.3, "pop_density_peak": 11421.2, "v_design": 60, "design_gap": 10}}, {"type": "Feature", "geometry": {"type": "LineString", "coordinates": [[122.9591315, 10.6383179], [122.958914, 10.6377924]]}, "properties": {"city": "bacolod", "name": "Carlos Hilado Highway", "highway": "primary", "v_posted": 60, "posted_imputed": false, "v_safe": 50, "gap": 10, "R": 2.07, "exposure": 0.261, "vru_150m": 0, "sss": 15.8, "recommended": 50, "fatal_reduction_pct": 51.8, "why": "undivided arterial, side-impact intersections", "pop_density": 8446.0, "pop_density_peak": 8446.0, "v_design": 60, "design_gap": 10}}, {"type": "Feature", "geometry": {"type": "LineString", "coordinates": [[122.9553981, 10.628402], [122.9553574, 10.6282798]]}, "properties": {"city": "bacolod", "name": "Bacolod Circumferential Road", "highway": "primary", "v_posted": 60, "posted_imputed": false, "v_safe": 50, "gap": 10, "R": 2.07, "exposure": 0.353, "vru_150m": 0, "sss": 16.9, "recommended": 50, "fatal_reduction_pct": 51.8, "why": "undivided arterial, side-impact intersections", "pop_density": 11421.2, "pop_density_peak": 11421.2, "v_design": 60, "design_gap": 10}}, {"type": "Feature", "geometry": {"type": "LineString", "coordinates": [[122.958914, 10.6377924], [122.9588516, 10.6376483], [122.9588087, 10.6375402], [122.9586196, 10.6370736], [122.9585231, 10.6368374], [122.958295, 10.6362788], [122.9579249, 10.6353654], [122.9578471, 10.635169]]}, "properties": {"city": "bacolod", "name": "Carlos Hilado Highway", "highway": "primary", "v_posted": 60, "posted_imputed": false, "v_safe": 50, "gap": 10, "R": 2.07, "exposure": 0.205, "vru_150m": 0, "sss": 15.1, "recommended": 50, "fatal_reduction_pct": 51.8, "why": "undivided arterial, side-impact intersections", "pop_density": 6635.1, "pop_density_peak": 8446.0, "v_design": 60, "design_gap": 10}}, {"type": "Feature", "geometry": {"type": "LineString", "coordinates": [[122.9363759, 10.6497629], [122.936249, 10.6495021]]}, "properties": {"city": "bacolod", "name": "Araneta Avenue", "highway": "primary", "v_posted": 60, "posted_imputed": false, "v_safe": 50, "gap": 10, "R": 2.07, "exposure": 0.316, "vru_150m": 0, "sss": 16.4, "recommended": 50, "fatal_reduction_pct": 51.8, "why": "undivided arterial, side-impact intersections", "pop_density": 10212.1, "pop_density_peak": 10212.1, "v_design": 60, "design_gap": 10}}, {"type": "Feature", "geometry": {"type": "LineString", "coordinates": [[122.9354202, 10.6476228], [122.9355627, 10.6479617], [122.9356336, 10.6482617]]}, "properties": {"city": "bacolod", "name": "Araneta Avenue", "highway": "primary", "v_posted": 60, "posted_imputed": false, "v_safe": 50, "gap": 10, "R": 2.07, "exposure": 0.237, "vru_150m": 0, "sss": 15.5, "recommended": 50, "fatal_reduction_pct": 51.8, "why": "undivided arterial, side-impact intersections", "pop_density": 7663.4, "pop_density_peak": 8152.8, "v_design": 60, "design_gap": 10}}, {"type": "Feature", "geometry": {"type": "LineString", "coordinates": [[122.9433721, 10.6331197], [122.9433074, 10.6326747], [122.9432726, 10.6324355]]}, "properties": {"city": "bacolod", "name": "", "highway": "residential", "v_posted": 40, "posted_imputed": false, "v_safe": 30, "gap": 10, "R": 3.16, "exposure": 0.12, "vru_150m": 0, "sss": 14.0, "recommended": 30, "fatal_reduction_pct": 68.4, "why": "local road, frontage/pedestrian mixing", "pop_density": 3870.8, "pop_density_peak": 3920.7, "v_design": 35, "design_gap": 5}}, {"type": "Feature", "geometry": {"type": "LineString", "coordinates": [[122.9670888, 10.6628619], [122.967035, 10.6627418], [122.9669183, 10.6625137], [122.9668365, 10.6623608], [122.966742, 10.6622015], [122.9666435, 10.6620294], [122.9662179, 10.6613783], [122.9660009, 10.6610451], [122.9658586, 10.6608249], [122.9654604, 10.6602086], [122.9653677, 10.660048], [122.9653251, 10.6599661], [122.9652936, 10.6598989], [122.9652688, 10.6598211], [122.9652532, 10.65974], [122.9652446, 10.6596577], [122.9652433, 10.6595608], [122.9652441, 10.6594857], [122.9652626, 10.6587407], [122.9652707, 10.658444], [122.9652771, 10.6582239], [122.9652951, 10.6576038]]}, "properties": {"city": "bacolod", "name": "Carlos Hilado Highway", "highway": "primary", "v_posted": 60, "posted_imputed": false, "v_safe": 50, "gap": 10, "R": 2.07, "exposure": 0.293, "vru_150m": 0, "sss": 16.2, "recommended": 50, "fatal_reduction_pct": 51.8, "why": "undivided arterial, side-impact intersections", "pop_density": 9488.1, "pop_density_peak": 12465.9, "v_design": 60, "design_gap": 10}}, {"type": "Feature", "geometry": {"type": "LineString", "coordinates": [[122.9376997, 10.6524202], [122.937796, 10.652429], [122.937812, 10.6524518], [122.9378295, 10.6524951], [122.9383388, 10.6535363], [122.9383703, 10.6535976], [122.9384697, 10.6538025], [122.9387563, 10.654338]]}, "properties": {"city": "bacolod", "name": "Araneta Street", "highway": "secondary", "v_posted": 60, "posted_imputed": false, "v_safe": 50, "gap": 10, "R": 2.07, "exposure": 0.238, "vru_150m": 0, "sss": 15.5, "recommended": 50, "fatal_reduction_pct": 51.8, "why": "undivided arterial, side-impact intersections", "pop_density": 7690.2, "pop_density_peak": 7873.2, "v_design": 50, "design_gap": 0}}, {"type": "Feature", "geometry": {"type": "LineString", "coordinates": [[122.9386208, 10.6543952], [122.938517, 10.6541779], [122.9383525, 10.653864], [122.938316, 10.6538022], [122.9382288, 10.6536286], [122.9382079, 10.6535858], [122.9378983, 10.6529775], [122.9377553, 10.6527011], [122.9376831, 10.6525282], [122.9376744, 10.6524993], [122.9376997, 10.6524202]]}, "properties": {"city": "bacolod", "name": "Araneta Street", "highway": "secondary", "v_posted": 60, "posted_imputed": false, "v_safe": 50, "gap": 10, "R": 2.07, "exposure": 0.24, "vru_150m": 0, "sss": 15.5, "recommended": 50, "fatal_reduction_pct": 51.8, "why": "undivided arterial, side-impact intersections", "pop_density": 7772.7, "pop_density_peak": 8120.6, "v_design": 50, "design_gap": 0}}, {"type": "Feature", "geometry": {"type": "LineString", "coordinates": [[122.9378297, 10.6526998], [122.9377071, 10.6524379], [122.9376997, 10.6524202], [122.9376901, 10.6524022], [122.9376259, 10.652282], [122.9372732, 10.651622], [122.9372226, 10.6515246], [122.9371217, 10.6513294], [122.9370842, 10.6512457], [122.9369271, 10.650925], [122.9367219, 10.6504851], [122.9364646, 10.6499588], [122.936438, 10.649904], [122.9363759, 10.6497629]]}, "properties": {"city": "bacolod", "name": "Araneta Avenue", "highway": "primary", "v_posted": 60, "posted_imputed": false, "v_safe": 50, "gap": 10, "R": 2.07, "exposure": 0.278, "vru_150m": 0, "sss": 16.0, "recommended": 50, "fatal_reduction_pct": 51.8, "why": "undivided arterial, side-impact intersections", "pop_density": 8976.0, "pop_density_peak": 10212.1, "v_design": 60, "design_gap": 10}}, {"type": "Feature", "geometry": {"type": "LineString", "coordinates": [[122.9613297, 10.643042], [122.9611994, 10.6428837], [122.9610646, 10.6427233], [122.9609678, 10.6426025], [122.9608962, 10.6425129], [122.9608322, 10.6424342], [122.9607691, 10.6423426], [122.9607234, 10.6422673], [122.9606852, 10.6421961], [122.960643, 10.6421057], [122.9605752, 10.6419461], [122.960446, 10.6416476], [122.9602105, 10.6410473], [122.9599741, 10.64037], [122.9599038, 10.6401931], [122.9598306, 10.6400089], [122.9596641, 10.6396159], [122.9596268, 10.6395278], [122.9594197, 10.6390327], [122.9593545, 10.6388767], [122.9592251, 10.6385558], [122.9592012, 10.6385027], [122.9591815, 10.6384332], [122.9591315, 10.6383179]]}, "properties": {"city": "bacolod", "name": "Carlos Hilado Highway", "highway": "primary", "v_posted": 60, "posted_imputed": false, "v_safe": 50, "gap": 10, "R": 2.07, "exposure": 0.22, "vru_150m": 0, "sss": 15.2, "recommended": 50, "fatal_reduction_pct": 51.8, "why": "undivided arterial, side-impact intersections", "pop_density": 7115.9, "pop_density_peak": 8446.0, "v_design": 60, "design_gap": 10}}, {"type": "Feature", "geometry": {"type": "LineString", "coordinates": [[122.9653048, 10.6572627], [122.965327, 10.6562412], [122.9653523, 10.6554681], [122.9653867, 10.6542644], [122.9653938, 10.6538649], [122.9653961, 10.6534358]]}, "properties": {"city": "bacolod", "name": "Carlos Hilado Highway", "highway": "primary", "v_posted": 60, "posted_imputed": false, "v_safe": 50, "gap": 10, "R": 2.07, "exposure": 0.321, "vru_150m": 0, "sss": 16.5, "recommended": 50, "fatal_reduction_pct": 51.8, "why": "undivided arterial, side-impact intersections", "pop_density": 10393.9, "pop_density_peak": 12858.0, "v_design": 60, "design_gap": 10}}, {"type": "Feature", "geometry": {"type": "LineString", "coordinates": [[122.9615537, 10.6433141], [122.9613297, 10.643042]]}, "properties": {"city": "bacolod", "name": "Carlos Hilado Highway", "highway": "primary", "v_posted": 60, "posted_imputed": false, "v_safe": 50, "gap": 10, "R": 2.07, "exposure": 0.246, "vru_150m": 0, "sss": 15.6, "recommended": 50, "fatal_reduction_pct": 51.8, "why": "undivided arterial, side-impact intersections", "pop_density": 7972.7, "pop_density_peak": 7972.7, "v_design": 60, "design_gap": 10}}, {"type": "Feature", "geometry": {"type": "LineString", "coordinates": [[122.9643728, 10.6462037], [122.9642555, 10.6460859], [122.9640922, 10.645922], [122.9637584, 10.6455868], [122.9634695, 10.6453004], [122.9631686, 10.6450021], [122.9625665, 10.6444159], [122.9622724, 10.6441324], [122.9621183, 10.6439738], [122.962011, 10.6438618], [122.9618688, 10.6436968], [122.9617198, 10.6435158], [122.9615848, 10.6433519], [122.9615537, 10.6433141]]}, "properties": {"city": "bacolod", "name": "Carlos Hilado Highway", "highway": "primary", "v_posted": 60, "posted_imputed": false, "v_safe": 50, "gap": 10, "R": 2.07, "exposure": 0.182, "vru_150m": 0, "sss": 14.8, "recommended": 50, "fatal_reduction_pct": 51.8, "why": "undivided arterial, side-impact intersections", "pop_density": 5876.4, "pop_density_peak": 7972.7, "v_design": 60, "design_gap": 10}}, {"type": "Feature", "geometry": {"type": "LineString", "coordinates": [[122.9676919, 10.632274], [122.9684928, 10.6321585], [122.9686397, 10.6321374], [122.9693881, 10.6320247]]}, "properties": {"city": "bacolod", "name": "Bacolod-Murcia Road", "highway": "primary", "v_posted": 60, "posted_imputed": false, "v_safe": 50, "gap": 10, "R": 2.07, "exposure": 0.181, "vru_150m": 0, "sss": 14.8, "recommended": 50, "fatal_reduction_pct": 51.8, "why": "undivided arterial, side-impact intersections", "pop_density": 5848.9, "pop_density_peak": 5976.9, "v_design": 60, "design_gap": 10}}, {"type": "Feature", "geometry": {"type": "LineString", "coordinates": [[122.9353527, 10.6474869], [122.9354202, 10.6476228]]}, "properties": {"city": "bacolod", "name": "Araneta Avenue", "highway": "primary", "v_posted": 60, "posted_imputed": false, "v_safe": 50, "gap": 10, "R": 2.07, "exposure": 0.252, "vru_150m": 0, "sss": 15.7, "recommended": 50, "fatal_reduction_pct": 51.8, "why": "undivided arterial, side-impact intersections", "pop_density": 8152.8, "pop_density_peak": 8152.8, "v_design": 60, "design_gap": 10}}, {"type": "Feature", "geometry": {"type": "LineString", "coordinates": [[122.9352753, 10.6473312], [122.9353224, 10.6474341], [122.9353527, 10.6474869]]}, "properties": {"city": "bacolod", "name": "Araneta Avenue", "highway": "primary", "v_posted": 60, "posted_imputed": false, "v_safe": 50, "gap": 10, "R": 2.07, "exposure": 0.252, "vru_150m": 0, "sss": 15.7, "recommended": 50, "fatal_reduction_pct": 51.8, "why": "undivided arterial, side-impact intersections", "pop_density": 8152.8, "pop_density_peak": 8152.8, "v_design": 60, "design_gap": 10}}, {"type": "Feature", "geometry": {"type": "LineString", "coordinates": [[122.9356336, 10.6482617], [122.9354615, 10.6480104]]}, "properties": {"city": "bacolod", "name": "Araneta Avenue", "highway": "primary", "v_posted": 60, "posted_imputed": false, "v_safe": 50, "gap": 10, "R": 2.07, "exposure": 0.222, "vru_150m": 0, "sss": 15.3, "recommended": 50, "fatal_reduction_pct": 51.8, "why": "undivided arterial, side-impact intersections", "pop_density": 7174.0, "pop_density_peak": 7174.0, "v_design": 60, "design_gap": 10}}, {"type": "Feature", "geometry": {"type": "LineString", "coordinates": [[122.9578471, 10.635169], [122.9577747, 10.6349832], [122.9577457, 10.6349091], [122.9576942, 10.6347775], [122.9575923, 10.6345007], [122.9575253, 10.6343347], [122.957483, 10.6342358], [122.9573511, 10.6338862], [122.9571323, 10.6333247], [122.9568705, 10.6326915], [122.956557, 10.6319331], [122.9565087, 10.6318119], [122.9563692, 10.6314046], [122.9563604, 10.6313754], [122.9562556, 10.6310549], [122.9562079, 10.6309091], [122.9560553, 10.6304518], [122.9559043, 10.6299993], [122.9558856, 10.6299434], [122.9558049, 10.6296935], [122.9555726, 10.6289938], [122.95554, 10.628854], [122.9554456, 10.6285708], [122.9553981, 10.628402]]}, "properties": {"city": "bacolod", "name": "Bacolod Circumferential Road", "highway": "primary", "v_posted": 60, "posted_imputed": false, "v_safe": 50, "gap": 10, "R": 2.07, "exposure": 0.413, "vru_150m": 1, "sss": 17.7, "recommended": 50, "fatal_reduction_pct": 51.8, "why": "undivided arterial, side-impact intersections", "pop_density": 8607.6, "pop_density_peak": 12280.6, "v_design": 60, "design_gap": 10}}, {"type": "Feature", "geometry": {"type": "LineString", "coordinates": [[123.0018109, 10.6238164], [123.0015436, 10.6238892], [123.0012453, 10.6239731], [123.0008577, 10.6240792], [123.0006619, 10.6241379], [123.0003507, 10.6242321], [122.9996649, 10.6244328], [122.9996289, 10.624445], [122.9988324, 10.6247522], [122.9983116, 10.6249551], [122.9969518, 10.6254969], [122.9966067, 10.6256385], [122.996487, 10.6256893], [122.9963261, 10.6257434], [122.9960766, 10.6258172], [122.9954544, 10.6259964], [122.9940764, 10.6264378], [122.9938898, 10.6264942], [122.9935849, 10.6265896], [122.9924891, 10.6269421], [122.9919445, 10.6271175], [122.991415, 10.6272842], [122.9899478, 10.6277284], [122.9894318, 10.6278859], [122.9888609, 10.6280601], [122.988249, 10.6282466], [122.987938, 10.6283394], [122.9876617, 10.6284218], [122.9875927, 10.6284466], [122.9874599, 10.6284802], [122.9873158, 10.6285236], [122.9871076, 10.6285863], [122.9861823, 10.6288845], [122.9859065, 10.6289683], [122.9857092, 10.6290288], [122.9854471, 10.6291091], [122.9849835, 10.6292455], [122.984527, 10.6293798], [122.9841918, 10.6294736], [122.9834673, 10.6297002], [122.98292, 10.6298682], [122.9826539, 10.6299464], [122.9820212, 10.6301265], [122.9817849, 10.6301899], [122.9815344, 10.6302458], [122.981356, 10.6302796], [122.9812932, 10.6302919], [122.9809596, 10.6303414], [122.9806503, 10.6303873], [122.9803156, 10.6304333], [122.9798928, 10.6304913], [122.9796055, 10.6305308], [122.9792584, 10.6305784], [122.9789743, 10.6306174], [122.9782617, 10.6307153], [122.9776413, 10.6308005], [122.9775361, 10.6308147], [122.9774936, 10.6308204], [122.9773267, 10.6308441], [122.9772763, 10.6308523], [122.9771898, 10.6308645], [122.9769699, 10.6308957], [122.976913, 10.6309038], [122.9768507, 10.6309126], [122.9767918, 10.6309225], [122.9760603, 10.6310247]]}, "properties": {"city": "bacolod", "name": "Bacolod-Murcia Road", "highway": "primary", "v_posted": 60, "posted_imputed": false, "v_safe": 50, "gap": 10, "R": 2.07, "exposure": 0.396, "vru_150m": 1, "sss": 17.5, "recommended": 50, "fatal_reduction_pct": 51.8, "why": "undivided arterial, side-impact intersections", "pop_density": 7943.4, "pop_density_peak": 14952.9, "v_design": 60, "design_gap": 10}}, {"type": "Feature", "geometry": {"type": "LineString", "coordinates": [[122.9746205, 10.6549591], [122.9746478, 10.6548827], [122.9746786, 10.6548173], [122.974733, 10.6547298], [122.9747829, 10.6546765], [122.9748738, 10.6546243], [122.9749592, 10.6545913], [122.9751796, 10.6545295], [122.9754263, 10.654482], [122.9756407, 10.6544206], [122.9757723, 10.6543792], [122.9758843, 10.6543098], [122.9759681, 10.6542316], [122.976047, 10.6541366], [122.9761773, 10.6539074], [122.9763195, 10.6535915], [122.9763488, 10.6535119], [122.9765072, 10.6531403], [122.9765448, 10.653027], [122.9766247, 10.6528864], [122.976687, 10.6528029], [122.9767808, 10.6527291], [122.9769605, 10.6526619], [122.9771287, 10.6526225], [122.977991, 10.6524373], [122.978645, 10.6522969], [122.9790527, 10.6522036], [122.9793447, 10.6521323], [122.9805305, 10.6518545], [122.9830947, 10.6512398], [122.9836181, 10.6511202], [122.9843931, 10.6509469]]}, "properties": {"city": "bacolod", "name": "Fernando F. Gonzaga Avenue East", "highway": "unclassified", "v_posted": 40, "posted_imputed": false, "v_safe": 30, "gap": 10, "R": 3.16, "exposure": 0.378, "vru_150m": 1, "sss": 17.2, "recommended": 30, "fatal_reduction_pct": 68.4, "why": "local road, frontage/pedestrian mixing", "pop_density": 7214.3, "pop_density_peak": 19045.7, "v_design": 40, "design_gap": 10}}, {"type": "Feature", "geometry": {"type": "LineString", "coordinates": [[122.9745784, 10.6550689], [122.9746205, 10.6549591]]}, "properties": {"city": "bacolod", "name": "Fernando F. Gonzaga Avenue East", "highway": "unclassified", "v_posted": 40, "posted_imputed": false, "v_safe": 30, "gap": 10, "R": 3.16, "exposure": 0.52, "vru_150m": 0, "sss": 19.0, "recommended": 30, "fatal_reduction_pct": 68.4, "why": "local road, frontage/pedestrian mixing", "pop_density": 16834.7, "pop_density_peak": 16834.7, "v_design": 40, "design_gap": 10}}, {"type": "Feature", "geometry": {"type": "LineString", "coordinates": [[122.9869969, 10.6503458], [122.9870423, 10.6503811], [122.9870798, 10.6504378], [122.9871058, 10.6505065], [122.9872831, 10.6512482], [122.9873948, 10.651702], [122.9874865, 10.6520867], [122.9875983, 10.6525561], [122.9877325, 10.6530776], [122.9878503, 10.6535351], [122.9878791, 10.6536208], [122.9879087, 10.6536641], [122.9879563, 10.6536965], [122.9880166, 10.6537084], [122.9880897, 10.6537102], [122.9882637, 10.6537041]]}, "properties": {"city": "bacolod", "name": "", "highway": "unclassified", "v_posted": 40, "posted_imputed": false, "v_safe": 30, "gap": 10, "R": 3.16, "exposure": 0.134, "vru_150m": 0, "sss": 14.2, "recommended": 30, "fatal_reduction_pct": 68.4, "why": "local road, frontage/pedestrian mixing", "pop_density": 4337.0, "pop_density_peak": 7375.1, "v_design": 40, "design_gap": 10}}, {"type": "Feature", "geometry": {"type": "LineString", "coordinates": [[122.9698267, 10.6319587], [122.9712771, 10.631735], [122.971898, 10.6316503], [122.9722428, 10.6316032], [122.9724956, 10.6315613], [122.9739428, 10.6313373], [122.9741779, 10.6313009]]}, "properties": {"city": "bacolod", "name": "Bacolod-Murcia Road", "highway": "primary", "v_posted": 60, "posted_imputed": false, "v_safe": 50, "gap": 10, "R": 2.07, "exposure": 0.159, "vru_150m": 0, "sss": 14.5, "recommended": 50, "fatal_reduction_pct": 51.8, "why": "undivided arterial, side-impact intersections", "pop_density": 5131.2, "pop_density_peak": 5976.9, "v_design": 60, "design_gap": 10}}, {"type": "Feature", "geometry": {"type": "LineString", "coordinates": [[122.9843931, 10.6509469], [122.9858459, 10.6505684], [122.9866194, 10.650364], [122.9868077, 10.6503208], [122.9868673, 10.6503165], [122.9869344, 10.6503244], [122.9869969, 10.6503458]]}, "properties": {"city": "bacolod", "name": "Fernando F. Gonzaga Avenue East", "highway": "unclassified", "v_posted": 40, "posted_imputed": false, "v_safe": 30, "gap": 10, "R": 3.16, "exposure": 0.012, "vru_150m": 0, "sss": 12.6, "recommended": 30, "fatal_reduction_pct": 68.4, "why": "local road, frontage/pedestrian mixing", "pop_density": 381.6, "pop_density_peak": 572.4, "v_design": 40, "design_gap": 10}}, {"type": "Feature", "geometry": {"type": "LineString", "coordinates": [[122.9693881, 10.6320247], [122.9698267, 10.6319587]]}, "properties": {"city": "bacolod", "name": "Bacolod-Murcia Road", "highway": "primary", "v_posted": 60, "posted_imputed": false, "v_safe": 50, "gap": 10, "R": 2.07, "exposure": 0.185, "vru_150m": 0, "sss": 14.8, "recommended": 50, "fatal_reduction_pct": 51.8, "why": "undivided arterial, side-impact intersections", "pop_density": 5976.9, "pop_density_peak": 5976.9, "v_design": 60, "design_gap": 10}}, {"type": "Feature", "geometry": {"type": "LineString", "coordinates": [[122.9760603, 10.6310247], [122.9755167, 10.6311098], [122.9754393, 10.6311214], [122.9752493, 10.6311463], [122.9747327, 10.6312139], [122.9746601, 10.6312253], [122.9745449, 10.6312435], [122.9743573, 10.6312731], [122.9743123, 10.6312802], [122.9741779, 10.6313009]]}, "properties": {"city": "bacolod", "name": "Bacolod-Murcia Road", "highway": "primary", "v_posted": 60, "posted_imputed": false, "v_safe": 50, "gap": 10, "R": 2.07, "exposure": 0.329, "vru_150m": 1, "sss": 16.6, "recommended": 50, "fatal_reduction_pct": 51.8, "why": "undivided arterial, side-impact intersections", "pop_density": 5210.0, "pop_density_peak": 5803.4, "v_design": 60, "design_gap": 10}}, {"type": "Feature", "geometry": {"type": "LineString", "coordinates": [[122.9738719, 10.6567464], [122.9739534, 10.6566477], [122.9740354, 10.6565304], [122.9740994, 10.6564175], [122.9741604, 10.6562807], [122.9742213, 10.6561177], [122.9742818, 10.6559529], [122.9744444, 10.6554903], [122.9745784, 10.6550689]]}, "properties": {"city": "bacolod", "name": "Fernando F. Gonzaga Avenue East", "highway": "unclassified", "v_posted": 40, "posted_imputed": false, "v_safe": 30, "gap": 10, "R": 3.16, "exposure": 0.53, "vru_150m": 1, "sss": 19.1, "recommended": 30, "fatal_reduction_pct": 68.4, "why": "local road, frontage/pedestrian mixing", "pop_density": 13346.9, "pop_density_peak": 16834.7, "v_design": 40, "design_gap": 10}}, {"type": "Feature", "geometry": {"type": "LineString", "coordinates": [[122.9468304, 10.6684834], [122.9469265, 10.6685064], [122.9469782, 10.6685292], [122.9470095, 10.6685543], [122.9470223, 10.6685786]]}, "properties": {"city": "bacolod", "name": "Gatuslao Street", "highway": "primary", "v_posted": 40, "posted_imputed": false, "v_safe": 30, "gap": 10, "R": 3.16, "exposure": 1.0, "vru_150m": 6, "sss": 25.0, "recommended": 30, "fatal_reduction_pct": 68.4, "why": "pedestrian activity (1 VRU site<=50m)", "pop_density": 7167.7, "pop_density_peak": 7167.7, "v_design": 60, "design_gap": 30}}, {"type": "Feature", "geometry": {"type": "LineString", "coordinates": [[122.9509575, 10.677346], [122.9511224, 10.6772744], [122.9516368, 10.6770803], [122.9517676, 10.6770286]]}, "properties": {"city": "bacolod", "name": "North Capitol Road", "highway": "tertiary", "v_posted": 40, "posted_imputed": false, "v_safe": 30, "gap": 10, "R": 3.16, "exposure": 0.841, "vru_150m": 4, "sss": 23.0, "recommended": 30, "fatal_reduction_pct": 68.4, "why": "pedestrian activity (2 VRU site<=50m)", "pop_density": 6586.1, "pop_density_peak": 7655.6, "v_design": 45, "design_gap": 15}}, {"type": "Feature", "geometry": {"type": "LineString", "coordinates": [[122.9452715, 10.66919], [122.9455152, 10.6690721], [122.9460385, 10.6688365], [122.9461323, 10.6687963]]}, "properties": {"city": "bacolod", "name": "Gonzaga Street", "highway": "primary", "v_posted": 40, "posted_imputed": false, "v_safe": 30, "gap": 10, "R": 3.16, "exposure": 1.0, "vru_150m": 8, "sss": 25.0, "recommended": 30, "fatal_reduction_pct": 68.4, "why": "pedestrian activity (2 VRU site<=50m)", "pop_density": 8099.2, "pop_density_peak": 8752.4, "v_design": 60, "design_gap": 30}}, {"type": "Feature", "geometry": {"type": "LineString", "coordinates": [[122.9455178, 10.6676265], [122.945603, 10.6677994], [122.9461323, 10.6687963]]}, "properties": {"city": "bacolod", "name": "Araneta Avenue", "highway": "primary", "v_posted": 40, "posted_imputed": false, "v_safe": 30, "gap": 10, "R": 3.16, "exposure": 1.0, "vru_150m": 7, "sss": 25.0, "recommended": 30, "fatal_reduction_pct": 68.4, "why": "pedestrian activity (1 VRU site<=50m)", "pop_density": 6297.2, "pop_density_peak": 8752.4, "v_design": 60, "design_gap": 30}}, {"type": "Feature", "geometry": {"type": "LineString", "coordinates": [[122.9497009, 10.6745485], [122.9497745, 10.6745267], [122.9502018, 10.6743802], [122.950315, 10.6743447], [122.9506375, 10.6742386], [122.9509233, 10.6741361], [122.9519556, 10.6737507], [122.9520469, 10.6737157]]}, "properties": {"city": "bacolod", "name": "Cottage Road", "highway": "unclassified", "v_posted": 40, "posted_imputed": false, "v_safe": 30, "gap": 10, "R": 3.16, "exposure": 0.334, "vru_150m": 1, "sss": 16.7, "recommended": 30, "fatal_reduction_pct": 68.4, "why": "local road, frontage/pedestrian mixing", "pop_density": 5404.1, "pop_density_peak": 5532.3, "v_design": 40, "design_gap": 10}}, {"type": "Feature", "geometry": {"type": "LineString", "coordinates": [[122.9474629, 10.6695826], [122.9477572, 10.6694559], [122.9485767, 10.6690691]]}, "properties": {"city": "bacolod", "name": "Jose Rizal Street", "highway": "primary", "v_posted": 40, "posted_imputed": false, "v_safe": 30, "gap": 10, "R": 3.16, "exposure": 1.0, "vru_150m": 6, "sss": 25.0, "recommended": 30, "fatal_reduction_pct": 68.4, "why": "pedestrian activity (2 VRU site<=50m)", "pop_density": 7048.0, "pop_density_peak": 8543.3, "v_design": 60, "design_gap": 30}}, {"type": "Feature", "geometry": {"type": "LineString", "coordinates": [[122.9460416, 10.6702172], [122.9459463, 10.670092], [122.945882, 10.6700076], [122.9457345, 10.6698007], [122.9456672, 10.6697109], [122.9454054, 10.669359], [122.9452715, 10.66919]]}, "properties": {"city": "bacolod", "name": "San Juan Street", "highway": "primary", "v_posted": 40, "posted_imputed": false, "v_safe": 30, "gap": 10, "R": 3.16, "exposure": 1.0, "vru_150m": 5, "sss": 25.0, "recommended": 30, "fatal_reduction_pct": 68.4, "why": "pedestrian activity (1 VRU site<=50m)", "pop_density": 11514.0, "pop_density_peak": 15582.0, "v_design": 60, "design_gap": 30}}, {"type": "Feature", "geometry": {"type": "LineString", "coordinates": [[122.9487674, 10.6723302], [122.9488302, 10.6723955], [122.9488523, 10.6724483], [122.9488676, 10.6724845], [122.948943, 10.6726594], [122.9489467, 10.6726674], [122.9490434, 10.6728784], [122.9491674, 10.6731573], [122.9492651, 10.6733769], [122.9495497, 10.6740168], [122.9495824, 10.6740929], [122.9497745, 10.6745267], [122.9499651, 10.6749639], [122.9499902, 10.6750225], [122.9501311, 10.6753359], [122.950317, 10.6757865], [122.950309, 10.6758542]]}, "properties": {"city": "bacolod", "name": "Gatuslao Street", "highway": "tertiary", "v_posted": 40, "posted_imputed": false, "v_safe": 30, "gap": 10, "R": 3.16, "exposure": 0.494, "vru_150m": 2, "sss": 18.7, "recommended": 30, "fatal_reduction_pct": 68.4, "why": "pedestrian activity (2 VRU site<=50m)", "pop_density": 5075.6, "pop_density_peak": 5750.1, "v_design": 45, "design_gap": 15}}, {"type": "Feature", "geometry": {"type": "LineString", "coordinates": [[122.950309, 10.6758542], [122.9504023, 10.6760688], [122.9505966, 10.6765159], [122.9506265, 10.6765847], [122.9506875, 10.6767251], [122.9508486, 10.6770955], [122.9509575, 10.677346]]}, "properties": {"city": "bacolod", "name": "Gatuslao Street", "highway": "tertiary", "v_posted": 40, "posted_imputed": false, "v_safe": 30, "gap": 10, "R": 3.16, "exposure": 0.828, "vru_150m": 4, "sss": 22.8, "recommended": 30, "fatal_reduction_pct": 68.4, "why": "pedestrian activity (2 VRU site<=50m)", "pop_density": 4490.4, "pop_density_peak": 5516.5, "v_design": 45, "design_gap": 15}}, {"type": "Feature", "geometry": {"type": "LineString", "coordinates": [[122.950309, 10.6758542], [122.9502572, 10.675805], [122.9498954, 10.6749937], [122.9497009, 10.6745485], [122.9495045, 10.6741154], [122.949472, 10.6740433], [122.9491934, 10.67341], [122.9491362, 10.6732799], [122.9490952, 10.6731868], [122.9490611, 10.6731092], [122.9489746, 10.6729127], [122.9488134, 10.6725405], [122.9487933, 10.6724871], [122.9487705, 10.6724232], [122.9487674, 10.6723302]]}, "properties": {"city": "bacolod", "name": "Gatuslao Street", "highway": "tertiary", "v_posted": 40, "posted_imputed": false, "v_safe": 30, "gap": 10, "R": 3.16, "exposure": 0.512, "vru_150m": 2, "sss": 18.9, "recommended": 30, "fatal_reduction_pct": 68.4, "why": "pedestrian activity (2 VRU site<=50m)", "pop_density": 6024.1, "pop_density_peak": 8779.4, "v_design": 45, "design_gap": 15}}, {"type": "Feature", "geometry": {"type": "LineString", "coordinates": [[123.0012607, 10.6616079], [123.0010151, 10.6615036], [123.0008977, 10.6614537], [122.9997857, 10.6610596], [122.9995581, 10.6610007], [122.9992771, 10.6609697], [122.9989953, 10.6609763], [122.9975246, 10.6609563], [122.9974111, 10.6609533], [122.9972626, 10.6609537], [122.9957043, 10.6609363], [122.9951564, 10.6609286], [122.9943994, 10.660918], [122.9942102, 10.6609153], [122.9939393, 10.6609115], [122.9937093, 10.6609083], [122.9935922, 10.6609067], [122.9922035, 10.6608872], [122.9919353, 10.6608842], [122.9918074, 10.6608828], [122.9917585, 10.6608822], [122.9911092, 10.6608755], [122.9909324, 10.6608737], [122.9906804, 10.6608718], [122.9899505, 10.6608684], [122.989454, 10.6608642], [122.989413, 10.6608638], [122.9893765, 10.6608633], [122.9889876, 10.6608572], [122.9881694, 10.6608491], [122.9870227, 10.6608445], [122.9868723, 10.6608439], [122.9863322, 10.6608294], [122.986064, 10.6608258], [122.9859634, 10.6608244], [122.9858091, 10.660824], [122.985742, 10.6608239], [122.985447, 10.6608232], [122.9852217, 10.6608227], [122.9851547, 10.6608226], [122.9848545, 10.6608219], [122.9848249, 10.6608218], [122.9846835, 10.6608196], [122.9842129, 10.6608122], [122.9836512, 10.6608034], [122.9834541, 10.6608003], [122.9830904, 10.6607946], [122.982958, 10.6607947], [122.9828974, 10.6607948], [122.9825392, 10.6607927], [122.9818311, 10.6607799], [122.9809501, 10.6607642], [122.9806342, 10.6607586], [122.9805493, 10.6607586], [122.9800491, 10.6607583], [122.9797956, 10.6607582], [122.9796756, 10.6607581], [122.9795345, 10.6607577], [122.9794764, 10.660756], [122.9793463, 10.6607562], [122.9792243, 10.6607556], [122.9791747, 10.6607552], [122.9783311, 10.6607477], [122.9772985, 10.6607295], [122.9771969, 10.6607277], [122.9765483, 10.6607394], [122.9764791, 10.6607503], [122.9764153, 10.660768], [122.9761864, 10.6608423], [122.9760841, 10.6608755], [122.975729, 10.6610033], [122.975554, 10.6610725], [122.9752727, 10.6611837], [122.974952, 10.6613105], [122.9748318, 10.6613581], [122.9745498, 10.661465], [122.9737167, 10.6617726], [122.9736642, 10.6617923], [122.9731817, 10.6619605], [122.9731042, 10.6619881], [122.9730143, 10.6620211], [122.9728147, 10.6620943], [122.9726384, 10.662161], [122.9724063, 10.6622472], [122.9723399, 10.6622723], [122.9720173, 10.6624075], [122.9718918, 10.6624601], [122.9712792, 10.6627144], [122.9703719, 10.6630991], [122.970306, 10.6631272], [122.9700086, 10.6632492], [122.9692259, 10.6635938], [122.9687819, 10.6637681], [122.968242, 10.663999], [122.9678886, 10.6641496], [122.9677014, 10.6642294]]}, "properties": {"city": "bacolod", "name": "Burgos Extension", "highway": "secondary", "v_posted": 60, "posted_imputed": false, "v_safe": 50, "gap": 10, "R": 2.07, "exposure": 0.28, "vru_150m": 0, "sss": 16.0, "recommended": 50, "fatal_reduction_pct": 51.8, "why": "undivided arterial, side-impact intersections", "pop_density": 9061.6, "pop_density_peak": 12700.5, "v_design": 50, "design_gap": 0}}, {"type": "Feature", "geometry": {"type": "LineString", "coordinates": [[122.9575702, 10.687107], [122.957699, 10.6874357], [122.9577574, 10.6875854], [122.957893, 10.6879036], [122.9581032, 10.6884283], [122.9581468, 10.6885394], [122.9582059, 10.6887026], [122.9583044, 10.6889195], [122.9584573, 10.6893221], [122.9586555, 10.6898083], [122.9587208, 10.689964]]}, "properties": {"city": "bacolod", "name": "Lacson Street", "highway": "primary", "v_posted": 50, "posted_imputed": false, "v_safe": 30, "gap": 20, "R": 7.72, "exposure": 0.293, "vru_150m": 1, "sss": 32.3, "recommended": 30, "fatal_reduction_pct": 87.0, "why": "pedestrian activity (1 VRU site<=50m)", "pop_density": 3762.0, "pop_density_peak": 6894.7, "v_design": 60, "design_gap": 30}}, {"type": "Feature", "geometry": {"type": "LineString", "coordinates": [[122.9571259, 10.6860315], [122.9571469, 10.6860838], [122.9572045, 10.6862272], [122.9572621, 10.6863709], [122.9573298, 10.6865394], [122.957479, 10.6868938]]}, "properties": {"city": "bacolod", "name": "Lacson Street", "highway": "primary", "v_posted": 50, "posted_imputed": false, "v_safe": 30, "gap": 20, "R": 7.72, "exposure": 0.851, "vru_150m": 4, "sss": 46.3, "recommended": 30, "fatal_reduction_pct": 87.0, "why": "pedestrian activity (3 VRU site<=50m)", "pop_density": 8251.2, "pop_density_peak": 9467.6, "v_design": 60, "design_gap": 30}}, {"type": "Feature", "geometry": {"type": "LineString", "coordinates": [[122.9433864, 10.6635736], [122.9436729, 10.6641421], [122.943999, 10.664768], [122.9446639, 10.6660026], [122.9447303, 10.6661443]]}, "properties": {"city": "bacolod", "name": "Araneta Avenue", "highway": "primary", "v_posted": 40, "posted_imputed": false, "v_safe": 30, "gap": 10, "R": 3.16, "exposure": 0.829, "vru_150m": 4, "sss": 22.9, "recommended": 30, "fatal_reduction_pct": 68.4, "why": "pedestrian activity (1 VRU site<=50m)", "pop_density": 4710.7, "pop_density_peak": 5839.7, "v_design": 60, "design_gap": 30}}, {"type": "Feature", "geometry": {"type": "LineString", "coordinates": [[122.9587208, 10.689964], [122.9587756, 10.6900998], [122.9588724, 10.6903396], [122.9589243, 10.6904683], [122.9591574, 10.6910459], [122.9592022, 10.6911568], [122.9593567, 10.6915397], [122.9594123, 10.6916774]]}, "properties": {"city": "bacolod", "name": "Lacson Street", "highway": "primary", "v_posted": 50, "posted_imputed": false, "v_safe": 30, "gap": 20, "R": 7.72, "exposure": 0.64, "vru_150m": 3, "sss": 41.0, "recommended": 30, "fatal_reduction_pct": 87.0, "why": "pedestrian activity (1 VRU site<=50m)", "pop_density": 3220.1, "pop_density_peak": 3730.7, "v_design": 60, "design_gap": 30}}, {"type": "Feature", "geometry": {"type": "LineString", "coordinates": [[122.9567924, 10.6852075], [122.9568106, 10.6852526], [122.9568901, 10.6854489], [122.9569217, 10.6855269], [122.9570623, 10.6858743], [122.9571259, 10.6860315]]}, "properties": {"city": "bacolod", "name": "Lacson Street", "highway": "primary", "v_posted": 50, "posted_imputed": false, "v_safe": 30, "gap": 20, "R": 7.72, "exposure": 1.0, "vru_150m": 5, "sss": 50.0, "recommended": 30, "fatal_reduction_pct": 87.0, "why": "pedestrian activity (1 VRU site<=50m)", "pop_density": 9357.2, "pop_density_peak": 9467.6, "v_design": 60, "design_gap": 30}}, {"type": "Feature", "geometry": {"type": "LineString", "coordinates": [[122.9694229, 10.6681455], [122.9693538, 10.6679688], [122.9689667, 10.6670688], [122.9686925, 10.6664524], [122.9685169, 10.6660559], [122.9684016, 10.665795], [122.9683046, 10.6655759], [122.9680788, 10.6650718], [122.9678815, 10.6646314], [122.9678665, 10.664598], [122.9677989, 10.6644486], [122.967761, 10.6643631], [122.9677397, 10.664315], [122.9677014, 10.6642294]]}, "properties": {"city": "bacolod", "name": "Carlos Hilado Highway", "highway": "primary", "v_posted": 60, "posted_imputed": false, "v_safe": 50, "gap": 10, "R": 2.07, "exposure": 0.288, "vru_150m": 0, "sss": 16.1, "recommended": 50, "fatal_reduction_pct": 51.8, "why": "undivided arterial, side-impact intersections", "pop_density": 9325.7, "pop_density_peak": 10197.3, "v_design": 60, "design_gap": 10}}, {"type": "Feature", "geometry": {"type": "LineString", "coordinates": [[122.9474629, 10.6695826], [122.9475085, 10.6696892], [122.9477306, 10.6701674]]}, "properties": {"city": "bacolod", "name": "Gatuslao Street", "highway": "tertiary", "v_posted": 40, "posted_imputed": false, "v_safe": 30, "gap": 10, "R": 3.16, "exposure": 1.0, "vru_150m": 5, "sss": 25.0, "recommended": 30, "fatal_reduction_pct": 68.4, "why": "pedestrian activity (3 VRU site<=50m)", "pop_density": 8193.8, "pop_density_peak": 8543.3, "v_design": 45, "design_gap": 15}}, {"type": "Feature", "geometry": {"type": "LineString", "coordinates": [[122.9677014, 10.6642294], [122.967646, 10.6641057], [122.9675153, 10.6638139], [122.9674958, 10.6637704], [122.9674421, 10.6636506], [122.9673228, 10.6633843], [122.9671537, 10.6630068], [122.9670888, 10.6628619]]}, "properties": {"city": "bacolod", "name": "Carlos Hilado Highway", "highway": "primary", "v_posted": 60, "posted_imputed": false, "v_safe": 50, "gap": 10, "R": 2.07, "exposure": 0.274, "vru_150m": 0, "sss": 15.9, "recommended": 50, "fatal_reduction_pct": 51.8, "why": "undivided arterial, side-impact intersections", "pop_density": 8863.5, "pop_density_peak": 9002.5, "v_design": 60, "design_gap": 10}}, {"type": "Feature", "geometry": {"type": "LineString", "coordinates": [[122.9872206, 10.6923704], [122.987182, 10.6922399], [122.9870852, 10.691954], [122.9870023, 10.6917005], [122.9869231, 10.6914709], [122.9869088, 10.6914283], [122.9868559, 10.6912647], [122.9868404, 10.6912231], [122.9866205, 10.6905333], [122.9864131, 10.689945], [122.9863893, 10.6898776], [122.9863266, 10.6897001], [122.9860495, 10.6888966], [122.9859754, 10.6886818], [122.9856938, 10.6878835], [122.9856095, 10.6876445], [122.9854833, 10.6873094], [122.9854281, 10.6871656], [122.9853388, 10.6869446], [122.98508, 10.6862265], [122.9847531, 10.6852613], [122.9847015, 10.6850925], [122.9846075, 10.6848996], [122.9845043, 10.6847546], [122.9843916, 10.6846255], [122.9841408, 10.6844489], [122.9839879, 10.6843843], [122.9836942, 10.6843118], [122.9835896, 10.6842947], [122.9834783, 10.6842762], [122.983198, 10.6842525], [122.9828788, 10.6842512], [122.9825791, 10.6842694], [122.982337, 10.6842841], [122.9820168, 10.6843053], [122.9816812, 10.6843276], [122.9814546, 10.6843224], [122.9812186, 10.684296], [122.9810134, 10.6842591], [122.9808471, 10.6842209], [122.9806486, 10.6841655], [122.9804555, 10.684101], [122.9802261, 10.68401], [122.9799662, 10.6838909], [122.9794362, 10.6836305], [122.9787979, 10.683305], [122.9782158, 10.683015], [122.9776826, 10.682767]]}, "properties": {"city": "bacolod", "name": "Carlos Hilado Highway", "highway": "primary", "v_posted": 60, "posted_imputed": false, "v_safe": 50, "gap": 10, "R": 2.07, "exposure": 0.13, "vru_150m": 0, "sss": 14.1, "recommended": 50, "fatal_reduction_pct": 51.8, "why": "undivided arterial, side-impact intersections", "pop_density": 4219.3, "pop_density_peak": 16358.5, "v_design": 55, "design_gap": 5}}, {"type": "Feature", "geometry": {"type": "LineString", "coordinates": [[122.9877309, 10.6940356], [122.9876334, 10.6939389], [122.9875714, 10.693729], [122.9874254, 10.6932472], [122.9873278, 10.6929383]]}, "properties": {"city": "bacolod", "name": "Bacolod Silay Airport Access Road", "highway": "primary", "v_posted": 80, "posted_imputed": false, "v_safe": 70, "gap": 10, "R": 1.71, "exposure": 0.455, "vru_150m": 0, "sss": 18.2, "recommended": 70, "fatal_reduction_pct": 41.4, "why": "divided carriageway (head-on only, no side impact)", "pop_density": 14712.3, "pop_density_peak": 16107.9, "v_design": 60, "design_gap": -10}}, {"type": "Feature", "geometry": {"type": "LineString", "coordinates": [[122.9877309, 10.6940356], [122.9878508, 10.694381], [122.9878854, 10.6944907], [122.9880407, 10.6949833], [122.9882504, 10.6956404], [122.9885909, 10.6967077], [122.9886203, 10.6967997], [122.9890467, 10.6981384], [122.9894004, 10.6991901], [122.9894422, 10.6993298], [122.9895943, 10.699829], [122.9896053, 10.699865], [122.9897912, 10.7004753], [122.9898114, 10.7005423], [122.9898476, 10.7006403], [122.9898671, 10.7007143], [122.989952, 10.7009886], [122.9900212, 10.7011905], [122.9900705, 10.7013502], [122.9901664, 10.7016998], [122.9904797, 10.7025957], [122.990663, 10.7031576], [122.9907469, 10.7034138], [122.9910786, 10.7042357]]}, "properties": {"city": "bacolod", "name": "Bacolod Silay Airport Access Road", "highway": "primary", "v_posted": 80, "posted_imputed": false, "v_safe": 50, "gap": 30, "R": 6.55, "exposure": 0.644, "vru_150m": 0, "sss": 61.7, "recommended": 50, "fatal_reduction_pct": 84.7, "why": "undivided arterial, side-impact intersections", "pop_density": 20832.1, "pop_density_peak": 35710.9, "v_design": 60, "design_gap": 10}}, {"type": "Feature", "geometry": {"type": "LineString", "coordinates": [[123.0230218, 10.6656619], [123.0226274, 10.6656354], [123.0223192, 10.6656138], [123.0211374, 10.6655325], [123.0209585, 10.6655204], [123.0197996, 10.6654534], [123.0196873, 10.665448], [123.019012, 10.6654117], [123.0189079, 10.6654061], [123.0180632, 10.6653445], [123.0169891, 10.6652657], [123.0169329, 10.6652614], [123.0160941, 10.6651968], [123.0155358, 10.6651647], [123.0147267, 10.665115], [123.0131744, 10.6649757], [123.0131241, 10.6649713], [123.0126498, 10.6649205], [123.0114065, 10.6647625], [123.0107636, 10.6646541], [123.0100404, 10.66451], [123.0099383, 10.6644906], [123.0088641, 10.6642515], [123.0083067, 10.6641319], [123.007924, 10.6640461], [123.0071278, 10.6638677], [123.0065225, 10.6637017], [123.0063874, 10.6636646], [123.0063127, 10.6636384], [123.0050429, 10.663193], [123.0048554, 10.6631143], [123.0039332, 10.6627276], [123.002847, 10.6622918], [123.0028115, 10.6622775], [123.0027306, 10.6622428], [123.0013653, 10.6616533], [123.0012607, 10.6616079]]}, "properties": {"city": "bacolod", "name": "Burgos Extension", "highway": "secondary", "v_posted": 60, "posted_imputed": false, "v_safe": 50, "gap": 10, "R": 2.07, "exposure": 0.097, "vru_150m": 0, "sss": 13.7, "recommended": 50, "fatal_reduction_pct": 51.8, "why": "undivided arterial, side-impact intersections", "pop_density": 3128.9, "pop_density_peak": 11360.6, "v_design": 50, "design_gap": 0}}, {"type": "Feature", "geometry": {"type": "LineString", "coordinates": [[122.9776826, 10.682767], [122.9774648, 10.6826737]]}, "properties": {"city": "bacolod", "name": "Carlos Hilado Highway", "highway": "primary", "v_posted": 60, "posted_imputed": false, "v_safe": 50, "gap": 10, "R": 2.07, "exposure": 0.0, "vru_150m": 0, "sss": 12.5, "recommended": 50, "fatal_reduction_pct": 51.8, "why": "undivided arterial, side-impact intersections", "pop_density": 0.0, "pop_density_peak": 0.0, "v_design": 60, "design_gap": 10}}, {"type": "Feature", "geometry": {"type": "LineString", "coordinates": [[122.969533, 10.6684272], [122.9694229, 10.6681455]]}, "properties": {"city": "bacolod", "name": "Carlos Hilado Highway", "highway": "primary", "v_posted": 60, "posted_imputed": false, "v_safe": 50, "gap": 10, "R": 2.07, "exposure": 0.452, "vru_150m": 1, "sss": 18.1, "recommended": 50, "fatal_reduction_pct": 51.8, "why": "undivided arterial, side-impact intersections", "pop_density": 10171.8, "pop_density_peak": 10171.8, "v_design": 60, "design_gap": 10}}, {"type": "Feature", "geometry": {"type": "LineString", "coordinates": [[122.9774648, 10.6826737], [122.9773146, 10.6825999], [122.9771805, 10.682509], [122.9770584, 10.6823943], [122.9769458, 10.682277], [122.9768493, 10.6821611], [122.9767299, 10.6820056], [122.9765341, 10.6817354], [122.976235, 10.6813321], [122.9760513, 10.6810593], [122.975819, 10.6807277], [122.9754995, 10.6802715], [122.9752327, 10.6799464], [122.9749043, 10.6795326], [122.9746656, 10.679232], [122.9742582, 10.6787082], [122.9739565, 10.6783234], [122.9737076, 10.6779968], [122.9735535, 10.6777893], [122.9733834, 10.6775603], [122.9733307, 10.6774893], [122.97326, 10.6774047], [122.973007, 10.6771017], [122.9728307, 10.6768784], [122.9727608, 10.6767929], [122.9727081, 10.6767114], [122.972653, 10.6766095], [122.9726226, 10.6765162], [122.9726096, 10.6764034], [122.9725817, 10.6760922], [122.972569, 10.6759509], [122.972556, 10.6758064], [122.9725272, 10.6754855], [122.9724917, 10.6752414], [122.9724783, 10.6751813], [122.972448, 10.6750455], [122.9723927, 10.6748758], [122.9723206, 10.67468], [122.9722694, 10.6745714], [122.9721967, 10.6744139], [122.9721581, 10.6743302], [122.9718685, 10.6736967], [122.9715359, 10.672983], [122.9713664, 10.6726261], [122.9713375, 10.6725586], [122.9712232, 10.6722892], [122.9710405, 10.6718569], [122.9705236, 10.6706608], [122.9704875, 10.6705774]]}, "properties": {"city": "bacolod", "name": "Carlos Hilado Highway", "highway": "primary", "v_posted": 60, "posted_imputed": false, "v_safe": 50, "gap": 10, "R": 2.07, "exposure": 0.18, "vru_150m": 0, "sss": 14.8, "recommended": 50, "fatal_reduction_pct": 51.8, "why": "undivided arterial, side-impact intersections", "pop_density": 5824.9, "pop_density_peak": 9251.6, "v_design": 60, "design_gap": 10}}, {"type": "Feature", "geometry": {"type": "LineString", "coordinates": [[122.9704875, 10.6705774], [122.9704479, 10.6704909], [122.970149, 10.6698385], [122.9698728, 10.6692641], [122.9698448, 10.6692058], [122.9696978, 10.6688655], [122.969533, 10.6684272]]}, "properties": {"city": "bacolod", "name": "Carlos Hilado Highway", "highway": "primary", "v_posted": 60, "posted_imputed": false, "v_safe": 30, "gap": 30, "R": 16.0, "exposure": 0.432, "vru_150m": 1, "sss": 53.7, "recommended": 30, "fatal_reduction_pct": 93.8, "why": "pedestrian activity (1 VRU site<=50m)", "pop_density": 9395.4, "pop_density_peak": 10171.8, "v_design": 60, "design_gap": 30}}, {"type": "Feature", "geometry": {"type": "LineString", "coordinates": [[122.9874069, 10.6929108], [122.9875117, 10.6932299], [122.9875553, 10.6933627], [122.9876635, 10.6937045], [122.987731, 10.6939176], [122.9877309, 10.6940356]]}, "properties": {"city": "bacolod", "name": "Bacolod Silay Airport Access Road", "highway": "primary", "v_posted": 80, "posted_imputed": false, "v_safe": 70, "gap": 10, "R": 1.71, "exposure": 0.455, "vru_150m": 0, "sss": 18.2, "recommended": 70, "fatal_reduction_pct": 41.4, "why": "divided carriageway (head-on only, no side impact)", "pop_density": 14712.2, "pop_density_peak": 16107.9, "v_design": 60, "design_gap": -10}}, {"type": "Feature", "geometry": {"type": "LineString", "coordinates": [[122.9621549, 10.7089498], [122.962179, 10.708743], [122.9622159, 10.7083687], [122.9622345, 10.7081045], [122.9622506, 10.7078586]]}, "properties": {"city": "bacolod", "name": "Lacson Street", "highway": "primary", "v_posted": 60, "posted_imputed": false, "v_safe": 30, "gap": 30, "R": 16.0, "exposure": 0.682, "vru_150m": 2, "sss": 63.1, "recommended": 30, "fatal_reduction_pct": 93.8, "why": "pedestrian activity (1 VRU site<=50m)", "pop_density": 15228.2, "pop_density_peak": 16844.7, "v_design": 60, "design_gap": 30}}, {"type": "Feature", "geometry": {"type": "LineString", "coordinates": [[122.962317, 10.7065906], [122.9623142, 10.7063294], [122.9623073, 10.7060849]]}, "properties": {"city": "bacolod", "name": "Lacson Street", "highway": "primary", "v_posted": 50, "posted_imputed": false, "v_safe": 30, "gap": 20, "R": 7.72, "exposure": 0.538, "vru_150m": 1, "sss": 38.4, "recommended": 30, "fatal_reduction_pct": 87.0, "why": "pedestrian activity (1 VRU site<=50m)", "pop_density": 13656.7, "pop_density_peak": 13656.7, "v_design": 60, "design_gap": 30}}, {"type": "Feature", "geometry": {"type": "LineString", "coordinates": [[122.9608486, 10.7185452], [122.9609276, 10.7179817]]}, "properties": {"city": "bacolod", "name": "Paseo Mabini", "highway": "primary", "v_posted": 60, "posted_imputed": false, "v_safe": 30, "gap": 30, "R": 16.0, "exposure": 0.495, "vru_150m": 2, "sss": 56.1, "recommended": 30, "fatal_reduction_pct": 93.8, "why": "pedestrian activity (2 VRU site<=50m)", "pop_density": 5130.9, "pop_density_peak": 6548.5, "v_design": 60, "design_gap": 30}}, {"type": "Feature", "geometry": {"type": "LineString", "coordinates": [[122.9622602, 10.7036244], [122.9623073, 10.7060849]]}, "properties": {"city": "bacolod", "name": "Lacson Street", "highway": "primary", "v_posted": 50, "posted_imputed": false, "v_safe": 30, "gap": 20, "R": 7.72, "exposure": 0.499, "vru_150m": 1, "sss": 37.5, "recommended": 30, "fatal_reduction_pct": 87.0, "why": "pedestrian activity (1 VRU site<=50m)", "pop_density": 12081.3, "pop_density_peak": 13656.7, "v_design": 60, "design_gap": 30}}, {"type": "Feature", "geometry": {"type": "LineString", "coordinates": [[122.9623682, 10.7057973], [122.9623768, 10.7060429], [122.9623868, 10.7066434], [122.9623708, 10.7067577]]}, "properties": {"city": "bacolod", "name": "Lacson Street", "highway": "primary", "v_posted": 50, "posted_imputed": false, "v_safe": 30, "gap": 20, "R": 7.72, "exposure": 0.55, "vru_150m": 1, "sss": 38.8, "recommended": 30, "fatal_reduction_pct": 87.0, "why": "pedestrian activity (1 VRU site<=50m)", "pop_density": 14170.8, "pop_density_peak": 14685.0, "v_design": 60, "design_gap": 30}}, {"type": "Feature", "geometry": {"type": "LineString", "coordinates": [[122.9607467, 10.6949908], [122.9608101, 10.6951585], [122.9609217, 10.6954154], [122.9610707, 10.6957915], [122.9611378, 10.6959571], [122.9611568, 10.6960081], [122.9611894, 10.6960957], [122.9612964, 10.6963522], [122.9614038, 10.6966242], [122.9614986, 10.6968776], [122.9615578, 10.6970359], [122.961637, 10.6972301], [122.9617127, 10.6974254], [122.9617312, 10.6974674], [122.961842, 10.6977536], [122.9619281, 10.698031], [122.9620012, 10.6982717], [122.9620179, 10.6983433], [122.9620783, 10.6986267], [122.9621306, 10.6989588], [122.9621516, 10.69915], [122.9621565, 10.6992604]]}, "properties": {"city": "bacolod", "name": "Lacson Street", "highway": "primary", "v_posted": 50, "posted_imputed": false, "v_safe": 30, "gap": 20, "R": 7.72, "exposure": 0.529, "vru_150m": 2, "sss": 38.2, "recommended": 30, "fatal_reduction_pct": 87.0, "why": "pedestrian activity (1 VRU site<=50m)", "pop_density": 6946.6, "pop_density_peak": 7608.1, "v_design": 60, "design_gap": 30}}, {"type": "Feature", "geometry": {"type": "LineString", "coordinates": [[122.9621565, 10.6992604], [122.9621675, 10.6994147], [122.9621709, 10.6995444], [122.9621836, 10.7000973], [122.9621933, 10.7003341], [122.9621894, 10.7004471], [122.962195, 10.7007937], [122.962203, 10.7012207], [122.9622109, 10.7014394], [122.9622164, 10.7016668], [122.9622257, 10.7021101], [122.9622251, 10.7022301], [122.9622258, 10.7023872], [122.9622263, 10.7025067], [122.9622332, 10.7029253]]}, "properties": {"city": "bacolod", "name": "Lacson Street", "highway": "primary", "v_posted": 50, "posted_imputed": false, "v_safe": 30, "gap": 20, "R": 7.72, "exposure": 0.362, "vru_150m": 1, "sss": 34.0, "recommended": 30, "fatal_reduction_pct": 87.0, "why": "pedestrian activity (1 VRU site<=50m)", "pop_density": 6533.5, "pop_density_peak": 7103.1, "v_design": 60, "design_gap": 30}}, {"type": "Feature", "geometry": {"type": "LineString", "coordinates": [[122.9622725, 10.7068681], [122.962317, 10.7065906]]}, "properties": {"city": "bacolod", "name": "Lacson Street", "highway": "primary", "v_posted": 50, "posted_imputed": false, "v_safe": 30, "gap": 20, "R": 7.72, "exposure": 0.542, "vru_150m": 1, "sss": 38.5, "recommended": 30, "fatal_reduction_pct": 87.0, "why": "pedestrian activity (1 VRU site<=50m)", "pop_density": 13825.0, "pop_density_peak": 13993.4, "v_design": 60, "design_gap": 30}}, {"type": "Feature", "geometry": {"type": "LineString", "coordinates": [[122.9606187, 10.6946662], [122.9607467, 10.6949908]]}, "properties": {"city": "bacolod", "name": "Lacson Street", "highway": "primary", "v_posted": 50, "posted_imputed": false, "v_safe": 30, "gap": 20, "R": 7.72, "exposure": 1.0, "vru_150m": 5, "sss": 50.0, "recommended": 30, "fatal_reduction_pct": 87.0, "why": "pedestrian activity (1 VRU site<=50m)", "pop_density": 7608.1, "pop_density_peak": 7608.1, "v_design": 60, "design_gap": 30}}, {"type": "Feature", "geometry": {"type": "LineString", "coordinates": [[122.9980332, 10.7301344], [122.9980377, 10.7301777], [122.9982211, 10.7314213], [122.9983606, 10.7321724], [122.9986623, 10.7332194], [122.9988789, 10.7338907], [122.9989091, 10.7339876], [122.9989399, 10.7340917], [122.9990928, 10.7345304], [122.9991721, 10.7347545], [122.9997704, 10.7361814], [123.0002555, 10.7374101], [123.0003738, 10.7377406], [123.0005278, 10.7382244], [123.0006964, 10.7388099], [123.0007866, 10.7391546], [123.0008636, 10.7395248], [123.0008993, 10.7397291], [123.0009274, 10.7399452], [123.000972, 10.7403094], [123.0009849, 10.7404148]]}, "properties": {"city": "bacolod", "name": "Bacolod Silay Airport Access Road", "highway": "trunk", "v_posted": 80, "posted_imputed": false, "v_safe": 70, "gap": 10, "R": 1.71, "exposure": 0.065, "vru_150m": 0, "sss": 13.3, "recommended": 70, "fatal_reduction_pct": 41.4, "why": "trunk highway (head-on only; no at-grade ped mixing assumed)", "pop_density": 2091.0, "pop_density_peak": 5841.6, "v_design": 70, "design_gap": 0}}, {"type": "Feature", "geometry": {"type": "LineString", "coordinates": [[122.993656, 10.7130857], [122.993901, 10.7142531], [122.9939617, 10.7146275], [122.9940343, 10.7149921], [122.9941588, 10.7155425], [122.9943379, 10.7161792], [122.9943909, 10.7163972], [122.9945156, 10.7168887], [122.9946255, 10.7173798], [122.9947317, 10.7177498], [122.9950152, 10.7186446], [122.9952966, 10.7194611], [122.9960591, 10.7216384]]}, "properties": {"city": "bacolod", "name": "Bacolod Silay Airport Access Road", "highway": "primary", "v_posted": 80, "posted_imputed": false, "v_safe": 50, "gap": 30, "R": 6.55, "exposure": 0.011, "vru_150m": 0, "sss": 37.9, "recommended": 50, "fatal_reduction_pct": 84.7, "why": "undivided arterial, side-impact intersections", "pop_density": 347.5, "pop_density_peak": 1102.6, "v_design": 60, "design_gap": 10}}, {"type": "Feature", "geometry": {"type": "LineString", "coordinates": [[122.9935032, 10.7124207], [122.993656, 10.7130857]]}, "properties": {"city": "bacolod", "name": "Bacolod Silay Airport Access Road", "highway": "primary", "v_posted": 80, "posted_imputed": false, "v_safe": 50, "gap": 30, "R": 6.55, "exposure": 0.0, "vru_150m": 0, "sss": 37.5, "recommended": 50, "fatal_reduction_pct": 84.7, "why": "undivided arterial, side-impact intersections", "pop_density": 0.0, "pop_density_peak": 0.0, "v_design": 60, "design_gap": 10}}, {"type": "Feature", "geometry": {"type": "LineString", "coordinates": [[122.9979228, 10.7294873], [122.9980332, 10.7301344]]}, "properties": {"city": "bacolod", "name": "Bacolod Silay Airport Access Road", "highway": "trunk", "v_posted": 80, "posted_imputed": false, "v_safe": 70, "gap": 10, "R": 1.71, "exposure": 0.0, "vru_150m": 0, "sss": 12.5, "recommended": 70, "fatal_reduction_pct": 41.4, "why": "trunk highway (head-on only; no at-grade ped mixing assumed)", "pop_density": 0.0, "pop_density_peak": 0.0, "v_design": 70, "design_gap": 0}}, {"type": "Feature", "geometry": {"type": "LineString", "coordinates": [[122.9916061, 10.7060741], [122.991527, 10.7057642], [122.9915034, 10.7056679], [122.9914792, 10.705568]]}, "properties": {"city": "bacolod", "name": "Bacolod Silay Airport Access Road", "highway": "primary", "v_posted": 80, "posted_imputed": false, "v_safe": 50, "gap": 30, "R": 6.55, "exposure": 0.8, "vru_150m": 0, "sss": 67.5, "recommended": 50, "fatal_reduction_pct": 84.7, "why": "undivided arterial, side-impact intersections", "pop_density": 25871.0, "pop_density_peak": 29636.9, "v_design": 60, "design_gap": 10}}, {"type": "Feature", "geometry": {"type": "LineString", "coordinates": [[122.9916061, 10.7060741], [122.9918127, 10.7067277]]}, "properties": {"city": "bacolod", "name": "Bacolod Silay Airport Access Road", "highway": "primary", "v_posted": 80, "posted_imputed": false, "v_safe": 50, "gap": 30, "R": 6.55, "exposure": 0.912, "vru_150m": 0, "sss": 71.7, "recommended": 50, "fatal_reduction_pct": 84.7, "why": "undivided arterial, side-impact intersections", "pop_density": 29499.5, "pop_density_peak": 29636.9, "v_design": 60, "design_gap": 10}}, {"type": "Feature", "geometry": {"type": "LineString", "coordinates": [[122.997306, 10.7262166], [122.9974472, 10.7268808], [122.9976296, 10.7278348], [122.9978402, 10.7290372], [122.9979228, 10.7294873]]}, "properties": {"city": "bacolod", "name": "Bacolod Silay Airport Access Road", "highway": "trunk", "v_posted": 80, "posted_imputed": false, "v_safe": 70, "gap": 10, "R": 1.71, "exposure": 0.033, "vru_150m": 0, "sss": 12.9, "recommended": 70, "fatal_reduction_pct": 41.4, "why": "trunk highway (head-on only; no at-grade ped mixing assumed)", "pop_density": 1082.3, "pop_density_peak": 3246.9, "v_design": 70, "design_gap": 0}}, {"type": "Feature", "geometry": {"type": "LineString", "coordinates": [[122.9918127, 10.7067277], [122.9922945, 10.7083715], [122.9923887, 10.7086871], [122.99282, 10.7100281], [122.9930132, 10.7106386], [122.9932667, 10.7114747], [122.9933421, 10.7117562], [122.9934178, 10.7120493], [122.9935032, 10.7124207]]}, "properties": {"city": "bacolod", "name": "Bacolod Silay Airport Access Road", "highway": "primary", "v_posted": 80, "posted_imputed": false, "v_safe": 50, "gap": 30, "R": 6.55, "exposure": 0.429, "vru_150m": 0, "sss": 53.6, "recommended": 50, "fatal_reduction_pct": 84.7, "why": "undivided arterial, side-impact intersections", "pop_density": 13866.4, "pop_density_peak": 29362.0, "v_design": 60, "design_gap": 10}}, {"type": "Feature", "geometry": {"type": "LineString", "coordinates": [[122.9969135, 10.7244247], [122.9969935, 10.7246571], [122.9970347, 10.7248062], [122.9971135, 10.7250914], [122.9971622, 10.7253066]]}, "properties": {"city": "bacolod", "name": "Bacolod Silay Airport Access Road", "highway": "trunk", "v_posted": 80, "posted_imputed": false, "v_safe": 70, "gap": 10, "R": 1.71, "exposure": 0.152, "vru_150m": 0, "sss": 14.4, "recommended": 70, "fatal_reduction_pct": 41.4, "why": "trunk highway (head-on only; no at-grade ped mixing assumed)", "pop_density": 4932.1, "pop_density_peak": 4979.1, "v_design": 70, "design_gap": 0}}, {"type": "Feature", "geometry": {"type": "LineString", "coordinates": [[122.997306, 10.7262166], [122.9972436, 10.7261083], [122.9972183, 10.7260208], [122.9971348, 10.7255961], [122.9970798, 10.7253312]]}, "properties": {"city": "bacolod", "name": "Bacolod Silay Airport Access Road", "highway": "trunk", "v_posted": 80, "posted_imputed": false, "v_safe": 70, "gap": 10, "R": 1.71, "exposure": 0.127, "vru_150m": 0, "sss": 14.1, "recommended": 70, "fatal_reduction_pct": 41.4, "why": "trunk highway (head-on only; no at-grade ped mixing assumed)", "pop_density": 4113.0, "pop_density_peak": 4979.1, "v_design": 70, "design_gap": 0}}, {"type": "Feature", "geometry": {"type": "LineString", "coordinates": [[122.9914792, 10.705568], [122.9914043, 10.7054236], [122.9913335, 10.7051793], [122.9912575, 10.7049651]]}, "properties": {"city": "bacolod", "name": "Bacolod Silay Airport Access Road", "highway": "primary", "v_posted": 80, "posted_imputed": false, "v_safe": 50, "gap": 30, "R": 6.55, "exposure": 0.687, "vru_150m": 0, "sss": 63.2, "recommended": 50, "fatal_reduction_pct": 84.7, "why": "undivided arterial, side-impact intersections", "pop_density": 22206.1, "pop_density_peak": 22307.0, "v_design": 60, "design_gap": 10}}, {"type": "Feature", "geometry": {"type": "LineString", "coordinates": [[122.9910786, 10.7042357], [122.9911334, 10.7043041], [122.9912048, 10.7044744], [122.9912855, 10.7047227], [122.9913408, 10.7049286]]}, "properties": {"city": "bacolod", "name": "Bacolod Silay Airport Access Road", "highway": "primary", "v_posted": 80, "posted_imputed": false, "v_safe": 50, "gap": 30, "R": 6.55, "exposure": 0.662, "vru_150m": 0, "sss": 62.3, "recommended": 50, "fatal_reduction_pct": 84.7, "why": "undivided arterial, side-impact intersections", "pop_density": 21398.9, "pop_density_peak": 22307.0, "v_design": 60, "design_gap": 10}}, {"type": "Feature", "geometry": {"type": "LineString", "coordinates": [[122.9912575, 10.7049651], [122.9911944, 10.7047414], [122.9911198, 10.7044976], [122.9910718, 10.7043299], [122.9910786, 10.7042357]]}, "properties": {"city": "bacolod", "name": "Bacolod Silay Airport Access Road", "highway": "primary", "v_posted": 80, "posted_imputed": false, "v_safe": 50, "gap": 30, "R": 6.55, "exposure": 0.662, "vru_150m": 0, "sss": 62.3, "recommended": 50, "fatal_reduction_pct": 84.7, "why": "undivided arterial, side-impact intersections", "pop_density": 21398.9, "pop_density_peak": 22307.0, "v_design": 60, "design_gap": 10}}, {"type": "Feature", "geometry": {"type": "LineString", "coordinates": [[122.9913408, 10.7049286], [122.99141, 10.7051466], [122.9914823, 10.7054088], [122.9914792, 10.705568]]}, "properties": {"city": "bacolod", "name": "Bacolod Silay Airport Access Road", "highway": "primary", "v_posted": 80, "posted_imputed": false, "v_safe": 50, "gap": 30, "R": 6.55, "exposure": 0.687, "vru_150m": 0, "sss": 63.2, "recommended": 50, "fatal_reduction_pct": 84.7, "why": "undivided arterial, side-impact intersections", "pop_density": 22206.1, "pop_density_peak": 22307.0, "v_design": 60, "design_gap": 10}}, {"type": "Feature", "geometry": {"type": "LineString", "coordinates": [[122.9970798, 10.7253312], [122.9970328, 10.7251217], [122.9969832, 10.7249175], [122.9969296, 10.7246829], [122.9969135, 10.7244247]]}, "properties": {"city": "bacolod", "name": "Bacolod Silay Airport Access Road", "highway": "trunk", "v_posted": 80, "posted_imputed": false, "v_safe": 70, "gap": 10, "R": 1.71, "exposure": 0.152, "vru_150m": 0, "sss": 14.4, "recommended": 70, "fatal_reduction_pct": 41.4, "why": "trunk highway (head-on only; no at-grade ped mixing assumed)", "pop_density": 4932.1, "pop_density_peak": 4979.1, "v_design": 70, "design_gap": 0}}, {"type": "Feature", "geometry": {"type": "LineString", "coordinates": [[122.9971622, 10.7253066], [122.9972154, 10.7255266], [122.9973028, 10.725865], [122.9973208, 10.7260016], [122.9973322, 10.7260881], [122.997306, 10.7262166]]}, "properties": {"city": "bacolod", "name": "Bacolod Silay Airport Access Road", "highway": "trunk", "v_posted": 80, "posted_imputed": false, "v_safe": 70, "gap": 10, "R": 1.71, "exposure": 0.127, "vru_150m": 0, "sss": 14.1, "recommended": 70, "fatal_reduction_pct": 41.4, "why": "trunk highway (head-on only; no at-grade ped mixing assumed)", "pop_density": 4113.0, "pop_density_peak": 4979.1, "v_design": 70, "design_gap": 0}}, {"type": "Feature", "geometry": {"type": "LineString", "coordinates": [[122.9960591, 10.7216384], [122.9964111, 10.7214621], [122.9972898, 10.7210054], [122.9984248, 10.7204435], [122.9986174, 10.7203441], [122.9992658, 10.7200097], [123.000433, 10.7194039], [123.0012763, 10.7189815], [123.0021513, 10.7185433], [123.0028024, 10.7182172]]}, "properties": {"city": "bacolod", "name": "Bacolod-Negros Occcidental Economic Highway", "highway": "trunk", "v_posted": 80, "posted_imputed": false, "v_safe": 70, "gap": 10, "R": 1.71, "exposure": 0.0, "vru_150m": 0, "sss": 12.5, "recommended": 70, "fatal_reduction_pct": 41.4, "why": "trunk highway (head-on only; no at-grade ped mixing assumed)", "pop_density": 0.0, "pop_density_peak": 0.0, "v_design": 70, "design_gap": 0}}, {"type": "Feature", "geometry": {"type": "LineString", "coordinates": [[123.0028407, 10.7182887], [123.0021886, 10.7186154], [123.0013201, 10.7190503], [123.0004709, 10.7194756], [122.9993042, 10.7200812], [122.9987101, 10.7203876], [122.9984625, 10.7205154], [122.9973276, 10.7210773], [122.996449, 10.7215339], [122.9960861, 10.7217156]]}, "properties": {"city": "bacolod", "name": "Bacolod-Negros Occcidental Economic Highway", "highway": "trunk", "v_posted": 80, "posted_imputed": false, "v_safe": 70, "gap": 10, "R": 1.71, "exposure": 0.0, "vru_150m": 0, "sss": 12.5, "recommended": 70, "fatal_reduction_pct": 41.4, "why": "trunk highway (head-on only; no at-grade ped mixing assumed)", "pop_density": 0.0, "pop_density_peak": 0.0, "v_design": 70, "design_gap": 0}}, {"type": "Feature", "geometry": {"type": "LineString", "coordinates": [[122.9960861, 10.7217156], [122.9965263, 10.7229726], [122.9969135, 10.7244247]]}, "properties": {"city": "bacolod", "name": "Bacolod Silay Airport Access Road", "highway": "trunk", "v_posted": 80, "posted_imputed": false, "v_safe": 70, "gap": 10, "R": 1.71, "exposure": 0.076, "vru_150m": 0, "sss": 13.4, "recommended": 70, "fatal_reduction_pct": 41.4, "why": "trunk highway (head-on only; no at-grade ped mixing assumed)", "pop_density": 2442.5, "pop_density_peak": 4885.1, "v_design": 70, "design_gap": 0}}, {"type": "Feature", "geometry": {"type": "LineString", "coordinates": [[122.9960591, 10.7216384], [122.9960861, 10.7217156]]}, "properties": {"city": "bacolod", "name": "Bacolod Silay Airport Access Road", "highway": "trunk", "v_posted": 80, "posted_imputed": false, "v_safe": 70, "gap": 10, "R": 1.71, "exposure": 0.0, "vru_150m": 0, "sss": 12.5, "recommended": 70, "fatal_reduction_pct": 41.4, "why": "trunk highway (head-on only; no at-grade ped mixing assumed)", "pop_density": 0.0, "pop_density_peak": 0.0, "v_design": 70, "design_gap": 0}}]}