{"type": "FeatureCollection", "features": [{"type": "Feature", "geometry": {"type": "LineString", "coordinates": [[125.076111, 6.9626945], [125.0760546, 6.9626519], [125.0759977, 6.9626379], [125.0759433, 6.9626406], [125.0758823, 6.9626639], [125.075822, 6.9627072], [125.0752272, 6.9632629], [125.0749254, 6.9636024], [125.0746196, 6.9640084], [125.0740135, 6.9647832], [125.0737238, 6.9651479], [125.0734985, 6.9654541], [125.0732571, 6.9657576], [125.072962, 6.9660958], [125.0727636, 6.9663127], [125.0726348, 6.9664339], [125.0724913, 6.966555], [125.0723344, 6.9666589], [125.0721359, 6.9667534], [125.0718865, 6.9668492], [125.0715727, 6.9669504], [125.0711988, 6.9670504], [125.071055, 6.9670888], [125.0706218, 6.9672286], [125.0702812, 6.9673577], [125.0697581, 6.9675494], [125.0691774, 6.9677451], [125.0689937, 6.9677917], [125.0688422, 6.967809], [125.0684988, 6.9678336], [125.068411, 6.9678503], [125.0683352, 6.9678696], [125.0682447, 6.9679109], [125.0675319, 6.9683581], [125.0674521, 6.9683874], [125.0673649, 6.9684001], [125.0672261, 6.9684041], [125.0671081, 6.96842], [125.0670035, 6.9684467], [125.0667252, 6.9685984], [125.0665408, 6.9687003], [125.0664127, 6.9687721], [125.0662954, 6.9688207], [125.0661861, 6.9688393], [125.0660326, 6.9688407], [125.065873, 6.9688167], [125.0657469, 6.9687888], [125.065653, 6.9687488]]}, "properties": {"city": "kidapawan", "name": "Concepcion Road", "highway": "tertiary", "v_posted": 80, "posted_imputed": false, "v_safe": 50, "gap": 30, "R": 6.55, "exposure": 0.001, "vru_150m": 0, "sss": 37.6, "recommended": 50, "fatal_reduction_pct": 84.7, "why": "undivided arterial, side-impact intersections", "pop_density": 46.7, "pop_density_peak": 466.5, "v_design": 45, "design_gap": -5}}, {"type": "Feature", "geometry": {"type": "LineString", "coordinates": [[125.0593203, 6.9686197], [125.0589169, 6.9686099], [125.0584968, 6.9685998], [125.0579122, 6.9685798], [125.0573837, 6.9685478], [125.0571216, 6.9685252], [125.0569721, 6.9684979], [125.0568701, 6.9684573], [125.0567841, 6.968407], [125.0566955, 6.9683431]]}, "properties": {"city": "kidapawan", "name": "Concepcion Road", "highway": "tertiary", "v_posted": 40, "posted_imputed": false, "v_safe": 30, "gap": 10, "R": 3.16, "exposure": 0.228, "vru_150m": 1, "sss": 15.4, "recommended": 30, "fatal_reduction_pct": 68.4, "why": "pedestrian activity (1 VRU site<=50m)", "pop_density": 1149.8, "pop_density_peak": 2798.0, "v_design": 45, "design_gap": 15}}, {"type": "Feature", "geometry": {"type": "LineString", "coordinates": [[125.0858128, 6.9633362], [125.0857113, 6.963446], [125.0850441, 6.9641669], [125.0848107, 6.9644837], [125.0846337, 6.9647952], [125.0845492, 6.9649683], [125.0844955, 6.965108], [125.0844204, 6.9652957], [125.0842756, 6.9658375], [125.0842153, 6.9661211], [125.084163, 6.966382], [125.0841308, 6.9666323], [125.0841106, 6.9668146], [125.0841214, 6.9670023], [125.0841522, 6.9671634], [125.0842114, 6.9673097], [125.0842565, 6.9673868], [125.0843478, 6.9675228], [125.0847379, 6.9679781]]}, "properties": {"city": "kidapawan", "name": "Davao-Cotabato National Highway", "highway": "trunk", "v_posted": 60, "posted_imputed": false, "v_safe": 50, "gap": 10, "R": 2.07, "exposure": 0.284, "vru_150m": 0, "sss": 16.0, "recommended": 50, "fatal_reduction_pct": 51.8, "why": "undivided arterial, side-impact intersections", "pop_density": 9173.6, "pop_density_peak": 18406.7, "v_design": 60, "design_gap": 10}}, {"type": "Feature", "geometry": {"type": "LineString", "coordinates": [[125.0851793, 6.9690508], [125.0851699, 6.9692373], [125.0851527, 6.9693526], [125.0851262, 6.9694408], [125.085087, 6.9695542], [125.0850197, 6.9696829], [125.0849509, 6.9697817], [125.0848838, 6.9698611], [125.0847554, 6.9699869], [125.084668, 6.9700599], [125.084532, 6.9701581], [125.0838143, 6.9706644], [125.0829375, 6.9712594], [125.0827839, 6.9713693], [125.0826421, 6.9714884], [125.0825128, 6.9716727], [125.0824569, 6.9718124], [125.0824249, 6.9718998], [125.0824141, 6.971985], [125.0824276, 6.9720728], [125.0824517, 6.972166], [125.0824866, 6.9722539], [125.0825536, 6.972363], [125.0826448, 6.9724615], [125.0827387, 6.9725654], [125.0828755, 6.9727038], [125.0830016, 6.972821], [125.0831062, 6.9729328], [125.0832068, 6.9730446], [125.0832834, 6.973168]]}, "properties": {"city": "kidapawan", "name": "Davao-Cotabato National Highway", "highway": "trunk", "v_posted": 60, "posted_imputed": false, "v_safe": 50, "gap": 10, "R": 2.07, "exposure": 0.0, "vru_150m": 0, "sss": 12.5, "recommended": 50, "fatal_reduction_pct": 51.8, "why": "undivided arterial, side-impact intersections", "pop_density": 0.0, "pop_density_peak": 0.0, "v_design": 60, "design_gap": 10}}, {"type": "Feature", "geometry": {"type": "LineString", "coordinates": [[125.0847379, 6.9679781], [125.0849441, 6.9682281]]}, "properties": {"city": "kidapawan", "name": "Davao-Cotabato National Highway", "highway": "trunk", "v_posted": 60, "posted_imputed": false, "v_safe": 50, "gap": 10, "R": 2.07, "exposure": 0.0, "vru_150m": 0, "sss": 12.5, "recommended": 50, "fatal_reduction_pct": 51.8, "why": "undivided arterial, side-impact intersections", "pop_density": 0.0, "pop_density_peak": 0.0, "v_design": 70, "design_gap": 20}}, {"type": "Feature", "geometry": {"type": "LineString", "coordinates": [[125.0846511, 6.968042], [125.0842649, 6.9675707], [125.0841656, 6.9674323], [125.0841227, 6.9673311], [125.0840744, 6.9671953], [125.0840449, 6.9670116], [125.0840369, 6.9668253], [125.084053, 6.9666203], [125.0840741, 6.9663867], [125.0841334, 6.9660984], [125.0841978, 6.9658189], [125.0843473, 6.9652786], [125.0844204, 6.9650787], [125.0844794, 6.9649483], [125.0845706, 6.9647619], [125.0847486, 6.9644462], [125.0849757, 6.9641176], [125.0856278, 6.9633729], [125.085732, 6.963254]]}, "properties": {"city": "kidapawan", "name": "Davao-Cotabato National Highway", "highway": "trunk", "v_posted": 60, "posted_imputed": false, "v_safe": 50, "gap": 10, "R": 2.07, "exposure": 0.316, "vru_150m": 0, "sss": 16.5, "recommended": 50, "fatal_reduction_pct": 51.8, "why": "undivided arterial, side-impact intersections", "pop_density": 10222.1, "pop_density_peak": 18406.7, "v_design": 60, "design_gap": 10}}, {"type": "Feature", "geometry": {"type": "LineString", "coordinates": [[125.0851793, 6.9690508], [125.085142, 6.9689765], [125.0851312, 6.9688327], [125.0851017, 6.9687129], [125.0850293, 6.9685558], [125.0849542, 6.96842], [125.0848603, 6.9683002]]}, "properties": {"city": "kidapawan", "name": "Davao-Cotabato National Highway", "highway": "trunk", "v_posted": 60, "posted_imputed": false, "v_safe": 50, "gap": 10, "R": 2.07, "exposure": 0.0, "vru_150m": 0, "sss": 12.5, "recommended": 50, "fatal_reduction_pct": 51.8, "why": "undivided arterial, side-impact intersections", "pop_density": 0.0, "pop_density_peak": 0.0, "v_design": 70, "design_gap": 20}}, {"type": "Feature", "geometry": {"type": "LineString", "coordinates": [[125.0848603, 6.9683002], [125.0846511, 6.968042]]}, "properties": {"city": "kidapawan", "name": "Davao-Cotabato National Highway", "highway": "trunk", "v_posted": 60, "posted_imputed": false, "v_safe": 50, "gap": 10, "R": 2.07, "exposure": 0.0, "vru_150m": 0, "sss": 12.5, "recommended": 50, "fatal_reduction_pct": 51.8, "why": "undivided arterial, side-impact intersections", "pop_density": 0.0, "pop_density_peak": 0.0, "v_design": 70, "design_gap": 20}}, {"type": "Feature", "geometry": {"type": "LineString", "coordinates": [[125.0849441, 6.9682281], [125.0850357, 6.968357], [125.0851153, 6.9685175], [125.0851744, 6.9686842], [125.0852104, 6.9688101], [125.0852245, 6.9689784], [125.0851793, 6.9690508]]}, "properties": {"city": "kidapawan", "name": "Davao-Cotabato National Highway", "highway": "trunk", "v_posted": 60, "posted_imputed": false, "v_safe": 50, "gap": 10, "R": 2.07, "exposure": 0.0, "vru_150m": 0, "sss": 12.5, "recommended": 50, "fatal_reduction_pct": 51.8, "why": "undivided arterial, side-impact intersections", "pop_density": 0.0, "pop_density_peak": 0.0, "v_design": 70, "design_gap": 20}}, {"type": "Feature", "geometry": {"type": "LineString", "coordinates": [[125.0451589, 7.00951], [125.0452283, 7.0095153], [125.0453152, 7.009511], [125.0454138, 7.0094943], [125.0463431, 7.0092661], [125.0464638, 7.0092401], [125.0465979, 7.0092208], [125.04672, 7.0092195], [125.0468534, 7.0092441], [125.046956, 7.0092794], [125.0470995, 7.0093419], [125.04775, 7.0096607], [125.0486049, 7.0100887], [125.0495202, 7.0105632], [125.0500184, 7.0108048], [125.0508794, 7.0112194], [125.0513595, 7.0114397], [125.0517243, 7.0115901], [125.0520817, 7.0117345], [125.0523198, 7.0118231], [125.0525957, 7.0119096], [125.0528441, 7.0119815]]}, "properties": {"city": "kidapawan", "name": "Kidapawan-M'lang Road", "highway": "primary", "v_posted": 80, "posted_imputed": false, "v_safe": 50, "gap": 30, "R": 6.55, "exposure": 0.109, "vru_150m": 0, "sss": 41.6, "recommended": 50, "fatal_reduction_pct": 84.7, "why": "undivided arterial, side-impact intersections", "pop_density": 3527.8, "pop_density_peak": 11927.8, "v_design": 60, "design_gap": 10}}, {"type": "Feature", "geometry": {"type": "LineString", "coordinates": [[125.0528441, 7.0119815], [125.0530989, 7.0120487], [125.0542094, 7.0123275], [125.0549845, 7.0125279], [125.0551877, 7.0125738], [125.0553896, 7.0126104], [125.0555502, 7.0126234], [125.0558509, 7.0126317], [125.0562888, 7.012625], [125.0566515, 7.0126197], [125.0568487, 7.012625], [125.0571478, 7.012638], [125.0572919, 7.012645]]}, "properties": {"city": "kidapawan", "name": "Kidapawan-M'lang Road", "highway": "primary", "v_posted": 80, "posted_imputed": false, "v_safe": 50, "gap": 30, "R": 6.55, "exposure": 0.055, "vru_150m": 0, "sss": 39.6, "recommended": 50, "fatal_reduction_pct": 84.7, "why": "undivided arterial, side-impact intersections", "pop_density": 1772.8, "pop_density_peak": 4432.0, "v_design": 60, "design_gap": 10}}, {"type": "Feature", "geometry": {"type": "LineString", "coordinates": [[125.0860725, 7.002053], [125.0863602, 7.0025669], [125.086472, 7.0027665], [125.0865763, 7.0029493], [125.0866833, 7.0031367], [125.0867503, 7.0032578], [125.0867932, 7.0033381], [125.0868087, 7.0033672], [125.0868718, 7.0034871], [125.0869653, 7.0036606], [125.0870194, 7.0037619], [125.0870868, 7.0038829], [125.0871422, 7.0039823], [125.0873019, 7.0042713], [125.0873235, 7.0043067], [125.0874189, 7.0044836], [125.0874717, 7.0045794], [125.0875247, 7.0046755], [125.0876808, 7.0049664], [125.0878051, 7.0051982], [125.0878571, 7.0052952], [125.0879132, 7.0053997], [125.0879295, 7.00543], [125.0880132, 7.005586], [125.0880891, 7.005722], [125.0881951, 7.005912]]}, "properties": {"city": "kidapawan", "name": "M. L. Quezon Boulevard", "highway": "trunk", "v_posted": 40, "posted_imputed": false, "v_safe": 30, "gap": 10, "R": 3.16, "exposure": 0.888, "vru_150m": 3, "sss": 23.6, "recommended": 30, "fatal_reduction_pct": 68.4, "why": "pedestrian activity (2 VRU site<=50m)", "pop_density": 23308.4, "pop_density_peak": 26791.1, "v_design": 70, "design_gap": 40}}, {"type": "Feature", "geometry": {"type": "LineString", "coordinates": [[125.0896203, 7.0082887], [125.0896515, 7.0082722], [125.0905877, 7.0077753], [125.0906064, 7.0077653], [125.09099, 7.0075617], [125.0915083, 7.0072866], [125.092426, 7.0067995], [125.0927245, 7.0066548], [125.0927484, 7.0066422], [125.0933549, 7.0063221], [125.0942539, 7.0058304]]}, "properties": {"city": "kidapawan", "name": "Jose P. Laurel Street", "highway": "residential", "v_posted": 40, "posted_imputed": false, "v_safe": 30, "gap": 10, "R": 3.16, "exposure": 0.27, "vru_150m": 0, "sss": 15.9, "recommended": 30, "fatal_reduction_pct": 68.4, "why": "local road, frontage/pedestrian mixing", "pop_density": 8737.2, "pop_density_peak": 20345.3, "v_design": 35, "design_gap": 5}}, {"type": "Feature", "geometry": {"type": "LineString", "coordinates": [[125.0856703, 7.0104121], [125.0865629, 7.009937], [125.0874872, 7.0094378]]}, "properties": {"city": "kidapawan", "name": "Roxas Street", "highway": "residential", "v_posted": 40, "posted_imputed": false, "v_safe": 30, "gap": 10, "R": 3.16, "exposure": 0.248, "vru_150m": 0, "sss": 15.6, "recommended": 30, "fatal_reduction_pct": 68.4, "why": "local road, frontage/pedestrian mixing", "pop_density": 8032.9, "pop_density_peak": 12334.1, "v_design": 35, "design_gap": 5}}, {"type": "Feature", "geometry": {"type": "LineString", "coordinates": [[125.0869958, 7.0085146], [125.0860619, 7.0090237], [125.085165, 7.0094984], [125.0845345, 7.0098321]]}, "properties": {"city": "kidapawan", "name": "", "highway": "residential", "v_posted": 40, "posted_imputed": false, "v_safe": 30, "gap": 10, "R": 3.16, "exposure": 0.153, "vru_150m": 0, "sss": 14.4, "recommended": 30, "fatal_reduction_pct": 68.4, "why": "local road, frontage/pedestrian mixing", "pop_density": 4956.8, "pop_density_peak": 8673.7, "v_design": 35, "design_gap": 5}}, {"type": "Feature", "geometry": {"type": "LineString", "coordinates": [[125.0831972, 7.0058627], [125.0837196, 7.0067746], [125.0841848, 7.0077034], [125.0846772, 7.0085958], [125.085165, 7.0094984], [125.0854215, 7.0099729], [125.0856703, 7.0104121]]}, "properties": {"city": "kidapawan", "name": "", "highway": "residential", "v_posted": 40, "posted_imputed": false, "v_safe": 30, "gap": 10, "R": 3.16, "exposure": 0.1, "vru_150m": 0, "sss": 13.7, "recommended": 30, "fatal_reduction_pct": 68.4, "why": "local road, frontage/pedestrian mixing", "pop_density": 3220.2, "pop_density_peak": 3731.6, "v_design": 35, "design_gap": 5}}, {"type": "Feature", "geometry": {"type": "LineString", "coordinates": [[125.0899099, 7.0104899], [125.0897738, 7.0105639]]}, "properties": {"city": "kidapawan", "name": "", "highway": "unclassified", "v_posted": 40, "posted_imputed": false, "v_safe": 30, "gap": 10, "R": 3.16, "exposure": 0.785, "vru_150m": 1, "sss": 22.3, "recommended": 30, "fatal_reduction_pct": 68.4, "why": "local road, frontage/pedestrian mixing", "pop_density": 23650.7, "pop_density_peak": 23650.7, "v_design": 40, "design_gap": 10}}, {"type": "Feature", "geometry": {"type": "LineString", "coordinates": [[125.0897738, 7.0105639], [125.0893797, 7.0107765], [125.0884628, 7.0112685], [125.0880252, 7.0115132], [125.087569, 7.0117536], [125.0866478, 7.0122794]]}, "properties": {"city": "kidapawan", "name": "", "highway": "unclassified", "v_posted": 40, "posted_imputed": false, "v_safe": 30, "gap": 10, "R": 3.16, "exposure": 0.665, "vru_150m": 0, "sss": 20.8, "recommended": 30, "fatal_reduction_pct": 68.4, "why": "local road, frontage/pedestrian mixing", "pop_density": 21497.3, "pop_density_peak": 24255.3, "v_design": 40, "design_gap": 10}}, {"type": "Feature", "geometry": {"type": "LineString", "coordinates": [[125.0866478, 7.0122794], [125.0869297, 7.0127843], [125.0871521, 7.0131813]]}, "properties": {"city": "kidapawan", "name": "", "highway": "unclassified", "v_posted": 40, "posted_imputed": false, "v_safe": 30, "gap": 10, "R": 3.16, "exposure": 0.652, "vru_150m": 0, "sss": 20.7, "recommended": 30, "fatal_reduction_pct": 68.4, "why": "local road, frontage/pedestrian mixing", "pop_density": 21096.7, "pop_density_peak": 25607.6, "v_design": 40, "design_gap": 10}}, {"type": "Feature", "geometry": {"type": "LineString", "coordinates": [[125.0906075, 7.010745], [125.0905493, 7.0107302], [125.090501, 7.0107063], [125.0904688, 7.0106743], [125.0904386, 7.0106291], [125.0902691, 7.0103085]]}, "properties": {"city": "kidapawan", "name": "", "highway": "unclassified", "v_posted": 40, "posted_imputed": false, "v_safe": 30, "gap": 10, "R": 3.16, "exposure": 0.888, "vru_150m": 2, "sss": 23.6, "recommended": 30, "fatal_reduction_pct": 68.4, "why": "local road, frontage/pedestrian mixing", "pop_density": 26325.2, "pop_density_peak": 26325.2, "v_design": 40, "design_gap": 10}}, {"type": "Feature", "geometry": {"type": "LineString", "coordinates": [[125.0902691, 7.0103085], [125.0901986, 7.0101699], [125.0901584, 7.010084], [125.0901311, 7.0100166], [125.0901175, 7.0099828], [125.0901034, 7.0099336], [125.0901014, 7.0098764], [125.0901192, 7.0097913]]}, "properties": {"city": "kidapawan", "name": "", "highway": "unclassified", "v_posted": 40, "posted_imputed": false, "v_safe": 30, "gap": 10, "R": 3.16, "exposure": 0.896, "vru_150m": 3, "sss": 23.7, "recommended": 30, "fatal_reduction_pct": 68.4, "why": "local road, frontage/pedestrian mixing", "pop_density": 23920.2, "pop_density_peak": 26325.2, "v_design": 40, "design_gap": 10}}, {"type": "Feature", "geometry": {"type": "LineString", "coordinates": [[125.0871521, 7.0131813], [125.0876855, 7.0141305]]}, "properties": {"city": "kidapawan", "name": "", "highway": "residential", "v_posted": 40, "posted_imputed": false, "v_safe": 30, "gap": 10, "R": 3.16, "exposure": 0.79, "vru_150m": 0, "sss": 22.4, "recommended": 30, "fatal_reduction_pct": 68.4, "why": "local road, frontage/pedestrian mixing", "pop_density": 25557.4, "pop_density_peak": 25607.6, "v_design": 35, "design_gap": 5}}, {"type": "Feature", "geometry": {"type": "LineString", "coordinates": [[125.0902691, 7.0103085], [125.0899099, 7.0104899]]}, "properties": {"city": "kidapawan", "name": "", "highway": "unclassified", "v_posted": 40, "posted_imputed": false, "v_safe": 30, "gap": 10, "R": 3.16, "exposure": 0.818, "vru_150m": 1, "sss": 22.7, "recommended": 30, "fatal_reduction_pct": 68.4, "why": "local road, frontage/pedestrian mixing", "pop_density": 24988.0, "pop_density_peak": 26325.2, "v_design": 40, "design_gap": 10}}, {"type": "Feature", "geometry": {"type": "LineString", "coordinates": [[125.0893848, 7.0084162], [125.0896203, 7.0082887]]}, "properties": {"city": "kidapawan", "name": "", "highway": "residential", "v_posted": 40, "posted_imputed": false, "v_safe": 30, "gap": 10, "R": 3.16, "exposure": 0.777, "vru_150m": 2, "sss": 22.2, "recommended": 30, "fatal_reduction_pct": 68.4, "why": "local road, frontage/pedestrian mixing", "pop_density": 20345.3, "pop_density_peak": 20345.3, "v_design": 35, "design_gap": 5}}, {"type": "Feature", "geometry": {"type": "LineString", "coordinates": [[125.0874872, 7.0094378], [125.0884213, 7.0089334], [125.0893478, 7.0084361], [125.0893848, 7.0084162]]}, "properties": {"city": "kidapawan", "name": "Roxas Street", "highway": "residential", "v_posted": 40, "posted_imputed": false, "v_safe": 30, "gap": 10, "R": 3.16, "exposure": 0.829, "vru_150m": 3, "sss": 22.9, "recommended": 30, "fatal_reduction_pct": 68.4, "why": "local road, frontage/pedestrian mixing", "pop_density": 18477.7, "pop_density_peak": 22753.6, "v_design": 35, "design_gap": 5}}, {"type": "Feature", "geometry": {"type": "LineString", "coordinates": [[125.0869958, 7.0085146], [125.0879257, 7.0080041], [125.088832, 7.0075066], [125.0888796, 7.0074805]]}, "properties": {"city": "kidapawan", "name": "", "highway": "residential", "v_posted": 40, "posted_imputed": false, "v_safe": 30, "gap": 10, "R": 3.16, "exposure": 0.784, "vru_150m": 2, "sss": 22.3, "recommended": 30, "fatal_reduction_pct": 68.4, "why": "pedestrian activity (2 VRU site<=50m)", "pop_density": 20706.1, "pop_density_peak": 26722.4, "v_design": 35, "design_gap": 5}}]}