{"type": "FeatureCollection", "features": [{"type": "Feature", "geometry": {"type": "LineString", "coordinates": [[120.5806137, 15.943976], [120.5805858, 15.9441121]]}, "properties": {"city": "urdaneta", "name": "MacArthur Highway", "highway": "trunk", "v_posted": 60, "posted_imputed": false, "v_safe": 50, "gap": 10, "R": 2.07, "exposure": 0.099, "vru_150m": 0, "sss": 13.7, "recommended": 50, "fatal_reduction_pct": 51.8, "why": "undivided arterial, side-impact intersections", "pop_density": 3205.1, "pop_density_peak": 3340.2, "v_design": 70, "design_gap": 20}}, {"type": "Feature", "geometry": {"type": "LineString", "coordinates": [[120.583453, 15.9150074], [120.5834471, 15.9150344], [120.5831512, 15.9164732], [120.5830338, 15.9169401], [120.5828363, 15.9177267], [120.5827851, 15.9179305], [120.5826153, 15.9186065], [120.5825592, 15.9188301], [120.5825064, 15.9190404], [120.5825028, 15.9190546], [120.5824771, 15.9191572], [120.5824135, 15.9194104], [120.5823081, 15.9198304], [120.5820826, 15.9207284], [120.5817091, 15.9221991], [120.5816405, 15.9224692], [120.5816061, 15.9226047], [120.5815192, 15.9229606], [120.5815087, 15.9230038], [120.5814793, 15.9231238], [120.5813723, 15.9235621], [120.5811437, 15.9245056], [120.581085, 15.924758], [120.5810728, 15.9248163], [120.5809707, 15.9253488], [120.5809579, 15.9254321], [120.5808923, 15.9258848], [120.5808522, 15.9261469], [120.5808181, 15.9264186], [120.5808114, 15.9264858], [120.5807445, 15.9270199], [120.5807278, 15.9272167], [120.5807241, 15.9272591], [120.5807147, 15.9274217], [120.580712, 15.9274591], [120.5806912, 15.9276906], [120.5806599, 15.9282295], [120.580648, 15.9284337], [120.5806469, 15.928453], [120.5806352, 15.92878], [120.5806384, 15.9292306], [120.5806495, 15.9294016], [120.5806605, 15.92957], [120.5806942, 15.9298238], [120.5806988, 15.9298589], [120.5807071, 15.9299212], [120.5807154, 15.9299772], [120.5808437, 15.9306486], [120.580889, 15.9308487], [120.5809014, 15.9309036], [120.5809231, 15.9310112], [120.5810274, 15.9314967], [120.5810904, 15.9318169], [120.581134, 15.9320387], [120.5811478, 15.9321298], [120.581218, 15.9325937], [120.5812412, 15.9328221], [120.5812702, 15.933108], [120.581289, 15.9337842], [120.5813031, 15.9344177], [120.5812503, 15.9356969], [120.5812358, 15.9360479], [120.5812294, 15.936204], [120.5811971, 15.9365921], [120.5811896, 15.9367211], [120.5811879, 15.9367501], [120.5811595, 15.9372429], [120.5811062, 15.9382043], [120.5810672, 15.9389082], [120.5810269, 15.9396357], [120.5810137, 15.9398639], [120.581007, 15.9399792], [120.5809954, 15.9401123], [120.5809898, 15.9401763], [120.5809853, 15.9402278], [120.5809715, 15.9403858], [120.580955, 15.9405754], [120.5807668, 15.9427343], [120.5807521, 15.9428714], [120.5807028, 15.9434478], [120.5806278, 15.9438922], [120.5806171, 15.9439643], [120.5806137, 15.943976]]}, "properties": {"city": "urdaneta", "name": "MacArthur Highway", "highway": "trunk", "v_posted": 60, "posted_imputed": false, "v_safe": 50, "gap": 10, "R": 2.07, "exposure": 0.076, "vru_150m": 0, "sss": 13.5, "recommended": 50, "fatal_reduction_pct": 51.8, "why": "undivided arterial, side-impact intersections", "pop_density": 2459.0, "pop_density_peak": 5968.7, "v_design": 70, "design_gap": 20}}, {"type": "Feature", "geometry": {"type": "LineString", "coordinates": [[120.5555702, 15.9692092], [120.5561949, 15.9663445], [120.5565081, 15.9648888], [120.5566129, 15.9644133], [120.5567051, 15.9639632], [120.5568967, 15.9630531], [120.5571574, 15.9618216], [120.5572057, 15.9616256], [120.55727, 15.9613265], [120.5573143, 15.9611439], [120.557372, 15.9609062], [120.5574137, 15.9608121], [120.5574337, 15.9607669], [120.5575892, 15.9605967], [120.5577609, 15.9604729], [120.5579719, 15.9603847], [120.5580264, 15.960362], [120.5581418, 15.9603311], [120.5582839, 15.9603233], [120.5584958, 15.9603517], [120.5587933, 15.9604188], [120.5599544, 15.9607268], [120.5604483, 15.9608481], [120.5623383, 15.9613433], [120.563651, 15.961685], [120.565947, 15.9622368], [120.5667684, 15.9624256], [120.5673645, 15.9625772], [120.5683192, 15.9628234], [120.5688008, 15.9629502], [120.5692018, 15.9630565], [120.5695901, 15.9631593], [120.5696537, 15.9631762], [120.5707679, 15.9634607], [120.5709462, 15.9634933], [120.5718338, 15.9637139], [120.5722158, 15.9638206], [120.5727076, 15.963958], [120.573074, 15.9640442]]}, "properties": {"city": "urdaneta", "name": "Urdaneta Bypass Road", "highway": "trunk", "v_posted": 60, "posted_imputed": false, "v_safe": 50, "gap": 10, "R": 2.07, "exposure": 0.165, "vru_150m": 0, "sss": 14.6, "recommended": 50, "fatal_reduction_pct": 51.8, "why": "undivided arterial, side-impact intersections", "pop_density": 5347.6, "pop_density_peak": 46309.5, "v_design": 50, "design_gap": 0}}, {"type": "Feature", "geometry": {"type": "LineString", "coordinates": [[120.5662147, 15.9276671], [120.5656805, 15.9293908], [120.5651463, 15.9311145], [120.564612, 15.9328382], [120.5640778, 15.9345619], [120.5635436, 15.9362856], [120.5630094, 15.9380092], [120.5624752, 15.9397328], [120.5619409, 15.9414564], [120.5619115, 15.9415512], [120.5618714, 15.9416806]]}, "properties": {"city": "urdaneta", "name": "Villasis\u2013Urdaneta Bypass Road", "highway": "primary", "v_posted": 80, "posted_imputed": false, "v_safe": 50, "gap": 30, "R": 6.55, "exposure": 0.006, "vru_150m": 0, "sss": 37.7, "recommended": 50, "fatal_reduction_pct": 84.7, "why": "undivided arterial, side-impact intersections", "pop_density": 201.0, "pop_density_peak": 1849.2, "v_design": 60, "design_gap": 10}}, {"type": "Feature", "geometry": {"type": "LineString", "coordinates": [[120.5547081, 15.9752585], [120.5546916, 15.9755009], [120.5546933, 15.9757799], [120.5546788, 15.9762977], [120.5546911, 15.9768502], [120.5547083, 15.9772101], [120.554783, 15.9780204], [120.5548251, 15.978456], [120.5548789, 15.9791075], [120.5549171, 15.9794703]]}, "properties": {"city": "urdaneta", "name": "Urdaneta Bypass Road", "highway": "trunk", "v_posted": 60, "posted_imputed": false, "v_safe": 50, "gap": 10, "R": 2.07, "exposure": 0.134, "vru_150m": 0, "sss": 14.2, "recommended": 50, "fatal_reduction_pct": 51.8, "why": "undivided arterial, side-impact intersections", "pop_density": 4344.4, "pop_density_peak": 8113.6, "v_design": 70, "design_gap": 20}}, {"type": "Feature", "geometry": {"type": "LineString", "coordinates": [[120.5549553, 15.9718271], [120.5549647, 15.971713], [120.5549674, 15.9716092], [120.554964, 15.9714888], [120.5549503, 15.9711575], [120.5549499, 15.9710851], [120.5549613, 15.9710071], [120.5549798, 15.9709328], [120.5550047, 15.9708648]]}, "properties": {"city": "urdaneta", "name": "Urdaneta Bypass Road", "highway": "trunk", "v_posted": 60, "posted_imputed": false, "v_safe": 50, "gap": 10, "R": 2.07, "exposure": 0.073, "vru_150m": 0, "sss": 13.4, "recommended": 50, "fatal_reduction_pct": 51.8, "why": "undivided arterial, side-impact intersections", "pop_density": 2354.6, "pop_density_peak": 2462.4, "v_design": 70, "design_gap": 20}}, {"type": "Feature", "geometry": {"type": "LineString", "coordinates": [[120.5736145, 15.990935], [120.5728427, 15.9910894], [120.5712643, 15.9914053], [120.5712257, 15.991413], [120.5711998, 15.9914182], [120.5710254, 15.9914531], [120.5709636, 15.9914655], [120.5706073, 15.9915368], [120.5695686, 15.9917447], [120.5688777, 15.9918829], [120.5684683, 15.9919648]]}, "properties": {"city": "urdaneta", "name": "Urdaneta Bypass Road", "highway": "trunk", "v_posted": 60, "posted_imputed": false, "v_safe": 50, "gap": 10, "R": 2.07, "exposure": 0.065, "vru_150m": 0, "sss": 13.3, "recommended": 50, "fatal_reduction_pct": 51.8, "why": "undivided arterial, side-impact intersections", "pop_density": 2092.8, "pop_density_peak": 8371.2, "v_design": 70, "design_gap": 20}}, {"type": "Feature", "geometry": {"type": "LineString", "coordinates": [[120.5681287, 15.9920336], [120.5667325, 15.9923136], [120.5661503, 15.9924304], [120.5660286, 15.9924549], [120.5640465, 15.9928524], [120.5635198, 15.9929581], [120.5630355, 15.9930552], [120.5625273, 15.9931572], [120.5621377, 15.9932353], [120.5611187, 15.9934397], [120.5601865, 15.9936267], [120.5587506, 15.9939147], [120.5586085, 15.993938], [120.5584757, 15.9939393], [120.558296, 15.9938954], [120.5580989, 15.9938152], [120.5580251, 15.9937704], [120.5579158, 15.993689], [120.5577936, 15.9935243], [120.5577792, 15.993505], [120.5576707, 15.9933197], [120.557594, 15.9929916], [120.5574844, 15.9925227], [120.5574147, 15.9922246], [120.5573412, 15.99191], [120.5569931, 15.9902325], [120.55673, 15.9889968]]}, "properties": {"city": "urdaneta", "name": "Urdaneta Bypass Road", "highway": "trunk", "v_posted": 60, "posted_imputed": false, "v_safe": 50, "gap": 10, "R": 2.07, "exposure": 0.0, "vru_150m": 0, "sss": 12.5, "recommended": 50, "fatal_reduction_pct": 51.8, "why": "undivided arterial, side-impact intersections", "pop_density": 0.0, "pop_density_peak": 0.0, "v_design": 50, "design_gap": 0}}, {"type": "Feature", "geometry": {"type": "LineString", "coordinates": [[120.5558875, 15.9847836], [120.5561371, 15.9859968], [120.55633, 15.986825], [120.5563133, 15.9872244]]}, "properties": {"city": "urdaneta", "name": "", "highway": "trunk_link", "v_posted": 60, "posted_imputed": false, "v_safe": 50, "gap": 10, "R": 2.07, "exposure": 0.048, "vru_150m": 0, "sss": 13.1, "recommended": 50, "fatal_reduction_pct": 51.8, "why": "undivided arterial, side-impact intersections", "pop_density": 1567.4, "pop_density_peak": 4702.3, "v_design": 55, "design_gap": 5}}, {"type": "Feature", "geometry": {"type": "LineString", "coordinates": [[120.5556869, 15.9843587], [120.555811, 15.9848966]]}, "properties": {"city": "urdaneta", "name": "Urdaneta Bypass Road", "highway": "trunk", "v_posted": 60, "posted_imputed": false, "v_safe": 50, "gap": 10, "R": 2.07, "exposure": 0.113, "vru_150m": 0, "sss": 13.9, "recommended": 50, "fatal_reduction_pct": 51.8, "why": "undivided arterial, side-impact intersections", "pop_density": 3661.3, "pop_density_peak": 4702.3, "v_design": 70, "design_gap": 20}}, {"type": "Feature", "geometry": {"type": "LineString", "coordinates": [[120.5554295, 15.9709383], [120.5554285, 15.9710096], [120.5554134, 15.97109], [120.5553883, 15.9711678], [120.5553436, 15.9712637], [120.5552113, 15.9715259], [120.5551431, 15.9716543], [120.5551042, 15.9717446], [120.5550707, 15.9718478]]}, "properties": {"city": "urdaneta", "name": "Urdaneta Bypass Road", "highway": "trunk", "v_posted": 60, "posted_imputed": false, "v_safe": 50, "gap": 10, "R": 2.07, "exposure": 0.073, "vru_150m": 0, "sss": 13.4, "recommended": 50, "fatal_reduction_pct": 51.8, "why": "undivided arterial, side-impact intersections", "pop_density": 2354.6, "pop_density_peak": 2462.4, "v_design": 70, "design_gap": 20}}, {"type": "Feature", "geometry": {"type": "LineString", "coordinates": [[120.5547388, 15.9744154], [120.5547823, 15.9730919], [120.5547917, 15.9728844], [120.5548037, 15.9727077], [120.5548386, 15.9725491], [120.5548635, 15.9724432], [120.5548982, 15.9723061]]}, "properties": {"city": "urdaneta", "name": "Urdaneta Bypass Road", "highway": "trunk", "v_posted": 60, "posted_imputed": false, "v_safe": 50, "gap": 10, "R": 2.07, "exposure": 0.129, "vru_150m": 0, "sss": 14.1, "recommended": 50, "fatal_reduction_pct": 51.8, "why": "undivided arterial, side-impact intersections", "pop_density": 4172.3, "pop_density_peak": 7791.5, "v_design": 70, "design_gap": 20}}, {"type": "Feature", "geometry": {"type": "LineString", "coordinates": [[120.5550047, 15.9708648], [120.5550921, 15.9707273], [120.5551565, 15.9706087], [120.5552309, 15.9704404], [120.5553882, 15.970083]]}, "properties": {"city": "urdaneta", "name": "Urdaneta Bypass Road", "highway": "trunk", "v_posted": 60, "posted_imputed": false, "v_safe": 50, "gap": 10, "R": 2.07, "exposure": 0.081, "vru_150m": 0, "sss": 13.5, "recommended": 50, "fatal_reduction_pct": 51.8, "why": "undivided arterial, side-impact intersections", "pop_density": 2635.4, "pop_density_peak": 2808.4, "v_design": 70, "design_gap": 20}}, {"type": "Feature", "geometry": {"type": "LineString", "coordinates": [[120.5553882, 15.970083], [120.5553865, 15.9704624], [120.5553925, 15.9706203], [120.5554046, 15.9707699], [120.5554295, 15.9709383]]}, "properties": {"city": "urdaneta", "name": "Urdaneta Bypass Road", "highway": "trunk", "v_posted": 60, "posted_imputed": false, "v_safe": 50, "gap": 10, "R": 2.07, "exposure": 0.081, "vru_150m": 0, "sss": 13.5, "recommended": 50, "fatal_reduction_pct": 51.8, "why": "undivided arterial, side-impact intersections", "pop_density": 2635.4, "pop_density_peak": 2808.4, "v_design": 70, "design_gap": 20}}, {"type": "Feature", "geometry": {"type": "LineString", "coordinates": [[120.555811, 15.9848966], [120.556033, 15.9859545], [120.5561485, 15.9864736], [120.5563133, 15.9872244]]}, "properties": {"city": "urdaneta", "name": "Urdaneta Bypass Road", "highway": "trunk", "v_posted": 60, "posted_imputed": false, "v_safe": 50, "gap": 10, "R": 2.07, "exposure": 0.032, "vru_150m": 0, "sss": 12.9, "recommended": 50, "fatal_reduction_pct": 51.8, "why": "undivided arterial, side-impact intersections", "pop_density": 1045.1, "pop_density_peak": 2620.2, "v_design": 70, "design_gap": 20}}, {"type": "Feature", "geometry": {"type": "LineString", "coordinates": [[120.55673, 15.9889968], [120.5565813, 15.9883333]]}, "properties": {"city": "urdaneta", "name": "Urdaneta Bypass Road", "highway": "trunk", "v_posted": 60, "posted_imputed": false, "v_safe": 50, "gap": 10, "R": 2.07, "exposure": 0.0, "vru_150m": 0, "sss": 12.5, "recommended": 50, "fatal_reduction_pct": 51.8, "why": "undivided arterial, side-impact intersections", "pop_density": 0.0, "pop_density_peak": 0.0, "v_design": 70, "design_gap": 20}}, {"type": "Feature", "geometry": {"type": "LineString", "coordinates": [[120.5547081, 15.9752585], [120.5547388, 15.9744154]]}, "properties": {"city": "urdaneta", "name": "Urdaneta Bypass Road", "highway": "trunk", "v_posted": 60, "posted_imputed": false, "v_safe": 50, "gap": 10, "R": 2.07, "exposure": 0.246, "vru_150m": 0, "sss": 15.6, "recommended": 50, "fatal_reduction_pct": 51.8, "why": "undivided arterial, side-impact intersections", "pop_density": 7952.5, "pop_density_peak": 8113.6, "v_design": 70, "design_gap": 20}}, {"type": "Feature", "geometry": {"type": "LineString", "coordinates": [[120.55521, 15.9823081], [120.5553439, 15.9828942], [120.5555094, 15.9836228], [120.5556869, 15.9843587]]}, "properties": {"city": "urdaneta", "name": "Urdaneta Bypass Road", "highway": "trunk", "v_posted": 60, "posted_imputed": false, "v_safe": 50, "gap": 10, "R": 2.07, "exposure": 0.073, "vru_150m": 0, "sss": 13.4, "recommended": 50, "fatal_reduction_pct": 51.8, "why": "undivided arterial, side-impact intersections", "pop_density": 2351.1, "pop_density_peak": 4702.3, "v_design": 70, "design_gap": 20}}, {"type": "Feature", "geometry": {"type": "LineString", "coordinates": [[120.5563133, 15.9872244], [120.5561188, 15.9868477], [120.5559781, 15.9862323], [120.5556778, 15.9848314]]}, "properties": {"city": "urdaneta", "name": "", "highway": "trunk_link", "v_posted": 60, "posted_imputed": false, "v_safe": 50, "gap": 10, "R": 2.07, "exposure": 0.073, "vru_150m": 0, "sss": 13.4, "recommended": 50, "fatal_reduction_pct": 51.8, "why": "undivided arterial, side-impact intersections", "pop_density": 2351.2, "pop_density_peak": 4702.3, "v_design": 55, "design_gap": 5}}, {"type": "Feature", "geometry": {"type": "LineString", "coordinates": [[120.5565813, 15.9883333], [120.5563133, 15.9872244]]}, "properties": {"city": "urdaneta", "name": "Urdaneta Bypass Road", "highway": "trunk", "v_posted": 60, "posted_imputed": false, "v_safe": 50, "gap": 10, "R": 2.07, "exposure": 0.0, "vru_150m": 0, "sss": 12.5, "recommended": 50, "fatal_reduction_pct": 51.8, "why": "undivided arterial, side-impact intersections", "pop_density": 0.0, "pop_density_peak": 0.0, "v_design": 70, "design_gap": 20}}, {"type": "Feature", "geometry": {"type": "LineString", "coordinates": [[120.5556117, 15.9845338], [120.555389, 15.9836493], [120.5552298, 15.9829294], [120.5551199, 15.9822979], [120.5551253, 15.9816381]]}, "properties": {"city": "urdaneta", "name": "", "highway": "trunk_link", "v_posted": 60, "posted_imputed": false, "v_safe": 50, "gap": 10, "R": 2.07, "exposure": 0.048, "vru_150m": 0, "sss": 13.1, "recommended": 50, "fatal_reduction_pct": 51.8, "why": "undivided arterial, side-impact intersections", "pop_density": 1567.4, "pop_density_peak": 4702.3, "v_design": 55, "design_gap": 5}}, {"type": "Feature", "geometry": {"type": "LineString", "coordinates": [[120.5551253, 15.9816381], [120.5553207, 15.9824276], [120.5554383, 15.9829722], [120.5556106, 15.9836487], [120.5558063, 15.98442]]}, "properties": {"city": "urdaneta", "name": "", "highway": "trunk_link", "v_posted": 60, "posted_imputed": false, "v_safe": 50, "gap": 10, "R": 2.07, "exposure": 0.048, "vru_150m": 0, "sss": 13.1, "recommended": 50, "fatal_reduction_pct": 51.8, "why": "undivided arterial, side-impact intersections", "pop_density": 1567.4, "pop_density_peak": 4702.3, "v_design": 55, "design_gap": 5}}, {"type": "Feature", "geometry": {"type": "LineString", "coordinates": [[120.5556778, 15.9848314], [120.5556117, 15.9845338]]}, "properties": {"city": "urdaneta", "name": "", "highway": "trunk_link", "v_posted": 60, "posted_imputed": false, "v_safe": 50, "gap": 10, "R": 2.07, "exposure": 0.145, "vru_150m": 0, "sss": 14.3, "recommended": 50, "fatal_reduction_pct": 51.8, "why": "undivided arterial, side-impact intersections", "pop_density": 4702.3, "pop_density_peak": 4702.3, "v_design": 55, "design_gap": 5}}, {"type": "Feature", "geometry": {"type": "LineString", "coordinates": [[120.5558063, 15.98442], [120.5558875, 15.9847836]]}, "properties": {"city": "urdaneta", "name": "", "highway": "trunk_link", "v_posted": 60, "posted_imputed": false, "v_safe": 50, "gap": 10, "R": 2.07, "exposure": 0.145, "vru_150m": 0, "sss": 14.3, "recommended": 50, "fatal_reduction_pct": 51.8, "why": "undivided arterial, side-impact intersections", "pop_density": 4702.3, "pop_density_peak": 4702.3, "v_design": 55, "design_gap": 5}}, {"type": "Feature", "geometry": {"type": "LineString", "coordinates": [[120.5549171, 15.9794703], [120.5550038, 15.9805068], [120.5551253, 15.9816381]]}, "properties": {"city": "urdaneta", "name": "Urdaneta Bypass Road", "highway": "trunk", "v_posted": 60, "posted_imputed": false, "v_safe": 50, "gap": 10, "R": 2.07, "exposure": 0.047, "vru_150m": 0, "sss": 13.1, "recommended": 50, "fatal_reduction_pct": 51.8, "why": "undivided arterial, side-impact intersections", "pop_density": 1511.0, "pop_density_peak": 3022.1, "v_design": 70, "design_gap": 20}}, {"type": "Feature", "geometry": {"type": "LineString", "coordinates": [[120.5551253, 15.9816381], [120.55521, 15.9823081]]}, "properties": {"city": "urdaneta", "name": "Urdaneta Bypass Road", "highway": "trunk", "v_posted": 60, "posted_imputed": false, "v_safe": 50, "gap": 10, "R": 2.07, "exposure": 0.0, "vru_150m": 0, "sss": 12.5, "recommended": 50, "fatal_reduction_pct": 51.8, "why": "undivided arterial, side-impact intersections", "pop_density": 0.0, "pop_density_peak": 0.0, "v_design": 70, "design_gap": 20}}, {"type": "Feature", "geometry": {"type": "LineString", "coordinates": [[120.5548982, 15.9723061], [120.5549553, 15.9718271]]}, "properties": {"city": "urdaneta", "name": "Urdaneta Bypass Road", "highway": "trunk", "v_posted": 60, "posted_imputed": false, "v_safe": 50, "gap": 10, "R": 2.07, "exposure": 0.069, "vru_150m": 0, "sss": 13.4, "recommended": 50, "fatal_reduction_pct": 51.8, "why": "undivided arterial, side-impact intersections", "pop_density": 2246.9, "pop_density_peak": 2246.9, "v_design": 70, "design_gap": 20}}, {"type": "Feature", "geometry": {"type": "LineString", "coordinates": [[120.5550707, 15.9718478], [120.5548982, 15.9723061]]}, "properties": {"city": "urdaneta", "name": "Urdaneta Bypass Road", "highway": "trunk", "v_posted": 60, "posted_imputed": false, "v_safe": 50, "gap": 10, "R": 2.07, "exposure": 0.069, "vru_150m": 0, "sss": 13.4, "recommended": 50, "fatal_reduction_pct": 51.8, "why": "undivided arterial, side-impact intersections", "pop_density": 2246.9, "pop_density_peak": 2246.9, "v_design": 70, "design_gap": 20}}, {"type": "Feature", "geometry": {"type": "LineString", "coordinates": [[120.5553882, 15.970083], [120.5555702, 15.9692092]]}, "properties": {"city": "urdaneta", "name": "Urdaneta Bypass Road", "highway": "trunk", "v_posted": 60, "posted_imputed": false, "v_safe": 50, "gap": 10, "R": 2.07, "exposure": 0.091, "vru_150m": 0, "sss": 13.6, "recommended": 50, "fatal_reduction_pct": 51.8, "why": "undivided arterial, side-impact intersections", "pop_density": 2937.3, "pop_density_peak": 3066.2, "v_design": 70, "design_gap": 20}}, {"type": "Feature", "geometry": {"type": "LineString", "coordinates": [[120.5684683, 15.9919648], [120.5681287, 15.9920336]]}, "properties": {"city": "urdaneta", "name": "Urdaneta Bypass Road", "highway": "trunk", "v_posted": 60, "posted_imputed": false, "v_safe": 50, "gap": 10, "R": 2.07, "exposure": 0.0, "vru_150m": 0, "sss": 12.5, "recommended": 50, "fatal_reduction_pct": 51.8, "why": "undivided arterial, side-impact intersections", "pop_density": 0.0, "pop_density_peak": 0.0, "v_design": 70, "design_gap": 20}}]}