{"type": "FeatureCollection", "features": [{"type": "Feature", "geometry": {"type": "LineString", "coordinates": [[123.8283261, 8.1287746], [123.8276506, 8.1286939], [123.8274568, 8.1286773], [123.8272798, 8.1286813], [123.8271122, 8.1287039], [123.8269848, 8.1287464], [123.8268667, 8.1288048], [123.8264376, 8.1291115], [123.8261104, 8.1293504], [123.8259763, 8.1294354], [123.8258421, 8.1295018], [123.8257429, 8.1295376], [123.825637, 8.1295668], [123.8255216, 8.1295841], [123.8230191, 8.1297394], [123.8228676, 8.1297368], [123.8227388, 8.1297208], [123.8226168, 8.129685], [123.8225202, 8.1296319], [123.8224357, 8.1295562]]}, "properties": {"city": "ozamiz", "name": "Ozamiz City Coastal Road", "highway": "secondary", "v_posted": 80, "posted_imputed": false, "v_safe": 50, "gap": 30, "R": 6.55, "exposure": 0.0, "vru_150m": 0, "sss": 37.5, "recommended": 50, "fatal_reduction_pct": 84.7, "why": "undivided arterial, side-impact intersections", "pop_density": 0.0, "pop_density_peak": 0.0}}, {"type": "Feature", "geometry": {"type": "LineString", "coordinates": [[123.829101, 8.1288672], [123.8283261, 8.1287746]]}, "properties": {"city": "ozamiz", "name": "Ozamiz City Coastal Road", "highway": "secondary", "v_posted": 80, "posted_imputed": false, "v_safe": 50, "gap": 30, "R": 6.55, "exposure": 0.0, "vru_150m": 0, "sss": 37.5, "recommended": 50, "fatal_reduction_pct": 84.7, "why": "undivided arterial, side-impact intersections", "pop_density": 0.0, "pop_density_peak": 0.0}}, {"type": "Feature", "geometry": {"type": "LineString", "coordinates": [[123.8286375, 8.1291609], [123.8283261, 8.1287746]]}, "properties": {"city": "ozamiz", "name": "Ozamiz City Coastal Road", "highway": "secondary", "v_posted": 80, "posted_imputed": false, "v_safe": 50, "gap": 30, "R": 6.55, "exposure": 0.0, "vru_150m": 0, "sss": 37.5, "recommended": 50, "fatal_reduction_pct": 84.7, "why": "undivided arterial, side-impact intersections", "pop_density": 0.0, "pop_density_peak": 0.0}}, {"type": "Feature", "geometry": {"type": "LineString", "coordinates": [[123.8363856, 8.1488994], [123.8361025, 8.1489768], [123.8358371, 8.1490491], [123.8355718, 8.1491213], [123.8353064, 8.1491936], [123.8349768, 8.1492829], [123.8348342, 8.1493215], [123.8346666, 8.1493626], [123.8345001, 8.1493889], [123.8343253, 8.1494014], [123.8340054, 8.1494157], [123.8338579, 8.1494237], [123.8337158, 8.1494423], [123.8335669, 8.1494728], [123.8334395, 8.14951], [123.8333195, 8.1495505], [123.8331243, 8.1496441], [123.8329889, 8.1497078], [123.8328508, 8.1497795], [123.8327059, 8.1498618], [123.8325785, 8.1499401], [123.8321681, 8.1501698], [123.8320032, 8.1502521], [123.8318382, 8.1503185], [123.83168, 8.1503689], [123.8314949, 8.1504101], [123.8313996, 8.1504246], [123.831171, 8.1504333], [123.8309947, 8.1504207], [123.8307372, 8.1503941]]}, "properties": {"city": "ozamiz", "name": "Ozamiz-Pagadian Road", "highway": "secondary", "v_posted": 60, "posted_imputed": false, "v_safe": 50, "gap": 10, "R": 2.07, "exposure": 0.325, "vru_150m": 0, "sss": 16.6, "recommended": 50, "fatal_reduction_pct": 51.8, "why": "undivided arterial, side-impact intersections", "pop_density": 10498.5, "pop_density_peak": 13096.3}}, {"type": "Feature", "geometry": {"type": "LineString", "coordinates": [[123.8281234, 8.1500089], [123.8278185, 8.1503412], [123.8277715, 8.1503847], [123.8277264, 8.1504101], [123.827673, 8.1504255], [123.8276126, 8.1504288], [123.8273685, 8.1504145], [123.8272477, 8.1504132], [123.8271081, 8.1504273], [123.8269555, 8.1504551], [123.8262288, 8.1505833], [123.8261687, 8.1505939], [123.8260304, 8.1506187], [123.8258388, 8.150653], [123.8256095, 8.1506941], [123.8252999, 8.1507497], [123.8251412, 8.1507667], [123.8249587, 8.1507667], [123.8247592, 8.1507539], [123.8247141, 8.1507444], [123.8244284, 8.1506999], [123.823951, 8.1506109], [123.8237593, 8.1505887], [123.823627, 8.1505926], [123.8234551, 8.1506305], [123.8231893, 8.1507235], [123.8230161, 8.1508112], [123.8228475, 8.1509486], [123.8226273, 8.151128], [123.8222015, 8.1514238], [123.82174, 8.1517498], [123.8214849, 8.1519221], [123.8213332, 8.152007], [123.8211833, 8.1520774]]}, "properties": {"city": "ozamiz", "name": "", "highway": "unclassified", "v_posted": 40, "posted_imputed": false, "v_safe": 30, "gap": 10, "R": 3.16, "exposure": 0.379, "vru_150m": 0, "sss": 17.2, "recommended": 30, "fatal_reduction_pct": 68.4, "why": "local road, frontage/pedestrian mixing", "pop_density": 12259.6, "pop_density_peak": 23487.9}}, {"type": "Feature", "geometry": {"type": "LineString", "coordinates": [[123.8168151, 8.1350034], [123.8167119, 8.1350048], [123.8166509, 8.1350114], [123.8165906, 8.1350293], [123.8165043, 8.1350669]]}, "properties": {"city": "ozamiz", "name": "Ozamiz City Coastal Road", "highway": "primary", "v_posted": 50, "posted_imputed": false, "v_safe": 30, "gap": 20, "R": 7.72, "exposure": 0.217, "vru_150m": 1, "sss": 30.4, "recommended": 30, "fatal_reduction_pct": 87.0, "why": "pedestrian activity (1 VRU site<=50m)", "pop_density": 668.6, "pop_density_peak": 668.6}}, {"type": "Feature", "geometry": {"type": "LineString", "coordinates": [[123.8168151, 8.1350034], [123.816734, 8.1349397], [123.8166837, 8.1348926], [123.8166489, 8.1348454], [123.8166073, 8.1347671]]}, "properties": {"city": "ozamiz", "name": "Ozamiz City Coastal Road", "highway": "primary", "v_posted": 50, "posted_imputed": false, "v_safe": 30, "gap": 20, "R": 7.72, "exposure": 0.217, "vru_150m": 1, "sss": 30.4, "recommended": 30, "fatal_reduction_pct": 87.0, "why": "pedestrian activity (1 VRU site<=50m)", "pop_density": 668.6, "pop_density_peak": 668.6}}, {"type": "Feature", "geometry": {"type": "LineString", "coordinates": [[123.8211833, 8.1520774], [123.8211002, 8.1521136]]}, "properties": {"city": "ozamiz", "name": "", "highway": "unclassified", "v_posted": 40, "posted_imputed": false, "v_safe": 30, "gap": 10, "R": 3.16, "exposure": 0.0, "vru_150m": 0, "sss": 12.5, "recommended": 30, "fatal_reduction_pct": 68.4, "why": "local road, frontage/pedestrian mixing", "pop_density": 0.0, "pop_density_peak": 0.0}}, {"type": "Feature", "geometry": {"type": "LineString", "coordinates": [[123.8307372, 8.1503941], [123.8303249, 8.1503438], [123.829844, 8.1502853], [123.8294028, 8.1502295], [123.8289242, 8.1501693], [123.8286551, 8.1501306], [123.8284551, 8.150094], [123.8282404, 8.1500435], [123.8281234, 8.1500089], [123.8278353, 8.1499267], [123.8275842, 8.1498551], [123.8274598, 8.149817], [123.8269338, 8.149656], [123.8264486, 8.1495083], [123.8259932, 8.1493697], [123.8256893, 8.1492791], [123.8253693, 8.1491838], [123.825027, 8.1490818], [123.8245835, 8.1489512], [123.8241399, 8.1488206], [123.8236964, 8.14869], [123.8233763, 8.1485967], [123.8230419, 8.1484992], [123.8229358, 8.1484683], [123.8228495, 8.1484439]]}, "properties": {"city": "ozamiz", "name": "Ozamiz-Pagadian Road", "highway": "secondary", "v_posted": 60, "posted_imputed": false, "v_safe": 50, "gap": 10, "R": 2.07, "exposure": 0.547, "vru_150m": 1, "sss": 19.3, "recommended": 50, "fatal_reduction_pct": 51.8, "why": "undivided arterial, side-impact intersections", "pop_density": 14041.4, "pop_density_peak": 15364.9}}, {"type": "Feature", "geometry": {"type": "LineString", "coordinates": [[123.8486155, 8.142957], [123.8482574, 8.143273], [123.8479355, 8.1435824], [123.8474004, 8.1441871], [123.8473806, 8.1442136], [123.8468921, 8.144825], [123.8459324, 8.1459538]]}, "properties": {"city": "ozamiz", "name": "Animas Street", "highway": "unclassified", "v_posted": 40, "posted_imputed": false, "v_safe": 30, "gap": 10, "R": 3.16, "exposure": 0.849, "vru_150m": 0, "sss": 23.1, "recommended": 30, "fatal_reduction_pct": 68.4, "why": "local road, frontage/pedestrian mixing", "pop_density": 27451.5, "pop_density_peak": 46453.3}}, {"type": "Feature", "geometry": {"type": "LineString", "coordinates": [[123.8600731, 8.1887279], [123.8600168, 8.1879275], [123.8599444, 8.1872208], [123.8598263, 8.1860679], [123.8598187, 8.185922], [123.8598177, 8.1857919], [123.859823, 8.1856512], [123.8598525, 8.1855105], [123.8598981, 8.1853618], [123.8599736, 8.1851534], [123.8605902, 8.1838007], [123.8607028, 8.1835432], [123.8607972, 8.1832822], [123.8609358, 8.1828672], [123.8609537, 8.1828135], [123.8609827, 8.1827144], [123.8610102, 8.1826201], [123.8611691, 8.182077], [123.8611738, 8.1820609], [123.861239, 8.1818379], [123.8612934, 8.1816408], [123.8613305, 8.1815066], [123.8613462, 8.1814496], [123.8613937, 8.1812502], [123.8614778, 8.1808974], [123.8614918, 8.1808385], [123.8615711, 8.1805056], [123.8616241, 8.1802833], [123.861726, 8.1798557], [123.8617267, 8.1797858], [123.8617019, 8.1791003], [123.8616385, 8.178547], [123.8616245, 8.1784248], [123.861539, 8.1776781], [123.8612802, 8.1759011], [123.8611574, 8.175347], [123.8611481, 8.175305], [123.8610864, 8.1751059], [123.8607815, 8.1744358], [123.8606755, 8.1742029], [123.8600469, 8.1728216], [123.8598539, 8.1723381], [123.8596299, 8.1716846], [123.8595374, 8.1713663], [123.8594408, 8.171061], [123.8593618, 8.1707609], [123.859352, 8.1707235], [123.859294, 8.1705094], [123.8592794, 8.1704522], [123.8591813, 8.1700684], [123.8590975, 8.1697402], [123.8589875, 8.1693539], [123.858943, 8.1691826], [123.8589084, 8.1690492], [123.8586068, 8.1678525], [123.858524, 8.1675237], [123.8584731, 8.167322], [123.8584553, 8.1672514], [123.8583194, 8.166712], [123.8582934, 8.1666206], [123.8581861, 8.1662429], [123.8581589, 8.1661474], [123.8580472, 8.1657571], [123.8579848, 8.1655391], [123.8578933, 8.1652196], [123.8578315, 8.1650036], [123.8578127, 8.1649426], [123.8576766, 8.1645569], [123.8575236, 8.1641446], [123.8573711, 8.1638058], [123.8572096, 8.1634883], [123.8571771, 8.1634243], [123.8571398, 8.1633495], [123.8567962, 8.1627309], [123.8562664, 8.1617964], [123.8560358, 8.1614114], [123.8559627, 8.1612892], [123.8559459, 8.1612501], [123.8559297, 8.1612013]]}, "properties": {"city": "ozamiz", "name": "Ozamiz-Oroquieta Road", "highway": "primary", "v_posted": 60, "posted_imputed": false, "v_safe": 50, "gap": 10, "R": 2.07, "exposure": 0.248, "vru_150m": 0, "sss": 15.6, "recommended": 50, "fatal_reduction_pct": 51.8, "why": "undivided arterial, side-impact intersections", "pop_density": 8036.4, "pop_density_peak": 11897.5}}, {"type": "Feature", "geometry": {"type": "LineString", "coordinates": [[123.8559297, 8.1612013], [123.855898, 8.1610965]]}, "properties": {"city": "ozamiz", "name": "Ozamiz-Oroquieta Road", "highway": "primary", "v_posted": 60, "posted_imputed": false, "v_safe": 50, "gap": 10, "R": 2.07, "exposure": 0.297, "vru_150m": 0, "sss": 16.2, "recommended": 50, "fatal_reduction_pct": 51.8, "why": "undivided arterial, side-impact intersections", "pop_density": 9610.1, "pop_density_peak": 9610.1}}, {"type": "Feature", "geometry": {"type": "LineString", "coordinates": [[123.855898, 8.1610965], [123.8557863, 8.1607171], [123.855494, 8.1597945], [123.8554242, 8.1596006], [123.8552975, 8.1592025], [123.8552393, 8.1590126], [123.8551815, 8.158824], [123.8551295, 8.1586505], [123.8550701, 8.1584584], [123.8549191, 8.157967], [123.854814, 8.1576253], [123.854696, 8.1572217], [123.8545579, 8.156765], [123.8543487, 8.1561357], [123.8543017, 8.1559765], [123.854242, 8.1558079], [123.8542362, 8.1557877], [123.8542052, 8.1556804], [123.8541716, 8.1555756], [123.8541274, 8.1554574], [123.8540644, 8.1552609], [123.8540077, 8.1551402], [123.8537331, 8.1545547], [123.8536835, 8.1544511], [123.8536486, 8.1543794], [123.8535802, 8.1542175], [123.8534763, 8.1540303], [123.8533804, 8.1538537], [123.8533093, 8.1537369], [123.8531832, 8.1535139], [123.852974, 8.153174], [123.8528587, 8.1530054], [123.8525248, 8.1525116], [123.8519826, 8.151747], [123.8518851, 8.1516246]]}, "properties": {"city": "ozamiz", "name": "Ozamiz-Oroquieta Road", "highway": "primary", "v_posted": 60, "posted_imputed": false, "v_safe": 50, "gap": 10, "R": 2.07, "exposure": 0.417, "vru_150m": 1, "sss": 17.7, "recommended": 50, "fatal_reduction_pct": 51.8, "why": "undivided arterial, side-impact intersections", "pop_density": 8780.0, "pop_density_peak": 13593.5}}, {"type": "Feature", "geometry": {"type": "LineString", "coordinates": [[123.8441054, 8.1443453], [123.8441801, 8.1442485], [123.844238, 8.1441665], [123.8446762, 8.1435411], [123.8450723, 8.1429716], [123.8453114, 8.1426237], [123.8453438, 8.1425734], [123.8453699, 8.1425219], [123.8453874, 8.1424699], [123.8453943, 8.142429], [123.8453972, 8.1423675], [123.8453911, 8.1417801], [123.8453906, 8.1417172], [123.8453866, 8.1412674], [123.8453814, 8.1406893]]}, "properties": {"city": "ozamiz", "name": "Port Road", "highway": "primary", "v_posted": 40, "posted_imputed": false, "v_safe": 30, "gap": 10, "R": 3.16, "exposure": 0.464, "vru_150m": 1, "sss": 18.3, "recommended": 30, "fatal_reduction_pct": 68.4, "why": "pedestrian activity (1 VRU site<=50m)", "pop_density": 10682.5, "pop_density_peak": 17703.7}}, {"type": "Feature", "geometry": {"type": "LineString", "coordinates": [[123.84575, 8.1399136], [123.8458232, 8.1399431], [123.8458866, 8.1399713], [123.8459474, 8.1400049], [123.8461269, 8.1401162], [123.8462529, 8.1402014], [123.8463035, 8.1402356], [123.8463158, 8.1402439], [123.8465191, 8.1403813], [123.8467135, 8.1405127]]}, "properties": {"city": "ozamiz", "name": "Cotta Road", "highway": "unclassified", "v_posted": 40, "posted_imputed": false, "v_safe": 30, "gap": 10, "R": 3.16, "exposure": 0.54, "vru_150m": 1, "sss": 19.2, "recommended": 30, "fatal_reduction_pct": 68.4, "why": "local road, frontage/pedestrian mixing", "pop_density": 13736.6, "pop_density_peak": 14171.6}}, {"type": "Feature", "geometry": {"type": "LineString", "coordinates": [[123.8467135, 8.1405127], [123.846505, 8.1408401], [123.8463665, 8.1410531], [123.8462467, 8.1412374], [123.8461135, 8.1414293], [123.8458789, 8.1417674]]}, "properties": {"city": "ozamiz", "name": "Cotta Road", "highway": "unclassified", "v_posted": 40, "posted_imputed": false, "v_safe": 30, "gap": 10, "R": 3.16, "exposure": 0.625, "vru_150m": 2, "sss": 20.3, "recommended": 30, "fatal_reduction_pct": 68.4, "why": "pedestrian activity (1 VRU site<=50m)", "pop_density": 12124.1, "pop_density_peak": 13301.6}}, {"type": "Feature", "geometry": {"type": "LineString", "coordinates": [[123.8454843, 8.1417776], [123.8458789, 8.1417674]]}, "properties": {"city": "ozamiz", "name": "Cotta Road", "highway": "unclassified", "v_posted": 40, "posted_imputed": false, "v_safe": 30, "gap": 10, "R": 3.16, "exposure": 0.561, "vru_150m": 2, "sss": 19.5, "recommended": 30, "fatal_reduction_pct": 68.4, "why": "local road, frontage/pedestrian mixing", "pop_density": 8686.7, "pop_density_peak": 10946.7}}, {"type": "Feature", "geometry": {"type": "LineString", "coordinates": [[123.8518851, 8.1516246], [123.8516605, 8.1518075], [123.8514452, 8.1519833], [123.8509847, 8.1523698], [123.8507961, 8.1525288], [123.8503164, 8.1529434], [123.8500559, 8.1531686], [123.8497178, 8.1534608], [123.8493942, 8.1537287], [123.8489564, 8.1540911], [123.8481152, 8.1548042], [123.8478477, 8.1550444], [123.8477369, 8.1551368], [123.8476162, 8.1552138], [123.8474943, 8.1552915], [123.8473642, 8.1553698], [123.8471952, 8.1554601], [123.8470463, 8.1555278], [123.846877, 8.1555992], [123.8467111, 8.1556565], [123.8464971, 8.1557235], [123.8464227, 8.1557468], [123.8462752, 8.1557893], [123.8461318, 8.1558212], [123.8459828, 8.1558411], [123.8458098, 8.1558517], [123.8455886, 8.1558596], [123.8453686, 8.155857], [123.8452334, 8.1558518], [123.8450588, 8.155845], [123.8448429, 8.1558238], [123.8446444, 8.1557826], [123.8444205, 8.1557242], [123.84423, 8.1556565], [123.8440222, 8.1555596], [123.8438384, 8.1554614], [123.8436681, 8.1553605], [123.8435192, 8.1552662], [123.8433549, 8.1551421]]}, "properties": {"city": "ozamiz", "name": "Mayor Fernando T. Bernard Avenue", "highway": "secondary", "v_posted": 60, "posted_imputed": false, "v_safe": 50, "gap": 10, "R": 2.07, "exposure": 0.088, "vru_150m": 0, "sss": 13.6, "recommended": 50, "fatal_reduction_pct": 51.8, "why": "undivided arterial, side-impact intersections", "pop_density": 2855.9, "pop_density_peak": 13593.5}}, {"type": "Feature", "geometry": {"type": "LineString", "coordinates": [[123.8406332, 8.1449538], [123.8409012, 8.145188], [123.8412053, 8.1454869], [123.8415691, 8.145823], [123.8418978, 8.1461176], [123.8422447, 8.146426]]}, "properties": {"city": "ozamiz", "name": "Kaami\u00f1o Street", "highway": "residential", "v_posted": 40, "posted_imputed": false, "v_safe": 30, "gap": 10, "R": 3.16, "exposure": 0.378, "vru_150m": 0, "sss": 17.2, "recommended": 30, "fatal_reduction_pct": 68.4, "why": "local road, frontage/pedestrian mixing", "pop_density": 12223.8, "pop_density_peak": 14774.8}}, {"type": "Feature", "geometry": {"type": "LineString", "coordinates": [[123.8429276, 8.1492153], [123.8432614, 8.1495498], [123.8440141, 8.1502853], [123.8441254, 8.1503941], [123.8442568, 8.1505096], [123.844348, 8.1505813], [123.8444828, 8.1506751], [123.8445543, 8.1507234], [123.8445763, 8.1507502], [123.8445834, 8.1507811]]}, "properties": {"city": "ozamiz", "name": "Abanil Street", "highway": "residential", "v_posted": 40, "posted_imputed": false, "v_safe": 30, "gap": 10, "R": 3.16, "exposure": 0.682, "vru_150m": 1, "sss": 21.0, "recommended": 30, "fatal_reduction_pct": 68.4, "why": "local road, frontage/pedestrian mixing", "pop_density": 19489.1, "pop_density_peak": 37789.7}}, {"type": "Feature", "geometry": {"type": "LineString", "coordinates": [[123.8437775, 8.144097], [123.8435101, 8.1443869], [123.8431967, 8.1447278], [123.8428796, 8.1450631], [123.8425604, 8.1454008], [123.842238, 8.1457405], [123.8418978, 8.1461176], [123.8415655, 8.1464793], [123.8412587, 8.1468216], [123.8408996, 8.1472115], [123.8406062, 8.1475298], [123.8402307, 8.1479373], [123.8399957, 8.1481857], [123.8399157, 8.1482753], [123.8398265, 8.1483925], [123.8397266, 8.1485342]]}, "properties": {"city": "ozamiz", "name": "Gomez Street", "highway": "unclassified", "v_posted": 40, "posted_imputed": false, "v_safe": 30, "gap": 10, "R": 3.16, "exposure": 0.253, "vru_150m": 0, "sss": 15.7, "recommended": 30, "fatal_reduction_pct": 68.4, "why": "local road, frontage/pedestrian mixing", "pop_density": 8169.0, "pop_density_peak": 10049.4}}, {"type": "Feature", "geometry": {"type": "LineString", "coordinates": [[123.843213, 8.145369], [123.8428796, 8.1450631], [123.8425558, 8.144766], [123.8422061, 8.1444448]]}, "properties": {"city": "ozamiz", "name": "Cebeda Street", "highway": "unclassified", "v_posted": 40, "posted_imputed": false, "v_safe": 30, "gap": 10, "R": 3.16, "exposure": 0.342, "vru_150m": 0, "sss": 16.8, "recommended": 30, "fatal_reduction_pct": 68.4, "why": "local road, frontage/pedestrian mixing", "pop_density": 11046.2, "pop_density_peak": 14102.4}}, {"type": "Feature", "geometry": {"type": "LineString", "coordinates": [[123.8435284, 8.1450325], [123.8431967, 8.1447278], [123.8428708, 8.1444285], [123.8425264, 8.1441119]]}, "properties": {"city": "ozamiz", "name": "Washington Street", "highway": "unclassified", "v_posted": 40, "posted_imputed": false, "v_safe": 30, "gap": 10, "R": 3.16, "exposure": 0.466, "vru_150m": 1, "sss": 18.3, "recommended": 30, "fatal_reduction_pct": 68.4, "why": "local road, frontage/pedestrian mixing", "pop_density": 10742.6, "pop_density_peak": 14102.4}}, {"type": "Feature", "geometry": {"type": "LineString", "coordinates": [[123.8438446, 8.1446952], [123.8443942, 8.1451979], [123.8449088, 8.1456739], [123.8452628, 8.1460014], [123.8455969, 8.1463081]]}, "properties": {"city": "ozamiz", "name": "Capistrano Street", "highway": "unclassified", "v_posted": 40, "posted_imputed": false, "v_safe": 30, "gap": 10, "R": 3.16, "exposure": 1.0, "vru_150m": 2, "sss": 25.0, "recommended": 30, "fatal_reduction_pct": 68.4, "why": "local road, frontage/pedestrian mixing", "pop_density": 37062.5, "pop_density_peak": 47030.6}}, {"type": "Feature", "geometry": {"type": "LineString", "coordinates": [[123.8433549, 8.1551421], [123.8434133, 8.1565393], [123.8434244, 8.156791], [123.8434415, 8.1571792], [123.8434662, 8.1576481], [123.8434938, 8.1581722], [123.8435246, 8.1587709], [123.8435259, 8.1593511], [123.8435246, 8.1594874], [123.8435192, 8.1601266], [123.8435074, 8.1610118], [123.8435005, 8.1616304], [123.8434978, 8.1617911], [123.8434964, 8.1619251], [123.8435058, 8.1620512], [123.8435233, 8.1621946], [123.8436306, 8.1628969], [123.8436532, 8.163042], [123.8437352, 8.1635673], [123.8437647, 8.163773], [123.8437901, 8.1639416], [123.843817, 8.1641474], [123.8438786, 8.1647302], [123.8439087, 8.1649765]]}, "properties": {"city": "ozamiz", "name": "Ozamiz Airport Access Road", "highway": "secondary", "v_posted": 60, "posted_imputed": false, "v_safe": 50, "gap": 10, "R": 2.07, "exposure": 0.029, "vru_150m": 0, "sss": 12.9, "recommended": 50, "fatal_reduction_pct": 51.8, "why": "undivided arterial, side-impact intersections", "pop_density": 944.5, "pop_density_peak": 1893.4}}, {"type": "Feature", "geometry": {"type": "LineString", "coordinates": [[123.8497259, 8.1444466], [123.8495556, 8.1445834], [123.8493382, 8.1447692], [123.8489746, 8.1450845], [123.848776, 8.1452948], [123.8486789, 8.145409], [123.8486015, 8.1455097], [123.848412, 8.1457235], [123.8483841, 8.1457563], [123.8479945, 8.1461832], [123.8476874, 8.1465386], [123.8474565, 8.1467913], [123.8471959, 8.1470763]]}, "properties": {"city": "ozamiz", "name": "Governor Angel N. Medina Sr. Avenue", "highway": "tertiary", "v_posted": 40, "posted_imputed": false, "v_safe": 30, "gap": 10, "R": 3.16, "exposure": 0.684, "vru_150m": 1, "sss": 21.1, "recommended": 30, "fatal_reduction_pct": 68.4, "why": "pedestrian activity (1 VRU site<=50m)", "pop_density": 19574.3, "pop_density_peak": 20292.2}}, {"type": "Feature", "geometry": {"type": "LineString", "coordinates": [[123.839897, 8.1476142], [123.8402898, 8.1471934], [123.8405778, 8.1468849], [123.8409264, 8.1465115], [123.8412347, 8.1461812], [123.8415691, 8.145823], [123.8419212, 8.1454458], [123.8422417, 8.1451025], [123.8425558, 8.144766], [123.8428708, 8.1444285], [123.8431874, 8.1440894]]}, "properties": {"city": "ozamiz", "name": "Don Gallardo Street", "highway": "unclassified", "v_posted": 40, "posted_imputed": false, "v_safe": 30, "gap": 10, "R": 3.16, "exposure": 0.271, "vru_150m": 0, "sss": 15.9, "recommended": 30, "fatal_reduction_pct": 68.4, "why": "local road, frontage/pedestrian mixing", "pop_density": 8749.6, "pop_density_peak": 11794.9}}, {"type": "Feature", "geometry": {"type": "LineString", "coordinates": [[123.8418898, 8.1447735], [123.8415636, 8.1451135], [123.8412053, 8.1454869], [123.8408629, 8.1458437], [123.8405559, 8.1461636], [123.8402025, 8.1465319], [123.8399301, 8.1468159]]}, "properties": {"city": "ozamiz", "name": "Zamora Street", "highway": "unclassified", "v_posted": 40, "posted_imputed": false, "v_safe": 30, "gap": 10, "R": 3.16, "exposure": 0.338, "vru_150m": 0, "sss": 16.7, "recommended": 30, "fatal_reduction_pct": 68.4, "why": "local road, frontage/pedestrian mixing", "pop_density": 10918.3, "pop_density_peak": 11411.4}}, {"type": "Feature", "geometry": {"type": "LineString", "coordinates": [[123.8458789, 8.1417674], [123.8461445, 8.1421473]]}, "properties": {"city": "ozamiz", "name": "", "highway": "residential", "v_posted": 40, "posted_imputed": false, "v_safe": 30, "gap": 10, "R": 3.16, "exposure": 0.603, "vru_150m": 2, "sss": 20.0, "recommended": 30, "fatal_reduction_pct": 68.4, "why": "local road, frontage/pedestrian mixing", "pop_density": 10946.7, "pop_density_peak": 10946.7}}, {"type": "Feature", "geometry": {"type": "LineString", "coordinates": [[123.8376653, 8.1552994], [123.8371758, 8.1549118], [123.8370605, 8.1548162], [123.8369586, 8.1547246], [123.8368446, 8.1546091], [123.8366434, 8.1543642], [123.8359889, 8.1536599], [123.8356188, 8.153249], [123.8346224, 8.1521823], [123.8342804, 8.1518173], [123.8342133, 8.1517363], [123.834153, 8.1516513], [123.8340752, 8.1515411], [123.8339974, 8.1514668], [123.8339035, 8.1514057], [123.8337198, 8.1513261], [123.8334918, 8.1512292], [123.8331713, 8.1510645], [123.8329768, 8.1509623], [123.8327421, 8.1508229]]}, "properties": {"city": "ozamiz", "name": "", "highway": "unclassified", "v_posted": 40, "posted_imputed": false, "v_safe": 30, "gap": 10, "R": 3.16, "exposure": 0.152, "vru_150m": 0, "sss": 14.4, "recommended": 30, "fatal_reduction_pct": 68.4, "why": "local road, frontage/pedestrian mixing", "pop_density": 4906.9, "pop_density_peak": 10043.6}}, {"type": "Feature", "geometry": {"type": "LineString", "coordinates": [[123.8428492, 8.1437765], [123.8431874, 8.1440894], [123.8435101, 8.1443869], [123.8438446, 8.1446952]]}, "properties": {"city": "ozamiz", "name": "Capistrano Street", "highway": "unclassified", "v_posted": 40, "posted_imputed": false, "v_safe": 30, "gap": 10, "R": 3.16, "exposure": 0.388, "vru_150m": 0, "sss": 17.3, "recommended": 30, "fatal_reduction_pct": 68.4, "why": "local road, frontage/pedestrian mixing", "pop_density": 12543.3, "pop_density_peak": 17703.7}}, {"type": "Feature", "geometry": {"type": "LineString", "coordinates": [[123.8409087, 8.1445046], [123.8411671, 8.1447448], [123.8415636, 8.1451135], [123.8419212, 8.1454458], [123.842238, 8.1457405], [123.8425818, 8.1460601]]}, "properties": {"city": "ozamiz", "name": "Valconcha Street", "highway": "residential", "v_posted": 40, "posted_imputed": false, "v_safe": 30, "gap": 10, "R": 3.16, "exposure": 0.409, "vru_150m": 0, "sss": 17.6, "recommended": 30, "fatal_reduction_pct": 68.4, "why": "local road, frontage/pedestrian mixing", "pop_density": 13215.7, "pop_density_peak": 14774.8}}, {"type": "Feature", "geometry": {"type": "LineString", "coordinates": [[123.8409261, 8.1478725], [123.8413728, 8.1483653], [123.8419141, 8.1489586], [123.8422283, 8.14929], [123.8425472, 8.1496265]]}, "properties": {"city": "ozamiz", "name": "Laurel Street", "highway": "residential", "v_posted": 40, "posted_imputed": false, "v_safe": 30, "gap": 10, "R": 3.16, "exposure": 0.701, "vru_150m": 0, "sss": 21.3, "recommended": 30, "fatal_reduction_pct": 68.4, "why": "local road, frontage/pedestrian mixing", "pop_density": 22671.3, "pop_density_peak": 37789.8}}, {"type": "Feature", "geometry": {"type": "LineString", "coordinates": [[123.8396285, 8.1465338], [123.8399301, 8.1468159], [123.8402898, 8.1471934], [123.8406062, 8.1475298], [123.8409261, 8.1478725]]}, "properties": {"city": "ozamiz", "name": "Laurel Street", "highway": "unclassified", "v_posted": 40, "posted_imputed": false, "v_safe": 30, "gap": 10, "R": 3.16, "exposure": 0.283, "vru_150m": 0, "sss": 16.0, "recommended": 30, "fatal_reduction_pct": 68.4, "why": "local road, frontage/pedestrian mixing", "pop_density": 9144.1, "pop_density_peak": 10499.0}}, {"type": "Feature", "geometry": {"type": "LineString", "coordinates": [[123.84547, 8.1406889], [123.8454774, 8.1412623], [123.8454832, 8.141713], [123.8454843, 8.1417776], [123.8454944, 8.1423704], [123.8454878, 8.1424311], [123.8454718, 8.1424957], [123.8454509, 8.1425519], [123.8454243, 8.1426066], [123.8453856, 8.1426707], [123.8451361, 8.1430304], [123.8447412, 8.143587], [123.8442953, 8.1442156], [123.8442358, 8.1442915], [123.8441545, 8.1443896]]}, "properties": {"city": "ozamiz", "name": "Port Road", "highway": "primary", "v_posted": 40, "posted_imputed": false, "v_safe": 30, "gap": 10, "R": 3.16, "exposure": 0.612, "vru_150m": 2, "sss": 20.1, "recommended": 30, "fatal_reduction_pct": 68.4, "why": "pedestrian activity (1 VRU site<=50m)", "pop_density": 11412.7, "pop_density_peak": 17703.7}}, {"type": "Feature", "geometry": {"type": "LineString", "coordinates": [[123.8433549, 8.1551421], [123.843194, 8.15501], [123.8429701, 8.1548268], [123.8428604, 8.1547433]]}, "properties": {"city": "ozamiz", "name": "Mayor Fernando T. Bernard Avenue", "highway": "secondary", "v_posted": 60, "posted_imputed": false, "v_safe": 50, "gap": 10, "R": 2.07, "exposure": 0.056, "vru_150m": 0, "sss": 13.2, "recommended": 50, "fatal_reduction_pct": 51.8, "why": "undivided arterial, side-impact intersections", "pop_density": 1801.1, "pop_density_peak": 1875.5}}, {"type": "Feature", "geometry": {"type": "LineString", "coordinates": [[123.8428145, 8.1547014], [123.8427103, 8.1546098], [123.8425027, 8.1544272], [123.8418844, 8.1538736], [123.8416417, 8.1536572], [123.8407619, 8.1528713], [123.8404173, 8.1525647], [123.8400178, 8.1522086], [123.8398245, 8.1520363], [123.8396931, 8.1519288], [123.8395764, 8.1518345], [123.8394409, 8.1517363], [123.8390815, 8.1514867], [123.8388187, 8.1512955]]}, "properties": {"city": "ozamiz", "name": "Mayor Fernando T. Bernard Avenue", "highway": "secondary", "v_posted": 60, "posted_imputed": false, "v_safe": 50, "gap": 10, "R": 2.07, "exposure": 0.186, "vru_150m": 0, "sss": 14.8, "recommended": 50, "fatal_reduction_pct": 51.8, "why": "undivided arterial, side-impact intersections", "pop_density": 6024.4, "pop_density_peak": 11386.7}}, {"type": "Feature", "geometry": {"type": "LineString", "coordinates": [[123.8428604, 8.1547433], [123.8428145, 8.1547014]]}, "properties": {"city": "ozamiz", "name": "Mayor Fernando T. Bernard Avenue", "highway": "secondary", "v_posted": 60, "posted_imputed": false, "v_safe": 50, "gap": 10, "R": 2.07, "exposure": 0.058, "vru_150m": 0, "sss": 13.2, "recommended": 50, "fatal_reduction_pct": 51.8, "why": "undivided arterial, side-impact intersections", "pop_density": 1875.5, "pop_density_peak": 1875.5}}, {"type": "Feature", "geometry": {"type": "LineString", "coordinates": [[123.8405487, 8.1482562], [123.8402307, 8.1479373], [123.839897, 8.1476142]]}, "properties": {"city": "ozamiz", "name": "H. T. Feliciano Street", "highway": "unclassified", "v_posted": 40, "posted_imputed": false, "v_safe": 30, "gap": 10, "R": 3.16, "exposure": 0.275, "vru_150m": 0, "sss": 15.9, "recommended": 30, "fatal_reduction_pct": 68.4, "why": "local road, frontage/pedestrian mixing", "pop_density": 8886.0, "pop_density_peak": 9305.4}}, {"type": "Feature", "geometry": {"type": "LineString", "coordinates": [[123.8388187, 8.1512955], [123.8386405, 8.1511718], [123.838465, 8.1510499], [123.8381455, 8.1508281], [123.8380891, 8.1507897], [123.8377478, 8.1505574], [123.8372952, 8.1502494], [123.8371007, 8.1501206], [123.8369237, 8.1500052], [123.8367976, 8.1498963], [123.8367198, 8.1498113], [123.8366649, 8.1497264], [123.8366085, 8.1496281], [123.8365629, 8.1495086], [123.8364578, 8.1491687], [123.8363856, 8.1488994]]}, "properties": {"city": "ozamiz", "name": "Mayor Fernando T. Bernard Avenue", "highway": "secondary", "v_posted": 60, "posted_imputed": false, "v_safe": 50, "gap": 10, "R": 2.07, "exposure": 0.473, "vru_150m": 1, "sss": 18.4, "recommended": 50, "fatal_reduction_pct": 51.8, "why": "undivided arterial, side-impact intersections", "pop_density": 11021.4, "pop_density_peak": 11861.4}}, {"type": "Feature", "geometry": {"type": "LineString", "coordinates": [[123.8412307, 8.1475309], [123.8417042, 8.148013], [123.8422698, 8.1485667], [123.8425972, 8.1488918], [123.8429276, 8.1492153]]}, "properties": {"city": "ozamiz", "name": "Abanil Street", "highway": "residential", "v_posted": 40, "posted_imputed": false, "v_safe": 30, "gap": 10, "R": 3.16, "exposure": 0.833, "vru_150m": 0, "sss": 22.9, "recommended": 30, "fatal_reduction_pct": 68.4, "why": "local road, frontage/pedestrian mixing", "pop_density": 26934.5, "pop_density_peak": 37789.7}}, {"type": "Feature", "geometry": {"type": "LineString", "coordinates": [[123.8398555, 8.1461826], [123.8402025, 8.1465319], [123.8405778, 8.1468849], [123.8408996, 8.1472115], [123.8412307, 8.1475309]]}, "properties": {"city": "ozamiz", "name": "Abanil Street", "highway": "residential", "v_posted": 40, "posted_imputed": false, "v_safe": 30, "gap": 10, "R": 3.16, "exposure": 0.303, "vru_150m": 0, "sss": 16.3, "recommended": 30, "fatal_reduction_pct": 68.4, "why": "local road, frontage/pedestrian mixing", "pop_density": 9792.5, "pop_density_peak": 10804.8}}, {"type": "Feature", "geometry": {"type": "LineString", "coordinates": [[123.8425472, 8.1496265], [123.8428679, 8.1499783], [123.8431054, 8.1502387]]}, "properties": {"city": "ozamiz", "name": "Laurel Street", "highway": "residential", "v_posted": 40, "posted_imputed": false, "v_safe": 30, "gap": 10, "R": 3.16, "exposure": 0.998, "vru_150m": 1, "sss": 25.0, "recommended": 30, "fatal_reduction_pct": 68.4, "why": "local road, frontage/pedestrian mixing", "pop_density": 32278.5, "pop_density_peak": 37789.8}}, {"type": "Feature", "geometry": {"type": "LineString", "coordinates": [[123.8453943, 8.142429], [123.8454878, 8.1424311]]}, "properties": {"city": "ozamiz", "name": "La Purisma Street", "highway": "tertiary", "v_posted": 40, "posted_imputed": false, "v_safe": 30, "gap": 10, "R": 3.16, "exposure": 0.519, "vru_150m": 2, "sss": 19.0, "recommended": 30, "fatal_reduction_pct": 68.4, "why": "pedestrian activity (1 VRU site<=50m)", "pop_density": 6426.8, "pop_density_peak": 6426.8}}, {"type": "Feature", "geometry": {"type": "LineString", "coordinates": [[123.8422447, 8.146426], [123.8427499, 8.1469083], [123.8433042, 8.147435], [123.8436456, 8.1477488], [123.8439903, 8.1480599]]}, "properties": {"city": "ozamiz", "name": "Kaami\u00f1o Street", "highway": "residential", "v_posted": 40, "posted_imputed": false, "v_safe": 30, "gap": 10, "R": 3.16, "exposure": 1.0, "vru_150m": 3, "sss": 25.0, "recommended": 30, "fatal_reduction_pct": 68.4, "why": "local road, frontage/pedestrian mixing", "pop_density": 32626.3, "pop_density_peak": 42471.5}}, {"type": "Feature", "geometry": {"type": "LineString", "coordinates": [[123.8456491, 8.139876], [123.84575, 8.1399136]]}, "properties": {"city": "ozamiz", "name": "Cotta Road", "highway": "unclassified", "v_posted": 40, "posted_imputed": false, "v_safe": 30, "gap": 10, "R": 3.16, "exposure": 0.551, "vru_150m": 1, "sss": 19.4, "recommended": 30, "fatal_reduction_pct": 68.4, "why": "local road, frontage/pedestrian mixing", "pop_density": 14171.6, "pop_density_peak": 14171.6}}, {"type": "Feature", "geometry": {"type": "LineString", "coordinates": [[123.8453911, 8.1417801], [123.8454843, 8.1417776]]}, "properties": {"city": "ozamiz", "name": "Cotta Road", "highway": "unclassified", "v_posted": 40, "posted_imputed": false, "v_safe": 30, "gap": 10, "R": 3.16, "exposure": 0.519, "vru_150m": 2, "sss": 19.0, "recommended": 30, "fatal_reduction_pct": 68.4, "why": "local road, frontage/pedestrian mixing", "pop_density": 6426.7, "pop_density_peak": 6426.7}}, {"type": "Feature", "geometry": {"type": "LineString", "coordinates": [[123.8327421, 8.1508229], [123.8327689, 8.1507585], [123.832785, 8.1506875], [123.8327864, 8.150495], [123.8327891, 8.150418], [123.8328031, 8.1503443], [123.832828, 8.1502753], [123.8329855, 8.1498843], [123.8329969, 8.1498472], [123.8330023, 8.149806], [123.8329889, 8.1497078]]}, "properties": {"city": "ozamiz", "name": "", "highway": "unclassified", "v_posted": 40, "posted_imputed": false, "v_safe": 30, "gap": 10, "R": 3.16, "exposure": 0.295, "vru_150m": 0, "sss": 16.2, "recommended": 30, "fatal_reduction_pct": 68.4, "why": "local road, frontage/pedestrian mixing", "pop_density": 9542.1, "pop_density_peak": 10043.6}}, {"type": "Feature", "geometry": {"type": "LineString", "coordinates": [[123.846165, 8.1819412], [123.8484682, 8.181493], [123.8495938, 8.1812883], [123.8500571, 8.1811949], [123.8508698, 8.1810582], [123.851108, 8.1810203], [123.8516886, 8.1809238], [123.8518388, 8.180893], [123.852091, 8.1808343], [123.8524274, 8.1807253], [123.8526437, 8.1806406], [123.8527842, 8.1805817], [123.8529859, 8.1804972], [123.8532072, 8.1804044], [123.8532534, 8.1803865], [123.8533419, 8.1803521], [123.8534864, 8.1803024], [123.8536298, 8.1802604], [123.8537639, 8.1802309], [123.8542078, 8.180133], [123.8542292, 8.1801294], [123.8549508, 8.1800069], [123.8553169, 8.179975], [123.855549, 8.1799857], [123.8557206, 8.1800095], [123.8558628, 8.1800414], [123.8560125, 8.1800824], [123.8565682, 8.1802684], [123.8567868, 8.1803273], [123.8570134, 8.1803759], [123.8575244, 8.1804449], [123.857578, 8.1804491], [123.8581802, 8.1804967], [123.8585088, 8.1804954], [123.8585639, 8.1804918], [123.8587136, 8.1804821], [123.858899, 8.1804702], [123.8590791, 8.1804404], [123.8593657, 8.1803932], [123.8598686, 8.180275], [123.8600957, 8.1802118], [123.8605804, 8.1800768], [123.8609791, 8.1799657], [123.8617267, 8.1797858]]}, "properties": {"city": "ozamiz", "name": "Ozamiz City Airport Road", "highway": "secondary", "v_posted": 60, "posted_imputed": false, "v_safe": 50, "gap": 10, "R": 2.07, "exposure": 0.152, "vru_150m": 0, "sss": 14.4, "recommended": 50, "fatal_reduction_pct": 51.8, "why": "undivided arterial, side-impact intersections", "pop_density": 4920.7, "pop_density_peak": 8463.6}}]}